[
  {
    "id": 321024,
    "province_id": 32,
    "regency_id": 3210,
    "district_id": 321024,
    "value": "Gandasari",
    "postal_code": "45451"
  },
  {
    "id": 321024,
    "province_id": 32,
    "regency_id": 3210,
    "district_id": 321024,
    "value": "Girimukti",
    "postal_code": "45451"
  },
  {
    "id": 321024,
    "province_id": 32,
    "regency_id": 3210,
    "district_id": 321024,
    "value": "Gunungsari",
    "postal_code": "45451"
  },
  {
    "id": 321024,
    "province_id": 32,
    "regency_id": 3210,
    "district_id": 321024,
    "value": "Jatimulya",
    "postal_code": "45451"
  },
  {
    "id": 321024,
    "province_id": 32,
    "regency_id": 3210,
    "district_id": 321024,
    "value": "Jatisawit",
    "postal_code": "45451"
  },
  {
    "id": 321024,
    "province_id": 32,
    "regency_id": 3210,
    "district_id": 321024,
    "value": "Kasokandel",
    "postal_code": "45451"
  },
  {
    "id": 321024,
    "province_id": 32,
    "regency_id": 3210,
    "district_id": 321024,
    "value": "Leuwikidang",
    "postal_code": "45451"
  },
  {
    "id": 321024,
    "province_id": 32,
    "regency_id": 3210,
    "district_id": 321024,
    "value": "Ranji Kulon (Ranjikulon)",
    "postal_code": "45451"
  },
  {
    "id": 321024,
    "province_id": 32,
    "regency_id": 3210,
    "district_id": 321024,
    "value": "Ranji Wetan (Ranjiwetan)",
    "postal_code": "45451"
  },
  {
    "id": 321024,
    "province_id": 32,
    "regency_id": 3210,
    "district_id": 321024,
    "value": "Wanajaya",
    "postal_code": "45451"
  }
]