[
  {
    "id": 810709,
    "province_id": 81,
    "regency_id": 8107,
    "district_id": 810709,
    "value": "Batugoyang",
    "postal_code": "97666"
  },
  {
    "id": 810709,
    "province_id": 81,
    "regency_id": 8107,
    "district_id": 810709,
    "value": "Beltubur",
    "postal_code": "97666"
  },
  {
    "id": 810709,
    "province_id": 81,
    "regency_id": 8107,
    "district_id": 810709,
    "value": "Dosimar",
    "postal_code": "97666"
  },
  {
    "id": 810709,
    "province_id": 81,
    "regency_id": 8107,
    "district_id": 810709,
    "value": "Gomar Meti (Gomarmeti)",
    "postal_code": "97666"
  },
  {
    "id": 810709,
    "province_id": 81,
    "regency_id": 8107,
    "district_id": 810709,
    "value": "Gomar Sungai (Gomarsungai)",
    "postal_code": "97666"
  },
  {
    "id": 810709,
    "province_id": 81,
    "regency_id": 8107,
    "district_id": 810709,
    "value": "Jorang",
    "postal_code": "97666"
  },
  {
    "id": 810709,
    "province_id": 81,
    "regency_id": 8107,
    "district_id": 810709,
    "value": "Karey",
    "postal_code": "97666"
  },
  {
    "id": 810709,
    "province_id": 81,
    "regency_id": 8107,
    "district_id": 810709,
    "value": "Meror",
    "postal_code": "97666"
  },
  {
    "id": 810709,
    "province_id": 81,
    "regency_id": 8107,
    "district_id": 810709,
    "value": "Salarem",
    "postal_code": "97666"
  },
  {
    "id": 810709,
    "province_id": 81,
    "regency_id": 8107,
    "district_id": 810709,
    "value": "Siya",
    "postal_code": "97666"
  }
]