[
  {
    "id": 6503202013,
    "province_id": 65,
    "regency_id": 6503,
    "district_id": 650320,
    "value": "Bokok",
    "postal_code": "77450"
  },
  {
    "id": 6503202006,
    "province_id": 65,
    "regency_id": 6503,
    "district_id": 650320,
    "value": "Bululaun Hilir (Bulu Laun Hilir)",
    "postal_code": "77450"
  },
  {
    "id": 6503202012,
    "province_id": 65,
    "regency_id": 6503,
    "district_id": 650320,
    "value": "Kuyo",
    "postal_code": "77450"
  },
  {
    "id": 6503202003,
    "province_id": 65,
    "regency_id": 6503,
    "district_id": 650320,
    "value": "Labang",
    "postal_code": "77450"
  },
  {
    "id": 6503202007,
    "province_id": 65,
    "regency_id": 6503,
    "district_id": 650320,
    "value": "Lagas",
    "postal_code": "77450"
  },
  {
    "id": 6503202009,
    "province_id": 65,
    "regency_id": 6503,
    "district_id": 650320,
    "value": "Langgason",
    "postal_code": "77450"
  },
  {
    "id": 6503202002,
    "province_id": 65,
    "regency_id": 6503,
    "district_id": 650320,
    "value": "Nantukidan",
    "postal_code": "77450"
  },
  {
    "id": 6503202005,
    "province_id": 65,
    "regency_id": 6503,
    "district_id": 650320,
    "value": "Ngawol",
    "postal_code": "77450"
  },
  {
    "id": 6503202008,
    "province_id": 65,
    "regency_id": 6503,
    "district_id": 650320,
    "value": "Panas",
    "postal_code": "77450"
  },
  {
    "id": 6503202004,
    "province_id": 65,
    "regency_id": 6503,
    "district_id": 650320,
    "value": "Sumantipal",
    "postal_code": "77450"
  },
  {
    "id": 6503202001,
    "province_id": 65,
    "regency_id": 6503,
    "district_id": 650320,
    "value": "Sumentobol",
    "postal_code": "77450"
  },
  {
    "id": 6503202011,
    "province_id": 65,
    "regency_id": 6503,
    "district_id": 650320,
    "value": "Tambalang Hulu (Tambalang Ulu)",
    "postal_code": "77450"
  },
  {
    "id": 6503202010,
    "province_id": 65,
    "regency_id": 6503,
    "district_id": 650320,
    "value": "Tantalujuk",
    "postal_code": "77450"
  }
]