[
  {
    "id": 320618,
    "province_id": 32,
    "regency_id": 3206,
    "district_id": 320618,
    "value": "Banjarwaringin",
    "postal_code": "46192"
  },
  {
    "id": 320618,
    "province_id": 32,
    "regency_id": 3206,
    "district_id": 320618,
    "value": "Karyamandala",
    "postal_code": "46192"
  },
  {
    "id": 320618,
    "province_id": 32,
    "regency_id": 3206,
    "district_id": 320618,
    "value": "Karyawangi",
    "postal_code": "46192"
  },
  {
    "id": 320618,
    "province_id": 32,
    "regency_id": 3206,
    "district_id": 320618,
    "value": "Kawitan",
    "postal_code": "46192"
  },
  {
    "id": 320618,
    "province_id": 32,
    "regency_id": 3206,
    "district_id": 320618,
    "value": "Mandalaguna",
    "postal_code": "46192"
  },
  {
    "id": 320618,
    "province_id": 32,
    "regency_id": 3206,
    "district_id": 320618,
    "value": "Mandalahayu",
    "postal_code": "46192"
  },
  {
    "id": 320618,
    "province_id": 32,
    "regency_id": 3206,
    "district_id": 320618,
    "value": "Mandalawangi",
    "postal_code": "46192"
  },
  {
    "id": 320618,
    "province_id": 32,
    "regency_id": 3206,
    "district_id": 320618,
    "value": "Mulyasari",
    "postal_code": "46192"
  },
  {
    "id": 320618,
    "province_id": 32,
    "regency_id": 3206,
    "district_id": 320618,
    "value": "Tanjungsari",
    "postal_code": "46192"
  }
]