[
  {
    "id": 740232,
    "province_id": 74,
    "regency_id": 7402,
    "district_id": 740232,
    "value": "Asinowowo",
    "postal_code": "93461"
  },
  {
    "id": 740232,
    "province_id": 74,
    "regency_id": 7402,
    "district_id": 740232,
    "value": "Bungguosu",
    "postal_code": "93461"
  },
  {
    "id": 740232,
    "province_id": 74,
    "regency_id": 7402,
    "district_id": 740232,
    "value": "Hudoa",
    "postal_code": "93461"
  },
  {
    "id": 740232,
    "province_id": 74,
    "regency_id": 7402,
    "district_id": 740232,
    "value": "Konawe",
    "postal_code": "93461"
  },
  {
    "id": 740232,
    "province_id": 74,
    "regency_id": 7402,
    "district_id": 740232,
    "value": "Mokowu (Mekowu)",
    "postal_code": "93461"
  },
  {
    "id": 740232,
    "province_id": 74,
    "regency_id": 7402,
    "district_id": 740232,
    "value": "Puuwonua",
    "postal_code": "93461"
  },
  {
    "id": 740232,
    "province_id": 74,
    "regency_id": 7402,
    "district_id": 740232,
    "value": "Sanggona",
    "postal_code": "93461"
  },
  {
    "id": 740232,
    "province_id": 74,
    "regency_id": 7402,
    "district_id": 740232,
    "value": "Tawanga",
    "postal_code": "93461"
  },
  {
    "id": 740232,
    "province_id": 74,
    "regency_id": 7402,
    "district_id": 740232,
    "value": "Tudaone",
    "postal_code": "93461"
  },
  {
    "id": 740232,
    "province_id": 74,
    "regency_id": 7402,
    "district_id": 740232,
    "value": "Uelawu",
    "postal_code": "93461"
  },
  {
    "id": 740232,
    "province_id": 74,
    "regency_id": 7402,
    "district_id": 740232,
    "value": "Uete",
    "postal_code": "93461"
  },
  {
    "id": 740232,
    "province_id": 74,
    "regency_id": 7402,
    "district_id": 740232,
    "value": "Wonua Mbae",
    "postal_code": "93461"
  }
]