[
  {
    "id": 110316,
    "province_id": 11,
    "regency_id": 1103,
    "district_id": 110316,
    "value": "Alue Batee",
    "postal_code": "24469"
  },
  {
    "id": 110316,
    "province_id": 11,
    "regency_id": 1103,
    "district_id": 110316,
    "value": "Alue Ie Itam",
    "postal_code": "24469"
  },
  {
    "id": 110316,
    "province_id": 11,
    "regency_id": 1103,
    "district_id": 110316,
    "value": "Asan Rampak",
    "postal_code": "24469"
  },
  {
    "id": 110316,
    "province_id": 11,
    "regency_id": 1103,
    "district_id": 110316,
    "value": "Blang Buket",
    "postal_code": "24469"
  },
  {
    "id": 110316,
    "province_id": 11,
    "regency_id": 1103,
    "district_id": 110316,
    "value": "Blang Kuta",
    "postal_code": "24469"
  },
  {
    "id": 110316,
    "province_id": 11,
    "regency_id": 1103,
    "district_id": 110316,
    "value": "Buket Kuta",
    "postal_code": "24469"
  },
  {
    "id": 110316,
    "province_id": 11,
    "regency_id": 1103,
    "district_id": 110316,
    "value": "Gampong/Kampung Keude",
    "postal_code": "24469"
  },
  {
    "id": 110316,
    "province_id": 11,
    "regency_id": 1103,
    "district_id": 110316,
    "value": "Gampong/Kampung Kuala",
    "postal_code": "24469"
  },
  {
    "id": 110316,
    "province_id": 11,
    "regency_id": 1103,
    "district_id": 110316,
    "value": "Kuta Baro",
    "postal_code": "24469"
  },
  {
    "id": 110316,
    "province_id": 11,
    "regency_id": 1103,
    "district_id": 110316,
    "value": "Matang Rayeuk",
    "postal_code": "24469"
  },
  {
    "id": 110316,
    "province_id": 11,
    "regency_id": 1103,
    "district_id": 110316,
    "value": "Meunasah Krueng",
    "postal_code": "24469"
  },
  {
    "id": 110316,
    "province_id": 11,
    "regency_id": 1103,
    "district_id": 110316,
    "value": "Paya Bili Dua",
    "postal_code": "24469"
  },
  {
    "id": 110316,
    "province_id": 11,
    "regency_id": 1103,
    "district_id": 110316,
    "value": "Paya Bili Sa (Paya Bili I)",
    "postal_code": "24469"
  },
  {
    "id": 110316,
    "province_id": 11,
    "regency_id": 1103,
    "district_id": 110316,
    "value": "Paya Dua",
    "postal_code": "24469"
  },
  {
    "id": 110316,
    "province_id": 11,
    "regency_id": 1103,
    "district_id": 110316,
    "value": "Sama Dua",
    "postal_code": "24469"
  },
  {
    "id": 110316,
    "province_id": 11,
    "regency_id": 1103,
    "district_id": 110316,
    "value": "Seuneubok Peunteut",
    "postal_code": "24469"
  },
  {
    "id": 110316,
    "province_id": 11,
    "regency_id": 1103,
    "district_id": 110316,
    "value": "Seuneubok Teungoh",
    "postal_code": "24469"
  }
]