[
  {
    "id": 330915,
    "province_id": 33,
    "regency_id": 3309,
    "district_id": 330915,
    "value": "Bade",
    "postal_code": "57385"
  },
  {
    "id": 330915,
    "province_id": 33,
    "regency_id": 3309,
    "district_id": 330915,
    "value": "Banyuurip (Banyu Urip)",
    "postal_code": "57385"
  },
  {
    "id": 330915,
    "province_id": 33,
    "regency_id": 3309,
    "district_id": 330915,
    "value": "Blumbang",
    "postal_code": "57385"
  },
  {
    "id": 330915,
    "province_id": 33,
    "regency_id": 3309,
    "district_id": 330915,
    "value": "Gondanglegi",
    "postal_code": "57385"
  },
  {
    "id": 330915,
    "province_id": 33,
    "regency_id": 3309,
    "district_id": 330915,
    "value": "Jaten",
    "postal_code": "57385"
  },
  {
    "id": 330915,
    "province_id": 33,
    "regency_id": 3309,
    "district_id": 330915,
    "value": "Kalangan",
    "postal_code": "57385"
  },
  {
    "id": 330915,
    "province_id": 33,
    "regency_id": 3309,
    "district_id": 330915,
    "value": "Karanggatak",
    "postal_code": "57385"
  },
  {
    "id": 330915,
    "province_id": 33,
    "regency_id": 3309,
    "district_id": 330915,
    "value": "Karangmojo",
    "postal_code": "57385"
  },
  {
    "id": 330915,
    "province_id": 33,
    "regency_id": 3309,
    "district_id": 330915,
    "value": "Klego",
    "postal_code": "57385"
  },
  {
    "id": 330915,
    "province_id": 33,
    "regency_id": 3309,
    "district_id": 330915,
    "value": "Sangge",
    "postal_code": "57385"
  },
  {
    "id": 330915,
    "province_id": 33,
    "regency_id": 3309,
    "district_id": 330915,
    "value": "Sendangrejo",
    "postal_code": "57385"
  },
  {
    "id": 330915,
    "province_id": 33,
    "regency_id": 3309,
    "district_id": 330915,
    "value": "Sumberagung (Sumber Agung)",
    "postal_code": "57385"
  },
  {
    "id": 330915,
    "province_id": 33,
    "regency_id": 3309,
    "district_id": 330915,
    "value": "Tanjung",
    "postal_code": "57385"
  }
]