[
  {
    "id": 710224,
    "province_id": 71,
    "regency_id": 7102,
    "district_id": 710224,
    "value": "Lemoh",
    "postal_code": "95652"
  },
  {
    "id": 710224,
    "province_id": 71,
    "regency_id": 7102,
    "district_id": 710224,
    "value": "Lemoh Barat",
    "postal_code": "95652"
  },
  {
    "id": 710224,
    "province_id": 71,
    "regency_id": 7102,
    "district_id": 710224,
    "value": "Lemoh Timur",
    "postal_code": "95652"
  },
  {
    "id": 710224,
    "province_id": 71,
    "regency_id": 7102,
    "district_id": 710224,
    "value": "Lemoh Uner",
    "postal_code": "95652"
  },
  {
    "id": 710224,
    "province_id": 71,
    "regency_id": 7102,
    "district_id": 710224,
    "value": "Lolah",
    "postal_code": "95652"
  },
  {
    "id": 710224,
    "province_id": 71,
    "regency_id": 7102,
    "district_id": 710224,
    "value": "Lolah Dua",
    "postal_code": "95652"
  },
  {
    "id": 710224,
    "province_id": 71,
    "regency_id": 7102,
    "district_id": 710224,
    "value": "Lolah Satu",
    "postal_code": "95652"
  },
  {
    "id": 710224,
    "province_id": 71,
    "regency_id": 7102,
    "district_id": 710224,
    "value": "Lolah Tiga",
    "postal_code": "95652"
  },
  {
    "id": 710224,
    "province_id": 71,
    "regency_id": 7102,
    "district_id": 710224,
    "value": "Ranotongkor",
    "postal_code": "95652"
  },
  {
    "id": 710224,
    "province_id": 71,
    "regency_id": 7102,
    "district_id": 710224,
    "value": "Ranotongkor Timur",
    "postal_code": "95652"
  }
]