[
  {
    "id": 140704,
    "province_id": 14,
    "regency_id": 1407,
    "district_id": 140704,
    "value": "Harapan Jaya",
    "postal_code": "28953"
  },
  {
    "id": 140704,
    "province_id": 14,
    "regency_id": 1407,
    "district_id": 140704,
    "value": "Jumrah",
    "postal_code": "28953"
  },
  {
    "id": 140704,
    "province_id": 14,
    "regency_id": 1407,
    "district_id": 140704,
    "value": "Karya Mukti",
    "postal_code": "28953"
  },
  {
    "id": 140704,
    "province_id": 14,
    "regency_id": 1407,
    "district_id": 140704,
    "value": "Lenggadai/Langgadai Hilir",
    "postal_code": "28953"
  },
  {
    "id": 140704,
    "province_id": 14,
    "regency_id": 1407,
    "district_id": 140704,
    "value": "Lenggadai/Langgadai Hulu",
    "postal_code": "28953"
  },
  {
    "id": 140704,
    "province_id": 14,
    "regency_id": 1407,
    "district_id": 140704,
    "value": "Mukti Jaya",
    "postal_code": "28953"
  },
  {
    "id": 140704,
    "province_id": 14,
    "regency_id": 1407,
    "district_id": 140704,
    "value": "Pematang Botam",
    "postal_code": "28953"
  },
  {
    "id": 140704,
    "province_id": 14,
    "regency_id": 1407,
    "district_id": 140704,
    "value": "Pematang Sikek",
    "postal_code": "28953"
  },
  {
    "id": 140704,
    "province_id": 14,
    "regency_id": 1407,
    "district_id": 140704,
    "value": "Rimba Melintang",
    "postal_code": "28953"
  },
  {
    "id": 140704,
    "province_id": 14,
    "regency_id": 1407,
    "district_id": 140704,
    "value": "Seremban Jaya",
    "postal_code": "28953"
  },
  {
    "id": 140704,
    "province_id": 14,
    "regency_id": 1407,
    "district_id": 140704,
    "value": "Telukpulau Hilir (Teluk Pulau Hilir)",
    "postal_code": "28953"
  },
  {
    "id": 140704,
    "province_id": 14,
    "regency_id": 1407,
    "district_id": 140704,
    "value": "Telukpulau Hulu (Teluk Pulau Hulu)",
    "postal_code": "28953"
  }
]