[
  {
    "id": 8101062002,
    "province_id": 81,
    "regency_id": 8101,
    "district_id": 810106,
    "value": "Air Besar",
    "postal_code": "97531"
  },
  {
    "id": 8101062044,
    "province_id": 81,
    "regency_id": 8101,
    "district_id": 810106,
    "value": "Besi",
    "postal_code": "97531"
  },
  {
    "id": 8101062048,
    "province_id": 81,
    "regency_id": 8101,
    "district_id": 810106,
    "value": "Elemata",
    "postal_code": "97531"
  },
  {
    "id": 8101062049,
    "province_id": 81,
    "regency_id": 8101,
    "district_id": 810106,
    "value": "Hatuolo",
    "postal_code": "97531"
  },
  {
    "id": 8101062012,
    "province_id": 81,
    "regency_id": 8101,
    "district_id": 810106,
    "value": "Huaulu",
    "postal_code": "97531"
  },
  {
    "id": 8101062009,
    "province_id": 81,
    "regency_id": 8101,
    "district_id": 810106,
    "value": "Kaloa",
    "postal_code": "97531"
  },
  {
    "id": 8101062010,
    "province_id": 81,
    "regency_id": 8101,
    "district_id": 810106,
    "value": "Kanikeh",
    "postal_code": "97531"
  },
  {
    "id": 8101062045,
    "province_id": 81,
    "regency_id": 8101,
    "district_id": 810106,
    "value": "Malaku",
    "postal_code": "97531"
  },
  {
    "id": 8101062007,
    "province_id": 81,
    "regency_id": 8101,
    "district_id": 810106,
    "value": "Manusela",
    "postal_code": "97531"
  },
  {
    "id": 8101062046,
    "province_id": 81,
    "regency_id": 8101,
    "district_id": 810106,
    "value": "Maraina",
    "postal_code": "97531"
  },
  {
    "id": 8101062051,
    "province_id": 81,
    "regency_id": 8101,
    "district_id": 810106,
    "value": "Masihulan",
    "postal_code": "97531"
  },
  {
    "id": 8101062053,
    "province_id": 81,
    "regency_id": 8101,
    "district_id": 810106,
    "value": "Olong",
    "postal_code": "97531"
  },
  {
    "id": 8101062052,
    "province_id": 81,
    "regency_id": 8101,
    "district_id": 810106,
    "value": "Oping",
    "postal_code": "97531"
  },
  {
    "id": 8101062003,
    "province_id": 81,
    "regency_id": 8101,
    "district_id": 810106,
    "value": "Pasahari",
    "postal_code": "97531"
  },
  {
    "id": 8101062011,
    "province_id": 81,
    "regency_id": 8101,
    "district_id": 810106,
    "value": "Roho",
    "postal_code": "97531"
  },
  {
    "id": 8101062021,
    "province_id": 81,
    "regency_id": 8101,
    "district_id": 810106,
    "value": "Rumahsokat",
    "postal_code": "97531"
  },
  {
    "id": 8101062022,
    "province_id": 81,
    "regency_id": 8101,
    "district_id": 810106,
    "value": "Sawai",
    "postal_code": "97531"
  },
  {
    "id": 8101062050,
    "province_id": 81,
    "regency_id": 8101,
    "district_id": 810106,
    "value": "Siatele",
    "postal_code": "97531"
  },
  {
    "id": 8101062047,
    "province_id": 81,
    "regency_id": 8101,
    "district_id": 810106,
    "value": "Solea",
    "postal_code": "97531"
  },
  {
    "id": 8101062001,
    "province_id": 81,
    "regency_id": 8101,
    "district_id": 810106,
    "value": "Wahai",
    "postal_code": "97531"
  }
]