[
  {
    "id": 710705,
    "province_id": 71,
    "regency_id": 7107,
    "district_id": 710705,
    "value": "Betelan",
    "postal_code": "95996"
  },
  {
    "id": 710705,
    "province_id": 71,
    "regency_id": 7107,
    "district_id": 710705,
    "value": "Betelan Satu",
    "postal_code": "95996"
  },
  {
    "id": 710705,
    "province_id": 71,
    "regency_id": 7107,
    "district_id": 710705,
    "value": "Kali",
    "postal_code": "95996"
  },
  {
    "id": 710705,
    "province_id": 71,
    "regency_id": 7107,
    "district_id": 710705,
    "value": "Kali Oki",
    "postal_code": "95996"
  },
  {
    "id": 710705,
    "province_id": 71,
    "regency_id": 7107,
    "district_id": 710705,
    "value": "Pisa",
    "postal_code": "95996"
  },
  {
    "id": 710705,
    "province_id": 71,
    "regency_id": 7107,
    "district_id": 710705,
    "value": "Tombatu",
    "postal_code": "95996"
  },
  {
    "id": 710705,
    "province_id": 71,
    "regency_id": 7107,
    "district_id": 710705,
    "value": "Tombatu Satu",
    "postal_code": "95996"
  },
  {
    "id": 710705,
    "province_id": 71,
    "regency_id": 7107,
    "district_id": 710705,
    "value": "Tombatu Tiga Selatan",
    "postal_code": "95996"
  },
  {
    "id": 710705,
    "province_id": 71,
    "regency_id": 7107,
    "district_id": 710705,
    "value": "Tombatu Tiga Timur",
    "postal_code": "95996"
  },
  {
    "id": 710705,
    "province_id": 71,
    "regency_id": 7107,
    "district_id": 710705,
    "value": "Tonsawang",
    "postal_code": "95996"
  },
  {
    "id": 710705,
    "province_id": 71,
    "regency_id": 7107,
    "district_id": 710705,
    "value": "Tonsawang Satu",
    "postal_code": "95996"
  }
]