[
  {
    "id": 3518122010,
    "province_id": 35,
    "regency_id": 3518,
    "district_id": 351812,
    "value": "Bagor Wetan",
    "postal_code": "64481"
  },
  {
    "id": 3518122003,
    "province_id": 35,
    "regency_id": 3518,
    "district_id": 351812,
    "value": "Blitaran",
    "postal_code": "64481"
  },
  {
    "id": 3518122006,
    "province_id": 35,
    "regency_id": 3518,
    "district_id": 351812,
    "value": "Bungur",
    "postal_code": "64481"
  },
  {
    "id": 3518121002,
    "province_id": 35,
    "regency_id": 3518,
    "district_id": 351812,
    "value": "Kapas",
    "postal_code": "64481"
  },
  {
    "id": 3518122004,
    "province_id": 35,
    "regency_id": 3518,
    "district_id": 351812,
    "value": "Kedungsoko (Kedung Soko)",
    "postal_code": "64481"
  },
  {
    "id": 3518122005,
    "province_id": 35,
    "regency_id": 3518,
    "district_id": 351812,
    "value": "Ngludo (Nglundo)",
    "postal_code": "64481"
  },
  {
    "id": 3518122009,
    "province_id": 35,
    "regency_id": 3518,
    "district_id": 351812,
    "value": "Ngrami",
    "postal_code": "64481"
  },
  {
    "id": 3518122012,
    "province_id": 35,
    "regency_id": 3518,
    "district_id": 351812,
    "value": "Ngrengket",
    "postal_code": "64481"
  },
  {
    "id": 3518122008,
    "province_id": 35,
    "regency_id": 3518,
    "district_id": 351812,
    "value": "Pehserut",
    "postal_code": "64481"
  },
  {
    "id": 3518122011,
    "province_id": 35,
    "regency_id": 3518,
    "district_id": 351812,
    "value": "Putren",
    "postal_code": "64481"
  },
  {
    "id": 3518121007,
    "province_id": 35,
    "regency_id": 3518,
    "district_id": 351812,
    "value": "Sokomoro (Sukomoro)",
    "postal_code": "64481"
  },
  {
    "id": 3518122001,
    "province_id": 35,
    "regency_id": 3518,
    "district_id": 351812,
    "value": "Sumengko",
    "postal_code": "64481"
  }
]