[
  {
    "id": 9210052003,
    "province_id": 92,
    "regency_id": 9210,
    "district_id": 921005,
    "value": "Fatase",
    "postal_code": "98262"
  },
  {
    "id": 9210052012,
    "province_id": 92,
    "regency_id": 9210,
    "district_id": 921005,
    "value": "Fatem",
    "postal_code": "98262"
  },
  {
    "id": 9210052011,
    "province_id": 92,
    "regency_id": 9210,
    "district_id": 921005,
    "value": "Hasweh",
    "postal_code": "98262"
  },
  {
    "id": 9210052008,
    "province_id": 92,
    "regency_id": 9210,
    "district_id": 921005,
    "value": "Hosyo Ata",
    "postal_code": "98262"
  },
  {
    "id": 9210052013,
    "province_id": 92,
    "regency_id": 9210,
    "district_id": 921005,
    "value": "Hosyo Banah (Hosiobanah)",
    "postal_code": "98262"
  },
  {
    "id": 9210052001,
    "province_id": 92,
    "regency_id": 9210,
    "district_id": 921005,
    "value": "Kambufatem",
    "postal_code": "98262"
  },
  {
    "id": 9210052002,
    "province_id": 92,
    "regency_id": 9210,
    "district_id": 921005,
    "value": "Kambufatem Utara",
    "postal_code": "98262"
  },
  {
    "id": 9210052010,
    "province_id": 92,
    "regency_id": 9210,
    "district_id": 921005,
    "value": "Siyo",
    "postal_code": "98262"
  },
  {
    "id": 9210052009,
    "province_id": 92,
    "regency_id": 9210,
    "district_id": 921005,
    "value": "Waybomatah",
    "postal_code": "98262"
  }
]