[
  {
    "id": 131202,
    "province_id": 13,
    "regency_id": 1312,
    "district_id": 131202,
    "value": "Brastagi Ujung Gading",
    "postal_code": "26570"
  },
  {
    "id": 131202,
    "province_id": 13,
    "regency_id": 1312,
    "district_id": 131202,
    "value": "Koto Gunung Ujung Gading",
    "postal_code": "26570"
  },
  {
    "id": 131202,
    "province_id": 13,
    "regency_id": 1312,
    "district_id": 131202,
    "value": "Koto Sawah Ujung Gading",
    "postal_code": "26570"
  },
  {
    "id": 131202,
    "province_id": 13,
    "regency_id": 1312,
    "district_id": 131202,
    "value": "Kuamang Alai Ujung Gading",
    "postal_code": "26570"
  },
  {
    "id": 131202,
    "province_id": 13,
    "regency_id": 1312,
    "district_id": 131202,
    "value": "Salido Saroha Ujung Gading",
    "postal_code": "26570"
  },
  {
    "id": 131202,
    "province_id": 13,
    "regency_id": 1312,
    "district_id": 131202,
    "value": "Situak Ujung Gading",
    "postal_code": "26570"
  },
  {
    "id": 131202,
    "province_id": 13,
    "regency_id": 1312,
    "district_id": 131202,
    "value": "Taluak Ambun Ujung Gading",
    "postal_code": "26570"
  },
  {
    "id": 131202,
    "province_id": 13,
    "regency_id": 1312,
    "district_id": 131202,
    "value": "Tampus Damai Ujung Gading",
    "postal_code": "26570"
  },
  {
    "id": 131202,
    "province_id": 13,
    "regency_id": 1312,
    "district_id": 131202,
    "value": "Ujung Gading",
    "postal_code": "26570"
  }
]