[
  {
    "id": 920910,
    "province_id": 92,
    "regency_id": 9209,
    "district_id": 920910,
    "value": "Binasi",
    "postal_code": "98381"
  },
  {
    "id": 920910,
    "province_id": 92,
    "regency_id": 9209,
    "district_id": 920910,
    "value": "Binmaks",
    "postal_code": "98381"
  },
  {
    "id": 920910,
    "province_id": 92,
    "regency_id": 9209,
    "district_id": 920910,
    "value": "Kabibwan",
    "postal_code": "98381"
  },
  {
    "id": 920910,
    "province_id": 92,
    "regency_id": 9209,
    "district_id": 920910,
    "value": "Manggapnut",
    "postal_code": "98381"
  },
  {
    "id": 920910,
    "province_id": 92,
    "regency_id": 9209,
    "district_id": 920910,
    "value": "Saukorem",
    "postal_code": "98381"
  },
  {
    "id": 920910,
    "province_id": 92,
    "regency_id": 9209,
    "district_id": 920910,
    "value": "Waramui",
    "postal_code": "98381"
  },
  {
    "id": 920910,
    "province_id": 92,
    "regency_id": 9209,
    "district_id": 920910,
    "value": "Warpaperi",
    "postal_code": "98384"
  },
  {
    "id": 920910,
    "province_id": 92,
    "regency_id": 9209,
    "district_id": 920910,
    "value": "Wasarak",
    "postal_code": "98381"
  },
  {
    "id": 920910,
    "province_id": 92,
    "regency_id": 9209,
    "district_id": 920910,
    "value": "Wefiani (Wefani)",
    "postal_code": "98381"
  }
]