[
  {
    "id": 330901,
    "province_id": 33,
    "regency_id": 3309,
    "district_id": 330901,
    "value": "Jeruk",
    "postal_code": "57363"
  },
  {
    "id": 330901,
    "province_id": 33,
    "regency_id": 3309,
    "district_id": 330901,
    "value": "Jrakah",
    "postal_code": "57363"
  },
  {
    "id": 330901,
    "province_id": 33,
    "regency_id": 3309,
    "district_id": 330901,
    "value": "Klakah",
    "postal_code": "57363"
  },
  {
    "id": 330901,
    "province_id": 33,
    "regency_id": 3309,
    "district_id": 330901,
    "value": "Lencoh",
    "postal_code": "57363"
  },
  {
    "id": 330901,
    "province_id": 33,
    "regency_id": 3309,
    "district_id": 330901,
    "value": "Samiran",
    "postal_code": "57363"
  },
  {
    "id": 330901,
    "province_id": 33,
    "regency_id": 3309,
    "district_id": 330901,
    "value": "Selo",
    "postal_code": "57363"
  },
  {
    "id": 330901,
    "province_id": 33,
    "regency_id": 3309,
    "district_id": 330901,
    "value": "Senden",
    "postal_code": "57363"
  },
  {
    "id": 330901,
    "province_id": 33,
    "regency_id": 3309,
    "district_id": 330901,
    "value": "Suroteleng",
    "postal_code": "57363"
  },
  {
    "id": 330901,
    "province_id": 33,
    "regency_id": 3309,
    "district_id": 330901,
    "value": "Tarubatang",
    "postal_code": "57363"
  },
  {
    "id": 330901,
    "province_id": 33,
    "regency_id": 3309,
    "district_id": 330901,
    "value": "Tlogolele",
    "postal_code": "57363"
  }
]