[
  {
    "id": 7605032022,
    "province_id": 76,
    "regency_id": 7605,
    "district_id": 760503,
    "value": "Banua Sendana",
    "postal_code": "91452"
  },
  {
    "id": 7605032016,
    "province_id": 76,
    "regency_id": 7605,
    "district_id": 760503,
    "value": "Binanga",
    "postal_code": "91452"
  },
  {
    "id": 7605032026,
    "province_id": 76,
    "regency_id": 7605,
    "district_id": 760503,
    "value": "Bukit Samang",
    "postal_code": "91452"
  },
  {
    "id": 7605032015,
    "province_id": 76,
    "regency_id": 7605,
    "district_id": 760503,
    "value": "Lalatedzong",
    "postal_code": "91452"
  },
  {
    "id": 7605032019,
    "province_id": 76,
    "regency_id": 7605,
    "district_id": 760503,
    "value": "Leppangang",
    "postal_code": "91452"
  },
  {
    "id": 7605032024,
    "province_id": 76,
    "regency_id": 7605,
    "district_id": 760503,
    "value": "Limboro Rambu-Rambu",
    "postal_code": "91452"
  },
  {
    "id": 7605032025,
    "province_id": 76,
    "regency_id": 7605,
    "district_id": 760503,
    "value": "Limbua",
    "postal_code": "91452"
  },
  {
    "id": 7605031001,
    "province_id": 76,
    "regency_id": 7605,
    "district_id": 760503,
    "value": "Mosso",
    "postal_code": "91452"
  },
  {
    "id": 7605031002,
    "province_id": 76,
    "regency_id": 7605,
    "district_id": 760503,
    "value": "Mosso Dhua",
    "postal_code": "91452"
  },
  {
    "id": 7605032018,
    "province_id": 76,
    "regency_id": 7605,
    "district_id": 760503,
    "value": "Paminggalan",
    "postal_code": "91452"
  },
  {
    "id": 7605032020,
    "province_id": 76,
    "regency_id": 7605,
    "district_id": 760503,
    "value": "Pundau",
    "postal_code": "91452"
  },
  {
    "id": 7605032017,
    "province_id": 76,
    "regency_id": 7605,
    "district_id": 760503,
    "value": "Puttada",
    "postal_code": "91452"
  },
  {
    "id": 7605032021,
    "province_id": 76,
    "regency_id": 7605,
    "district_id": 760503,
    "value": "Sendana",
    "postal_code": "91452"
  },
  {
    "id": 7605032007,
    "province_id": 76,
    "regency_id": 7605,
    "district_id": 760503,
    "value": "Tallubanua",
    "postal_code": "91452"
  },
  {
    "id": 7605032023,
    "province_id": 76,
    "regency_id": 7605,
    "district_id": 760503,
    "value": "Tallubanua Utara",
    "postal_code": "91452"
  },
  {
    "id": 7605032004,
    "province_id": 76,
    "regency_id": 7605,
    "district_id": 760503,
    "value": "Totolisi Sendana",
    "postal_code": "91452"
  }
]