[
  {
    "id": 3304092002,
    "province_id": 33,
    "regency_id": 3304,
    "district_id": 330409,
    "value": "Banjarkulon",
    "postal_code": "53452"
  },
  {
    "id": 3304092003,
    "province_id": 33,
    "regency_id": 3304,
    "district_id": 330409,
    "value": "Banjarmangu",
    "postal_code": "53452"
  },
  {
    "id": 3304092015,
    "province_id": 33,
    "regency_id": 3304,
    "district_id": 330409,
    "value": "Beji",
    "postal_code": "53452"
  },
  {
    "id": 3304092009,
    "province_id": 33,
    "regency_id": 3304,
    "district_id": 330409,
    "value": "Gripit",
    "postal_code": "53452"
  },
  {
    "id": 3304092001,
    "province_id": 33,
    "regency_id": 3304,
    "district_id": 330409,
    "value": "Jenggawur",
    "postal_code": "53452"
  },
  {
    "id": 3304092006,
    "province_id": 33,
    "regency_id": 3304,
    "district_id": 330409,
    "value": "Kalilunjar",
    "postal_code": "53452"
  },
  {
    "id": 3304092008,
    "province_id": 33,
    "regency_id": 3304,
    "district_id": 330409,
    "value": "Kendaga",
    "postal_code": "53452"
  },
  {
    "id": 3304092005,
    "province_id": 33,
    "regency_id": 3304,
    "district_id": 330409,
    "value": "Kesenet",
    "postal_code": "53452"
  },
  {
    "id": 3304092017,
    "province_id": 33,
    "regency_id": 3304,
    "district_id": 330409,
    "value": "Majatengah",
    "postal_code": "53452"
  },
  {
    "id": 3304092012,
    "province_id": 33,
    "regency_id": 3304,
    "district_id": 330409,
    "value": "Paseh",
    "postal_code": "53452"
  },
  {
    "id": 3304092010,
    "province_id": 33,
    "regency_id": 3304,
    "district_id": 330409,
    "value": "Pekandangan",
    "postal_code": "53452"
  },
  {
    "id": 3304092016,
    "province_id": 33,
    "regency_id": 3304,
    "district_id": 330409,
    "value": "Prendengan",
    "postal_code": "53452"
  },
  {
    "id": 3304092004,
    "province_id": 33,
    "regency_id": 3304,
    "district_id": 330409,
    "value": "Rejasari",
    "postal_code": "53452"
  },
  {
    "id": 3304092011,
    "province_id": 33,
    "regency_id": 3304,
    "district_id": 330409,
    "value": "Sigeblog",
    "postal_code": "53452"
  },
  {
    "id": 3304092014,
    "province_id": 33,
    "regency_id": 3304,
    "district_id": 330409,
    "value": "Sijenggung",
    "postal_code": "53452"
  },
  {
    "id": 3304092007,
    "province_id": 33,
    "regency_id": 3304,
    "district_id": 330409,
    "value": "Sijeruk",
    "postal_code": "53452"
  },
  {
    "id": 3304092013,
    "province_id": 33,
    "regency_id": 3304,
    "district_id": 330409,
    "value": "Sipedang",
    "postal_code": "53452"
  }
]