[
  {
    "id": 760306,
    "province_id": 76,
    "regency_id": 7603,
    "district_id": 760306,
    "value": "Banea",
    "postal_code": "91360"
  },
  {
    "id": 760306,
    "province_id": 76,
    "regency_id": 7603,
    "district_id": 760306,
    "value": "Batang Uru",
    "postal_code": "91360"
  },
  {
    "id": 760306,
    "province_id": 76,
    "regency_id": 7603,
    "district_id": 760306,
    "value": "Batangnguru Timur",
    "postal_code": "91360"
  },
  {
    "id": 760306,
    "province_id": 76,
    "regency_id": 7603,
    "district_id": 760306,
    "value": "Rante Kamase",
    "postal_code": "91360"
  },
  {
    "id": 760306,
    "province_id": 76,
    "regency_id": 7603,
    "district_id": 760306,
    "value": "Salubalo",
    "postal_code": "91360"
  },
  {
    "id": 760306,
    "province_id": 76,
    "regency_id": 7603,
    "district_id": 760306,
    "value": "Sasakan",
    "postal_code": "91360"
  },
  {
    "id": 760306,
    "province_id": 76,
    "regency_id": 7603,
    "district_id": 760306,
    "value": "Sibanawa",
    "postal_code": "91360"
  },
  {
    "id": 760306,
    "province_id": 76,
    "regency_id": 7603,
    "district_id": 760306,
    "value": "Sumarorong",
    "postal_code": "91360"
  },
  {
    "id": 760306,
    "province_id": 76,
    "regency_id": 7603,
    "district_id": 760306,
    "value": "Tabone",
    "postal_code": "91360"
  },
  {
    "id": 760306,
    "province_id": 76,
    "regency_id": 7603,
    "district_id": 760306,
    "value": "Tadisi",
    "postal_code": "91360"
  }
]