[
  {
    "id": 920149,
    "province_id": 92,
    "regency_id": 9201,
    "district_id": 920149,
    "value": "Klagulu",
    "postal_code": "98443"
  },
  {
    "id": 920149,
    "province_id": 92,
    "regency_id": 9201,
    "district_id": 920149,
    "value": "Klamugun",
    "postal_code": "98443"
  },
  {
    "id": 920149,
    "province_id": 92,
    "regency_id": 9201,
    "district_id": 920149,
    "value": "Klasman",
    "postal_code": "98443"
  },
  {
    "id": 920149,
    "province_id": 92,
    "regency_id": 9201,
    "district_id": 920149,
    "value": "Magatarum",
    "postal_code": "98443"
  },
  {
    "id": 920149,
    "province_id": 92,
    "regency_id": 9201,
    "district_id": 920149,
    "value": "Malajapa",
    "postal_code": "98443"
  },
  {
    "id": 920149,
    "province_id": 92,
    "regency_id": 9201,
    "district_id": 920149,
    "value": "Malamoja",
    "postal_code": "98443"
  },
  {
    "id": 920149,
    "province_id": 92,
    "regency_id": 9201,
    "district_id": 920149,
    "value": "Malasigit",
    "postal_code": "98443"
  },
  {
    "id": 920149,
    "province_id": 92,
    "regency_id": 9201,
    "district_id": 920149,
    "value": "Marik May",
    "postal_code": "98443"
  },
  {
    "id": 920149,
    "province_id": 92,
    "regency_id": 9201,
    "district_id": 920149,
    "value": "Tanah Tinggi",
    "postal_code": "98443"
  }
]