[
  {
    "id": 920905,
    "province_id": 92,
    "regency_id": 9209,
    "district_id": 920905,
    "value": "Bondek",
    "postal_code": "98373"
  },
  {
    "id": 920905,
    "province_id": 92,
    "regency_id": 9209,
    "district_id": 920905,
    "value": "Bondonggwan",
    "postal_code": "98373"
  },
  {
    "id": 920905,
    "province_id": 92,
    "regency_id": 9209,
    "district_id": 920905,
    "value": "Emaos",
    "postal_code": "98373"
  },
  {
    "id": 920905,
    "province_id": 92,
    "regency_id": 9209,
    "district_id": 920905,
    "value": "Jokte",
    "postal_code": "98373"
  },
  {
    "id": 920905,
    "province_id": 92,
    "regency_id": 9209,
    "district_id": 920905,
    "value": "Nanggou",
    "postal_code": "98373"
  },
  {
    "id": 920905,
    "province_id": 92,
    "regency_id": 9209,
    "district_id": 920905,
    "value": "Sau Uram",
    "postal_code": "98373"
  },
  {
    "id": 920905,
    "province_id": 92,
    "regency_id": 9209,
    "district_id": 920905,
    "value": "Sausapor",
    "postal_code": "98373"
  },
  {
    "id": 920905,
    "province_id": 92,
    "regency_id": 9209,
    "district_id": 920905,
    "value": "Sungguwan",
    "postal_code": "98373"
  },
  {
    "id": 920905,
    "province_id": 92,
    "regency_id": 9209,
    "district_id": 920905,
    "value": "Syurauw",
    "postal_code": "98373"
  },
  {
    "id": 920905,
    "province_id": 92,
    "regency_id": 9209,
    "district_id": 920905,
    "value": "Uigwem",
    "postal_code": "98373"
  }
]