[
  {
    "id": 630302,
    "province_id": 63,
    "regency_id": 6303,
    "district_id": 630302,
    "value": "Belayung Baru",
    "postal_code": "70654"
  },
  {
    "id": 630302,
    "province_id": 63,
    "regency_id": 6303,
    "district_id": 630302,
    "value": "Benua Hanyar (Banua Hanyar)",
    "postal_code": "70654"
  },
  {
    "id": 630302,
    "province_id": 63,
    "regency_id": 6303,
    "district_id": 630302,
    "value": "Kertak Hanyar I",
    "postal_code": "70654"
  },
  {
    "id": 630302,
    "province_id": 63,
    "regency_id": 6303,
    "district_id": 630302,
    "value": "Kertak Hanyar II (Kertakhanyar II)",
    "postal_code": "70654"
  },
  {
    "id": 630302,
    "province_id": 63,
    "regency_id": 6303,
    "district_id": 630302,
    "value": "Manarap Baru",
    "postal_code": "70654"
  },
  {
    "id": 630302,
    "province_id": 63,
    "regency_id": 6303,
    "district_id": 630302,
    "value": "Manarap Lama",
    "postal_code": "70654"
  },
  {
    "id": 630302,
    "province_id": 63,
    "regency_id": 6303,
    "district_id": 630302,
    "value": "Manarap Tengah",
    "postal_code": "70654"
  },
  {
    "id": 630302,
    "province_id": 63,
    "regency_id": 6303,
    "district_id": 630302,
    "value": "Mandarsari (Mandar Sari)",
    "postal_code": "70654"
  },
  {
    "id": 630302,
    "province_id": 63,
    "regency_id": 6303,
    "district_id": 630302,
    "value": "Mekar Raya",
    "postal_code": "70654"
  },
  {
    "id": 630302,
    "province_id": 63,
    "regency_id": 6303,
    "district_id": 630302,
    "value": "Pasar Kamis (Pasar Kemis)",
    "postal_code": "70654"
  },
  {
    "id": 630302,
    "province_id": 63,
    "regency_id": 6303,
    "district_id": 630302,
    "value": "Pemangkih Laut (Pemangkih Baru)",
    "postal_code": "70654"
  },
  {
    "id": 630302,
    "province_id": 63,
    "regency_id": 6303,
    "district_id": 630302,
    "value": "Sei/Sungai Lakum",
    "postal_code": "70654"
  },
  {
    "id": 630302,
    "province_id": 63,
    "regency_id": 6303,
    "district_id": 630302,
    "value": "Simpang Empat",
    "postal_code": "70654"
  }
]