[
  {
    "id": 9504062004,
    "province_id": 95,
    "regency_id": 9504,
    "district_id": 950406,
    "value": "Arombok",
    "postal_code": "99036"
  },
  {
    "id": 9504062011,
    "province_id": 95,
    "regency_id": 9504,
    "district_id": 950406,
    "value": "Enanagi",
    "postal_code": "99036"
  },
  {
    "id": 9504062016,
    "province_id": 95,
    "regency_id": 9504,
    "district_id": 950406,
    "value": "Gilopaga",
    "postal_code": "99036"
  },
  {
    "id": 9504062019,
    "province_id": 95,
    "regency_id": 9504,
    "district_id": 950406,
    "value": "Keribaga",
    "postal_code": "99036"
  },
  {
    "id": 9504062022,
    "province_id": 95,
    "regency_id": 9504,
    "district_id": 950406,
    "value": "Numbuboton",
    "postal_code": "99036"
  },
  {
    "id": 9504062015,
    "province_id": 95,
    "regency_id": 9504,
    "district_id": 950406,
    "value": "Pindak",
    "postal_code": "99036"
  },
  {
    "id": 9504062003,
    "province_id": 95,
    "regency_id": 9504,
    "district_id": 950406,
    "value": "Pokegi",
    "postal_code": "99036"
  },
  {
    "id": 9504062021,
    "province_id": 95,
    "regency_id": 9504,
    "district_id": 950406,
    "value": "Wona",
    "postal_code": "99036"
  },
  {
    "id": 9504062001,
    "province_id": 95,
    "regency_id": 9504,
    "district_id": 950406,
    "value": "Wurineri",
    "postal_code": "99036"
  }
]