[
  {
    "id": 320706,
    "province_id": 32,
    "regency_id": 3207,
    "district_id": 320706,
    "value": "Cihaurbeuti",
    "postal_code": "46262"
  },
  {
    "id": 320706,
    "province_id": 32,
    "regency_id": 3207,
    "district_id": 320706,
    "value": "Cijulang",
    "postal_code": "46262"
  },
  {
    "id": 320706,
    "province_id": 32,
    "regency_id": 3207,
    "district_id": 320706,
    "value": "Padamulya",
    "postal_code": "46262"
  },
  {
    "id": 320706,
    "province_id": 32,
    "regency_id": 3207,
    "district_id": 320706,
    "value": "Pamokolan",
    "postal_code": "46262"
  },
  {
    "id": 320706,
    "province_id": 32,
    "regency_id": 3207,
    "district_id": 320706,
    "value": "Pasirtamiang",
    "postal_code": "46262"
  },
  {
    "id": 320706,
    "province_id": 32,
    "regency_id": 3207,
    "district_id": 320706,
    "value": "Sukahaji",
    "postal_code": "46262"
  },
  {
    "id": 320706,
    "province_id": 32,
    "regency_id": 3207,
    "district_id": 320706,
    "value": "Sukahurip",
    "postal_code": "46262"
  },
  {
    "id": 320706,
    "province_id": 32,
    "regency_id": 3207,
    "district_id": 320706,
    "value": "Sukamaju",
    "postal_code": "46262"
  },
  {
    "id": 320706,
    "province_id": 32,
    "regency_id": 3207,
    "district_id": 320706,
    "value": "Sukamulya",
    "postal_code": "46262"
  },
  {
    "id": 320706,
    "province_id": 32,
    "regency_id": 3207,
    "district_id": 320706,
    "value": "Sukasetia",
    "postal_code": "46262"
  },
  {
    "id": 320706,
    "province_id": 32,
    "regency_id": 3207,
    "district_id": 320706,
    "value": "Sumberjaya",
    "postal_code": "46262"
  }
]