[
  {
    "id": 5171031005,
    "province_id": 51,
    "regency_id": 5171,
    "district_id": 517103,
    "value": "Dauh Puri",
    "postal_code": "80113"
  },
  {
    "id": 5171032006,
    "province_id": 51,
    "regency_id": 5171,
    "district_id": 517103,
    "value": "Dauh Puri Kangin",
    "postal_code": "80112"
  },
  {
    "id": 5171032003,
    "province_id": 51,
    "regency_id": 5171,
    "district_id": 517103,
    "value": "Dauh Puri Kauh",
    "postal_code": "80113"
  },
  {
    "id": 5171032004,
    "province_id": 51,
    "regency_id": 5171,
    "district_id": 517103,
    "value": "Dauh Puri Klod/Kelod",
    "postal_code": "80114"
  },
  {
    "id": 5171032011,
    "province_id": 51,
    "regency_id": 5171,
    "district_id": 517103,
    "value": "Padang Sambian Kaja (Padangsambian Kaja)",
    "postal_code": "80117"
  },
  {
    "id": 5171031010,
    "province_id": 51,
    "regency_id": 5171,
    "district_id": 517103,
    "value": "Padangsambian",
    "postal_code": "80117"
  },
  {
    "id": 5171032001,
    "province_id": 51,
    "regency_id": 5171,
    "district_id": 517103,
    "value": "Padangsambian Klod/Kelod",
    "postal_code": "80117"
  },
  {
    "id": 5171031007,
    "province_id": 51,
    "regency_id": 5171,
    "district_id": 517103,
    "value": "Pemecutan",
    "postal_code": "80119"
  },
  {
    "id": 5171032002,
    "province_id": 51,
    "regency_id": 5171,
    "district_id": 517103,
    "value": "Pemecutan Klod/Kelod",
    "postal_code": "80119"
  },
  {
    "id": 5171032008,
    "province_id": 51,
    "regency_id": 5171,
    "district_id": 517103,
    "value": "Tegal Harum",
    "postal_code": "80119"
  },
  {
    "id": 5171032009,
    "province_id": 51,
    "regency_id": 5171,
    "district_id": 517103,
    "value": "Tegal Kertha",
    "postal_code": "80119"
  }
]