[
  {
    "id": 3308162002,
    "province_id": 33,
    "regency_id": 3308,
    "district_id": 330816,
    "value": "Banyusidi",
    "postal_code": "56193"
  },
  {
    "id": 3308162011,
    "province_id": 33,
    "regency_id": 3308,
    "district_id": 330816,
    "value": "Bawang",
    "postal_code": "56193"
  },
  {
    "id": 3308162009,
    "province_id": 33,
    "regency_id": 3308,
    "district_id": 330816,
    "value": "Daleman Kidul",
    "postal_code": "56193"
  },
  {
    "id": 3308162004,
    "province_id": 33,
    "regency_id": 3308,
    "district_id": 330816,
    "value": "Daseh",
    "postal_code": "56193"
  },
  {
    "id": 3308162018,
    "province_id": 33,
    "regency_id": 3308,
    "district_id": 330816,
    "value": "Gejagan",
    "postal_code": "56193"
  },
  {
    "id": 3308162015,
    "province_id": 33,
    "regency_id": 3308,
    "district_id": 330816,
    "value": "Gondangsari",
    "postal_code": "56193"
  },
  {
    "id": 3308162005,
    "province_id": 33,
    "regency_id": 3308,
    "district_id": 330816,
    "value": "Gumelem",
    "postal_code": "56193"
  },
  {
    "id": 3308162020,
    "province_id": 33,
    "regency_id": 3308,
    "district_id": 330816,
    "value": "Jambewangi",
    "postal_code": "56193"
  },
  {
    "id": 3308162013,
    "province_id": 33,
    "regency_id": 3308,
    "district_id": 330816,
    "value": "Kajangkoso",
    "postal_code": "56193"
  },
  {
    "id": 3308162006,
    "province_id": 33,
    "regency_id": 3308,
    "district_id": 330816,
    "value": "Kaponan",
    "postal_code": "56193"
  },
  {
    "id": 3308162016,
    "province_id": 33,
    "regency_id": 3308,
    "district_id": 330816,
    "value": "Kenalan",
    "postal_code": "56193"
  },
  {
    "id": 3308162008,
    "province_id": 33,
    "regency_id": 3308,
    "district_id": 330816,
    "value": "Ketundan",
    "postal_code": "56193"
  },
  {
    "id": 3308162007,
    "province_id": 33,
    "regency_id": 3308,
    "district_id": 330816,
    "value": "Kragilan",
    "postal_code": "56193"
  },
  {
    "id": 3308162003,
    "province_id": 33,
    "regency_id": 3308,
    "district_id": 330816,
    "value": "Losari",
    "postal_code": "56193"
  },
  {
    "id": 3308162019,
    "province_id": 33,
    "regency_id": 3308,
    "district_id": 330816,
    "value": "Muneng",
    "postal_code": "56193"
  },
  {
    "id": 3308162014,
    "province_id": 33,
    "regency_id": 3308,
    "district_id": 330816,
    "value": "Munengwarangan (Muneng Warangan)",
    "postal_code": "56193"
  },
  {
    "id": 3308162001,
    "province_id": 33,
    "regency_id": 3308,
    "district_id": 330816,
    "value": "Pakis",
    "postal_code": "56193"
  },
  {
    "id": 3308162010,
    "province_id": 33,
    "regency_id": 3308,
    "district_id": 330816,
    "value": "Petung",
    "postal_code": "56193"
  },
  {
    "id": 3308162017,
    "province_id": 33,
    "regency_id": 3308,
    "district_id": 330816,
    "value": "Pogalan",
    "postal_code": "56193"
  },
  {
    "id": 3308162012,
    "province_id": 33,
    "regency_id": 3308,
    "district_id": 330816,
    "value": "Rejosari",
    "postal_code": "56193"
  }
]