[
  {
    "id": 7411032011,
    "province_id": 74,
    "regency_id": 7411,
    "district_id": 741103,
    "value": "Anggaloosi (Anggoloosi)",
    "postal_code": "93577"
  },
  {
    "id": 7411031002,
    "province_id": 74,
    "regency_id": 7411,
    "district_id": 741103,
    "value": "Atula",
    "postal_code": "93577"
  },
  {
    "id": 7411031001,
    "province_id": 74,
    "regency_id": 7411,
    "district_id": 741103,
    "value": "Ladongi",
    "postal_code": "93577"
  },
  {
    "id": 7411032009,
    "province_id": 74,
    "regency_id": 7411,
    "district_id": 741103,
    "value": "Lalowosula (Lalowusula)",
    "postal_code": "93577"
  },
  {
    "id": 7411032013,
    "province_id": 74,
    "regency_id": 7411,
    "district_id": 741103,
    "value": "Pombeyoha",
    "postal_code": "93577"
  },
  {
    "id": 7411032005,
    "province_id": 74,
    "regency_id": 7411,
    "district_id": 741103,
    "value": "Putemata",
    "postal_code": "93577"
  },
  {
    "id": 7411031003,
    "province_id": 74,
    "regency_id": 7411,
    "district_id": 741103,
    "value": "Raa-Raa",
    "postal_code": "93577"
  },
  {
    "id": 7411032018,
    "province_id": 74,
    "regency_id": 7411,
    "district_id": 741103,
    "value": "Tongandiu",
    "postal_code": "93577"
  },
  {
    "id": 7411031004,
    "province_id": 74,
    "regency_id": 7411,
    "district_id": 741103,
    "value": "Welala",
    "postal_code": "93577"
  },
  {
    "id": 7411032010,
    "province_id": 74,
    "regency_id": 7411,
    "district_id": 741103,
    "value": "Wunggoloko",
    "postal_code": "93577"
  }
]