[
  {
    "id": 3324032002,
    "province_id": 33,
    "regency_id": 3324,
    "district_id": 332403,
    "value": "Bringinsari",
    "postal_code": "51363"
  },
  {
    "id": 3324032009,
    "province_id": 33,
    "regency_id": 3324,
    "district_id": 332403,
    "value": "Damarjati",
    "postal_code": "51363"
  },
  {
    "id": 3324032001,
    "province_id": 33,
    "regency_id": 3324,
    "district_id": 332403,
    "value": "Gentinggunung (Genting Gunung)",
    "postal_code": "51363"
  },
  {
    "id": 3324032007,
    "province_id": 33,
    "regency_id": 3324,
    "district_id": 332403,
    "value": "Harjodowo",
    "postal_code": "51363"
  },
  {
    "id": 3324032018,
    "province_id": 33,
    "regency_id": 3324,
    "district_id": 332403,
    "value": "Kalibogor",
    "postal_code": "51363"
  },
  {
    "id": 3324032011,
    "province_id": 33,
    "regency_id": 3324,
    "district_id": 332403,
    "value": "Kalipakis",
    "postal_code": "51363"
  },
  {
    "id": 3324032016,
    "province_id": 33,
    "regency_id": 3324,
    "district_id": 332403,
    "value": "Kebumen",
    "postal_code": "51363"
  },
  {
    "id": 3324032010,
    "province_id": 33,
    "regency_id": 3324,
    "district_id": 332403,
    "value": "Mulyosari",
    "postal_code": "51363"
  },
  {
    "id": 3324032014,
    "province_id": 33,
    "regency_id": 3324,
    "district_id": 332403,
    "value": "Ngadiwarno",
    "postal_code": "51363"
  },
  {
    "id": 3324032004,
    "province_id": 33,
    "regency_id": 3324,
    "district_id": 332403,
    "value": "Ngargosari",
    "postal_code": "51363"
  },
  {
    "id": 3324032008,
    "province_id": 33,
    "regency_id": 3324,
    "district_id": 332403,
    "value": "Peron",
    "postal_code": "51363"
  },
  {
    "id": 3324032005,
    "province_id": 33,
    "regency_id": 3324,
    "district_id": 332403,
    "value": "Pesaren",
    "postal_code": "51363"
  },
  {
    "id": 3324032003,
    "province_id": 33,
    "regency_id": 3324,
    "district_id": 332403,
    "value": "Purwosari (Purwo Sari)",
    "postal_code": "51363"
  },
  {
    "id": 3324032013,
    "province_id": 33,
    "regency_id": 3324,
    "district_id": 332403,
    "value": "Selokaton",
    "postal_code": "51363"
  },
  {
    "id": 3324032017,
    "province_id": 33,
    "regency_id": 3324,
    "district_id": 332403,
    "value": "Sukorejo",
    "postal_code": "51363"
  },
  {
    "id": 3324032006,
    "province_id": 33,
    "regency_id": 3324,
    "district_id": 332403,
    "value": "Tamanrejo (Taman Rejo)",
    "postal_code": "51363"
  },
  {
    "id": 3324032015,
    "province_id": 33,
    "regency_id": 3324,
    "district_id": 332403,
    "value": "Tampingwinarno (Tamping Winarno)",
    "postal_code": "51363"
  },
  {
    "id": 3324032012,
    "province_id": 33,
    "regency_id": 3324,
    "district_id": 332403,
    "value": "Trimulyo",
    "postal_code": "51363"
  }
]