[
  {
    "id": 3308192006,
    "province_id": 33,
    "regency_id": 3308,
    "district_id": 330819,
    "value": "Banyusari",
    "postal_code": "56192"
  },
  {
    "id": 3308192009,
    "province_id": 33,
    "regency_id": 3308,
    "district_id": 330819,
    "value": "Banyuurip",
    "postal_code": "56192"
  },
  {
    "id": 3308192013,
    "province_id": 33,
    "regency_id": 3308,
    "district_id": 330819,
    "value": "Dawung",
    "postal_code": "56192"
  },
  {
    "id": 3308192005,
    "province_id": 33,
    "regency_id": 3308,
    "district_id": 330819,
    "value": "Dlimas",
    "postal_code": "56192"
  },
  {
    "id": 3308192020,
    "province_id": 33,
    "regency_id": 3308,
    "district_id": 330819,
    "value": "Donorejo (Donorojo)",
    "postal_code": "56192"
  },
  {
    "id": 3308192018,
    "province_id": 33,
    "regency_id": 3308,
    "district_id": 330819,
    "value": "Girirejo",
    "postal_code": "56192"
  },
  {
    "id": 3308192010,
    "province_id": 33,
    "regency_id": 3308,
    "district_id": 330819,
    "value": "Glagahombo",
    "postal_code": "56192"
  },
  {
    "id": 3308192015,
    "province_id": 33,
    "regency_id": 3308,
    "district_id": 330819,
    "value": "Japan",
    "postal_code": "56192"
  },
  {
    "id": 3308192016,
    "province_id": 33,
    "regency_id": 3308,
    "district_id": 330819,
    "value": "Kebonagung",
    "postal_code": "56192"
  },
  {
    "id": 3308192014,
    "province_id": 33,
    "regency_id": 3308,
    "district_id": 330819,
    "value": "Klopo",
    "postal_code": "56192"
  },
  {
    "id": 3308192021,
    "province_id": 33,
    "regency_id": 3308,
    "district_id": 330819,
    "value": "Mangunrejo",
    "postal_code": "56192"
  },
  {
    "id": 3308192019,
    "province_id": 33,
    "regency_id": 3308,
    "district_id": 330819,
    "value": "Ngadirejo",
    "postal_code": "56192"
  },
  {
    "id": 3308192017,
    "province_id": 33,
    "regency_id": 3308,
    "district_id": 330819,
    "value": "Ngasem",
    "postal_code": "56192"
  },
  {
    "id": 3308192011,
    "province_id": 33,
    "regency_id": 3308,
    "district_id": 330819,
    "value": "Purwodadi",
    "postal_code": "56192"
  },
  {
    "id": 3308192004,
    "province_id": 33,
    "regency_id": 3308,
    "district_id": 330819,
    "value": "Purwosari",
    "postal_code": "56192"
  },
  {
    "id": 3308192003,
    "province_id": 33,
    "regency_id": 3308,
    "district_id": 330819,
    "value": "Sidorejo",
    "postal_code": "56192"
  },
  {
    "id": 3308192002,
    "province_id": 33,
    "regency_id": 3308,
    "district_id": 330819,
    "value": "Soroyudan",
    "postal_code": "56192"
  },
  {
    "id": 3308192007,
    "province_id": 33,
    "regency_id": 3308,
    "district_id": 330819,
    "value": "Sukorejo",
    "postal_code": "56192"
  },
  {
    "id": 3308192008,
    "province_id": 33,
    "regency_id": 3308,
    "district_id": 330819,
    "value": "Tampingan",
    "postal_code": "56192"
  },
  {
    "id": 3308192001,
    "province_id": 33,
    "regency_id": 3308,
    "district_id": 330819,
    "value": "Tegalrejo",
    "postal_code": "56192"
  },
  {
    "id": 3308192012,
    "province_id": 33,
    "regency_id": 3308,
    "district_id": 330819,
    "value": "Wonokerto",
    "postal_code": "56192"
  }
]