[
  {
    "id": 6304082004,
    "province_id": 63,
    "regency_id": 6304,
    "district_id": 630408,
    "value": "Bambangin",
    "postal_code": "70563"
  },
  {
    "id": 6304082003,
    "province_id": 63,
    "regency_id": 6304,
    "district_id": 630408,
    "value": "Belawang",
    "postal_code": "70563"
  },
  {
    "id": 6304082012,
    "province_id": 63,
    "regency_id": 6304,
    "district_id": 630408,
    "value": "Binaan Baru",
    "postal_code": "70563"
  },
  {
    "id": 6304082011,
    "province_id": 63,
    "regency_id": 6304,
    "district_id": 630408,
    "value": "Karang Buah",
    "postal_code": "70563"
  },
  {
    "id": 6304082009,
    "province_id": 63,
    "regency_id": 6304,
    "district_id": 630408,
    "value": "Karang Dukuh",
    "postal_code": "70563"
  },
  {
    "id": 6304082001,
    "province_id": 63,
    "regency_id": 6304,
    "district_id": 630408,
    "value": "Murung Keramat",
    "postal_code": "70563"
  },
  {
    "id": 6304082008,
    "province_id": 63,
    "regency_id": 6304,
    "district_id": 630408,
    "value": "Parimata",
    "postal_code": "70563"
  },
  {
    "id": 6304082010,
    "province_id": 63,
    "regency_id": 6304,
    "district_id": 630408,
    "value": "Patih Selera (Patih Salera)",
    "postal_code": "70563"
  },
  {
    "id": 6304082013,
    "province_id": 63,
    "regency_id": 6304,
    "district_id": 630408,
    "value": "Rangga Surya",
    "postal_code": "70563"
  },
  {
    "id": 6304082007,
    "province_id": 63,
    "regency_id": 6304,
    "district_id": 630408,
    "value": "Samuda",
    "postal_code": "70563"
  },
  {
    "id": 6304082002,
    "province_id": 63,
    "regency_id": 6304,
    "district_id": 630408,
    "value": "Sei/Sungai Seluang",
    "postal_code": "70563"
  },
  {
    "id": 6304082006,
    "province_id": 63,
    "regency_id": 6304,
    "district_id": 630408,
    "value": "Sei/Sungai Seluang Pasar",
    "postal_code": "70563"
  },
  {
    "id": 6304082005,
    "province_id": 63,
    "regency_id": 6304,
    "district_id": 630408,
    "value": "Sukaramai",
    "postal_code": "70563"
  }
]