[
  {
    "id": 6104212003,
    "province_id": 61,
    "regency_id": 6104,
    "district_id": 610421,
    "value": "Air Durian Jaya",
    "postal_code": "78863"
  },
  {
    "id": 6104212001,
    "province_id": 61,
    "regency_id": 6104,
    "district_id": 610421,
    "value": "Air Upas",
    "postal_code": "78863"
  },
  {
    "id": 6104212006,
    "province_id": 61,
    "regency_id": 6104,
    "district_id": 610421,
    "value": "Banda Sari",
    "postal_code": "78863"
  },
  {
    "id": 6104212008,
    "province_id": 61,
    "regency_id": 6104,
    "district_id": 610421,
    "value": "Gahang",
    "postal_code": "78863"
  },
  {
    "id": 6104212004,
    "province_id": 61,
    "regency_id": 6104,
    "district_id": 610421,
    "value": "Harapan Baru",
    "postal_code": "78863"
  },
  {
    "id": 6104212009,
    "province_id": 61,
    "regency_id": 6104,
    "district_id": 610421,
    "value": "Mekar Jaya",
    "postal_code": "78863"
  },
  {
    "id": 6104212007,
    "province_id": 61,
    "regency_id": 6104,
    "district_id": 610421,
    "value": "Membuluh Baru",
    "postal_code": "78863"
  },
  {
    "id": 6104212002,
    "province_id": 61,
    "regency_id": 6104,
    "district_id": 610421,
    "value": "Sari Bekayas",
    "postal_code": "78863"
  },
  {
    "id": 6104212005,
    "province_id": 61,
    "regency_id": 6104,
    "district_id": 610421,
    "value": "Suka Ria (Sukaria)",
    "postal_code": "78863"
  }
]