[
  {
    "id": 140302,
    "province_id": 14,
    "regency_id": 1403,
    "district_id": 140302,
    "value": "Bantan Air",
    "postal_code": "28763"
  },
  {
    "id": 140302,
    "province_id": 14,
    "regency_id": 1403,
    "district_id": 140302,
    "value": "Bantan Sari",
    "postal_code": "28763"
  },
  {
    "id": 140302,
    "province_id": 14,
    "regency_id": 1403,
    "district_id": 140302,
    "value": "Bantan Tengah",
    "postal_code": "28763"
  },
  {
    "id": 140302,
    "province_id": 14,
    "regency_id": 1403,
    "district_id": 140302,
    "value": "Bantan Timur",
    "postal_code": "28763"
  },
  {
    "id": 140302,
    "province_id": 14,
    "regency_id": 1403,
    "district_id": 140302,
    "value": "Bantan Tua",
    "postal_code": "28763"
  },
  {
    "id": 140302,
    "province_id": 14,
    "regency_id": 1403,
    "district_id": 140302,
    "value": "Berancah",
    "postal_code": "28763"
  },
  {
    "id": 140302,
    "province_id": 14,
    "regency_id": 1403,
    "district_id": 140302,
    "value": "Deluk",
    "postal_code": "28763"
  },
  {
    "id": 140302,
    "province_id": 14,
    "regency_id": 1403,
    "district_id": 140302,
    "value": "Jangkang",
    "postal_code": "28763"
  },
  {
    "id": 140302,
    "province_id": 14,
    "regency_id": 1403,
    "district_id": 140302,
    "value": "Kembung Baru",
    "postal_code": "28763"
  },
  {
    "id": 140302,
    "province_id": 14,
    "regency_id": 1403,
    "district_id": 140302,
    "value": "Kembung Luar",
    "postal_code": "28763"
  },
  {
    "id": 140302,
    "province_id": 14,
    "regency_id": 1403,
    "district_id": 140302,
    "value": "Mentayan",
    "postal_code": "28763"
  },
  {
    "id": 140302,
    "province_id": 14,
    "regency_id": 1403,
    "district_id": 140302,
    "value": "Muntai",
    "postal_code": "28763"
  },
  {
    "id": 140302,
    "province_id": 14,
    "regency_id": 1403,
    "district_id": 140302,
    "value": "Muntai Barat",
    "postal_code": "28763"
  },
  {
    "id": 140302,
    "province_id": 14,
    "regency_id": 1403,
    "district_id": 140302,
    "value": "Pambang Pesisir",
    "postal_code": "28763"
  },
  {
    "id": 140302,
    "province_id": 14,
    "regency_id": 1403,
    "district_id": 140302,
    "value": "Pampang Baru",
    "postal_code": "28763"
  },
  {
    "id": 140302,
    "province_id": 14,
    "regency_id": 1403,
    "district_id": 140302,
    "value": "Pasiran",
    "postal_code": "28763"
  },
  {
    "id": 140302,
    "province_id": 14,
    "regency_id": 1403,
    "district_id": 140302,
    "value": "Resam Lapis",
    "postal_code": "28763"
  },
  {
    "id": 140302,
    "province_id": 14,
    "regency_id": 1403,
    "district_id": 140302,
    "value": "Selat Baru",
    "postal_code": "28763"
  },
  {
    "id": 140302,
    "province_id": 14,
    "regency_id": 1403,
    "district_id": 140302,
    "value": "Suka Maju",
    "postal_code": "28763"
  },
  {
    "id": 140302,
    "province_id": 14,
    "regency_id": 1403,
    "district_id": 140302,
    "value": "Teluk Lancar",
    "postal_code": "28763"
  },
  {
    "id": 140302,
    "province_id": 14,
    "regency_id": 1403,
    "district_id": 140302,
    "value": "Teluk Papal",
    "postal_code": "28763"
  },
  {
    "id": 140302,
    "province_id": 14,
    "regency_id": 1403,
    "district_id": 140302,
    "value": "Telukpambang",
    "postal_code": "28763"
  },
  {
    "id": 140302,
    "province_id": 14,
    "regency_id": 1403,
    "district_id": 140302,
    "value": "Ulu Pulau",
    "postal_code": "28763"
  }
]