[
  {
    "id": 122204,
    "province_id": 12,
    "regency_id": 1222,
    "district_id": 122204,
    "value": "Batang Nadenggan",
    "postal_code": "21465"
  },
  {
    "id": 122204,
    "province_id": 12,
    "regency_id": 1222,
    "district_id": 122204,
    "value": "Hajoran",
    "postal_code": "21465"
  },
  {
    "id": 122204,
    "province_id": 12,
    "regency_id": 1222,
    "district_id": 122204,
    "value": "Huta Godang",
    "postal_code": "21465"
  },
  {
    "id": 122204,
    "province_id": 12,
    "regency_id": 1222,
    "district_id": 122204,
    "value": "Langga Payung",
    "postal_code": "21465"
  },
  {
    "id": 122204,
    "province_id": 12,
    "regency_id": 1222,
    "district_id": 122204,
    "value": "Marsonja",
    "postal_code": "21465"
  },
  {
    "id": 122204,
    "province_id": 12,
    "regency_id": 1222,
    "district_id": 122204,
    "value": "Parimburan",
    "postal_code": "21465"
  },
  {
    "id": 122204,
    "province_id": 12,
    "regency_id": 1222,
    "district_id": 122204,
    "value": "Sabungan",
    "postal_code": "21465"
  },
  {
    "id": 122204,
    "province_id": 12,
    "regency_id": 1222,
    "district_id": 122204,
    "value": "Sampean",
    "postal_code": "21465"
  },
  {
    "id": 122204,
    "province_id": 12,
    "regency_id": 1222,
    "district_id": 122204,
    "value": "Ujung Gading",
    "postal_code": "21465"
  }
]