[
  {
    "id": 750401,
    "province_id": 75,
    "regency_id": 7504,
    "district_id": 750401,
    "value": "Bukit Tingki",
    "postal_code": "96466"
  },
  {
    "id": 750401,
    "province_id": 75,
    "regency_id": 7504,
    "district_id": 750401,
    "value": "Bumi Bahari",
    "postal_code": "96466"
  },
  {
    "id": 750401,
    "province_id": 75,
    "regency_id": 7504,
    "district_id": 750401,
    "value": "Dambalo",
    "postal_code": "96466"
  },
  {
    "id": 750401,
    "province_id": 75,
    "regency_id": 7504,
    "district_id": 750401,
    "value": "Popayato",
    "postal_code": "96466"
  },
  {
    "id": 750401,
    "province_id": 75,
    "regency_id": 7504,
    "district_id": 750401,
    "value": "Telaga",
    "postal_code": "96466"
  },
  {
    "id": 750401,
    "province_id": 75,
    "regency_id": 7504,
    "district_id": 750401,
    "value": "Telaga Biru",
    "postal_code": "96466"
  },
  {
    "id": 750401,
    "province_id": 75,
    "regency_id": 7504,
    "district_id": 750401,
    "value": "Torosiaje",
    "postal_code": "96466"
  },
  {
    "id": 750401,
    "province_id": 75,
    "regency_id": 7504,
    "district_id": 750401,
    "value": "Torosiaje Jaya",
    "postal_code": "96466"
  },
  {
    "id": 750401,
    "province_id": 75,
    "regency_id": 7504,
    "district_id": 750401,
    "value": "Trikora",
    "postal_code": "96466"
  },
  {
    "id": 750401,
    "province_id": 75,
    "regency_id": 7504,
    "district_id": 750401,
    "value": "Tunas Harapan",
    "postal_code": "96466"
  }
]