[
  {
    "id": 350404,
    "province_id": 35,
    "regency_id": 3504,
    "district_id": 350404,
    "value": "Banjarsari",
    "postal_code": "66252"
  },
  {
    "id": 350404,
    "province_id": 35,
    "regency_id": 3504,
    "district_id": 350404,
    "value": "Batokan",
    "postal_code": "66252"
  },
  {
    "id": 350404,
    "province_id": 35,
    "regency_id": 3504,
    "district_id": 350404,
    "value": "Bendosari",
    "postal_code": "66252"
  },
  {
    "id": 350404,
    "province_id": 35,
    "regency_id": 3504,
    "district_id": 350404,
    "value": "Kepuhrejo",
    "postal_code": "66252"
  },
  {
    "id": 350404,
    "province_id": 35,
    "regency_id": 3504,
    "district_id": 350404,
    "value": "Mojoagung",
    "postal_code": "66252"
  },
  {
    "id": 350404,
    "province_id": 35,
    "regency_id": 3504,
    "district_id": 350404,
    "value": "Ngantru",
    "postal_code": "66252"
  },
  {
    "id": 350404,
    "province_id": 35,
    "regency_id": 3504,
    "district_id": 350404,
    "value": "Padangan",
    "postal_code": "66252"
  },
  {
    "id": 350404,
    "province_id": 35,
    "regency_id": 3504,
    "district_id": 350404,
    "value": "Pakel",
    "postal_code": "66252"
  },
  {
    "id": 350404,
    "province_id": 35,
    "regency_id": 3504,
    "district_id": 350404,
    "value": "Pinggirsari",
    "postal_code": "66252"
  },
  {
    "id": 350404,
    "province_id": 35,
    "regency_id": 3504,
    "district_id": 350404,
    "value": "Pojok",
    "postal_code": "66252"
  },
  {
    "id": 350404,
    "province_id": 35,
    "regency_id": 3504,
    "district_id": 350404,
    "value": "Pucung Lor",
    "postal_code": "66252"
  },
  {
    "id": 350404,
    "province_id": 35,
    "regency_id": 3504,
    "district_id": 350404,
    "value": "Pulerejo",
    "postal_code": "66252"
  },
  {
    "id": 350404,
    "province_id": 35,
    "regency_id": 3504,
    "district_id": 350404,
    "value": "Srikaton",
    "postal_code": "66252"
  }
]