[
  {
    "id": 321715,
    "province_id": 32,
    "regency_id": 3217,
    "district_id": 321715,
    "value": "Bunijaya",
    "postal_code": "40565"
  },
  {
    "id": 321715,
    "province_id": 32,
    "regency_id": 3217,
    "district_id": 321715,
    "value": "Celak",
    "postal_code": "40565"
  },
  {
    "id": 321715,
    "province_id": 32,
    "regency_id": 3217,
    "district_id": 321715,
    "value": "Cilangari",
    "postal_code": "40565"
  },
  {
    "id": 321715,
    "province_id": 32,
    "regency_id": 3217,
    "district_id": 321715,
    "value": "Gununghalu",
    "postal_code": "40565"
  },
  {
    "id": 321715,
    "province_id": 32,
    "regency_id": 3217,
    "district_id": 321715,
    "value": "Sindangjaya",
    "postal_code": "40565"
  },
  {
    "id": 321715,
    "province_id": 32,
    "regency_id": 3217,
    "district_id": 321715,
    "value": "Sirnajaya",
    "postal_code": "40565"
  },
  {
    "id": 321715,
    "province_id": 32,
    "regency_id": 3217,
    "district_id": 321715,
    "value": "Sukasari",
    "postal_code": "40565"
  },
  {
    "id": 321715,
    "province_id": 32,
    "regency_id": 3217,
    "district_id": 321715,
    "value": "Tamanjaya",
    "postal_code": "40565"
  },
  {
    "id": 321715,
    "province_id": 32,
    "regency_id": 3217,
    "district_id": 321715,
    "value": "Wargasaluyu",
    "postal_code": "40565"
  }
]