[
  {
    "id": 710225,
    "province_id": 71,
    "regency_id": 7102,
    "district_id": 710225,
    "value": "Penaesaan",
    "postal_code": "95698"
  },
  {
    "id": 710225,
    "province_id": 71,
    "regency_id": 7102,
    "district_id": 710225,
    "value": "Pinabetengan",
    "postal_code": "95698"
  },
  {
    "id": 710225,
    "province_id": 71,
    "regency_id": 7102,
    "district_id": 710225,
    "value": "Pinabetengan Selatan",
    "postal_code": "95698"
  },
  {
    "id": 710225,
    "province_id": 71,
    "regency_id": 7102,
    "district_id": 710225,
    "value": "Pinabetengan Utara",
    "postal_code": "95698"
  },
  {
    "id": 710225,
    "province_id": 71,
    "regency_id": 7102,
    "district_id": 710225,
    "value": "Tompaso Dua",
    "postal_code": "95698"
  },
  {
    "id": 710225,
    "province_id": 71,
    "regency_id": 7102,
    "district_id": 710225,
    "value": "Tompaso Dua Utara",
    "postal_code": "95698"
  },
  {
    "id": 710225,
    "province_id": 71,
    "regency_id": 7102,
    "district_id": 710225,
    "value": "Tonsewer",
    "postal_code": "95698"
  },
  {
    "id": 710225,
    "province_id": 71,
    "regency_id": 7102,
    "district_id": 710225,
    "value": "Tonsewer Selatan",
    "postal_code": "95698"
  },
  {
    "id": 710225,
    "province_id": 71,
    "regency_id": 7102,
    "district_id": 710225,
    "value": "Touure",
    "postal_code": "95698"
  },
  {
    "id": 710225,
    "province_id": 71,
    "regency_id": 7102,
    "district_id": 710225,
    "value": "Touure Dua",
    "postal_code": "95698"
  }
]