[
  {
    "id": 520302,
    "province_id": 52,
    "regency_id": 5203,
    "district_id": 520302,
    "value": "Kabar",
    "postal_code": "83671"
  },
  {
    "id": 520302,
    "province_id": 52,
    "regency_id": 5203,
    "district_id": 520302,
    "value": "Keselet",
    "postal_code": "83671"
  },
  {
    "id": 520302,
    "province_id": 52,
    "regency_id": 5203,
    "district_id": 520302,
    "value": "Kuang Baru",
    "postal_code": "83671"
  },
  {
    "id": 520302,
    "province_id": 52,
    "regency_id": 5203,
    "district_id": 520302,
    "value": "Moyot",
    "postal_code": "83671"
  },
  {
    "id": 520302,
    "province_id": 52,
    "regency_id": 5203,
    "district_id": 520302,
    "value": "Peresak",
    "postal_code": "83671"
  },
  {
    "id": 520302,
    "province_id": 52,
    "regency_id": 5203,
    "district_id": 520302,
    "value": "Rumbuk",
    "postal_code": "83671"
  },
  {
    "id": 520302,
    "province_id": 52,
    "regency_id": 5203,
    "district_id": 520302,
    "value": "Rumbuk Timur",
    "postal_code": "83671"
  },
  {
    "id": 520302,
    "province_id": 52,
    "regency_id": 5203,
    "district_id": 520302,
    "value": "Sakra",
    "postal_code": "83671"
  },
  {
    "id": 520302,
    "province_id": 52,
    "regency_id": 5203,
    "district_id": 520302,
    "value": "Sakra Selatan",
    "postal_code": "83671"
  },
  {
    "id": 520302,
    "province_id": 52,
    "regency_id": 5203,
    "district_id": 520302,
    "value": "Songak",
    "postal_code": "83671"
  },
  {
    "id": 520302,
    "province_id": 52,
    "regency_id": 5203,
    "district_id": 520302,
    "value": "Suwangi (Suangi)",
    "postal_code": "83671"
  },
  {
    "id": 520302,
    "province_id": 52,
    "regency_id": 5203,
    "district_id": 520302,
    "value": "Suwangi Timur",
    "postal_code": "83671"
  }
]