[
  {
    "id": 3218082003,
    "province_id": 32,
    "regency_id": 3218,
    "district_id": 321808,
    "value": "Bagolo",
    "postal_code": "46397"
  },
  {
    "id": 3218082007,
    "province_id": 32,
    "regency_id": 3218,
    "district_id": 321808,
    "value": "Banjarharja",
    "postal_code": "46397"
  },
  {
    "id": 3218082006,
    "province_id": 32,
    "regency_id": 3218,
    "district_id": 321808,
    "value": "Cibuluh",
    "postal_code": "46397"
  },
  {
    "id": 3218082009,
    "province_id": 32,
    "regency_id": 3218,
    "district_id": 321808,
    "value": "Ciparakan",
    "postal_code": "46397"
  },
  {
    "id": 3218082002,
    "province_id": 32,
    "regency_id": 3218,
    "district_id": 321808,
    "value": "Emplak",
    "postal_code": "46397"
  },
  {
    "id": 3218082005,
    "province_id": 32,
    "regency_id": 3218,
    "district_id": 321808,
    "value": "Kalipucang",
    "postal_code": "46397"
  },
  {
    "id": 3218082004,
    "province_id": 32,
    "regency_id": 3218,
    "district_id": 321808,
    "value": "Pamotan",
    "postal_code": "46397"
  },
  {
    "id": 3218082001,
    "province_id": 32,
    "regency_id": 3218,
    "district_id": 321808,
    "value": "Putrapinggan",
    "postal_code": "46397"
  },
  {
    "id": 3218082008,
    "province_id": 32,
    "regency_id": 3218,
    "district_id": 321808,
    "value": "Tunggilis",
    "postal_code": "46397"
  }
]