[
  {
    "id": 180115,
    "province_id": 18,
    "regency_id": 1801,
    "district_id": 180115,
    "value": "Baktirasa (Bakti Rasa)",
    "postal_code": "35597"
  },
  {
    "id": 180115,
    "province_id": 18,
    "regency_id": 1801,
    "district_id": 180115,
    "value": "Bandar Agung",
    "postal_code": "35597"
  },
  {
    "id": 180115,
    "province_id": 18,
    "regency_id": 1801,
    "district_id": 180115,
    "value": "Kedaung",
    "postal_code": "35597"
  },
  {
    "id": 180115,
    "province_id": 18,
    "regency_id": 1801,
    "district_id": 180115,
    "value": "Kuala Sekampung",
    "postal_code": "35597"
  },
  {
    "id": 180115,
    "province_id": 18,
    "regency_id": 1801,
    "district_id": 180115,
    "value": "Mandala Sari (Mandalasari)",
    "postal_code": "35597"
  },
  {
    "id": 180115,
    "province_id": 18,
    "regency_id": 1801,
    "district_id": 180115,
    "value": "Marga Jasa (Margajasa)",
    "postal_code": "35597"
  },
  {
    "id": 180115,
    "province_id": 18,
    "regency_id": 1801,
    "district_id": 180115,
    "value": "Margasari",
    "postal_code": "35597"
  },
  {
    "id": 180115,
    "province_id": 18,
    "regency_id": 1801,
    "district_id": 180115,
    "value": "Sukapura",
    "postal_code": "35597"
  },
  {
    "id": 180115,
    "province_id": 18,
    "regency_id": 1801,
    "district_id": 180115,
    "value": "Sumber Agung",
    "postal_code": "35597"
  },
  {
    "id": 180115,
    "province_id": 18,
    "regency_id": 1801,
    "district_id": 180115,
    "value": "Sumber Sari",
    "postal_code": "35597"
  }
]