[
  {
    "id": 720801,
    "province_id": 72,
    "regency_id": 7208,
    "district_id": 720801,
    "value": "Bambalemo",
    "postal_code": "94471"
  },
  {
    "id": 720801,
    "province_id": 72,
    "regency_id": 7208,
    "district_id": 720801,
    "value": "Bambalemo Ranomaisi",
    "postal_code": "94471"
  },
  {
    "id": 720801,
    "province_id": 72,
    "regency_id": 7208,
    "district_id": 720801,
    "value": "Bantaya",
    "postal_code": "94471"
  },
  {
    "id": 720801,
    "province_id": 72,
    "regency_id": 7208,
    "district_id": 720801,
    "value": "Kampal",
    "postal_code": "94471"
  },
  {
    "id": 720801,
    "province_id": 72,
    "regency_id": 7208,
    "district_id": 720801,
    "value": "Lebo",
    "postal_code": "94471"
  },
  {
    "id": 720801,
    "province_id": 72,
    "regency_id": 7208,
    "district_id": 720801,
    "value": "Loji",
    "postal_code": "94471"
  },
  {
    "id": 720801,
    "province_id": 72,
    "regency_id": 7208,
    "district_id": 720801,
    "value": "Maesa",
    "postal_code": "94471"
  },
  {
    "id": 720801,
    "province_id": 72,
    "regency_id": 7208,
    "district_id": 720801,
    "value": "Masigi",
    "postal_code": "94471"
  },
  {
    "id": 720801,
    "province_id": 72,
    "regency_id": 7208,
    "district_id": 720801,
    "value": "Mertasari",
    "postal_code": "94471"
  },
  {
    "id": 720801,
    "province_id": 72,
    "regency_id": 7208,
    "district_id": 720801,
    "value": "Olaya",
    "postal_code": "94471"
  },
  {
    "id": 720801,
    "province_id": 72,
    "regency_id": 7208,
    "district_id": 720801,
    "value": "Pombalowo (Pembalowo)",
    "postal_code": "94471"
  }
]