[
  {
    "id": 1225022012,
    "province_id": 12,
    "regency_id": 1225,
    "district_id": 122502,
    "value": "Balowondrate",
    "postal_code": "22863"
  },
  {
    "id": 1225022005,
    "province_id": 12,
    "regency_id": 1225,
    "district_id": 122502,
    "value": "Bawasawa",
    "postal_code": "22863"
  },
  {
    "id": 1225022001,
    "province_id": 12,
    "regency_id": 1225,
    "district_id": 122502,
    "value": "Bawosaloo",
    "postal_code": "22863"
  },
  {
    "id": 1225022019,
    "province_id": 12,
    "regency_id": 1225,
    "district_id": 122502,
    "value": "Fadoro",
    "postal_code": "22863"
  },
  {
    "id": 1225022025,
    "province_id": 12,
    "regency_id": 1225,
    "district_id": 122502,
    "value": "Gunungcahaya (Gunung Cahaya)",
    "postal_code": "22863"
  },
  {
    "id": 1225022007,
    "province_id": 12,
    "regency_id": 1225,
    "district_id": 122502,
    "value": "Halamona",
    "postal_code": "22863"
  },
  {
    "id": 1225022008,
    "province_id": 12,
    "regency_id": 1225,
    "district_id": 122502,
    "value": "Hanofa",
    "postal_code": "22863"
  },
  {
    "id": 1225022013,
    "province_id": 12,
    "regency_id": 1225,
    "district_id": 122502,
    "value": "Hilimberuanaa (Hilimberua)",
    "postal_code": "22863"
  },
  {
    "id": 1225022010,
    "province_id": 12,
    "regency_id": 1225,
    "district_id": 122502,
    "value": "Hinako",
    "postal_code": "22863"
  },
  {
    "id": 1225022002,
    "province_id": 12,
    "regency_id": 1225,
    "district_id": 122502,
    "value": "Imana",
    "postal_code": "22863"
  },
  {
    "id": 1225022004,
    "province_id": 12,
    "regency_id": 1225,
    "district_id": 122502,
    "value": "Kafo Kafo",
    "postal_code": "22863"
  },
  {
    "id": 1225022009,
    "province_id": 12,
    "regency_id": 1225,
    "district_id": 122502,
    "value": "Lahawa",
    "postal_code": "22863"
  },
  {
    "id": 1225022014,
    "province_id": 12,
    "regency_id": 1225,
    "district_id": 122502,
    "value": "Lahusa",
    "postal_code": "22863"
  },
  {
    "id": 1225022015,
    "province_id": 12,
    "regency_id": 1225,
    "district_id": 122502,
    "value": "Ombolata",
    "postal_code": "22863"
  },
  {
    "id": 1225022024,
    "province_id": 12,
    "regency_id": 1225,
    "district_id": 122502,
    "value": "Orahili",
    "postal_code": "22863"
  },
  {
    "id": 1225022006,
    "province_id": 12,
    "regency_id": 1225,
    "district_id": 122502,
    "value": "Pulau Bogi",
    "postal_code": "22863"
  },
  {
    "id": 1225022011,
    "province_id": 12,
    "regency_id": 1225,
    "district_id": 122502,
    "value": "Sineneeto (Sinene Eto)",
    "postal_code": "22863"
  },
  {
    "id": 1225022021,
    "province_id": 12,
    "regency_id": 1225,
    "district_id": 122502,
    "value": "Sirombu",
    "postal_code": "22863"
  },
  {
    "id": 1225022018,
    "province_id": 12,
    "regency_id": 1225,
    "district_id": 122502,
    "value": "Sisobandrao",
    "postal_code": "22863"
  },
  {
    "id": 1225022016,
    "province_id": 12,
    "regency_id": 1225,
    "district_id": 122502,
    "value": "Tetehosi",
    "postal_code": "22863"
  },
  {
    "id": 1225022022,
    "province_id": 12,
    "regency_id": 1225,
    "district_id": 122502,
    "value": "Togideu",
    "postal_code": "22863"
  },
  {
    "id": 1225022017,
    "province_id": 12,
    "regency_id": 1225,
    "district_id": 122502,
    "value": "Togimbogi (Togim Bogi)",
    "postal_code": "22863"
  },
  {
    "id": 1225022023,
    "province_id": 12,
    "regency_id": 1225,
    "district_id": 122502,
    "value": "Tugala",
    "postal_code": "22863"
  },
  {
    "id": 1225022020,
    "province_id": 12,
    "regency_id": 1225,
    "district_id": 122502,
    "value": "Tugala Gawu (Tugalagawu)",
    "postal_code": "22863"
  },
  {
    "id": 1225022003,
    "province_id": 12,
    "regency_id": 1225,
    "district_id": 122502,
    "value": "Tuwa Tuwa",
    "postal_code": "22863"
  }
]