[
  {
    "id": 320213,
    "province_id": 32,
    "regency_id": 3202,
    "district_id": 320213,
    "value": "Babakanjaya",
    "postal_code": "43357"
  },
  {
    "id": 320213,
    "province_id": 32,
    "regency_id": 3202,
    "district_id": 320213,
    "value": "Bojongkokosan (Bojong Kokosan)",
    "postal_code": "43357"
  },
  {
    "id": 320213,
    "province_id": 32,
    "regency_id": 3202,
    "district_id": 320213,
    "value": "Kompa",
    "postal_code": "43357"
  },
  {
    "id": 320213,
    "province_id": 32,
    "regency_id": 3202,
    "district_id": 320213,
    "value": "Langensari",
    "postal_code": "43357"
  },
  {
    "id": 320213,
    "province_id": 32,
    "regency_id": 3202,
    "district_id": 320213,
    "value": "Palasari Hilir",
    "postal_code": "43357"
  },
  {
    "id": 320213,
    "province_id": 32,
    "regency_id": 3202,
    "district_id": 320213,
    "value": "Parungkuda (Parung Kuda)",
    "postal_code": "43357"
  },
  {
    "id": 320213,
    "province_id": 32,
    "regency_id": 3202,
    "district_id": 320213,
    "value": "Pondokkaso Landeuh (Pondok Kaso Landeuh)",
    "postal_code": "43357"
  },
  {
    "id": 320213,
    "province_id": 32,
    "regency_id": 3202,
    "district_id": 320213,
    "value": "Sundawenang",
    "postal_code": "43357"
  }
]