[
  {
    "id": 121307,
    "province_id": 12,
    "regency_id": 1213,
    "district_id": 121307,
    "value": "Bange",
    "postal_code": "22977"
  },
  {
    "id": 121307,
    "province_id": 12,
    "regency_id": 1213,
    "district_id": 121307,
    "value": "Bange Nauli",
    "postal_code": "22977"
  },
  {
    "id": 121307,
    "province_id": 12,
    "regency_id": 1213,
    "district_id": 121307,
    "value": "Huta Bangun",
    "postal_code": "22977"
  },
  {
    "id": 121307,
    "province_id": 12,
    "regency_id": 1213,
    "district_id": 121307,
    "value": "Huta Bangun Jae",
    "postal_code": "22977"
  },
  {
    "id": 121307,
    "province_id": 12,
    "regency_id": 1213,
    "district_id": 121307,
    "value": "Janji Matogu",
    "postal_code": "22977"
  },
  {
    "id": 121307,
    "province_id": 12,
    "regency_id": 1213,
    "district_id": 121307,
    "value": "Lambou Darul Ihsan",
    "postal_code": "22977"
  },
  {
    "id": 121307,
    "province_id": 12,
    "regency_id": 1213,
    "district_id": 121307,
    "value": "Malintang",
    "postal_code": "22977"
  },
  {
    "id": 121307,
    "province_id": 12,
    "regency_id": 1213,
    "district_id": 121307,
    "value": "Malintang Jae",
    "postal_code": "22977"
  },
  {
    "id": 121307,
    "province_id": 12,
    "regency_id": 1213,
    "district_id": 121307,
    "value": "Malintang Julu",
    "postal_code": "22977"
  },
  {
    "id": 121307,
    "province_id": 12,
    "regency_id": 1213,
    "district_id": 121307,
    "value": "Pasar Baru Malintang",
    "postal_code": "22977"
  },
  {
    "id": 121307,
    "province_id": 12,
    "regency_id": 1213,
    "district_id": 121307,
    "value": "Sidojadi",
    "postal_code": "22977"
  }
]