[
  {
    "id": 3315092007,
    "province_id": 33,
    "regency_id": 3315,
    "district_id": 331509,
    "value": "Bandungsari",
    "postal_code": "58193"
  },
  {
    "id": 3315092010,
    "province_id": 33,
    "regency_id": 3315,
    "district_id": 331509,
    "value": "Belor",
    "postal_code": "58193"
  },
  {
    "id": 3315092003,
    "province_id": 33,
    "regency_id": 3315,
    "district_id": 331509,
    "value": "Kalangdosari",
    "postal_code": "58193"
  },
  {
    "id": 3315092004,
    "province_id": 33,
    "regency_id": 3315,
    "district_id": 331509,
    "value": "Kalanglundo",
    "postal_code": "58193"
  },
  {
    "id": 3315092009,
    "province_id": 33,
    "regency_id": 3315,
    "district_id": 331509,
    "value": "Ngarap-arap (Ngaraparap)",
    "postal_code": "58193"
  },
  {
    "id": 3315092008,
    "province_id": 33,
    "regency_id": 3315,
    "district_id": 331509,
    "value": "Ngaringan",
    "postal_code": "58193"
  },
  {
    "id": 3315092006,
    "province_id": 33,
    "regency_id": 3315,
    "district_id": 331509,
    "value": "Pendem",
    "postal_code": "58193"
  },
  {
    "id": 3315092002,
    "province_id": 33,
    "regency_id": 3315,
    "district_id": 331509,
    "value": "Sarirejo",
    "postal_code": "58193"
  },
  {
    "id": 3315092001,
    "province_id": 33,
    "regency_id": 3315,
    "district_id": 331509,
    "value": "Sendangrejo",
    "postal_code": "58193"
  },
  {
    "id": 3315092012,
    "province_id": 33,
    "regency_id": 3315,
    "district_id": 331509,
    "value": "Sumberagung",
    "postal_code": "58193"
  },
  {
    "id": 3315092011,
    "province_id": 33,
    "regency_id": 3315,
    "district_id": 331509,
    "value": "Tanjungharjo",
    "postal_code": "58193"
  },
  {
    "id": 3315092005,
    "province_id": 33,
    "regency_id": 3315,
    "district_id": 331509,
    "value": "Truwolu",
    "postal_code": "58193"
  }
]