[
  {
    "id": 1117062019,
    "province_id": 11,
    "regency_id": 1117,
    "district_id": 111706,
    "value": "Bener Ayu",
    "postal_code": "24580"
  },
  {
    "id": 1117062020,
    "province_id": 11,
    "regency_id": 1117,
    "district_id": 111706,
    "value": "Bener Mulie",
    "postal_code": "24580"
  },
  {
    "id": 1117062015,
    "province_id": 11,
    "regency_id": 1117,
    "district_id": 111706,
    "value": "Blang Benara (Blang Menara)",
    "postal_code": "24580"
  },
  {
    "id": 1117062021,
    "province_id": 11,
    "regency_id": 1117,
    "district_id": 111706,
    "value": "Blang Kucak",
    "postal_code": "24580"
  },
  {
    "id": 1117062001,
    "province_id": 11,
    "regency_id": 1117,
    "district_id": 111706,
    "value": "Blang Paku",
    "postal_code": "24580"
  },
  {
    "id": 1117062016,
    "province_id": 11,
    "regency_id": 1117,
    "district_id": 111706,
    "value": "Bukit Pepanyi",
    "postal_code": "24580"
  },
  {
    "id": 1117062028,
    "province_id": 11,
    "regency_id": 1117,
    "district_id": 111706,
    "value": "Burni Telong",
    "postal_code": "24580"
  },
  {
    "id": 1117062018,
    "province_id": 11,
    "regency_id": 1117,
    "district_id": 111706,
    "value": "Cinta Damai",
    "postal_code": "24580"
  },
  {
    "id": 1117062013,
    "province_id": 11,
    "regency_id": 1117,
    "district_id": 111706,
    "value": "Gegerung",
    "postal_code": "24580"
  },
  {
    "id": 1117062026,
    "province_id": 11,
    "regency_id": 1117,
    "district_id": 111706,
    "value": "Jamur Ujung",
    "postal_code": "24580"
  },
  {
    "id": 1117062012,
    "province_id": 11,
    "regency_id": 1117,
    "district_id": 111706,
    "value": "Jamur Uluh",
    "postal_code": "24580"
  },
  {
    "id": 1117062024,
    "province_id": 11,
    "regency_id": 1117,
    "district_id": 111706,
    "value": "Kebun Baru",
    "postal_code": "24580"
  },
  {
    "id": 1117062023,
    "province_id": 11,
    "regency_id": 1117,
    "district_id": 111706,
    "value": "Lut Kucak",
    "postal_code": "24580"
  },
  {
    "id": 1117062014,
    "province_id": 11,
    "regency_id": 1117,
    "district_id": 111706,
    "value": "Merie Satu",
    "postal_code": "24580"
  },
  {
    "id": 1117062004,
    "province_id": 11,
    "regency_id": 1117,
    "district_id": 111706,
    "value": "Pante Raya",
    "postal_code": "24580"
  },
  {
    "id": 1117062025,
    "province_id": 11,
    "regency_id": 1117,
    "district_id": 111706,
    "value": "Simpang Antara",
    "postal_code": "24580"
  },
  {
    "id": 1117062005,
    "province_id": 11,
    "regency_id": 1117,
    "district_id": 111706,
    "value": "Simpang Balek (Simpang Bolek)",
    "postal_code": "24580"
  },
  {
    "id": 1117062006,
    "province_id": 11,
    "regency_id": 1117,
    "district_id": 111706,
    "value": "Simpang Teritit (Simpang Teririt)",
    "postal_code": "24580"
  },
  {
    "id": 1117062007,
    "province_id": 11,
    "regency_id": 1117,
    "district_id": 111706,
    "value": "Suka Jadi",
    "postal_code": "24580"
  },
  {
    "id": 1117062008,
    "province_id": 11,
    "regency_id": 1117,
    "district_id": 111706,
    "value": "Suka Makmur",
    "postal_code": "24580"
  },
  {
    "id": 1117062027,
    "province_id": 11,
    "regency_id": 1117,
    "district_id": 111706,
    "value": "Suka Makmur Timur",
    "postal_code": "24580"
  },
  {
    "id": 1117062009,
    "province_id": 11,
    "regency_id": 1117,
    "district_id": 111706,
    "value": "Suka Ramai Atas (Suka Rami Atas)",
    "postal_code": "24580"
  },
  {
    "id": 1117062010,
    "province_id": 11,
    "regency_id": 1117,
    "district_id": 111706,
    "value": "Suka Ramai Bawah (Suka Rami Bawah)",
    "postal_code": "24580"
  },
  {
    "id": 1117062011,
    "province_id": 11,
    "regency_id": 1117,
    "district_id": 111706,
    "value": "Syura Jadi",
    "postal_code": "24580"
  },
  {
    "id": 1117062017,
    "province_id": 11,
    "regency_id": 1117,
    "district_id": 111706,
    "value": "Wih Pesam",
    "postal_code": "24580"
  },
  {
    "id": 1117062022,
    "province_id": 11,
    "regency_id": 1117,
    "district_id": 111706,
    "value": "Wonosobo",
    "postal_code": "24580"
  }
]