[
  {
    "id": 920701,
    "province_id": 92,
    "regency_id": 9207,
    "district_id": 920701,
    "value": "Dotir",
    "postal_code": "98346"
  },
  {
    "id": 920701,
    "province_id": 92,
    "regency_id": 9207,
    "district_id": 920701,
    "value": "Iriati",
    "postal_code": "98346"
  },
  {
    "id": 920701,
    "province_id": 92,
    "regency_id": 9207,
    "district_id": 920701,
    "value": "Maimare (Maimari)",
    "postal_code": "98346"
  },
  {
    "id": 920701,
    "province_id": 92,
    "regency_id": 9207,
    "district_id": 920701,
    "value": "Maniwak",
    "postal_code": "98346"
  },
  {
    "id": 920701,
    "province_id": 92,
    "regency_id": 9207,
    "district_id": 920701,
    "value": "Manopi",
    "postal_code": "98346"
  },
  {
    "id": 920701,
    "province_id": 92,
    "regency_id": 9207,
    "district_id": 920701,
    "value": "Moru (Gayabaru)",
    "postal_code": "98346"
  },
  {
    "id": 920701,
    "province_id": 92,
    "regency_id": 9207,
    "district_id": 920701,
    "value": "Rado",
    "postal_code": "98346"
  },
  {
    "id": 920701,
    "province_id": 92,
    "regency_id": 9207,
    "district_id": 920701,
    "value": "Ramiki",
    "postal_code": "98346"
  },
  {
    "id": 920701,
    "province_id": 92,
    "regency_id": 9207,
    "district_id": 920701,
    "value": "Wasior I",
    "postal_code": "98346"
  },
  {
    "id": 920701,
    "province_id": 92,
    "regency_id": 9207,
    "district_id": 920701,
    "value": "Wasior II",
    "postal_code": "98346"
  }
]