[
  {
    "id": 320107,
    "province_id": 32,
    "regency_id": 3201,
    "district_id": 320107,
    "value": "Cileungsi",
    "postal_code": "16820"
  },
  {
    "id": 320107,
    "province_id": 32,
    "regency_id": 3201,
    "district_id": 320107,
    "value": "Cileungsi Kidul",
    "postal_code": "16820"
  },
  {
    "id": 320107,
    "province_id": 32,
    "regency_id": 3201,
    "district_id": 320107,
    "value": "Cipenjo",
    "postal_code": "16820"
  },
  {
    "id": 320107,
    "province_id": 32,
    "regency_id": 3201,
    "district_id": 320107,
    "value": "Cipeucang",
    "postal_code": "16820"
  },
  {
    "id": 320107,
    "province_id": 32,
    "regency_id": 3201,
    "district_id": 320107,
    "value": "Dayeuh",
    "postal_code": "16820"
  },
  {
    "id": 320107,
    "province_id": 32,
    "regency_id": 3201,
    "district_id": 320107,
    "value": "Gandoang",
    "postal_code": "16820"
  },
  {
    "id": 320107,
    "province_id": 32,
    "regency_id": 3201,
    "district_id": 320107,
    "value": "Jatisari",
    "postal_code": "16820"
  },
  {
    "id": 320107,
    "province_id": 32,
    "regency_id": 3201,
    "district_id": 320107,
    "value": "Limusnunggal (Limus Nunggal)",
    "postal_code": "16820"
  },
  {
    "id": 320107,
    "province_id": 32,
    "regency_id": 3201,
    "district_id": 320107,
    "value": "Mampir",
    "postal_code": "16820"
  },
  {
    "id": 320107,
    "province_id": 32,
    "regency_id": 3201,
    "district_id": 320107,
    "value": "Mekarsari",
    "postal_code": "16820"
  },
  {
    "id": 320107,
    "province_id": 32,
    "regency_id": 3201,
    "district_id": 320107,
    "value": "Pasirangin (Pasir Angin)",
    "postal_code": "16820"
  },
  {
    "id": 320107,
    "province_id": 32,
    "regency_id": 3201,
    "district_id": 320107,
    "value": "Situsari (Setu Sari)",
    "postal_code": "16820"
  }
]