[
  {
    "id": 3510151002,
    "province_id": 35,
    "regency_id": 3510,
    "district_id": 351015,
    "value": "Bakungan",
    "postal_code": "68431"
  },
  {
    "id": 3510151003,
    "province_id": 35,
    "regency_id": 3510,
    "district_id": 351015,
    "value": "Banjarsari",
    "postal_code": "68432"
  },
  {
    "id": 3510152006,
    "province_id": 35,
    "regency_id": 3510,
    "district_id": 351015,
    "value": "Glagah",
    "postal_code": "68432"
  },
  {
    "id": 3510152012,
    "province_id": 35,
    "regency_id": 3510,
    "district_id": 351015,
    "value": "Kampunganyar",
    "postal_code": "68432"
  },
  {
    "id": 3510152004,
    "province_id": 35,
    "regency_id": 3510,
    "district_id": 351015,
    "value": "Kemiren",
    "postal_code": "68432"
  },
  {
    "id": 3510152011,
    "province_id": 35,
    "regency_id": 3510,
    "district_id": 351015,
    "value": "Kenjo",
    "postal_code": "68432"
  },
  {
    "id": 3510152005,
    "province_id": 35,
    "regency_id": 3510,
    "district_id": 351015,
    "value": "Olehsari",
    "postal_code": "68432"
  },
  {
    "id": 3510152007,
    "province_id": 35,
    "regency_id": 3510,
    "district_id": 351015,
    "value": "Paspan",
    "postal_code": "68432"
  },
  {
    "id": 3510152001,
    "province_id": 35,
    "regency_id": 3510,
    "district_id": 351015,
    "value": "Rejosari",
    "postal_code": "68432"
  },
  {
    "id": 3510152010,
    "province_id": 35,
    "regency_id": 3510,
    "district_id": 351015,
    "value": "Tamansuruh",
    "postal_code": "68432"
  }
]