[
  {
    "id": 640708,
    "province_id": 64,
    "regency_id": 6407,
    "district_id": 640708,
    "value": "Benung",
    "postal_code": "75777"
  },
  {
    "id": 640708,
    "province_id": 64,
    "regency_id": 6407,
    "district_id": 640708,
    "value": "Bermai",
    "postal_code": "75777"
  },
  {
    "id": 640708,
    "province_id": 64,
    "regency_id": 6407,
    "district_id": 640708,
    "value": "Besiq",
    "postal_code": "75777"
  },
  {
    "id": 640708,
    "province_id": 64,
    "regency_id": 6407,
    "district_id": 640708,
    "value": "Damai Kota",
    "postal_code": "75777"
  },
  {
    "id": 640708,
    "province_id": 64,
    "regency_id": 6407,
    "district_id": 640708,
    "value": "Damai Seberang",
    "postal_code": "75777"
  },
  {
    "id": 640708,
    "province_id": 64,
    "regency_id": 6407,
    "district_id": 640708,
    "value": "Jengan Danum",
    "postal_code": "75777"
  },
  {
    "id": 640708,
    "province_id": 64,
    "regency_id": 6407,
    "district_id": 640708,
    "value": "Keay",
    "postal_code": "75777"
  },
  {
    "id": 640708,
    "province_id": 64,
    "regency_id": 6407,
    "district_id": 640708,
    "value": "Kelian",
    "postal_code": "75777"
  },
  {
    "id": 640708,
    "province_id": 64,
    "regency_id": 6407,
    "district_id": 640708,
    "value": "Lumpat Dahuq",
    "postal_code": "75777"
  },
  {
    "id": 640708,
    "province_id": 64,
    "regency_id": 6407,
    "district_id": 640708,
    "value": "Mantar",
    "postal_code": "75777"
  },
  {
    "id": 640708,
    "province_id": 64,
    "regency_id": 6407,
    "district_id": 640708,
    "value": "Mendika",
    "postal_code": "75777"
  },
  {
    "id": 640708,
    "province_id": 64,
    "regency_id": 6407,
    "district_id": 640708,
    "value": "Muara Bomboy",
    "postal_code": "75777"
  },
  {
    "id": 640708,
    "province_id": 64,
    "regency_id": 6407,
    "district_id": 640708,
    "value": "Muara Niliq",
    "postal_code": "75777"
  },
  {
    "id": 640708,
    "province_id": 64,
    "regency_id": 6407,
    "district_id": 640708,
    "value": "Muara Nyahing",
    "postal_code": "75777"
  },
  {
    "id": 640708,
    "province_id": 64,
    "regency_id": 6407,
    "district_id": 640708,
    "value": "Muara Tokong",
    "postal_code": "75777"
  },
  {
    "id": 640708,
    "province_id": 64,
    "regency_id": 6407,
    "district_id": 640708,
    "value": "Sempatn",
    "postal_code": "75777"
  },
  {
    "id": 640708,
    "province_id": 64,
    "regency_id": 6407,
    "district_id": 640708,
    "value": "Tapulang",
    "postal_code": "75777"
  }
]