[
  {
    "id": 710207,
    "province_id": 71,
    "regency_id": 7102,
    "district_id": 710207,
    "value": "Kamanga",
    "postal_code": "95693"
  },
  {
    "id": 710207,
    "province_id": 71,
    "regency_id": 7102,
    "district_id": 710207,
    "value": "Kamanga Dua",
    "postal_code": "95693"
  },
  {
    "id": 710207,
    "province_id": 71,
    "regency_id": 7102,
    "district_id": 710207,
    "value": "Liba",
    "postal_code": "95693"
  },
  {
    "id": 710207,
    "province_id": 71,
    "regency_id": 7102,
    "district_id": 710207,
    "value": "Sendangan",
    "postal_code": "95693"
  },
  {
    "id": 710207,
    "province_id": 71,
    "regency_id": 7102,
    "district_id": 710207,
    "value": "Talikuran",
    "postal_code": "95693"
  },
  {
    "id": 710207,
    "province_id": 71,
    "regency_id": 7102,
    "district_id": 710207,
    "value": "Tember",
    "postal_code": "95693"
  },
  {
    "id": 710207,
    "province_id": 71,
    "regency_id": 7102,
    "district_id": 710207,
    "value": "Tempok",
    "postal_code": "95693"
  },
  {
    "id": 710207,
    "province_id": 71,
    "regency_id": 7102,
    "district_id": 710207,
    "value": "Tempok Selatan",
    "postal_code": "95693"
  },
  {
    "id": 710207,
    "province_id": 71,
    "regency_id": 7102,
    "district_id": 710207,
    "value": "Tolok",
    "postal_code": "95693"
  },
  {
    "id": 710207,
    "province_id": 71,
    "regency_id": 7102,
    "district_id": 710207,
    "value": "Tolok Satu",
    "postal_code": "95693"
  }
]