[
  {
    "id": 352108,
    "province_id": 35,
    "regency_id": 3521,
    "district_id": 352108,
    "value": "Banjaransari",
    "postal_code": "63280"
  },
  {
    "id": 352108,
    "province_id": 35,
    "regency_id": 3521,
    "district_id": 352108,
    "value": "Bendo",
    "postal_code": "63280"
  },
  {
    "id": 352108,
    "province_id": 35,
    "regency_id": 3521,
    "district_id": 352108,
    "value": "Bintoyo",
    "postal_code": "63280"
  },
  {
    "id": 352108,
    "province_id": 35,
    "regency_id": 3521,
    "district_id": 352108,
    "value": "Kedungprahu (Kedung Prahu)",
    "postal_code": "63280"
  },
  {
    "id": 352108,
    "province_id": 35,
    "regency_id": 3521,
    "district_id": 352108,
    "value": "Kwadungan Lor",
    "postal_code": "63280"
  },
  {
    "id": 352108,
    "province_id": 35,
    "regency_id": 3521,
    "district_id": 352108,
    "value": "Munggut",
    "postal_code": "63280"
  },
  {
    "id": 352108,
    "province_id": 35,
    "regency_id": 3521,
    "district_id": 352108,
    "value": "Pacing",
    "postal_code": "63280"
  },
  {
    "id": 352108,
    "province_id": 35,
    "regency_id": 3521,
    "district_id": 352108,
    "value": "Padas",
    "postal_code": "63280"
  },
  {
    "id": 352108,
    "province_id": 35,
    "regency_id": 3521,
    "district_id": 352108,
    "value": "Sambiroto",
    "postal_code": "63280"
  },
  {
    "id": 352108,
    "province_id": 35,
    "regency_id": 3521,
    "district_id": 352108,
    "value": "Sukowiyono",
    "postal_code": "63280"
  },
  {
    "id": 352108,
    "province_id": 35,
    "regency_id": 3521,
    "district_id": 352108,
    "value": "Tambakromo",
    "postal_code": "63280"
  },
  {
    "id": 352108,
    "province_id": 35,
    "regency_id": 3521,
    "district_id": 352108,
    "value": "Tungkulrejo",
    "postal_code": "63280"
  }
]