[
  {
    "id": 750317,
    "province_id": 75,
    "regency_id": 7503,
    "district_id": 750317,
    "value": "Bukit Hijau",
    "postal_code": "96574"
  },
  {
    "id": 750317,
    "province_id": 75,
    "regency_id": 7503,
    "district_id": 750317,
    "value": "Dunggilata",
    "postal_code": "96574"
  },
  {
    "id": 750317,
    "province_id": 75,
    "regency_id": 7503,
    "district_id": 750317,
    "value": "Kaidundu",
    "postal_code": "96574"
  },
  {
    "id": 750317,
    "province_id": 75,
    "regency_id": 7503,
    "district_id": 750317,
    "value": "Kaidundu Barat",
    "postal_code": "96574"
  },
  {
    "id": 750317,
    "province_id": 75,
    "regency_id": 7503,
    "district_id": 750317,
    "value": "Mamungaa",
    "postal_code": "96574"
  },
  {
    "id": 750317,
    "province_id": 75,
    "regency_id": 7503,
    "district_id": 750317,
    "value": "Mamungaa Timur",
    "postal_code": "96574"
  },
  {
    "id": 750317,
    "province_id": 75,
    "regency_id": 7503,
    "district_id": 750317,
    "value": "Mopuya",
    "postal_code": "96574"
  },
  {
    "id": 750317,
    "province_id": 75,
    "regency_id": 7503,
    "district_id": 750317,
    "value": "Patoa",
    "postal_code": "96574"
  },
  {
    "id": 750317,
    "province_id": 75,
    "regency_id": 7503,
    "district_id": 750317,
    "value": "Pinomotiga",
    "postal_code": "96574"
  }
]