[
  {
    "id": 720610,
    "province_id": 72,
    "regency_id": 7206,
    "district_id": 720610,
    "value": "Baho Makmur (Bahomakmur)",
    "postal_code": "94974"
  },
  {
    "id": 720610,
    "province_id": 72,
    "regency_id": 7206,
    "district_id": 720610,
    "value": "Bahodopi",
    "postal_code": "94974"
  },
  {
    "id": 720610,
    "province_id": 72,
    "regency_id": 7206,
    "district_id": 720610,
    "value": "Bete Bete",
    "postal_code": "94974"
  },
  {
    "id": 720610,
    "province_id": 72,
    "regency_id": 7206,
    "district_id": 720610,
    "value": "Dampala",
    "postal_code": "94974"
  },
  {
    "id": 720610,
    "province_id": 72,
    "regency_id": 7206,
    "district_id": 720610,
    "value": "Fatufia",
    "postal_code": "94974"
  },
  {
    "id": 720610,
    "province_id": 72,
    "regency_id": 7206,
    "district_id": 720610,
    "value": "Keurea",
    "postal_code": "94974"
  },
  {
    "id": 720610,
    "province_id": 72,
    "regency_id": 7206,
    "district_id": 720610,
    "value": "Labota",
    "postal_code": "94974"
  },
  {
    "id": 720610,
    "province_id": 72,
    "regency_id": 7206,
    "district_id": 720610,
    "value": "Lalampu",
    "postal_code": "94974"
  },
  {
    "id": 720610,
    "province_id": 72,
    "regency_id": 7206,
    "district_id": 720610,
    "value": "Le-Le",
    "postal_code": "94974"
  },
  {
    "id": 720610,
    "province_id": 72,
    "regency_id": 7206,
    "district_id": 720610,
    "value": "Makartijaya (Makarti Jaya)",
    "postal_code": "94974"
  },
  {
    "id": 720610,
    "province_id": 72,
    "regency_id": 7206,
    "district_id": 720610,
    "value": "Padabahao (Padabaho)",
    "postal_code": "94974"
  },
  {
    "id": 720610,
    "province_id": 72,
    "regency_id": 7206,
    "district_id": 720610,
    "value": "Siumbatu",
    "postal_code": "94974"
  }
]