[
  {
    "id": 160422,
    "province_id": 16,
    "regency_id": 1604,
    "district_id": 160422,
    "value": "Air Lingkar",
    "postal_code": "31460"
  },
  {
    "id": 160422,
    "province_id": 16,
    "regency_id": 1604,
    "district_id": 160422,
    "value": "Bandung Agung",
    "postal_code": "31460"
  },
  {
    "id": 160422,
    "province_id": 16,
    "regency_id": 1604,
    "district_id": 160422,
    "value": "Batu Rusa",
    "postal_code": "31460"
  },
  {
    "id": 160422,
    "province_id": 16,
    "regency_id": 1604,
    "district_id": 160422,
    "value": "Danau",
    "postal_code": "31460"
  },
  {
    "id": 160422,
    "province_id": 16,
    "regency_id": 1604,
    "district_id": 160422,
    "value": "Germidar Ilir (Garmidar Ilir)",
    "postal_code": "31460"
  },
  {
    "id": 160422,
    "province_id": 16,
    "regency_id": 1604,
    "district_id": 160422,
    "value": "Germidar Ulu (Garmidar Ulu)",
    "postal_code": "31460"
  },
  {
    "id": 160422,
    "province_id": 16,
    "regency_id": 1604,
    "district_id": 160422,
    "value": "Karang Agung",
    "postal_code": "31460"
  },
  {
    "id": 160422,
    "province_id": 16,
    "regency_id": 1604,
    "district_id": 160422,
    "value": "Kedaton",
    "postal_code": "31460"
  },
  {
    "id": 160422,
    "province_id": 16,
    "regency_id": 1604,
    "district_id": 160422,
    "value": "Kupang",
    "postal_code": "31460"
  },
  {
    "id": 160422,
    "province_id": 16,
    "regency_id": 1604,
    "district_id": 160422,
    "value": "Lesung Batu",
    "postal_code": "31460"
  },
  {
    "id": 160422,
    "province_id": 16,
    "regency_id": 1604,
    "district_id": 160422,
    "value": "Merindu",
    "postal_code": "31460"
  },
  {
    "id": 160422,
    "province_id": 16,
    "regency_id": 1604,
    "district_id": 160422,
    "value": "Muara Dua",
    "postal_code": "31460"
  },
  {
    "id": 160422,
    "province_id": 16,
    "regency_id": 1604,
    "district_id": 160422,
    "value": "Padang Pagun",
    "postal_code": "31460"
  },
  {
    "id": 160422,
    "province_id": 16,
    "regency_id": 1604,
    "district_id": 160422,
    "value": "Pagar Alam",
    "postal_code": "31460"
  },
  {
    "id": 160422,
    "province_id": 16,
    "regency_id": 1604,
    "district_id": 160422,
    "value": "Pagar Gunung (Pagar Agung)",
    "postal_code": "31460"
  },
  {
    "id": 160422,
    "province_id": 16,
    "regency_id": 1604,
    "district_id": 160422,
    "value": "Penantian",
    "postal_code": "31460"
  },
  {
    "id": 160422,
    "province_id": 16,
    "regency_id": 1604,
    "district_id": 160422,
    "value": "Rimba Sujud",
    "postal_code": "31460"
  },
  {
    "id": 160422,
    "province_id": 16,
    "regency_id": 1604,
    "district_id": 160422,
    "value": "Sawah Darat",
    "postal_code": "31460"
  },
  {
    "id": 160422,
    "province_id": 16,
    "regency_id": 1604,
    "district_id": 160422,
    "value": "Siring Agung",
    "postal_code": "31460"
  },
  {
    "id": 160422,
    "province_id": 16,
    "regency_id": 1604,
    "district_id": 160422,
    "value": "Tanjung Agung",
    "postal_code": "31460"
  }
]