[
  {
    "id": 3306061021,
    "province_id": 33,
    "regency_id": 3306,
    "district_id": 330606,
    "value": "Baledono",
    "postal_code": "54118"
  },
  {
    "id": 3306062003,
    "province_id": 33,
    "regency_id": 3306,
    "district_id": 330606,
    "value": "Brenggong",
    "postal_code": "54119"
  },
  {
    "id": 3306061007,
    "province_id": 33,
    "regency_id": 3306,
    "district_id": 330606,
    "value": "Cangkrepkidul (Cangkrep Kidul)",
    "postal_code": "54117"
  },
  {
    "id": 3306061008,
    "province_id": 33,
    "regency_id": 3306,
    "district_id": 330606,
    "value": "Cangkreplor (Cangkrep Lor)",
    "postal_code": "54117"
  },
  {
    "id": 3306062025,
    "province_id": 33,
    "regency_id": 3306,
    "district_id": 330606,
    "value": "Donorati",
    "postal_code": "54119"
  },
  {
    "id": 3306061014,
    "province_id": 33,
    "regency_id": 3306,
    "district_id": 330606,
    "value": "Doplang",
    "postal_code": "54114"
  },
  {
    "id": 3306062004,
    "province_id": 33,
    "regency_id": 3306,
    "district_id": 330606,
    "value": "Ganggeng",
    "postal_code": "54119"
  },
  {
    "id": 3306061011,
    "province_id": 33,
    "regency_id": 3306,
    "district_id": 330606,
    "value": "Kedungsari (Kedung Sari)",
    "postal_code": "54119"
  },
  {
    "id": 3306061020,
    "province_id": 33,
    "regency_id": 3306,
    "district_id": 330606,
    "value": "Keseneng",
    "postal_code": "54119"
  },
  {
    "id": 3306061018,
    "province_id": 33,
    "regency_id": 3306,
    "district_id": 330606,
    "value": "Mranti",
    "postal_code": "54112"
  },
  {
    "id": 3306061019,
    "province_id": 33,
    "regency_id": 3306,
    "district_id": 330606,
    "value": "Mudal",
    "postal_code": "54119"
  },
  {
    "id": 3306062001,
    "province_id": 33,
    "regency_id": 3306,
    "district_id": 330606,
    "value": "Pacekelan",
    "postal_code": "54119"
  },
  {
    "id": 3306061016,
    "province_id": 33,
    "regency_id": 3306,
    "district_id": 330606,
    "value": "Paduroso",
    "postal_code": "54112"
  },
  {
    "id": 3306061013,
    "province_id": 33,
    "regency_id": 3306,
    "district_id": 330606,
    "value": "Pangenjurutengah (Pangenjuru Tengah)",
    "postal_code": "54114"
  },
  {
    "id": 3306061012,
    "province_id": 33,
    "regency_id": 3306,
    "district_id": 330606,
    "value": "Pangenrejo",
    "postal_code": "54115"
  },
  {
    "id": 3306062002,
    "province_id": 33,
    "regency_id": 3306,
    "district_id": 330606,
    "value": "Plipir",
    "postal_code": "54119"
  },
  {
    "id": 3306061017,
    "province_id": 33,
    "regency_id": 3306,
    "district_id": 330606,
    "value": "Purworejo",
    "postal_code": "54151"
  },
  {
    "id": 3306062005,
    "province_id": 33,
    "regency_id": 3306,
    "district_id": 330606,
    "value": "Semawung",
    "postal_code": "54119"
  },
  {
    "id": 3306062023,
    "province_id": 33,
    "regency_id": 3306,
    "district_id": 330606,
    "value": "Sidomulyo (Sido Mulyo)",
    "postal_code": "54119"
  },
  {
    "id": 3306062009,
    "province_id": 33,
    "regency_id": 3306,
    "district_id": 330606,
    "value": "Sidorejo",
    "postal_code": "54119"
  },
  {
    "id": 3306061015,
    "province_id": 33,
    "regency_id": 3306,
    "district_id": 330606,
    "value": "Sindurjan",
    "postal_code": "54113"
  },
  {
    "id": 3306062024,
    "province_id": 33,
    "regency_id": 3306,
    "district_id": 330606,
    "value": "Sudimoro",
    "postal_code": "54119"
  },
  {
    "id": 3306061010,
    "province_id": 33,
    "regency_id": 3306,
    "district_id": 330606,
    "value": "Tambakrejo",
    "postal_code": "54118"
  },
  {
    "id": 3306062006,
    "province_id": 33,
    "regency_id": 3306,
    "district_id": 330606,
    "value": "Wonoroto",
    "postal_code": "54119"
  },
  {
    "id": 3306062022,
    "province_id": 33,
    "regency_id": 3306,
    "district_id": 330606,
    "value": "Wonotulus",
    "postal_code": "54119"
  }
]