[
  {
    "id": 121320,
    "province_id": 12,
    "regency_id": 1213,
    "district_id": 121320,
    "value": "Handel",
    "postal_code": "22995"
  },
  {
    "id": 121320,
    "province_id": 12,
    "regency_id": 1213,
    "district_id": 121320,
    "value": "Huta Baringin",
    "postal_code": "22995"
  },
  {
    "id": 121320,
    "province_id": 12,
    "regency_id": 1213,
    "district_id": 121320,
    "value": "Huta Baru",
    "postal_code": "22995"
  },
  {
    "id": 121320,
    "province_id": 12,
    "regency_id": 1213,
    "district_id": 121320,
    "value": "Huta Lombang",
    "postal_code": "22995"
  },
  {
    "id": 121320,
    "province_id": 12,
    "regency_id": 1213,
    "district_id": 121320,
    "value": "Hutabaringin Julu",
    "postal_code": "22995"
  },
  {
    "id": 121320,
    "province_id": 12,
    "regency_id": 1213,
    "district_id": 121320,
    "value": "Hutanamale",
    "postal_code": "22995"
  },
  {
    "id": 121320,
    "province_id": 12,
    "regency_id": 1213,
    "district_id": 121320,
    "value": "Hutatinggi",
    "postal_code": "22995"
  },
  {
    "id": 121320,
    "province_id": 12,
    "regency_id": 1213,
    "district_id": 121320,
    "value": "Purba Julu",
    "postal_code": "22995"
  },
  {
    "id": 121320,
    "province_id": 12,
    "regency_id": 1213,
    "district_id": 121320,
    "value": "Sibanggor Jae",
    "postal_code": "22995"
  },
  {
    "id": 121320,
    "province_id": 12,
    "regency_id": 1213,
    "district_id": 121320,
    "value": "Sibanggor Julu",
    "postal_code": "22995"
  },
  {
    "id": 121320,
    "province_id": 12,
    "regency_id": 1213,
    "district_id": 121320,
    "value": "Sibanggor Tonga",
    "postal_code": "22995"
  }
]