[
  {
    "id": 110612,
    "province_id": 11,
    "regency_id": 1106,
    "district_id": 110612,
    "value": "Angan",
    "postal_code": "23374"
  },
  {
    "id": 110612,
    "province_id": 11,
    "regency_id": 1106,
    "district_id": 110612,
    "value": "Berabung (Beurabung)",
    "postal_code": "23374"
  },
  {
    "id": 110612,
    "province_id": 11,
    "regency_id": 1106,
    "district_id": 110612,
    "value": "Gampong Blang",
    "postal_code": "23374"
  },
  {
    "id": 110612,
    "province_id": 11,
    "regency_id": 1106,
    "district_id": 110612,
    "value": "Gampong Cot",
    "postal_code": "23374"
  },
  {
    "id": 110612,
    "province_id": 11,
    "regency_id": 1106,
    "district_id": 110612,
    "value": "Krueng Kalee",
    "postal_code": "23374"
  },
  {
    "id": 110612,
    "province_id": 11,
    "regency_id": 1106,
    "district_id": 110612,
    "value": "Lam Asan",
    "postal_code": "23374"
  },
  {
    "id": 110612,
    "province_id": 11,
    "regency_id": 1106,
    "district_id": 110612,
    "value": "Lam Duroy",
    "postal_code": "23374"
  },
  {
    "id": 110612,
    "province_id": 11,
    "regency_id": 1106,
    "district_id": 110612,
    "value": "Lam Gawe (Lam Gawee)",
    "postal_code": "23374"
  },
  {
    "id": 110612,
    "province_id": 11,
    "regency_id": 1106,
    "district_id": 110612,
    "value": "Lam Klat",
    "postal_code": "23374"
  },
  {
    "id": 110612,
    "province_id": 11,
    "regency_id": 1106,
    "district_id": 110612,
    "value": "Lam Peudaya",
    "postal_code": "23374"
  },
  {
    "id": 110612,
    "province_id": 11,
    "regency_id": 1106,
    "district_id": 110612,
    "value": "Lam Reh",
    "postal_code": "23374"
  },
  {
    "id": 110612,
    "province_id": 11,
    "regency_id": 1106,
    "district_id": 110612,
    "value": "Lam Ujong",
    "postal_code": "23374"
  },
  {
    "id": 110612,
    "province_id": 11,
    "regency_id": 1106,
    "district_id": 110612,
    "value": "Lambada Peukan",
    "postal_code": "23374"
  },
  {
    "id": 110612,
    "province_id": 11,
    "regency_id": 1106,
    "district_id": 110612,
    "value": "Lambaro Sukon",
    "postal_code": "23374"
  },
  {
    "id": 110612,
    "province_id": 11,
    "regency_id": 1106,
    "district_id": 110612,
    "value": "Lambiheu La (Lam Biheu)",
    "postal_code": "23374"
  },
  {
    "id": 110612,
    "province_id": 11,
    "regency_id": 1106,
    "district_id": 110612,
    "value": "Lambiheu Siem",
    "postal_code": "23374"
  },
  {
    "id": 110612,
    "province_id": 11,
    "regency_id": 1106,
    "district_id": 110612,
    "value": "Lambitra (Lam Bitra)",
    "postal_code": "23374"
  },
  {
    "id": 110612,
    "province_id": 11,
    "regency_id": 1106,
    "district_id": 110612,
    "value": "Lamkeunung (Lam Keunung)",
    "postal_code": "23374"
  },
  {
    "id": 110612,
    "province_id": 11,
    "regency_id": 1106,
    "district_id": 110612,
    "value": "Lampuja (Lam Puja)",
    "postal_code": "23374"
  },
  {
    "id": 110612,
    "province_id": 11,
    "regency_id": 1106,
    "district_id": 110612,
    "value": "Lampuuk (Lam Puuk)",
    "postal_code": "23374"
  },
  {
    "id": 110612,
    "province_id": 11,
    "regency_id": 1106,
    "district_id": 110612,
    "value": "Lamtimpeung (Lam Timpeung)",
    "postal_code": "23374"
  },
  {
    "id": 110612,
    "province_id": 11,
    "regency_id": 1106,
    "district_id": 110612,
    "value": "Lie Eue",
    "postal_code": "23374"
  },
  {
    "id": 110612,
    "province_id": 11,
    "regency_id": 1106,
    "district_id": 110612,
    "value": "Limpok",
    "postal_code": "23374"
  },
  {
    "id": 110612,
    "province_id": 11,
    "regency_id": 1106,
    "district_id": 110612,
    "value": "Miruek Taman",
    "postal_code": "23374"
  },
  {
    "id": 110612,
    "province_id": 11,
    "regency_id": 1106,
    "district_id": 110612,
    "value": "Siem",
    "postal_code": "23374"
  },
  {
    "id": 110612,
    "province_id": 11,
    "regency_id": 1106,
    "district_id": 110612,
    "value": "Suleue (Seuleu)",
    "postal_code": "23374"
  },
  {
    "id": 110612,
    "province_id": 11,
    "regency_id": 1106,
    "district_id": 110612,
    "value": "Tanjong Seulamat",
    "postal_code": "23374"
  },
  {
    "id": 110612,
    "province_id": 11,
    "regency_id": 1106,
    "district_id": 110612,
    "value": "Tanjung Deah (Tanjung Deyah)",
    "postal_code": "23374"
  },
  {
    "id": 110612,
    "province_id": 11,
    "regency_id": 1106,
    "district_id": 110612,
    "value": "Tungkop",
    "postal_code": "23374"
  }
]