[
  {
    "id": 350803,
    "province_id": 35,
    "regency_id": 3508,
    "district_id": 350803,
    "value": "Candipuro",
    "postal_code": "67373"
  },
  {
    "id": 350803,
    "province_id": 35,
    "regency_id": 3508,
    "district_id": 350803,
    "value": "Jarit",
    "postal_code": "67373"
  },
  {
    "id": 350803,
    "province_id": 35,
    "regency_id": 3508,
    "district_id": 350803,
    "value": "Jugosari",
    "postal_code": "67373"
  },
  {
    "id": 350803,
    "province_id": 35,
    "regency_id": 3508,
    "district_id": 350803,
    "value": "Klopo Sawit (Kloposawit)",
    "postal_code": "67373"
  },
  {
    "id": 350803,
    "province_id": 35,
    "regency_id": 3508,
    "district_id": 350803,
    "value": "Penanggal",
    "postal_code": "67373"
  },
  {
    "id": 350803,
    "province_id": 35,
    "regency_id": 3508,
    "district_id": 350803,
    "value": "Sumber Mujur (Sumbermujur)",
    "postal_code": "67373"
  },
  {
    "id": 350803,
    "province_id": 35,
    "regency_id": 3508,
    "district_id": 350803,
    "value": "Sumber Wuluh (Sumberrejo)",
    "postal_code": "67373"
  },
  {
    "id": 350803,
    "province_id": 35,
    "regency_id": 3508,
    "district_id": 350803,
    "value": "Sumberejo (Sumberwuluh)",
    "postal_code": "67373"
  },
  {
    "id": 350803,
    "province_id": 35,
    "regency_id": 3508,
    "district_id": 350803,
    "value": "Tambahrejo",
    "postal_code": "67373"
  },
  {
    "id": 350803,
    "province_id": 35,
    "regency_id": 3508,
    "district_id": 350803,
    "value": "Tumpeng",
    "postal_code": "67373"
  }
]