[
  {
    "id": 9504352002,
    "province_id": 95,
    "regency_id": 9504,
    "district_id": 950435,
    "value": "Aukuni",
    "postal_code": "99059"
  },
  {
    "id": 9504352009,
    "province_id": 95,
    "regency_id": 9504,
    "district_id": 950435,
    "value": "Dolunggun",
    "postal_code": "99059"
  },
  {
    "id": 9504352010,
    "province_id": 95,
    "regency_id": 9504,
    "district_id": 950435,
    "value": "Kagi",
    "postal_code": "99059"
  },
  {
    "id": 9504352005,
    "province_id": 95,
    "regency_id": 9504,
    "district_id": 950435,
    "value": "Kimugu",
    "postal_code": "99059"
  },
  {
    "id": 9504352004,
    "province_id": 95,
    "regency_id": 9504,
    "district_id": 950435,
    "value": "Kimunuk",
    "postal_code": "99059"
  },
  {
    "id": 9504352007,
    "province_id": 95,
    "regency_id": 9504,
    "district_id": 950435,
    "value": "Linggira",
    "postal_code": "99059"
  },
  {
    "id": 9504352001,
    "province_id": 95,
    "regency_id": 9504,
    "district_id": 950435,
    "value": "Telenggeme",
    "postal_code": "99059"
  },
  {
    "id": 9504352003,
    "province_id": 95,
    "regency_id": 9504,
    "district_id": 950435,
    "value": "Tenek",
    "postal_code": "99059"
  },
  {
    "id": 9504352008,
    "province_id": 95,
    "regency_id": 9504,
    "district_id": 950435,
    "value": "Wekaru",
    "postal_code": "99059"
  },
  {
    "id": 9504352006,
    "province_id": 95,
    "regency_id": 9504,
    "district_id": 950435,
    "value": "Yagagobak",
    "postal_code": "99059"
  }
]