[
  {
    "id": 120208,
    "province_id": 12,
    "regency_id": 1202,
    "district_id": 120208,
    "value": "Bonani Dolok",
    "postal_code": "22464"
  },
  {
    "id": 120208,
    "province_id": 12,
    "regency_id": 1202,
    "district_id": 120208,
    "value": "Hutanagodang (Huta Nagodang)",
    "postal_code": "22464"
  },
  {
    "id": 120208,
    "province_id": 12,
    "regency_id": 1202,
    "district_id": 120208,
    "value": "Janji Nauli",
    "postal_code": "22464"
  },
  {
    "id": 120208,
    "province_id": 12,
    "regency_id": 1202,
    "district_id": 120208,
    "value": "Pardomuan Janji Angkola",
    "postal_code": "22464"
  },
  {
    "id": 120208,
    "province_id": 12,
    "regency_id": 1202,
    "district_id": 120208,
    "value": "Parsaoran Janji Angkola",
    "postal_code": "22464"
  },
  {
    "id": 120208,
    "province_id": 12,
    "regency_id": 1202,
    "district_id": 120208,
    "value": "Purba Tua (Purbatua)",
    "postal_code": "22464"
  },
  {
    "id": 120208,
    "province_id": 12,
    "regency_id": 1202,
    "district_id": 120208,
    "value": "Robean",
    "postal_code": "22464"
  },
  {
    "id": 120208,
    "province_id": 12,
    "regency_id": 1202,
    "district_id": 120208,
    "value": "Selamat",
    "postal_code": "22464"
  },
  {
    "id": 120208,
    "province_id": 12,
    "regency_id": 1202,
    "district_id": 120208,
    "value": "Sibulan Bulan",
    "postal_code": "22464"
  },
  {
    "id": 120208,
    "province_id": 12,
    "regency_id": 1202,
    "district_id": 120208,
    "value": "Sidua Bahal",
    "postal_code": "22464"
  },
  {
    "id": 120208,
    "province_id": 12,
    "regency_id": 1202,
    "district_id": 120208,
    "value": "Sitolu Ompu (Bahal)",
    "postal_code": "22464"
  }
]