[
  {
    "id": 160716,
    "province_id": 16,
    "regency_id": 1607,
    "district_id": 160716,
    "value": "Air Senggeris",
    "postal_code": "30957"
  },
  {
    "id": 160716,
    "province_id": 16,
    "regency_id": 1607,
    "district_id": 160716,
    "value": "Bengkuang",
    "postal_code": "30957"
  },
  {
    "id": 160716,
    "province_id": 16,
    "regency_id": 1607,
    "district_id": 160716,
    "value": "Biyuku",
    "postal_code": "30957"
  },
  {
    "id": 160716,
    "province_id": 16,
    "regency_id": 1607,
    "district_id": 160716,
    "value": "Durian Daun",
    "postal_code": "30957"
  },
  {
    "id": 160716,
    "province_id": 16,
    "regency_id": 1607,
    "district_id": 160716,
    "value": "Lubuk Lancang",
    "postal_code": "30957"
  },
  {
    "id": 160716,
    "province_id": 16,
    "regency_id": 1607,
    "district_id": 160716,
    "value": "Meranti",
    "postal_code": "30957"
  },
  {
    "id": 160716,
    "province_id": 16,
    "regency_id": 1607,
    "district_id": 160716,
    "value": "Rimba Terap (Rimba Terab)",
    "postal_code": "30957"
  },
  {
    "id": 160716,
    "province_id": 16,
    "regency_id": 1607,
    "district_id": 160716,
    "value": "Sedang",
    "postal_code": "30957"
  },
  {
    "id": 160716,
    "province_id": 16,
    "regency_id": 1607,
    "district_id": 160716,
    "value": "Sukaraja",
    "postal_code": "30957"
  },
  {
    "id": 160716,
    "province_id": 16,
    "regency_id": 1607,
    "district_id": 160716,
    "value": "Talang Ipuh",
    "postal_code": "30957"
  },
  {
    "id": 160716,
    "province_id": 16,
    "regency_id": 1607,
    "district_id": 160716,
    "value": "Tanjunglaut (Tanjung Laut)",
    "postal_code": "30957"
  }
]