[
  {
    "id": 710608,
    "province_id": 71,
    "regency_id": 7106,
    "district_id": 710608,
    "value": "Kalawat",
    "postal_code": "95378"
  },
  {
    "id": 710608,
    "province_id": 71,
    "regency_id": 7106,
    "district_id": 710608,
    "value": "Kaleosan",
    "postal_code": "95378"
  },
  {
    "id": 710608,
    "province_id": 71,
    "regency_id": 7106,
    "district_id": 710608,
    "value": "Kawangkoan",
    "postal_code": "95378"
  },
  {
    "id": 710608,
    "province_id": 71,
    "regency_id": 7106,
    "district_id": 710608,
    "value": "Kawangkoan Baru",
    "postal_code": "95378"
  },
  {
    "id": 710608,
    "province_id": 71,
    "regency_id": 7106,
    "district_id": 710608,
    "value": "Kolongan",
    "postal_code": "95378"
  },
  {
    "id": 710608,
    "province_id": 71,
    "regency_id": 7106,
    "district_id": 710608,
    "value": "Kolongan Tetempangan",
    "postal_code": "95378"
  },
  {
    "id": 710608,
    "province_id": 71,
    "regency_id": 7106,
    "district_id": 710608,
    "value": "Kuwil",
    "postal_code": "95378"
  },
  {
    "id": 710608,
    "province_id": 71,
    "regency_id": 7106,
    "district_id": 710608,
    "value": "Maumbi",
    "postal_code": "95378"
  },
  {
    "id": 710608,
    "province_id": 71,
    "regency_id": 7106,
    "district_id": 710608,
    "value": "Suwaan",
    "postal_code": "95378"
  },
  {
    "id": 710608,
    "province_id": 71,
    "regency_id": 7106,
    "district_id": 710608,
    "value": "Watutumou (Watutumou I)",
    "postal_code": "95378"
  },
  {
    "id": 710608,
    "province_id": 71,
    "regency_id": 7106,
    "district_id": 710608,
    "value": "Watutumou Dua (Watutumou II)",
    "postal_code": "95378"
  },
  {
    "id": 710608,
    "province_id": 71,
    "regency_id": 7106,
    "district_id": 710608,
    "value": "Watutumou Tiga (Watutumou III)",
    "postal_code": "95378"
  }
]