[
  {
    "id": 740601,
    "province_id": 74,
    "regency_id": 7406,
    "district_id": 740601,
    "value": "Barangka (Barangga)",
    "postal_code": "93772"
  },
  {
    "id": 740601,
    "province_id": 74,
    "regency_id": 7406,
    "district_id": 740601,
    "value": "Boeara",
    "postal_code": "93772"
  },
  {
    "id": 740601,
    "province_id": 74,
    "regency_id": 7406,
    "district_id": 740601,
    "value": "Boepinang",
    "postal_code": "93772"
  },
  {
    "id": 740601,
    "province_id": 74,
    "regency_id": 7406,
    "district_id": 740601,
    "value": "Boepinang Barat",
    "postal_code": "93772"
  },
  {
    "id": 740601,
    "province_id": 74,
    "regency_id": 7406,
    "district_id": 740601,
    "value": "Kasabolo",
    "postal_code": "93772"
  },
  {
    "id": 740601,
    "province_id": 74,
    "regency_id": 7406,
    "district_id": 740601,
    "value": "Kastarib",
    "postal_code": "93772"
  },
  {
    "id": 740601,
    "province_id": 74,
    "regency_id": 7406,
    "district_id": 740601,
    "value": "Matiro Walie",
    "postal_code": "93772"
  },
  {
    "id": 740601,
    "province_id": 74,
    "regency_id": 7406,
    "district_id": 740601,
    "value": "Pallimae",
    "postal_code": "93772"
  },
  {
    "id": 740601,
    "province_id": 74,
    "regency_id": 7406,
    "district_id": 740601,
    "value": "Pukurumba (Pokorumba)",
    "postal_code": "93772"
  },
  {
    "id": 740601,
    "province_id": 74,
    "regency_id": 7406,
    "district_id": 740601,
    "value": "Salosa",
    "postal_code": "93772"
  }
]