[
  {
    "id": 717109,
    "province_id": 71,
    "regency_id": 7171,
    "district_id": 717109,
    "value": "Bahu",
    "postal_code": "95115"
  },
  {
    "id": 717109,
    "province_id": 71,
    "regency_id": 7171,
    "district_id": 717109,
    "value": "Batu Kota",
    "postal_code": "95163"
  },
  {
    "id": 717109,
    "province_id": 71,
    "regency_id": 7171,
    "district_id": 717109,
    "value": "Kleak",
    "postal_code": "95115"
  },
  {
    "id": 717109,
    "province_id": 71,
    "regency_id": 7171,
    "district_id": 717109,
    "value": "Malalayang Dua (II)",
    "postal_code": "95163"
  },
  {
    "id": 717109,
    "province_id": 71,
    "regency_id": 7171,
    "district_id": 717109,
    "value": "Malalayang Satu (I)",
    "postal_code": "95162"
  },
  {
    "id": 717109,
    "province_id": 71,
    "regency_id": 7171,
    "district_id": 717109,
    "value": "Malalayang Satu Barat",
    "postal_code": "95163"
  },
  {
    "id": 717109,
    "province_id": 71,
    "regency_id": 7171,
    "district_id": 717109,
    "value": "Malalayang Satu Timur",
    "postal_code": "95163"
  },
  {
    "id": 717109,
    "province_id": 71,
    "regency_id": 7171,
    "district_id": 717109,
    "value": "Winangun Dua",
    "postal_code": "95161"
  },
  {
    "id": 717109,
    "province_id": 71,
    "regency_id": 7171,
    "district_id": 717109,
    "value": "Winangun Satu",
    "postal_code": "95161"
  }
]