[
  {
    "id": 3302092007,
    "province_id": 33,
    "regency_id": 3302,
    "district_id": 330209,
    "value": "Kanding",
    "postal_code": "53193"
  },
  {
    "id": 3302092005,
    "province_id": 33,
    "regency_id": 3302,
    "district_id": 330209,
    "value": "Kemawi",
    "postal_code": "53193"
  },
  {
    "id": 3302092004,
    "province_id": 33,
    "regency_id": 3302,
    "district_id": 330209,
    "value": "Klinting",
    "postal_code": "53193"
  },
  {
    "id": 3302092006,
    "province_id": 33,
    "regency_id": 3302,
    "district_id": 330209,
    "value": "Piasa Kulon",
    "postal_code": "53193"
  },
  {
    "id": 3302092009,
    "province_id": 33,
    "regency_id": 3302,
    "district_id": 330209,
    "value": "Plana",
    "postal_code": "53193"
  },
  {
    "id": 3302092002,
    "province_id": 33,
    "regency_id": 3302,
    "district_id": 330209,
    "value": "Sokawera",
    "postal_code": "53193"
  },
  {
    "id": 3302092003,
    "province_id": 33,
    "regency_id": 3302,
    "district_id": 330209,
    "value": "Somagede",
    "postal_code": "53193"
  },
  {
    "id": 3302092008,
    "province_id": 33,
    "regency_id": 3302,
    "district_id": 330209,
    "value": "Somakaton",
    "postal_code": "53193"
  },
  {
    "id": 3302092001,
    "province_id": 33,
    "regency_id": 3302,
    "district_id": 330209,
    "value": "Tanggeran",
    "postal_code": "53193"
  }
]