[
  {
    "id": 7101312001,
    "province_id": 71,
    "regency_id": 7101,
    "district_id": 710131,
    "value": "Ambang I",
    "postal_code": "95754"
  },
  {
    "id": 7101312002,
    "province_id": 71,
    "regency_id": 7101,
    "district_id": 710131,
    "value": "Ambang II",
    "postal_code": "95754"
  },
  {
    "id": 7101312005,
    "province_id": 71,
    "regency_id": 7101,
    "district_id": 710131,
    "value": "Bantik",
    "postal_code": "95754"
  },
  {
    "id": 7101312004,
    "province_id": 71,
    "regency_id": 7101,
    "district_id": 710131,
    "value": "Bolaang",
    "postal_code": "95754"
  },
  {
    "id": 7101312008,
    "province_id": 71,
    "regency_id": 7101,
    "district_id": 710131,
    "value": "Bolaang Satu",
    "postal_code": "95754"
  },
  {
    "id": 7101312006,
    "province_id": 71,
    "regency_id": 7101,
    "district_id": 710131,
    "value": "Lolan",
    "postal_code": "95754"
  },
  {
    "id": 7101312009,
    "province_id": 71,
    "regency_id": 7101,
    "district_id": 710131,
    "value": "Lolan Dua",
    "postal_code": "95754"
  },
  {
    "id": 7101312003,
    "province_id": 71,
    "regency_id": 7101,
    "district_id": 710131,
    "value": "Tadoy",
    "postal_code": "95754"
  },
  {
    "id": 7101312007,
    "province_id": 71,
    "regency_id": 7101,
    "district_id": 710131,
    "value": "Tadoy I",
    "postal_code": "95754"
  }
]