[
  {
    "id": 530104,
    "province_id": 53,
    "regency_id": 5301,
    "district_id": 530104,
    "value": "Batuinan",
    "postal_code": "85352"
  },
  {
    "id": 530104,
    "province_id": 53,
    "regency_id": 5301,
    "district_id": 530104,
    "value": "Bokonusan",
    "postal_code": "85352"
  },
  {
    "id": 530104,
    "province_id": 53,
    "regency_id": 5301,
    "district_id": 530104,
    "value": "Hansisi",
    "postal_code": "85352"
  },
  {
    "id": 530104,
    "province_id": 53,
    "regency_id": 5301,
    "district_id": 530104,
    "value": "Huilelot",
    "postal_code": "85352"
  },
  {
    "id": 530104,
    "province_id": 53,
    "regency_id": 5301,
    "district_id": 530104,
    "value": "Letbaun",
    "postal_code": "85352"
  },
  {
    "id": 530104,
    "province_id": 53,
    "regency_id": 5301,
    "district_id": 530104,
    "value": "Otan",
    "postal_code": "85352"
  },
  {
    "id": 530104,
    "province_id": 53,
    "regency_id": 5301,
    "district_id": 530104,
    "value": "Uiasa",
    "postal_code": "85352"
  },
  {
    "id": 530104,
    "province_id": 53,
    "regency_id": 5301,
    "district_id": 530104,
    "value": "Uitao",
    "postal_code": "85352"
  }
]