[
  {
    "id": 6310072006,
    "province_id": 63,
    "regency_id": 6310,
    "district_id": 631007,
    "value": "Batu Licin Irigasi (Batulicin Irigasi)",
    "postal_code": "72211"
  },
  {
    "id": 6310072001,
    "province_id": 63,
    "regency_id": 6310,
    "district_id": 631007,
    "value": "Karang Bintang",
    "postal_code": "72211"
  },
  {
    "id": 6310072013,
    "province_id": 63,
    "regency_id": 6310,
    "district_id": 631007,
    "value": "Karang Nunggal",
    "postal_code": "72211"
  },
  {
    "id": 6310072012,
    "province_id": 63,
    "regency_id": 6310,
    "district_id": 631007,
    "value": "Karang Rejo",
    "postal_code": "72211"
  },
  {
    "id": 6310072010,
    "province_id": 63,
    "regency_id": 6310,
    "district_id": 631007,
    "value": "Madu Retno",
    "postal_code": "72211"
  },
  {
    "id": 6310072011,
    "province_id": 63,
    "regency_id": 6310,
    "district_id": 631007,
    "value": "Maju Sejahtera",
    "postal_code": "72211"
  },
  {
    "id": 6310072007,
    "province_id": 63,
    "regency_id": 6310,
    "district_id": 631007,
    "value": "Manunggal",
    "postal_code": "72211"
  },
  {
    "id": 6310072002,
    "province_id": 63,
    "regency_id": 6310,
    "district_id": 631007,
    "value": "Pandan Sari",
    "postal_code": "72211"
  },
  {
    "id": 6310072005,
    "province_id": 63,
    "regency_id": 6310,
    "district_id": 631007,
    "value": "Pematang Ulin",
    "postal_code": "72211"
  },
  {
    "id": 6310072003,
    "province_id": 63,
    "regency_id": 6310,
    "district_id": 631007,
    "value": "Rejo Winangun",
    "postal_code": "72211"
  },
  {
    "id": 6310072004,
    "province_id": 63,
    "regency_id": 6310,
    "district_id": 631007,
    "value": "Selaselilau (Sela Selilau)",
    "postal_code": "72211"
  },
  {
    "id": 6310072009,
    "province_id": 63,
    "regency_id": 6310,
    "district_id": 631007,
    "value": "Sumber Wangi",
    "postal_code": "72211"
  }
]