[
  {
    "id": 820605,
    "province_id": 82,
    "regency_id": 8206,
    "district_id": 820605,
    "value": "Boki Miake (Bokimaake)",
    "postal_code": "97867"
  },
  {
    "id": 820605,
    "province_id": 82,
    "regency_id": 8206,
    "district_id": 820605,
    "value": "Foli (Foly)",
    "postal_code": "97867"
  },
  {
    "id": 820605,
    "province_id": 82,
    "regency_id": 8206,
    "district_id": 820605,
    "value": "Hate Tabako (Hatetabako)",
    "postal_code": "97867"
  },
  {
    "id": 820605,
    "province_id": 82,
    "regency_id": 8206,
    "district_id": 820605,
    "value": "Kakaraino",
    "postal_code": "97867"
  },
  {
    "id": 820605,
    "province_id": 82,
    "regency_id": 8206,
    "district_id": 820605,
    "value": "Lolobata",
    "postal_code": "97867"
  },
  {
    "id": 820605,
    "province_id": 82,
    "regency_id": 8206,
    "district_id": 820605,
    "value": "Nyaolako",
    "postal_code": "97867"
  },
  {
    "id": 820605,
    "province_id": 82,
    "regency_id": 8206,
    "district_id": 820605,
    "value": "Puao",
    "postal_code": "97867"
  },
  {
    "id": 820605,
    "province_id": 82,
    "regency_id": 8206,
    "district_id": 820605,
    "value": "Silalaysang (Silalayang)",
    "postal_code": "97867"
  }
]