[
  {
    "id": 920921,
    "province_id": 92,
    "regency_id": 9209,
    "district_id": 920921,
    "value": "Bao",
    "postal_code": "98368"
  },
  {
    "id": 920921,
    "province_id": 92,
    "regency_id": 9209,
    "district_id": 920921,
    "value": "Batdey",
    "postal_code": "98368"
  },
  {
    "id": 920921,
    "province_id": 92,
    "regency_id": 9209,
    "district_id": 920921,
    "value": "Dombron",
    "postal_code": "98376"
  },
  {
    "id": 920921,
    "province_id": 92,
    "regency_id": 9209,
    "district_id": 920921,
    "value": "Donan",
    "postal_code": "98376"
  },
  {
    "id": 920921,
    "province_id": 92,
    "regency_id": 9209,
    "district_id": 920921,
    "value": "Jokbujoker",
    "postal_code": "98368"
  },
  {
    "id": 920921,
    "province_id": 92,
    "regency_id": 9209,
    "district_id": 920921,
    "value": "Kranfotsu",
    "postal_code": "98368"
  },
  {
    "id": 920921,
    "province_id": 92,
    "regency_id": 9209,
    "district_id": 920921,
    "value": "Kwesefo",
    "postal_code": "98368"
  },
  {
    "id": 920921,
    "province_id": 92,
    "regency_id": 9209,
    "district_id": 920921,
    "value": "Syuau",
    "postal_code": "98368"
  },
  {
    "id": 920921,
    "province_id": 92,
    "regency_id": 9209,
    "district_id": 920921,
    "value": "Syumbi",
    "postal_code": "98368"
  }
]