[
  {
    "id": 140110,
    "province_id": 14,
    "regency_id": 1401,
    "district_id": 140110,
    "value": "Air Terbit",
    "postal_code": "28464"
  },
  {
    "id": 140110,
    "province_id": 14,
    "regency_id": 1401,
    "district_id": 140110,
    "value": "Batugajah (Batu Gajah)",
    "postal_code": "28464"
  },
  {
    "id": 140110,
    "province_id": 14,
    "regency_id": 1401,
    "district_id": 140110,
    "value": "Bencah Kelubi",
    "postal_code": "28464"
  },
  {
    "id": 140110,
    "province_id": 14,
    "regency_id": 1401,
    "district_id": 140110,
    "value": "Gading Sari",
    "postal_code": "28464"
  },
  {
    "id": 140110,
    "province_id": 14,
    "regency_id": 1401,
    "district_id": 140110,
    "value": "Indra Sakti",
    "postal_code": "28464"
  },
  {
    "id": 140110,
    "province_id": 14,
    "regency_id": 1401,
    "district_id": 140110,
    "value": "Indrapuri",
    "postal_code": "28464"
  },
  {
    "id": 140110,
    "province_id": 14,
    "regency_id": 1401,
    "district_id": 140110,
    "value": "Karya Indah",
    "postal_code": "28464"
  },
  {
    "id": 140110,
    "province_id": 14,
    "regency_id": 1401,
    "district_id": 140110,
    "value": "Kijang Rejo",
    "postal_code": "28464"
  },
  {
    "id": 140110,
    "province_id": 14,
    "regency_id": 1401,
    "district_id": 140110,
    "value": "Kinantan/Kenantan",
    "postal_code": "28464"
  },
  {
    "id": 140110,
    "province_id": 14,
    "regency_id": 1401,
    "district_id": 140110,
    "value": "Muara Mahat Baru",
    "postal_code": "28464"
  },
  {
    "id": 140110,
    "province_id": 14,
    "regency_id": 1401,
    "district_id": 140110,
    "value": "Mukti Sari",
    "postal_code": "28464"
  },
  {
    "id": 140110,
    "province_id": 14,
    "regency_id": 1401,
    "district_id": 140110,
    "value": "Pagaruyung",
    "postal_code": "28464"
  },
  {
    "id": 140110,
    "province_id": 14,
    "regency_id": 1401,
    "district_id": 140110,
    "value": "Pancuran Gading",
    "postal_code": "28464"
  },
  {
    "id": 140110,
    "province_id": 14,
    "regency_id": 1401,
    "district_id": 140110,
    "value": "Pantai Cermin",
    "postal_code": "28464"
  },
  {
    "id": 140110,
    "province_id": 14,
    "regency_id": 1401,
    "district_id": 140110,
    "value": "Patahapan Jaya (Petapahan Jaya)",
    "postal_code": "28464"
  },
  {
    "id": 140110,
    "province_id": 14,
    "regency_id": 1401,
    "district_id": 140110,
    "value": "Pelambayan (Pelambaian)",
    "postal_code": "28464"
  },
  {
    "id": 140110,
    "province_id": 14,
    "regency_id": 1401,
    "district_id": 140110,
    "value": "Petapahan",
    "postal_code": "28464"
  },
  {
    "id": 140110,
    "province_id": 14,
    "regency_id": 1401,
    "district_id": 140110,
    "value": "Sari Galuh",
    "postal_code": "28464"
  },
  {
    "id": 140110,
    "province_id": 14,
    "regency_id": 1401,
    "district_id": 140110,
    "value": "Sei/Sungai Agung",
    "postal_code": "28464"
  },
  {
    "id": 140110,
    "province_id": 14,
    "regency_id": 1401,
    "district_id": 140110,
    "value": "Sei/Sungai Lembu Makmur",
    "postal_code": "28464"
  },
  {
    "id": 140110,
    "province_id": 14,
    "regency_id": 1401,
    "district_id": 140110,
    "value": "Sei/Sungai Putih",
    "postal_code": "28464"
  },
  {
    "id": 140110,
    "province_id": 14,
    "regency_id": 1401,
    "district_id": 140110,
    "value": "Sibuak",
    "postal_code": "28464"
  },
  {
    "id": 140110,
    "province_id": 14,
    "regency_id": 1401,
    "district_id": 140110,
    "value": "Sumber Makmur",
    "postal_code": "28464"
  },
  {
    "id": 140110,
    "province_id": 14,
    "regency_id": 1401,
    "district_id": 140110,
    "value": "Tanjung Sawit",
    "postal_code": "28464"
  },
  {
    "id": 140110,
    "province_id": 14,
    "regency_id": 1401,
    "district_id": 140110,
    "value": "Tri Manunggal",
    "postal_code": "28464"
  }
]