[
  {
    "id": 1708022023,
    "province_id": 17,
    "regency_id": 1708,
    "district_id": 170802,
    "value": "Air Hitam",
    "postal_code": "39370"
  },
  {
    "id": 1708022009,
    "province_id": 17,
    "regency_id": 1708,
    "district_id": 170802,
    "value": "Bumi Sari",
    "postal_code": "39370"
  },
  {
    "id": 1708022016,
    "province_id": 17,
    "regency_id": 1708,
    "district_id": 170802,
    "value": "Cugung Lalang",
    "postal_code": "39370"
  },
  {
    "id": 1708022001,
    "province_id": 17,
    "regency_id": 1708,
    "district_id": 170802,
    "value": "Daspeta (Daspetah)",
    "postal_code": "39370"
  },
  {
    "id": 1708022024,
    "province_id": 17,
    "regency_id": 1708,
    "district_id": 170802,
    "value": "Daspetah II",
    "postal_code": "39370"
  },
  {
    "id": 1708022021,
    "province_id": 17,
    "regency_id": 1708,
    "district_id": 170802,
    "value": "Meranti Jaya",
    "postal_code": "39370"
  },
  {
    "id": 1708022008,
    "province_id": 17,
    "regency_id": 1708,
    "district_id": 170802,
    "value": "Pekalongan",
    "postal_code": "39370"
  },
  {
    "id": 1708022019,
    "province_id": 17,
    "regency_id": 1708,
    "district_id": 170802,
    "value": "Pungguk Meranti",
    "postal_code": "39370"
  },
  {
    "id": 1708022020,
    "province_id": 17,
    "regency_id": 1708,
    "district_id": 170802,
    "value": "Pungguk Meringang",
    "postal_code": "39370"
  },
  {
    "id": 1708022018,
    "province_id": 17,
    "regency_id": 1708,
    "district_id": 170802,
    "value": "Suro Bali",
    "postal_code": "39370"
  },
  {
    "id": 1708022007,
    "province_id": 17,
    "regency_id": 1708,
    "district_id": 170802,
    "value": "Suro Baru",
    "postal_code": "39370"
  },
  {
    "id": 1708022005,
    "province_id": 17,
    "regency_id": 1708,
    "district_id": 170802,
    "value": "Suro Ilir",
    "postal_code": "39370"
  },
  {
    "id": 1708022003,
    "province_id": 17,
    "regency_id": 1708,
    "district_id": 170802,
    "value": "Suro Lembak",
    "postal_code": "39370"
  },
  {
    "id": 1708022006,
    "province_id": 17,
    "regency_id": 1708,
    "district_id": 170802,
    "value": "Suro Muncar",
    "postal_code": "39370"
  },
  {
    "id": 1708022004,
    "province_id": 17,
    "regency_id": 1708,
    "district_id": 170802,
    "value": "Tanjung Alam",
    "postal_code": "39370"
  },
  {
    "id": 1708021002,
    "province_id": 17,
    "regency_id": 1708,
    "district_id": 170802,
    "value": "Ujan Mas Atas",
    "postal_code": "39370"
  },
  {
    "id": 1708022017,
    "province_id": 17,
    "regency_id": 1708,
    "district_id": 170802,
    "value": "Ujan Mas Bawah",
    "postal_code": "39370"
  }
]