[
  {
    "id": 7317132008,
    "province_id": 73,
    "regency_id": 7317,
    "district_id": 731713,
    "value": "Bunga Eja",
    "postal_code": "91994"
  },
  {
    "id": 7317131001,
    "province_id": 73,
    "regency_id": 7317,
    "district_id": 731713,
    "value": "Cilallang",
    "postal_code": "91994"
  },
  {
    "id": 7317132002,
    "province_id": 73,
    "regency_id": 7317,
    "district_id": 731713,
    "value": "Kamanre",
    "postal_code": "91994"
  },
  {
    "id": 7317132004,
    "province_id": 73,
    "regency_id": 7317,
    "district_id": 731713,
    "value": "Libukang",
    "postal_code": "91994"
  },
  {
    "id": 7317132006,
    "province_id": 73,
    "regency_id": 7317,
    "district_id": 731713,
    "value": "Salu Paremang",
    "postal_code": "91994"
  },
  {
    "id": 7317132007,
    "province_id": 73,
    "regency_id": 7317,
    "district_id": 731713,
    "value": "Salu Paremang Selatan (Saluparemang Selatan)",
    "postal_code": "91994"
  },
  {
    "id": 7317132003,
    "province_id": 73,
    "regency_id": 7317,
    "district_id": 731713,
    "value": "Tabbaja",
    "postal_code": "91994"
  },
  {
    "id": 7317132005,
    "province_id": 73,
    "regency_id": 7317,
    "district_id": 731713,
    "value": "Wara",
    "postal_code": "91994"
  }
]