[
  {
    "id": 3308092011,
    "province_id": 33,
    "regency_id": 3308,
    "district_id": 330809,
    "value": "Ambartawang",
    "postal_code": "56512"
  },
  {
    "id": 3308092013,
    "province_id": 33,
    "regency_id": 3308,
    "district_id": 330809,
    "value": "Blondo",
    "postal_code": "56512"
  },
  {
    "id": 3308092008,
    "province_id": 33,
    "regency_id": 3308,
    "district_id": 330809,
    "value": "Bojong",
    "postal_code": "56512"
  },
  {
    "id": 3308092012,
    "province_id": 33,
    "regency_id": 3308,
    "district_id": 330809,
    "value": "Bumirejo",
    "postal_code": "56512"
  },
  {
    "id": 3308092015,
    "province_id": 33,
    "regency_id": 3308,
    "district_id": 330809,
    "value": "Gondang",
    "postal_code": "56512"
  },
  {
    "id": 3308091003,
    "province_id": 33,
    "regency_id": 3308,
    "district_id": 330809,
    "value": "Mendut",
    "postal_code": "56512"
  },
  {
    "id": 3308092010,
    "province_id": 33,
    "regency_id": 3308,
    "district_id": 330809,
    "value": "Mungkid",
    "postal_code": "56512"
  },
  {
    "id": 3308092002,
    "province_id": 33,
    "regency_id": 3308,
    "district_id": 330809,
    "value": "Ngrajek",
    "postal_code": "56512"
  },
  {
    "id": 3308092007,
    "province_id": 33,
    "regency_id": 3308,
    "district_id": 330809,
    "value": "Pabelan",
    "postal_code": "56512"
  },
  {
    "id": 3308092009,
    "province_id": 33,
    "regency_id": 3308,
    "district_id": 330809,
    "value": "Pagersari",
    "postal_code": "56512"
  },
  {
    "id": 3308092006,
    "province_id": 33,
    "regency_id": 3308,
    "district_id": 330809,
    "value": "Paremono",
    "postal_code": "56512"
  },
  {
    "id": 3308092001,
    "province_id": 33,
    "regency_id": 3308,
    "district_id": 330809,
    "value": "Progowati",
    "postal_code": "56512"
  },
  {
    "id": 3308092005,
    "province_id": 33,
    "regency_id": 3308,
    "district_id": 330809,
    "value": "Rambeanak",
    "postal_code": "56512"
  },
  {
    "id": 3308091004,
    "province_id": 33,
    "regency_id": 3308,
    "district_id": 330809,
    "value": "Sawitan",
    "postal_code": "56511"
  },
  {
    "id": 3308092014,
    "province_id": 33,
    "regency_id": 3308,
    "district_id": 330809,
    "value": "Senden",
    "postal_code": "56512"
  },
  {
    "id": 3308092016,
    "province_id": 33,
    "regency_id": 3308,
    "district_id": 330809,
    "value": "Treko",
    "postal_code": "56512"
  }
]