[
  {
    "id": 510201,
    "province_id": 51,
    "regency_id": 5102,
    "district_id": 510201,
    "value": "Antap",
    "postal_code": "82164"
  },
  {
    "id": 510201,
    "province_id": 51,
    "regency_id": 5102,
    "district_id": 510201,
    "value": "Bajera",
    "postal_code": "82164"
  },
  {
    "id": 510201,
    "province_id": 51,
    "regency_id": 5102,
    "district_id": 510201,
    "value": "Bajera Utara",
    "postal_code": "82164"
  },
  {
    "id": 510201,
    "province_id": 51,
    "regency_id": 5102,
    "district_id": 510201,
    "value": "Berembeng",
    "postal_code": "82164"
  },
  {
    "id": 510201,
    "province_id": 51,
    "regency_id": 5102,
    "district_id": 510201,
    "value": "Manikyang",
    "postal_code": "82164"
  },
  {
    "id": 510201,
    "province_id": 51,
    "regency_id": 5102,
    "district_id": 510201,
    "value": "Pupuan Sawah",
    "postal_code": "82164"
  },
  {
    "id": 510201,
    "province_id": 51,
    "regency_id": 5102,
    "district_id": 510201,
    "value": "Sarampingan (Serampingan)",
    "postal_code": "82164"
  },
  {
    "id": 510201,
    "province_id": 51,
    "regency_id": 5102,
    "district_id": 510201,
    "value": "Selemadeg",
    "postal_code": "82164"
  },
  {
    "id": 510201,
    "province_id": 51,
    "regency_id": 5102,
    "district_id": 510201,
    "value": "Wanagiri",
    "postal_code": "82164"
  },
  {
    "id": 510201,
    "province_id": 51,
    "regency_id": 5102,
    "district_id": 510201,
    "value": "Wanagiri Kauh",
    "postal_code": "82164"
  }
]