[
  {
    "id": 750507,
    "province_id": 75,
    "regency_id": 7505,
    "district_id": 750507,
    "value": "Bubode",
    "postal_code": "96512"
  },
  {
    "id": 750507,
    "province_id": 75,
    "regency_id": 7505,
    "district_id": 750507,
    "value": "Bulango Raya",
    "postal_code": "96512"
  },
  {
    "id": 750507,
    "province_id": 75,
    "regency_id": 7505,
    "district_id": 750507,
    "value": "Dambalo",
    "postal_code": "96512"
  },
  {
    "id": 750507,
    "province_id": 75,
    "regency_id": 7505,
    "district_id": 750507,
    "value": "Huidu Melito",
    "postal_code": "96512"
  },
  {
    "id": 750507,
    "province_id": 75,
    "regency_id": 7505,
    "district_id": 750507,
    "value": "Jembatan Merah",
    "postal_code": "96512"
  },
  {
    "id": 750507,
    "province_id": 75,
    "regency_id": 7505,
    "district_id": 750507,
    "value": "Leyao",
    "postal_code": "96512"
  },
  {
    "id": 750507,
    "province_id": 75,
    "regency_id": 7505,
    "district_id": 750507,
    "value": "Milango",
    "postal_code": "96512"
  },
  {
    "id": 750507,
    "province_id": 75,
    "regency_id": 7505,
    "district_id": 750507,
    "value": "Molantadu",
    "postal_code": "96512"
  },
  {
    "id": 750507,
    "province_id": 75,
    "regency_id": 7505,
    "district_id": 750507,
    "value": "Mutiara Laut",
    "postal_code": "96512"
  },
  {
    "id": 750507,
    "province_id": 75,
    "regency_id": 7505,
    "district_id": 750507,
    "value": "Tanjung Karang",
    "postal_code": "96512"
  }
]