[
  {
    "id": 640204,
    "province_id": 64,
    "regency_id": 6402,
    "district_id": 640204,
    "value": "Anggana",
    "postal_code": "75381"
  },
  {
    "id": 640204,
    "province_id": 64,
    "regency_id": 6402,
    "district_id": 640204,
    "value": "Handil Terusan",
    "postal_code": "75381"
  },
  {
    "id": 640204,
    "province_id": 64,
    "regency_id": 6402,
    "district_id": 640204,
    "value": "Kutai Lama",
    "postal_code": "75381"
  },
  {
    "id": 640204,
    "province_id": 64,
    "regency_id": 6402,
    "district_id": 640204,
    "value": "Muara Pantuan",
    "postal_code": "75381"
  },
  {
    "id": 640204,
    "province_id": 64,
    "regency_id": 6402,
    "district_id": 640204,
    "value": "Sepatin",
    "postal_code": "75381"
  },
  {
    "id": 640204,
    "province_id": 64,
    "regency_id": 6402,
    "district_id": 640204,
    "value": "Sidomulyo",
    "postal_code": "76131"
  },
  {
    "id": 640204,
    "province_id": 64,
    "regency_id": 6402,
    "district_id": 640204,
    "value": "Sungai Meriam",
    "postal_code": "75381"
  },
  {
    "id": 640204,
    "province_id": 64,
    "regency_id": 6402,
    "district_id": 640204,
    "value": "Tani Baru",
    "postal_code": "75381"
  }
]