[
  {
    "id": 7106012007,
    "province_id": 71,
    "regency_id": 7106,
    "district_id": 710601,
    "value": "Kema I (Kema Satu)",
    "postal_code": "95379"
  },
  {
    "id": 7106012006,
    "province_id": 71,
    "regency_id": 7106,
    "district_id": 710601,
    "value": "Kema II (Kema Dua)",
    "postal_code": "95379"
  },
  {
    "id": 7106012005,
    "province_id": 71,
    "regency_id": 7106,
    "district_id": 710601,
    "value": "Kema III (Kema Tiga)",
    "postal_code": "95379"
  },
  {
    "id": 7106012004,
    "province_id": 71,
    "regency_id": 7106,
    "district_id": 710601,
    "value": "Lansot",
    "postal_code": "95379"
  },
  {
    "id": 7106012003,
    "province_id": 71,
    "regency_id": 7106,
    "district_id": 710601,
    "value": "Lilang",
    "postal_code": "95379"
  },
  {
    "id": 7106012001,
    "province_id": 71,
    "regency_id": 7106,
    "district_id": 710601,
    "value": "Makalisung",
    "postal_code": "95379"
  },
  {
    "id": 7106012009,
    "province_id": 71,
    "regency_id": 7106,
    "district_id": 710601,
    "value": "Tontaalete Rok-rok",
    "postal_code": "95379"
  },
  {
    "id": 7106012008,
    "province_id": 71,
    "regency_id": 7106,
    "district_id": 710601,
    "value": "Tontalete",
    "postal_code": "95379"
  },
  {
    "id": 7106012002,
    "province_id": 71,
    "regency_id": 7106,
    "district_id": 710601,
    "value": "Waleo",
    "postal_code": "95379"
  },
  {
    "id": 7106012010,
    "province_id": 71,
    "regency_id": 7106,
    "district_id": 710601,
    "value": "Waleo Dua",
    "postal_code": "95379"
  }
]