[
  {
    "id": 330115,
    "province_id": 33,
    "regency_id": 3301,
    "district_id": 330115,
    "value": "Adimulya",
    "postal_code": "53265"
  },
  {
    "id": 330115,
    "province_id": 33,
    "regency_id": 3301,
    "district_id": 330115,
    "value": "Bantar",
    "postal_code": "53265"
  },
  {
    "id": 330115,
    "province_id": 33,
    "regency_id": 3301,
    "district_id": 330115,
    "value": "Cigintung",
    "postal_code": "53222"
  },
  {
    "id": 330115,
    "province_id": 33,
    "regency_id": 3301,
    "district_id": 330115,
    "value": "Cilongkrang",
    "postal_code": "53265"
  },
  {
    "id": 330115,
    "province_id": 33,
    "regency_id": 3301,
    "district_id": 330115,
    "value": "Jambu",
    "postal_code": "53265"
  },
  {
    "id": 330115,
    "province_id": 33,
    "regency_id": 3301,
    "district_id": 330115,
    "value": "Limbangan",
    "postal_code": "53232"
  },
  {
    "id": 330115,
    "province_id": 33,
    "regency_id": 3301,
    "district_id": 330115,
    "value": "Madura",
    "postal_code": "53265"
  },
  {
    "id": 330115,
    "province_id": 33,
    "regency_id": 3301,
    "district_id": 330115,
    "value": "Madusari",
    "postal_code": "53265"
  },
  {
    "id": 330115,
    "province_id": 33,
    "regency_id": 3301,
    "district_id": 330115,
    "value": "Majingklak",
    "postal_code": "53265"
  },
  {
    "id": 330115,
    "province_id": 33,
    "regency_id": 3301,
    "district_id": 330115,
    "value": "Malabar",
    "postal_code": "53265"
  },
  {
    "id": 330115,
    "province_id": 33,
    "regency_id": 3301,
    "district_id": 330115,
    "value": "Palugon",
    "postal_code": "53265"
  },
  {
    "id": 330115,
    "province_id": 33,
    "regency_id": 3301,
    "district_id": 330115,
    "value": "Purwasari",
    "postal_code": "53265"
  },
  {
    "id": 330115,
    "province_id": 33,
    "regency_id": 3301,
    "district_id": 330115,
    "value": "Sidamulya",
    "postal_code": "53265"
  },
  {
    "id": 330115,
    "province_id": 33,
    "regency_id": 3301,
    "district_id": 330115,
    "value": "Tambaksari",
    "postal_code": "53265"
  },
  {
    "id": 330115,
    "province_id": 33,
    "regency_id": 3301,
    "district_id": 330115,
    "value": "Tarisi",
    "postal_code": "53265"
  },
  {
    "id": 330115,
    "province_id": 33,
    "regency_id": 3301,
    "district_id": 330115,
    "value": "Wanareja",
    "postal_code": "53265"
  }
]