[
  {
    "id": 7322142003,
    "province_id": 73,
    "regency_id": 7322,
    "district_id": 732214,
    "value": "Beringin Jaya",
    "postal_code": "92965"
  },
  {
    "id": 7322142001,
    "province_id": 73,
    "regency_id": 7322,
    "district_id": 732214,
    "value": "Lara",
    "postal_code": "92965"
  },
  {
    "id": 7322142008,
    "province_id": 73,
    "regency_id": 7322,
    "district_id": 732214,
    "value": "Lawewe",
    "postal_code": "92965"
  },
  {
    "id": 7322142007,
    "province_id": 73,
    "regency_id": 7322,
    "district_id": 732214,
    "value": "Lembang-Lembang",
    "postal_code": "92965"
  },
  {
    "id": 7322142002,
    "province_id": 73,
    "regency_id": 7322,
    "district_id": 732214,
    "value": "Marannu",
    "postal_code": "92965"
  },
  {
    "id": 7322142005,
    "province_id": 73,
    "regency_id": 7322,
    "district_id": 732214,
    "value": "Mekar Sari Jaya",
    "postal_code": "92965"
  },
  {
    "id": 7322142004,
    "province_id": 73,
    "regency_id": 7322,
    "district_id": 732214,
    "value": "Mukti Jaya",
    "postal_code": "92965"
  },
  {
    "id": 7322142006,
    "province_id": 73,
    "regency_id": 7322,
    "district_id": 732214,
    "value": "Mukti Tama",
    "postal_code": "92965"
  },
  {
    "id": 7322142009,
    "province_id": 73,
    "regency_id": 7322,
    "district_id": 732214,
    "value": "Polewali",
    "postal_code": "92965"
  },
  {
    "id": 7322142010,
    "province_id": 73,
    "regency_id": 7322,
    "district_id": 732214,
    "value": "Sumpira",
    "postal_code": "92965"
  }
]