[
  {
    "id": 331905,
    "province_id": 33,
    "regency_id": 3319,
    "district_id": 331905,
    "value": "Golantepus",
    "postal_code": "59381"
  },
  {
    "id": 331905,
    "province_id": 33,
    "regency_id": 3319,
    "district_id": 331905,
    "value": "Gulang",
    "postal_code": "59381"
  },
  {
    "id": 331905,
    "province_id": 33,
    "regency_id": 3319,
    "district_id": 331905,
    "value": "Hadiwarno",
    "postal_code": "59381"
  },
  {
    "id": 331905,
    "province_id": 33,
    "regency_id": 3319,
    "district_id": 331905,
    "value": "Jepang",
    "postal_code": "59381"
  },
  {
    "id": 331905,
    "province_id": 33,
    "regency_id": 3319,
    "district_id": 331905,
    "value": "Jojo",
    "postal_code": "59381"
  },
  {
    "id": 331905,
    "province_id": 33,
    "regency_id": 3319,
    "district_id": 331905,
    "value": "Kesambi",
    "postal_code": "59381"
  },
  {
    "id": 331905,
    "province_id": 33,
    "regency_id": 3319,
    "district_id": 331905,
    "value": "Kirig",
    "postal_code": "59381"
  },
  {
    "id": 331905,
    "province_id": 33,
    "regency_id": 3319,
    "district_id": 331905,
    "value": "Mejobo",
    "postal_code": "59381"
  },
  {
    "id": 331905,
    "province_id": 33,
    "regency_id": 3319,
    "district_id": 331905,
    "value": "Payaman",
    "postal_code": "59381"
  },
  {
    "id": 331905,
    "province_id": 33,
    "regency_id": 3319,
    "district_id": 331905,
    "value": "Temulus",
    "postal_code": "59381"
  },
  {
    "id": 331905,
    "province_id": 33,
    "regency_id": 3319,
    "district_id": 331905,
    "value": "Tenggeles",
    "postal_code": "59381"
  }
]