[
  {
    "id": 750202,
    "province_id": 75,
    "regency_id": 7502,
    "district_id": 750202,
    "value": "Bongo II (Bongo Dua)",
    "postal_code": "96262"
  },
  {
    "id": 750202,
    "province_id": 75,
    "regency_id": 7502,
    "district_id": 750202,
    "value": "Bongo III (Bongo Tiga)",
    "postal_code": "96262"
  },
  {
    "id": 750202,
    "province_id": 75,
    "regency_id": 7502,
    "district_id": 750202,
    "value": "Dimito",
    "postal_code": "96262"
  },
  {
    "id": 750202,
    "province_id": 75,
    "regency_id": 7502,
    "district_id": 750202,
    "value": "Dulohupa",
    "postal_code": "96262"
  },
  {
    "id": 750202,
    "province_id": 75,
    "regency_id": 7502,
    "district_id": 750202,
    "value": "Harapan",
    "postal_code": "96262"
  },
  {
    "id": 750202,
    "province_id": 75,
    "regency_id": 7502,
    "district_id": 750202,
    "value": "Jatimulya",
    "postal_code": "96262"
  },
  {
    "id": 750202,
    "province_id": 75,
    "regency_id": 7502,
    "district_id": 750202,
    "value": "Mekarjaya (Mekar Jaya)",
    "postal_code": "96262"
  },
  {
    "id": 750202,
    "province_id": 75,
    "regency_id": 7502,
    "district_id": 750202,
    "value": "Pangeya",
    "postal_code": "96262"
  },
  {
    "id": 750202,
    "province_id": 75,
    "regency_id": 7502,
    "district_id": 750202,
    "value": "Raharja",
    "postal_code": "96262"
  },
  {
    "id": 750202,
    "province_id": 75,
    "regency_id": 7502,
    "district_id": 750202,
    "value": "Sari Tani",
    "postal_code": "96262"
  },
  {
    "id": 750202,
    "province_id": 75,
    "regency_id": 7502,
    "district_id": 750202,
    "value": "Suka Mulya (Sukamulya)",
    "postal_code": "96262"
  },
  {
    "id": 750202,
    "province_id": 75,
    "regency_id": 7502,
    "district_id": 750202,
    "value": "Sukamaju",
    "postal_code": "96262"
  },
  {
    "id": 750202,
    "province_id": 75,
    "regency_id": 7502,
    "district_id": 750202,
    "value": "Tanjung Harapan",
    "postal_code": "96262"
  },
  {
    "id": 750202,
    "province_id": 75,
    "regency_id": 7502,
    "district_id": 750202,
    "value": "Trirukun (Tri Rukun)",
    "postal_code": "96262"
  }
]