[
  {
    "id": 910306,
    "province_id": 91,
    "regency_id": 9103,
    "district_id": 910306,
    "value": "Braso",
    "postal_code": "99367"
  },
  {
    "id": 910306,
    "province_id": 91,
    "regency_id": 9103,
    "district_id": 910306,
    "value": "Bring",
    "postal_code": "99367"
  },
  {
    "id": 910306,
    "province_id": 91,
    "regency_id": 9103,
    "district_id": 910306,
    "value": "Dementin (Demetin)",
    "postal_code": "99367"
  },
  {
    "id": 910306,
    "province_id": 91,
    "regency_id": 9103,
    "district_id": 910306,
    "value": "Domoikati (Damoi Kati)",
    "postal_code": "99367"
  },
  {
    "id": 910306,
    "province_id": 91,
    "regency_id": 9103,
    "district_id": 910306,
    "value": "Hatib",
    "postal_code": "99367"
  },
  {
    "id": 910306,
    "province_id": 91,
    "regency_id": 9103,
    "district_id": 910306,
    "value": "Hyansip",
    "postal_code": "99367"
  },
  {
    "id": 910306,
    "province_id": 91,
    "regency_id": 9103,
    "district_id": 910306,
    "value": "Ibub",
    "postal_code": "99367"
  },
  {
    "id": 910306,
    "province_id": 91,
    "regency_id": 9103,
    "district_id": 910306,
    "value": "Jagrang",
    "postal_code": "99367"
  },
  {
    "id": 910306,
    "province_id": 91,
    "regency_id": 9103,
    "district_id": 910306,
    "value": "Nembu Gresi",
    "postal_code": "99367"
  },
  {
    "id": 910306,
    "province_id": 91,
    "regency_id": 9103,
    "district_id": 910306,
    "value": "Pupehabu",
    "postal_code": "99367"
  },
  {
    "id": 910306,
    "province_id": 91,
    "regency_id": 9103,
    "district_id": 910306,
    "value": "Swentab",
    "postal_code": "99367"
  },
  {
    "id": 910306,
    "province_id": 91,
    "regency_id": 9103,
    "district_id": 910306,
    "value": "Yanbra (Yanim)",
    "postal_code": "99367"
  }
]