[
  {
    "id": 910307,
    "province_id": 91,
    "regency_id": 9103,
    "district_id": 910307,
    "value": "Benyom",
    "postal_code": "99361"
  },
  {
    "id": 910307,
    "province_id": 91,
    "regency_id": 9103,
    "district_id": 910307,
    "value": "Gemebs",
    "postal_code": "99361"
  },
  {
    "id": 910307,
    "province_id": 91,
    "regency_id": 9103,
    "district_id": 910307,
    "value": "Imsar",
    "postal_code": "99361"
  },
  {
    "id": 910307,
    "province_id": 91,
    "regency_id": 9103,
    "district_id": 910307,
    "value": "Kaitemung (Kautemung)",
    "postal_code": "99361"
  },
  {
    "id": 910307,
    "province_id": 91,
    "regency_id": 9103,
    "district_id": 910307,
    "value": "Kuipon (Kuipons)",
    "postal_code": "99361"
  },
  {
    "id": 910307,
    "province_id": 91,
    "regency_id": 9103,
    "district_id": 910307,
    "value": "Kuwase",
    "postal_code": "99361"
  },
  {
    "id": 910307,
    "province_id": 91,
    "regency_id": 9103,
    "district_id": 910307,
    "value": "Meyu",
    "postal_code": "99361"
  },
  {
    "id": 910307,
    "province_id": 91,
    "regency_id": 9103,
    "district_id": 910307,
    "value": "Oyengsi",
    "postal_code": "99361"
  },
  {
    "id": 910307,
    "province_id": 91,
    "regency_id": 9103,
    "district_id": 910307,
    "value": "Pobaim",
    "postal_code": "99361"
  },
  {
    "id": 910307,
    "province_id": 91,
    "regency_id": 9103,
    "district_id": 910307,
    "value": "Singgri",
    "postal_code": "99361"
  },
  {
    "id": 910307,
    "province_id": 91,
    "regency_id": 9103,
    "district_id": 910307,
    "value": "Singgriway (Singgriwai)",
    "postal_code": "99361"
  },
  {
    "id": 910307,
    "province_id": 91,
    "regency_id": 9103,
    "district_id": 910307,
    "value": "Tabri",
    "postal_code": "99361"
  },
  {
    "id": 910307,
    "province_id": 91,
    "regency_id": 9103,
    "district_id": 910307,
    "value": "Yenggu (Yenggu Lama)",
    "postal_code": "99361"
  },
  {
    "id": 910307,
    "province_id": 91,
    "regency_id": 9103,
    "district_id": 910307,
    "value": "Yenggu Baru",
    "postal_code": "99361"
  }
]