[
  {
    "id": 320332,
    "province_id": 32,
    "regency_id": 3203,
    "district_id": 320332,
    "value": "Girijaya",
    "postal_code": "43267"
  },
  {
    "id": 320332,
    "province_id": 32,
    "regency_id": 3203,
    "district_id": 320332,
    "value": "Girimukti",
    "postal_code": "43267"
  },
  {
    "id": 320332,
    "province_id": 32,
    "regency_id": 3203,
    "district_id": 320332,
    "value": "Kalibaru",
    "postal_code": "43266"
  },
  {
    "id": 320332,
    "province_id": 32,
    "regency_id": 3203,
    "district_id": 320332,
    "value": "Karangjaya",
    "postal_code": "43266"
  },
  {
    "id": 320332,
    "province_id": 32,
    "regency_id": 3203,
    "district_id": 320332,
    "value": "Kubang",
    "postal_code": "43267"
  },
  {
    "id": 320332,
    "province_id": 32,
    "regency_id": 3203,
    "district_id": 320332,
    "value": "Mekarmulya",
    "postal_code": "43267"
  },
  {
    "id": 320332,
    "province_id": 32,
    "regency_id": 3203,
    "district_id": 320332,
    "value": "Padamulya",
    "postal_code": "43267"
  },
  {
    "id": 320332,
    "province_id": 32,
    "regency_id": 3203,
    "district_id": 320332,
    "value": "Pusakajaya",
    "postal_code": "43266"
  },
  {
    "id": 320332,
    "province_id": 32,
    "regency_id": 3203,
    "district_id": 320332,
    "value": "Simpang",
    "postal_code": "43266"
  }
]