[
  {
    "id": 360128,
    "province_id": 36,
    "regency_id": 3601,
    "district_id": 360128,
    "value": "Banjarmasin",
    "postal_code": "42264"
  },
  {
    "id": 360128,
    "province_id": 36,
    "regency_id": 3601,
    "district_id": 360128,
    "value": "Carita",
    "postal_code": "42264"
  },
  {
    "id": 360128,
    "province_id": 36,
    "regency_id": 3601,
    "district_id": 360128,
    "value": "Cinoyong",
    "postal_code": "42264"
  },
  {
    "id": 360128,
    "province_id": 36,
    "regency_id": 3601,
    "district_id": 360128,
    "value": "Kawoyang",
    "postal_code": "42264"
  },
  {
    "id": 360128,
    "province_id": 36,
    "regency_id": 3601,
    "district_id": 360128,
    "value": "Pejamben",
    "postal_code": "42264"
  },
  {
    "id": 360128,
    "province_id": 36,
    "regency_id": 3601,
    "district_id": 360128,
    "value": "Sindanglaut",
    "postal_code": "42264"
  },
  {
    "id": 360128,
    "province_id": 36,
    "regency_id": 3601,
    "district_id": 360128,
    "value": "Sukajadi",
    "postal_code": "42264"
  },
  {
    "id": 360128,
    "province_id": 36,
    "regency_id": 3601,
    "district_id": 360128,
    "value": "Sukanegara (Sukanagara)",
    "postal_code": "42264"
  },
  {
    "id": 360128,
    "province_id": 36,
    "regency_id": 3601,
    "district_id": 360128,
    "value": "Sukarame",
    "postal_code": "42264"
  },
  {
    "id": 360128,
    "province_id": 36,
    "regency_id": 3601,
    "district_id": 360128,
    "value": "Tembong",
    "postal_code": "42264"
  }
]