[
  {
    "id": 3328102002,
    "province_id": 33,
    "regency_id": 3328,
    "district_id": 332810,
    "value": "Dukuh Ringin (Dukuhwringin)",
    "postal_code": "52419"
  },
  {
    "id": 3328102003,
    "province_id": 33,
    "regency_id": 3328,
    "district_id": 332810,
    "value": "Dukuhsalam (Dukuh Salam)",
    "postal_code": "52418"
  },
  {
    "id": 3328101007,
    "province_id": 33,
    "regency_id": 3328,
    "district_id": 332810,
    "value": "Kagok",
    "postal_code": "52411"
  },
  {
    "id": 3328102001,
    "province_id": 33,
    "regency_id": 3328,
    "district_id": 332810,
    "value": "Kalisapu",
    "postal_code": "52416"
  },
  {
    "id": 3328101009,
    "province_id": 33,
    "regency_id": 3328,
    "district_id": 332810,
    "value": "Kudaile",
    "postal_code": "52413"
  },
  {
    "id": 3328101006,
    "province_id": 33,
    "regency_id": 3328,
    "district_id": 332810,
    "value": "Pakembaran",
    "postal_code": "52415"
  },
  {
    "id": 3328101008,
    "province_id": 33,
    "regency_id": 3328,
    "district_id": 332810,
    "value": "Procot",
    "postal_code": "52412"
  },
  {
    "id": 3328102004,
    "province_id": 33,
    "regency_id": 3328,
    "district_id": 332810,
    "value": "Slawi Kulon",
    "postal_code": "52419"
  },
  {
    "id": 3328101010,
    "province_id": 33,
    "regency_id": 3328,
    "district_id": 332810,
    "value": "Slawi Wetan",
    "postal_code": "52411"
  },
  {
    "id": 3328102005,
    "province_id": 33,
    "regency_id": 3328,
    "district_id": 332810,
    "value": "Trayeman",
    "postal_code": "52414"
  }
]