[
  {
    "id": 8102192003,
    "province_id": 81,
    "regency_id": 8102,
    "district_id": 810219,
    "value": "Danar Lumefar",
    "postal_code": "97626"
  },
  {
    "id": 8102192001,
    "province_id": 81,
    "regency_id": 8102,
    "district_id": 810219,
    "value": "Danar Ohoiseb",
    "postal_code": "97626"
  },
  {
    "id": 8102192002,
    "province_id": 81,
    "regency_id": 8102,
    "district_id": 810219,
    "value": "Danar Ternate",
    "postal_code": "97626"
  },
  {
    "id": 8102192005,
    "province_id": 81,
    "regency_id": 8102,
    "district_id": 810219,
    "value": "Elaar Lamagorang",
    "postal_code": "97626"
  },
  {
    "id": 8102192006,
    "province_id": 81,
    "regency_id": 8102,
    "district_id": 810219,
    "value": "Elaar Let",
    "postal_code": "97626"
  },
  {
    "id": 8102192004,
    "province_id": 81,
    "regency_id": 8102,
    "district_id": 810219,
    "value": "Elaar Ngursoin",
    "postal_code": "97626"
  },
  {
    "id": 8102192011,
    "province_id": 81,
    "regency_id": 8102,
    "district_id": 810219,
    "value": "Garara",
    "postal_code": "97626"
  },
  {
    "id": 8102192008,
    "province_id": 81,
    "regency_id": 8102,
    "district_id": 810219,
    "value": "Maar",
    "postal_code": "97626"
  },
  {
    "id": 8102192010,
    "province_id": 81,
    "regency_id": 8102,
    "district_id": 810219,
    "value": "Ngurwul",
    "postal_code": "97626"
  },
  {
    "id": 8102192007,
    "province_id": 81,
    "regency_id": 8102,
    "district_id": 810219,
    "value": "Sare",
    "postal_code": "97626"
  },
  {
    "id": 8102192009,
    "province_id": 81,
    "regency_id": 8102,
    "district_id": 810219,
    "value": "Uf",
    "postal_code": "97626"
  }
]