[
  {
    "id": 6407142005,
    "province_id": 64,
    "regency_id": 6407,
    "district_id": 640714,
    "value": "Anan Jaya",
    "postal_code": "75778"
  },
  {
    "id": 6407142009,
    "province_id": 64,
    "regency_id": 6407,
    "district_id": 640714,
    "value": "Dilang Puti",
    "postal_code": "75778"
  },
  {
    "id": 6407142006,
    "province_id": 64,
    "regency_id": 6407,
    "district_id": 640714,
    "value": "Jelmu Sibak",
    "postal_code": "75778"
  },
  {
    "id": 6407142008,
    "province_id": 64,
    "regency_id": 6407,
    "district_id": 640714,
    "value": "Penarung",
    "postal_code": "75778"
  },
  {
    "id": 6407142001,
    "province_id": 64,
    "regency_id": 6407,
    "district_id": 640714,
    "value": "Randa Empas",
    "postal_code": "75778"
  },
  {
    "id": 6407142004,
    "province_id": 64,
    "regency_id": 6407,
    "district_id": 640714,
    "value": "Sambung",
    "postal_code": "75778"
  },
  {
    "id": 6407142007,
    "province_id": 64,
    "regency_id": 6407,
    "district_id": 640714,
    "value": "Suakong",
    "postal_code": "75778"
  },
  {
    "id": 6407142003,
    "province_id": 64,
    "regency_id": 6407,
    "district_id": 640714,
    "value": "Tende",
    "postal_code": "75778"
  },
  {
    "id": 6407142002,
    "province_id": 64,
    "regency_id": 6407,
    "district_id": 640714,
    "value": "Tuquk/Tukuq",
    "postal_code": "75778"
  }
]