[
  {
    "id": 1204112026,
    "province_id": 12,
    "regency_id": 1204,
    "district_id": 120411,
    "value": "Balale Toba'a",
    "postal_code": "22876"
  },
  {
    "id": 1204112019,
    "province_id": 12,
    "regency_id": 1204,
    "district_id": 120411,
    "value": "Banua Sibohou Silima Ewali",
    "postal_code": "22876"
  },
  {
    "id": 1204112012,
    "province_id": 12,
    "regency_id": 1204,
    "district_id": 120411,
    "value": "Botohaenga",
    "postal_code": "22876"
  },
  {
    "id": 1204112017,
    "province_id": 12,
    "regency_id": 1204,
    "district_id": 120411,
    "value": "Dahana (Dahana Bawolato)",
    "postal_code": "22876"
  },
  {
    "id": 1204112004,
    "province_id": 12,
    "regency_id": 1204,
    "district_id": 120411,
    "value": "Gazamanu",
    "postal_code": "22876"
  },
  {
    "id": 1204112006,
    "province_id": 12,
    "regency_id": 1204,
    "district_id": 120411,
    "value": "Hilialawa",
    "postal_code": "22876"
  },
  {
    "id": 1204112007,
    "province_id": 12,
    "regency_id": 1204,
    "district_id": 120411,
    "value": "Hilifaosi",
    "postal_code": "22876"
  },
  {
    "id": 1204112003,
    "province_id": 12,
    "regency_id": 1204,
    "district_id": 120411,
    "value": "Hiliganoita",
    "postal_code": "22876"
  },
  {
    "id": 1204112022,
    "province_id": 12,
    "regency_id": 1204,
    "district_id": 120411,
    "value": "Hilihao Cugala",
    "postal_code": "22876"
  },
  {
    "id": 1204112005,
    "province_id": 12,
    "regency_id": 1204,
    "district_id": 120411,
    "value": "Hilihoru",
    "postal_code": "22876"
  },
  {
    "id": 1204112008,
    "province_id": 12,
    "regency_id": 1204,
    "district_id": 120411,
    "value": "Hiliwarokha",
    "postal_code": "22876"
  },
  {
    "id": 1204112024,
    "province_id": 12,
    "regency_id": 1204,
    "district_id": 120411,
    "value": "Hou",
    "postal_code": "22876"
  },
  {
    "id": 1204112021,
    "province_id": 12,
    "regency_id": 1204,
    "district_id": 120411,
    "value": "Lagasimahe",
    "postal_code": "22876"
  },
  {
    "id": 1204112013,
    "province_id": 12,
    "regency_id": 1204,
    "district_id": 120411,
    "value": "Orahili",
    "postal_code": "22876"
  },
  {
    "id": 1204112018,
    "province_id": 12,
    "regency_id": 1204,
    "district_id": 120411,
    "value": "Orahua",
    "postal_code": "22876"
  },
  {
    "id": 1204112023,
    "province_id": 12,
    "regency_id": 1204,
    "district_id": 120411,
    "value": "Orahua Faondrato",
    "postal_code": "22876"
  },
  {
    "id": 1204112020,
    "province_id": 12,
    "regency_id": 1204,
    "district_id": 120411,
    "value": "Si'ofaewali Selatan",
    "postal_code": "22876"
  },
  {
    "id": 1204112016,
    "province_id": 12,
    "regency_id": 1204,
    "district_id": 120411,
    "value": "Sifaoroasi Uluhou",
    "postal_code": "22876"
  },
  {
    "id": 1204112025,
    "province_id": 12,
    "regency_id": 1204,
    "district_id": 120411,
    "value": "Sindrondro",
    "postal_code": "22876"
  },
  {
    "id": 1204112015,
    "province_id": 12,
    "regency_id": 1204,
    "district_id": 120411,
    "value": "Siofabanua",
    "postal_code": "22876"
  },
  {
    "id": 1204112010,
    "province_id": 12,
    "regency_id": 1204,
    "district_id": 120411,
    "value": "Siofaewali",
    "postal_code": "22876"
  },
  {
    "id": 1204112002,
    "province_id": 12,
    "regency_id": 1204,
    "district_id": 120411,
    "value": "Sisarahili Bawolato",
    "postal_code": "22876"
  },
  {
    "id": 1204112009,
    "province_id": 12,
    "regency_id": 1204,
    "district_id": 120411,
    "value": "Sitolu Banua (Sitolubanua)",
    "postal_code": "22876"
  },
  {
    "id": 1204112011,
    "province_id": 12,
    "regency_id": 1204,
    "district_id": 120411,
    "value": "Sohoya",
    "postal_code": "22876"
  },
  {
    "id": 1204112014,
    "province_id": 12,
    "regency_id": 1204,
    "district_id": 120411,
    "value": "Tagaule",
    "postal_code": "22876"
  }
]