[
  {
    "id": 330806,
    "province_id": 33,
    "regency_id": 3308,
    "district_id": 330806,
    "value": "Banyubiru",
    "postal_code": "56482"
  },
  {
    "id": 330806,
    "province_id": 33,
    "regency_id": 3308,
    "district_id": 330806,
    "value": "Banyudono",
    "postal_code": "56482"
  },
  {
    "id": 330806,
    "province_id": 33,
    "regency_id": 3308,
    "district_id": 330806,
    "value": "Dukun",
    "postal_code": "56482"
  },
  {
    "id": 330806,
    "province_id": 33,
    "regency_id": 3308,
    "district_id": 330806,
    "value": "Kalibening",
    "postal_code": "56482"
  },
  {
    "id": 330806,
    "province_id": 33,
    "regency_id": 3308,
    "district_id": 330806,
    "value": "Keningar",
    "postal_code": "56482"
  },
  {
    "id": 330806,
    "province_id": 33,
    "regency_id": 3308,
    "district_id": 330806,
    "value": "Ketunggeng",
    "postal_code": "56482"
  },
  {
    "id": 330806,
    "province_id": 33,
    "regency_id": 3308,
    "district_id": 330806,
    "value": "Krinjing",
    "postal_code": "56482"
  },
  {
    "id": 330806,
    "province_id": 33,
    "regency_id": 3308,
    "district_id": 330806,
    "value": "Mangunsoko",
    "postal_code": "56482"
  },
  {
    "id": 330806,
    "province_id": 33,
    "regency_id": 3308,
    "district_id": 330806,
    "value": "Ngadipuro",
    "postal_code": "56482"
  },
  {
    "id": 330806,
    "province_id": 33,
    "regency_id": 3308,
    "district_id": 330806,
    "value": "Ngargomulyo",
    "postal_code": "56482"
  },
  {
    "id": 330806,
    "province_id": 33,
    "regency_id": 3308,
    "district_id": 330806,
    "value": "Paten",
    "postal_code": "56482"
  },
  {
    "id": 330806,
    "province_id": 33,
    "regency_id": 3308,
    "district_id": 330806,
    "value": "Sengi",
    "postal_code": "56482"
  },
  {
    "id": 330806,
    "province_id": 33,
    "regency_id": 3308,
    "district_id": 330806,
    "value": "Sewukan",
    "postal_code": "56482"
  },
  {
    "id": 330806,
    "province_id": 33,
    "regency_id": 3308,
    "district_id": 330806,
    "value": "Sumber",
    "postal_code": "56482"
  },
  {
    "id": 330806,
    "province_id": 33,
    "regency_id": 3308,
    "district_id": 330806,
    "value": "Wates",
    "postal_code": "56482"
  }
]