[
  {
    "id": 360430,
    "province_id": 36,
    "regency_id": 3604,
    "district_id": 360430,
    "value": "Anyar",
    "postal_code": "42166"
  },
  {
    "id": 360430,
    "province_id": 36,
    "regency_id": 3604,
    "district_id": 360430,
    "value": "Bandulu",
    "postal_code": "42166"
  },
  {
    "id": 360430,
    "province_id": 36,
    "regency_id": 3604,
    "district_id": 360430,
    "value": "Banjarsari",
    "postal_code": "42166"
  },
  {
    "id": 360430,
    "province_id": 36,
    "regency_id": 3604,
    "district_id": 360430,
    "value": "Bunihara",
    "postal_code": "42166"
  },
  {
    "id": 360430,
    "province_id": 36,
    "regency_id": 3604,
    "district_id": 360430,
    "value": "Cikoneng",
    "postal_code": "42166"
  },
  {
    "id": 360430,
    "province_id": 36,
    "regency_id": 3604,
    "district_id": 360430,
    "value": "Grogol Indah",
    "postal_code": "42166"
  },
  {
    "id": 360430,
    "province_id": 36,
    "regency_id": 3604,
    "district_id": 360430,
    "value": "Kosambironyok (Kosambi Ronyok)",
    "postal_code": "42166"
  },
  {
    "id": 360430,
    "province_id": 36,
    "regency_id": 3604,
    "district_id": 360430,
    "value": "Mekarsari",
    "postal_code": "42166"
  },
  {
    "id": 360430,
    "province_id": 36,
    "regency_id": 3604,
    "district_id": 360430,
    "value": "Sindang Mandi (Sindangmandi)",
    "postal_code": "42166"
  },
  {
    "id": 360430,
    "province_id": 36,
    "regency_id": 3604,
    "district_id": 360430,
    "value": "Sindangkarya",
    "postal_code": "42166"
  },
  {
    "id": 360430,
    "province_id": 36,
    "regency_id": 3604,
    "district_id": 360430,
    "value": "Tambang Ayam",
    "postal_code": "42166"
  },
  {
    "id": 360430,
    "province_id": 36,
    "regency_id": 3604,
    "district_id": 360430,
    "value": "Tanjung Manis (Tanjungmanis)",
    "postal_code": "42166"
  }
]