[
  {
    "id": 537106,
    "province_id": 53,
    "regency_id": 5371,
    "district_id": 537106,
    "value": "Airmata (Air Mata)",
    "postal_code": "85229"
  },
  {
    "id": 537106,
    "province_id": 53,
    "regency_id": 5371,
    "district_id": 537106,
    "value": "Bonipoi",
    "postal_code": "85221"
  },
  {
    "id": 537106,
    "province_id": 53,
    "regency_id": 5371,
    "district_id": 537106,
    "value": "Fatubesi",
    "postal_code": "85226"
  },
  {
    "id": 537106,
    "province_id": 53,
    "regency_id": 5371,
    "district_id": 537106,
    "value": "Lai Lai Bisi Kopan",
    "postal_code": "85221"
  },
  {
    "id": 537106,
    "province_id": 53,
    "regency_id": 5371,
    "district_id": 537106,
    "value": "Merdeka",
    "postal_code": "85225"
  },
  {
    "id": 537106,
    "province_id": 53,
    "regency_id": 5371,
    "district_id": 537106,
    "value": "Nefonaek",
    "postal_code": "85229"
  },
  {
    "id": 537106,
    "province_id": 53,
    "regency_id": 5371,
    "district_id": 537106,
    "value": "Oeba",
    "postal_code": "85226"
  },
  {
    "id": 537106,
    "province_id": 53,
    "regency_id": 5371,
    "district_id": 537106,
    "value": "Pasir Panjang",
    "postal_code": "85227"
  },
  {
    "id": 537106,
    "province_id": 53,
    "regency_id": 5371,
    "district_id": 537106,
    "value": "Solor",
    "postal_code": "85229"
  },
  {
    "id": 537106,
    "province_id": 53,
    "regency_id": 5371,
    "district_id": 537106,
    "value": "Tode Kisar",
    "postal_code": "85229"
  }
]