[
  {
    "id": 3529012011,
    "province_id": 35,
    "regency_id": 3529,
    "district_id": 352901,
    "value": "Bangkal",
    "postal_code": "69417"
  },
  {
    "id": 3529011017,
    "province_id": 35,
    "regency_id": 3529,
    "district_id": 352901,
    "value": "Bangselok",
    "postal_code": "69416"
  },
  {
    "id": 3529012008,
    "province_id": 35,
    "regency_id": 3529,
    "district_id": 352901,
    "value": "Kacongan",
    "postal_code": "69417"
  },
  {
    "id": 3529011018,
    "province_id": 35,
    "regency_id": 3529,
    "district_id": 352901,
    "value": "Karangduak",
    "postal_code": "69417"
  },
  {
    "id": 3529012020,
    "province_id": 35,
    "regency_id": 3529,
    "district_id": 352901,
    "value": "Kebunagung (Kebonagung)",
    "postal_code": "69413"
  },
  {
    "id": 3529012012,
    "province_id": 35,
    "regency_id": 3529,
    "district_id": 352901,
    "value": "Kebunan",
    "postal_code": "69417"
  },
  {
    "id": 3529011015,
    "province_id": 35,
    "regency_id": 3529,
    "district_id": 352901,
    "value": "Kepanjin",
    "postal_code": "69415"
  },
  {
    "id": 3529012005,
    "province_id": 35,
    "regency_id": 3529,
    "district_id": 352901,
    "value": "Kolor",
    "postal_code": "69417"
  },
  {
    "id": 3529012007,
    "province_id": 35,
    "regency_id": 3529,
    "district_id": 352901,
    "value": "Marengan Daya",
    "postal_code": "69417"
  },
  {
    "id": 3529012009,
    "province_id": 35,
    "regency_id": 3529,
    "district_id": 352901,
    "value": "Paberasan",
    "postal_code": "69417"
  },
  {
    "id": 3529012006,
    "province_id": 35,
    "regency_id": 3529,
    "district_id": 352901,
    "value": "Pabian",
    "postal_code": "69417"
  },
  {
    "id": 3529011016,
    "province_id": 35,
    "regency_id": 3529,
    "district_id": 352901,
    "value": "Pajagalan",
    "postal_code": "69416"
  },
  {
    "id": 3529012013,
    "province_id": 35,
    "regency_id": 3529,
    "district_id": 352901,
    "value": "Pamolokan",
    "postal_code": "69412"
  },
  {
    "id": 3529012019,
    "province_id": 35,
    "regency_id": 3529,
    "district_id": 352901,
    "value": "Pandian",
    "postal_code": "69414"
  },
  {
    "id": 3529012014,
    "province_id": 35,
    "regency_id": 3529,
    "district_id": 352901,
    "value": "Pangarangan",
    "postal_code": "69412"
  },
  {
    "id": 3529012010,
    "province_id": 35,
    "regency_id": 3529,
    "district_id": 352901,
    "value": "Parsanga",
    "postal_code": "69417"
  }
]