[
  {
    "id": 120503,
    "province_id": 12,
    "regency_id": 1205,
    "district_id": 120503,
    "value": "Balai Kasih",
    "postal_code": "20772"
  },
  {
    "id": 120503,
    "province_id": 12,
    "regency_id": 1205,
    "district_id": 120503,
    "value": "Bekiung",
    "postal_code": "20772"
  },
  {
    "id": 120503,
    "province_id": 12,
    "regency_id": 1205,
    "district_id": 120503,
    "value": "Bela Rakyat",
    "postal_code": "20772"
  },
  {
    "id": 120503,
    "province_id": 12,
    "regency_id": 1205,
    "district_id": 120503,
    "value": "Beruam",
    "postal_code": "20772"
  },
  {
    "id": 120503,
    "province_id": 12,
    "regency_id": 1205,
    "district_id": 120503,
    "value": "Besadi",
    "postal_code": "20772"
  },
  {
    "id": 120503,
    "province_id": 12,
    "regency_id": 1205,
    "district_id": 120503,
    "value": "Blangkahan/Belangkahan",
    "postal_code": "20772"
  },
  {
    "id": 120503,
    "province_id": 12,
    "regency_id": 1205,
    "district_id": 120503,
    "value": "Dalan Naman (Dalam Daman)",
    "postal_code": "20772"
  },
  {
    "id": 120503,
    "province_id": 12,
    "regency_id": 1205,
    "district_id": 120503,
    "value": "Garunggang",
    "postal_code": "20772"
  },
  {
    "id": 120503,
    "province_id": 12,
    "regency_id": 1205,
    "district_id": 120503,
    "value": "Namo Mbelin",
    "postal_code": "20772"
  },
  {
    "id": 120503,
    "province_id": 12,
    "regency_id": 1205,
    "district_id": 120503,
    "value": "Parit Bindu",
    "postal_code": "20772"
  },
  {
    "id": 120503,
    "province_id": 12,
    "regency_id": 1205,
    "district_id": 120503,
    "value": "Pekan Kuala",
    "postal_code": "20772"
  },
  {
    "id": 120503,
    "province_id": 12,
    "regency_id": 1205,
    "district_id": 120503,
    "value": "Perkebunan Bekiun",
    "postal_code": "20772"
  },
  {
    "id": 120503,
    "province_id": 12,
    "regency_id": 1205,
    "district_id": 120503,
    "value": "Raja Tengah",
    "postal_code": "20772"
  },
  {
    "id": 120503,
    "province_id": 12,
    "regency_id": 1205,
    "district_id": 120503,
    "value": "Sei Penjara",
    "postal_code": "20772"
  },
  {
    "id": 120503,
    "province_id": 12,
    "regency_id": 1205,
    "district_id": 120503,
    "value": "Sido Makmur",
    "postal_code": "20772"
  },
  {
    "id": 120503,
    "province_id": 12,
    "regency_id": 1205,
    "district_id": 120503,
    "value": "Suka Damai",
    "postal_code": "20772"
  }
]