[
  {
    "id": 950723,
    "province_id": 95,
    "regency_id": 9507,
    "district_id": 950723,
    "value": "Andugume",
    "postal_code": "99596"
  },
  {
    "id": 950723,
    "province_id": 95,
    "regency_id": 9507,
    "district_id": 950723,
    "value": "Dugu-dugu",
    "postal_code": "99596"
  },
  {
    "id": 950723,
    "province_id": 95,
    "regency_id": 9507,
    "district_id": 950723,
    "value": "Kobanu",
    "postal_code": "99596"
  },
  {
    "id": 950723,
    "province_id": 95,
    "regency_id": 9507,
    "district_id": 950723,
    "value": "Mingga",
    "postal_code": "99596"
  },
  {
    "id": 950723,
    "province_id": 95,
    "regency_id": 9507,
    "district_id": 950723,
    "value": "Mume",
    "postal_code": "99596"
  },
  {
    "id": 950723,
    "province_id": 95,
    "regency_id": 9507,
    "district_id": 950723,
    "value": "Nabei",
    "postal_code": "99596"
  },
  {
    "id": 950723,
    "province_id": 95,
    "regency_id": 9507,
    "district_id": 950723,
    "value": "Nenggeya",
    "postal_code": "99596"
  },
  {
    "id": 950723,
    "province_id": 95,
    "regency_id": 9507,
    "district_id": 950723,
    "value": "Piragi",
    "postal_code": "99596"
  },
  {
    "id": 950723,
    "province_id": 95,
    "regency_id": 9507,
    "district_id": 950723,
    "value": "Tenawi",
    "postal_code": "99596"
  },
  {
    "id": 950723,
    "province_id": 95,
    "regency_id": 9507,
    "district_id": 950723,
    "value": "Tinime",
    "postal_code": "99596"
  },
  {
    "id": 950723,
    "province_id": 95,
    "regency_id": 9507,
    "district_id": 950723,
    "value": "Wamiru",
    "postal_code": "99596"
  }
]