[
  {
    "id": 9201402005,
    "province_id": 92,
    "regency_id": 9201,
    "district_id": 920140,
    "value": "Klasowoh",
    "postal_code": "98451"
  },
  {
    "id": 9201402008,
    "province_id": 92,
    "regency_id": 9201,
    "district_id": 920140,
    "value": "Klatomok",
    "postal_code": "98451"
  },
  {
    "id": 9201402002,
    "province_id": 92,
    "regency_id": 9201,
    "district_id": 920140,
    "value": "Klawuluh",
    "postal_code": "98451"
  },
  {
    "id": 9201402001,
    "province_id": 92,
    "regency_id": 9201,
    "district_id": 920140,
    "value": "Klayili",
    "postal_code": "98451"
  },
  {
    "id": 9201402004,
    "province_id": 92,
    "regency_id": 9201,
    "district_id": 920140,
    "value": "Kwakeik",
    "postal_code": "98451"
  },
  {
    "id": 9201402003,
    "province_id": 92,
    "regency_id": 9201,
    "district_id": 920140,
    "value": "Malakobutu",
    "postal_code": "98451"
  },
  {
    "id": 9201402006,
    "province_id": 92,
    "regency_id": 9201,
    "district_id": 920140,
    "value": "Malalilis",
    "postal_code": "98451"
  },
  {
    "id": 9201402007,
    "province_id": 92,
    "regency_id": 9201,
    "district_id": 920140,
    "value": "Mlawer",
    "postal_code": "98451"
  }
]