[
  {
    "id": 9504382009,
    "province_id": 95,
    "regency_id": 9504,
    "district_id": 950438,
    "value": "Buangludah",
    "postal_code": "99035"
  },
  {
    "id": 9504382004,
    "province_id": 95,
    "regency_id": 9504,
    "district_id": 950438,
    "value": "Gilime",
    "postal_code": "99035"
  },
  {
    "id": 9504382003,
    "province_id": 95,
    "regency_id": 9504,
    "district_id": 950438,
    "value": "Gitar",
    "postal_code": "99035"
  },
  {
    "id": 9504382011,
    "province_id": 95,
    "regency_id": 9504,
    "district_id": 950438,
    "value": "Koli",
    "postal_code": "99035"
  },
  {
    "id": 9504382007,
    "province_id": 95,
    "regency_id": 9504,
    "district_id": 950438,
    "value": "Kuagembur",
    "postal_code": "99035"
  },
  {
    "id": 9504382005,
    "province_id": 95,
    "regency_id": 9504,
    "district_id": 950438,
    "value": "Lena",
    "postal_code": "99035"
  },
  {
    "id": 9504382002,
    "province_id": 95,
    "regency_id": 9504,
    "district_id": 950438,
    "value": "Loma",
    "postal_code": "99035"
  },
  {
    "id": 9504382010,
    "province_id": 95,
    "regency_id": 9504,
    "district_id": 950438,
    "value": "Pindelo",
    "postal_code": "99035"
  },
  {
    "id": 9504382006,
    "province_id": 95,
    "regency_id": 9504,
    "district_id": 950438,
    "value": "Timoneri",
    "postal_code": "99035"
  },
  {
    "id": 9504382001,
    "province_id": 95,
    "regency_id": 9504,
    "district_id": 950438,
    "value": "Wugi",
    "postal_code": "99035"
  },
  {
    "id": 9504382008,
    "province_id": 95,
    "regency_id": 9504,
    "district_id": 950438,
    "value": "Wuronggi",
    "postal_code": "99035"
  }
]