[
  {
    "id": 610502,
    "province_id": 61,
    "regency_id": 6105,
    "district_id": 610502,
    "value": "Balai Harapan",
    "postal_code": "78661"
  },
  {
    "id": 610502,
    "province_id": 61,
    "regency_id": 6105,
    "district_id": 610502,
    "value": "Benua Baru",
    "postal_code": "78661"
  },
  {
    "id": 610502,
    "province_id": 61,
    "regency_id": 6105,
    "district_id": 610502,
    "value": "Benua Kencana",
    "postal_code": "78661"
  },
  {
    "id": 610502,
    "province_id": 61,
    "regency_id": 6105,
    "district_id": 610502,
    "value": "Gurung Mali",
    "postal_code": "78661"
  },
  {
    "id": 610502,
    "province_id": 61,
    "regency_id": 6105,
    "district_id": 610502,
    "value": "Jaya Mentari",
    "postal_code": "78661"
  },
  {
    "id": 610502,
    "province_id": 61,
    "regency_id": 6105,
    "district_id": 610502,
    "value": "Kenyabur Baru",
    "postal_code": "78661"
  },
  {
    "id": 610502,
    "province_id": 61,
    "regency_id": 6105,
    "district_id": 610502,
    "value": "Kuala Tiga",
    "postal_code": "78661"
  },
  {
    "id": 610502,
    "province_id": 61,
    "regency_id": 6105,
    "district_id": 610502,
    "value": "Kupan Jaya",
    "postal_code": "78661"
  },
  {
    "id": 610502,
    "province_id": 61,
    "regency_id": 6105,
    "district_id": 610502,
    "value": "Mengkurat Baru",
    "postal_code": "78661"
  },
  {
    "id": 610502,
    "province_id": 61,
    "regency_id": 6105,
    "district_id": 610502,
    "value": "Mensiap Baru",
    "postal_code": "78661"
  },
  {
    "id": 610502,
    "province_id": 61,
    "regency_id": 6105,
    "district_id": 610502,
    "value": "Mensiap Jaya",
    "postal_code": "78661"
  },
  {
    "id": 610502,
    "province_id": 61,
    "regency_id": 6105,
    "district_id": 610502,
    "value": "Merti Jaya",
    "postal_code": "78661"
  },
  {
    "id": 610502,
    "province_id": 61,
    "regency_id": 6105,
    "district_id": 610502,
    "value": "Nanga Tempunak",
    "postal_code": "78661"
  },
  {
    "id": 610502,
    "province_id": 61,
    "regency_id": 6105,
    "district_id": 610502,
    "value": "Pagal Baru",
    "postal_code": "78661"
  },
  {
    "id": 610502,
    "province_id": 61,
    "regency_id": 6105,
    "district_id": 610502,
    "value": "Pangkal Baru",
    "postal_code": "78661"
  },
  {
    "id": 610502,
    "province_id": 61,
    "regency_id": 6105,
    "district_id": 610502,
    "value": "Pekulai Bersatu",
    "postal_code": "78661"
  },
  {
    "id": 610502,
    "province_id": 61,
    "regency_id": 6105,
    "district_id": 610502,
    "value": "Peribang Baru (Paribang Baru)",
    "postal_code": "78661"
  },
  {
    "id": 610502,
    "province_id": 61,
    "regency_id": 6105,
    "district_id": 610502,
    "value": "Pudau Bersatu",
    "postal_code": "78661"
  },
  {
    "id": 610502,
    "province_id": 61,
    "regency_id": 6105,
    "district_id": 610502,
    "value": "Pulau Jaya",
    "postal_code": "78661"
  },
  {
    "id": 610502,
    "province_id": 61,
    "regency_id": 6105,
    "district_id": 610502,
    "value": "Repak Sari",
    "postal_code": "78661"
  },
  {
    "id": 610502,
    "province_id": 61,
    "regency_id": 6105,
    "district_id": 610502,
    "value": "Riam Batu",
    "postal_code": "78661"
  },
  {
    "id": 610502,
    "province_id": 61,
    "regency_id": 6105,
    "district_id": 610502,
    "value": "Suka Jaya",
    "postal_code": "78661"
  },
  {
    "id": 610502,
    "province_id": 61,
    "regency_id": 6105,
    "district_id": 610502,
    "value": "Sungai Buluh",
    "postal_code": "78661"
  },
  {
    "id": 610502,
    "province_id": 61,
    "regency_id": 6105,
    "district_id": 610502,
    "value": "Tanjung Perada",
    "postal_code": "78661"
  },
  {
    "id": 610502,
    "province_id": 61,
    "regency_id": 6105,
    "district_id": 610502,
    "value": "Tempunak Kapuas",
    "postal_code": "78661"
  },
  {
    "id": 610502,
    "province_id": 61,
    "regency_id": 6105,
    "district_id": 610502,
    "value": "Tinum Baru",
    "postal_code": "78661"
  }
]