[
  {
    "id": 950132,
    "province_id": 95,
    "regency_id": 9501,
    "district_id": 950132,
    "value": "Asologaima",
    "postal_code": "99532"
  },
  {
    "id": 950132,
    "province_id": 95,
    "regency_id": 9501,
    "district_id": 950132,
    "value": "Delekama",
    "postal_code": "99532"
  },
  {
    "id": 950132,
    "province_id": 95,
    "regency_id": 9501,
    "district_id": 950132,
    "value": "Helefa / Halefa",
    "postal_code": "99532"
  },
  {
    "id": 950132,
    "province_id": 95,
    "regency_id": 9501,
    "district_id": 950132,
    "value": "Holkima",
    "postal_code": "99532"
  },
  {
    "id": 950132,
    "province_id": 95,
    "regency_id": 9501,
    "district_id": 950132,
    "value": "Hukuragi",
    "postal_code": "99532"
  },
  {
    "id": 950132,
    "province_id": 95,
    "regency_id": 9501,
    "district_id": 950132,
    "value": "Kewin",
    "postal_code": "99532"
  },
  {
    "id": 950132,
    "province_id": 95,
    "regency_id": 9501,
    "district_id": 950132,
    "value": "Konan",
    "postal_code": "99532"
  },
  {
    "id": 950132,
    "province_id": 95,
    "regency_id": 9501,
    "district_id": 950132,
    "value": "Miliama (Muliama)",
    "postal_code": "99532"
  },
  {
    "id": 950132,
    "province_id": 95,
    "regency_id": 9501,
    "district_id": 950132,
    "value": "Molebaga",
    "postal_code": "99532"
  },
  {
    "id": 950132,
    "province_id": 95,
    "regency_id": 9501,
    "district_id": 950132,
    "value": "Pilibaga",
    "postal_code": "99532"
  },
  {
    "id": 950132,
    "province_id": 95,
    "regency_id": 9501,
    "district_id": 950132,
    "value": "Sekom",
    "postal_code": "99532"
  },
  {
    "id": 950132,
    "province_id": 95,
    "regency_id": 9501,
    "district_id": 950132,
    "value": "Silamik",
    "postal_code": "99532"
  }
]