[
  {
    "id": 5206042005,
    "province_id": 52,
    "regency_id": 5206,
    "district_id": 520604,
    "value": "Cenggu",
    "postal_code": "84173"
  },
  {
    "id": 5206042016,
    "province_id": 52,
    "regency_id": 5206,
    "district_id": 520604,
    "value": "Diha",
    "postal_code": "84173"
  },
  {
    "id": 5206042002,
    "province_id": 52,
    "regency_id": 5206,
    "district_id": 520604,
    "value": "Lido",
    "postal_code": "84173"
  },
  {
    "id": 5206042001,
    "province_id": 52,
    "regency_id": 5206,
    "district_id": 520604,
    "value": "Ncera",
    "postal_code": "84173"
  },
  {
    "id": 5206042003,
    "province_id": 52,
    "regency_id": 5206,
    "district_id": 520604,
    "value": "Ngali",
    "postal_code": "84173"
  },
  {
    "id": 5206042004,
    "province_id": 52,
    "regency_id": 5206,
    "district_id": 520604,
    "value": "Renda",
    "postal_code": "84173"
  },
  {
    "id": 5206042015,
    "province_id": 52,
    "regency_id": 5206,
    "district_id": 520604,
    "value": "Roka",
    "postal_code": "84173"
  },
  {
    "id": 5206042006,
    "province_id": 52,
    "regency_id": 5206,
    "district_id": 520604,
    "value": "Runggu",
    "postal_code": "84173"
  },
  {
    "id": 5206042014,
    "province_id": 52,
    "regency_id": 5206,
    "district_id": 520604,
    "value": "Soki",
    "postal_code": "84173"
  }
]