[
  {
    "id": 531811,
    "province_id": 53,
    "regency_id": 5318,
    "district_id": 531811,
    "value": "Kahale",
    "postal_code": "87262"
  },
  {
    "id": 531811,
    "province_id": 53,
    "regency_id": 5318,
    "district_id": 531811,
    "value": "Loko Tali",
    "postal_code": "87262"
  },
  {
    "id": 531811,
    "province_id": 53,
    "regency_id": 5318,
    "district_id": 531811,
    "value": "Panenggo Ede",
    "postal_code": "87262"
  },
  {
    "id": 531811,
    "province_id": 53,
    "regency_id": 5318,
    "district_id": 531811,
    "value": "Waiha",
    "postal_code": "87262"
  },
  {
    "id": 531811,
    "province_id": 53,
    "regency_id": 5318,
    "district_id": 531811,
    "value": "Waikarara",
    "postal_code": "87262"
  },
  {
    "id": 531811,
    "province_id": 53,
    "regency_id": 5318,
    "district_id": 531811,
    "value": "Wailangira",
    "postal_code": "87262"
  },
  {
    "id": 531811,
    "province_id": 53,
    "regency_id": 5318,
    "district_id": 531811,
    "value": "Wainyapu",
    "postal_code": "87262"
  },
  {
    "id": 531811,
    "province_id": 53,
    "regency_id": 5318,
    "district_id": 531811,
    "value": "Waipakolo",
    "postal_code": "87262"
  }
]