[
  {
    "id": 7409042003,
    "province_id": 74,
    "regency_id": 7409,
    "district_id": 740904,
    "value": "Awila",
    "postal_code": "93359"
  },
  {
    "id": 7409042008,
    "province_id": 74,
    "regency_id": 7409,
    "district_id": 740904,
    "value": "Awila Puncak",
    "postal_code": "93359"
  },
  {
    "id": 7409042001,
    "province_id": 74,
    "regency_id": 7409,
    "district_id": 740904,
    "value": "Bandaeha",
    "postal_code": "93359"
  },
  {
    "id": 7409042005,
    "province_id": 74,
    "regency_id": 7409,
    "district_id": 740904,
    "value": "Mandiopo (Mandiodo)",
    "postal_code": "93359"
  },
  {
    "id": 7409042007,
    "province_id": 74,
    "regency_id": 7409,
    "district_id": 740904,
    "value": "Mataiwoi",
    "postal_code": "93359"
  },
  {
    "id": 7409041002,
    "province_id": 74,
    "regency_id": 7409,
    "district_id": 740904,
    "value": "Molawe",
    "postal_code": "93359"
  },
  {
    "id": 7409042004,
    "province_id": 74,
    "regency_id": 7409,
    "district_id": 740904,
    "value": "Mowundo",
    "postal_code": "93359"
  },
  {
    "id": 7409042009,
    "province_id": 74,
    "regency_id": 7409,
    "district_id": 740904,
    "value": "Tapuemea",
    "postal_code": "93359"
  },
  {
    "id": 7409042006,
    "province_id": 74,
    "regency_id": 7409,
    "district_id": 740904,
    "value": "Tapunggaya (Tapunggaea)",
    "postal_code": "93359"
  }
]