[
  {
    "id": 1305032001,
    "province_id": 13,
    "regency_id": 1305,
    "district_id": 130503,
    "value": "Kapalo Koto",
    "postal_code": "25571"
  },
  {
    "id": 1305032004,
    "province_id": 13,
    "regency_id": 1305,
    "district_id": 130503,
    "value": "Kurai Taji",
    "postal_code": "25571"
  },
  {
    "id": 1305032009,
    "province_id": 13,
    "regency_id": 1305,
    "district_id": 130503,
    "value": "Kurai Taji Timur",
    "postal_code": "25571"
  },
  {
    "id": 1305032003,
    "province_id": 13,
    "regency_id": 1305,
    "district_id": 130503,
    "value": "Padang Bintungan",
    "postal_code": "25571"
  },
  {
    "id": 1305032006,
    "province_id": 13,
    "regency_id": 1305,
    "district_id": 130503,
    "value": "Padang Kandang Pulau Air Padang",
    "postal_code": "25571"
  },
  {
    "id": 1305032002,
    "province_id": 13,
    "regency_id": 1305,
    "district_id": 130503,
    "value": "Pauh Kambar",
    "postal_code": "25571"
  },
  {
    "id": 1305032005,
    "province_id": 13,
    "regency_id": 1305,
    "district_id": 130503,
    "value": "Sunua",
    "postal_code": "25571"
  },
  {
    "id": 1305032008,
    "province_id": 13,
    "regency_id": 1305,
    "district_id": 130503,
    "value": "Sunua Barat",
    "postal_code": "25571"
  },
  {
    "id": 1305032007,
    "province_id": 13,
    "regency_id": 1305,
    "district_id": 130503,
    "value": "Sunua Tengah",
    "postal_code": "25571"
  }
]