[
  {
    "id": 180423,
    "province_id": 18,
    "regency_id": 1804,
    "district_id": 180423,
    "value": "Bandar Agung",
    "postal_code": "34882"
  },
  {
    "id": 180423,
    "province_id": 18,
    "regency_id": 1804,
    "district_id": 180423,
    "value": "Bumi Hantatai",
    "postal_code": "34882"
  },
  {
    "id": 180423,
    "province_id": 18,
    "regency_id": 1804,
    "district_id": 180423,
    "value": "Gunungratu (Gunung Ratu)",
    "postal_code": "34882"
  },
  {
    "id": 180423,
    "province_id": 18,
    "regency_id": 1804,
    "district_id": 180423,
    "value": "Negeri Jaya",
    "postal_code": "34882"
  },
  {
    "id": 180423,
    "province_id": 18,
    "regency_id": 1804,
    "district_id": 180423,
    "value": "Ringin Jaya",
    "postal_code": "34882"
  },
  {
    "id": 180423,
    "province_id": 18,
    "regency_id": 1804,
    "district_id": 180423,
    "value": "Srimulyo",
    "postal_code": "34882"
  },
  {
    "id": 180423,
    "province_id": 18,
    "regency_id": 1804,
    "district_id": 180423,
    "value": "Suoh",
    "postal_code": "34882"
  },
  {
    "id": 180423,
    "province_id": 18,
    "regency_id": 1804,
    "district_id": 180423,
    "value": "Tanjungsari",
    "postal_code": "34882"
  },
  {
    "id": 180423,
    "province_id": 18,
    "regency_id": 1804,
    "district_id": 180423,
    "value": "Tembelang",
    "postal_code": "34882"
  },
  {
    "id": 180423,
    "province_id": 18,
    "regency_id": 1804,
    "district_id": 180423,
    "value": "Tri Mekar Jaya",
    "postal_code": "34882"
  }
]