[
  {
    "id": 352805,
    "province_id": 35,
    "regency_id": 3528,
    "district_id": 352805,
    "value": "Badung",
    "postal_code": "69363"
  },
  {
    "id": 352805,
    "province_id": 35,
    "regency_id": 3528,
    "district_id": 352805,
    "value": "Banyubulu (Banyu Bulu)",
    "postal_code": "69363"
  },
  {
    "id": 352805,
    "province_id": 35,
    "regency_id": 3528,
    "district_id": 352805,
    "value": "Bato Kalangan (Batu Kalangan)",
    "postal_code": "69363"
  },
  {
    "id": 352805,
    "province_id": 35,
    "regency_id": 3528,
    "district_id": 352805,
    "value": "Billa'an",
    "postal_code": "69363"
  },
  {
    "id": 352805,
    "province_id": 35,
    "regency_id": 3528,
    "district_id": 352805,
    "value": "Campor",
    "postal_code": "69363"
  },
  {
    "id": 352805,
    "province_id": 35,
    "regency_id": 3528,
    "district_id": 352805,
    "value": "Candi Burung",
    "postal_code": "69363"
  },
  {
    "id": 352805,
    "province_id": 35,
    "regency_id": 3528,
    "district_id": 352805,
    "value": "Gro'om",
    "postal_code": "69363"
  },
  {
    "id": 352805,
    "province_id": 35,
    "regency_id": 3528,
    "district_id": 352805,
    "value": "Jambringin",
    "postal_code": "69363"
  },
  {
    "id": 352805,
    "province_id": 35,
    "regency_id": 3528,
    "district_id": 352805,
    "value": "Karang Anyar (Karanganyar)",
    "postal_code": "69363"
  },
  {
    "id": 352805,
    "province_id": 35,
    "regency_id": 3528,
    "district_id": 352805,
    "value": "Klampar",
    "postal_code": "69363"
  },
  {
    "id": 352805,
    "province_id": 35,
    "regency_id": 3528,
    "district_id": 352805,
    "value": "Kodik",
    "postal_code": "69363"
  },
  {
    "id": 352805,
    "province_id": 35,
    "regency_id": 3528,
    "district_id": 352805,
    "value": "Lenteng",
    "postal_code": "69363"
  },
  {
    "id": 352805,
    "province_id": 35,
    "regency_id": 3528,
    "district_id": 352805,
    "value": "Mapper",
    "postal_code": "69363"
  },
  {
    "id": 352805,
    "province_id": 35,
    "regency_id": 3528,
    "district_id": 352805,
    "value": "Panaguan",
    "postal_code": "69363"
  },
  {
    "id": 352805,
    "province_id": 35,
    "regency_id": 3528,
    "district_id": 352805,
    "value": "Pangbatok",
    "postal_code": "69363"
  },
  {
    "id": 352805,
    "province_id": 35,
    "regency_id": 3528,
    "district_id": 352805,
    "value": "Panglemah",
    "postal_code": "69363"
  },
  {
    "id": 352805,
    "province_id": 35,
    "regency_id": 3528,
    "district_id": 352805,
    "value": "Pangorayan (Pangurayan)",
    "postal_code": "69363"
  },
  {
    "id": 352805,
    "province_id": 35,
    "regency_id": 3528,
    "district_id": 352805,
    "value": "Pangtonggal",
    "postal_code": "69363"
  },
  {
    "id": 352805,
    "province_id": 35,
    "regency_id": 3528,
    "district_id": 352805,
    "value": "Proppo",
    "postal_code": "69363"
  },
  {
    "id": 352805,
    "province_id": 35,
    "regency_id": 3528,
    "district_id": 352805,
    "value": "Rangperang Daja (Rang Perang Daya)",
    "postal_code": "69363"
  },
  {
    "id": 352805,
    "province_id": 35,
    "regency_id": 3528,
    "district_id": 352805,
    "value": "Rangperang Laok (Rang Perang Laok)",
    "postal_code": "69363"
  },
  {
    "id": 352805,
    "province_id": 35,
    "regency_id": 3528,
    "district_id": 352805,
    "value": "Samatan",
    "postal_code": "69363"
  },
  {
    "id": 352805,
    "province_id": 35,
    "regency_id": 3528,
    "district_id": 352805,
    "value": "Samiran",
    "postal_code": "69363"
  },
  {
    "id": 352805,
    "province_id": 35,
    "regency_id": 3528,
    "district_id": 352805,
    "value": "Srambah",
    "postal_code": "69363"
  },
  {
    "id": 352805,
    "province_id": 35,
    "regency_id": 3528,
    "district_id": 352805,
    "value": "Talangoh (Tlangoh)",
    "postal_code": "69363"
  },
  {
    "id": 352805,
    "province_id": 35,
    "regency_id": 3528,
    "district_id": 352805,
    "value": "Tattangoh",
    "postal_code": "69363"
  },
  {
    "id": 352805,
    "province_id": 35,
    "regency_id": 3528,
    "district_id": 352805,
    "value": "Toket",
    "postal_code": "69363"
  }
]