[
  {
    "id": 3206382001,
    "province_id": 32,
    "regency_id": 3206,
    "district_id": 320638,
    "value": "Cipacing",
    "postal_code": "46158"
  },
  {
    "id": 3206382006,
    "province_id": 32,
    "regency_id": 3206,
    "district_id": 320638,
    "value": "Guranteng",
    "postal_code": "46158"
  },
  {
    "id": 3206382007,
    "province_id": 32,
    "regency_id": 3206,
    "district_id": 320638,
    "value": "Nanggewer",
    "postal_code": "46158"
  },
  {
    "id": 3206382002,
    "province_id": 32,
    "regency_id": 3206,
    "district_id": 320638,
    "value": "Pagerageung",
    "postal_code": "46158"
  },
  {
    "id": 3206382009,
    "province_id": 32,
    "regency_id": 3206,
    "district_id": 320638,
    "value": "Pagersari",
    "postal_code": "46158"
  },
  {
    "id": 3206382005,
    "province_id": 32,
    "regency_id": 3206,
    "district_id": 320638,
    "value": "Puteran",
    "postal_code": "46158"
  },
  {
    "id": 3206382010,
    "province_id": 32,
    "regency_id": 3206,
    "district_id": 320638,
    "value": "Sukadana",
    "postal_code": "46413"
  },
  {
    "id": 3206382003,
    "province_id": 32,
    "regency_id": 3206,
    "district_id": 320638,
    "value": "Sukamaju",
    "postal_code": "46158"
  },
  {
    "id": 3206382008,
    "province_id": 32,
    "regency_id": 3206,
    "district_id": 320638,
    "value": "Sukapada",
    "postal_code": "46158"
  },
  {
    "id": 3206382004,
    "province_id": 32,
    "regency_id": 3206,
    "district_id": 320638,
    "value": "Tanjungkerta",
    "postal_code": "46158"
  }
]