[
  {
    "id": 320125,
    "province_id": 32,
    "regency_id": 3201,
    "district_id": 320125,
    "value": "Batulayang (Batu Layang)",
    "postal_code": "16750"
  },
  {
    "id": 320125,
    "province_id": 32,
    "regency_id": 3201,
    "district_id": 320125,
    "value": "Cibeureum",
    "postal_code": "16750"
  },
  {
    "id": 320125,
    "province_id": 32,
    "regency_id": 3201,
    "district_id": 320125,
    "value": "Cilember",
    "postal_code": "16750"
  },
  {
    "id": 320125,
    "province_id": 32,
    "regency_id": 3201,
    "district_id": 320125,
    "value": "Cisarua",
    "postal_code": "16750"
  },
  {
    "id": 320125,
    "province_id": 32,
    "regency_id": 3201,
    "district_id": 320125,
    "value": "Citeko",
    "postal_code": "16750"
  },
  {
    "id": 320125,
    "province_id": 32,
    "regency_id": 3201,
    "district_id": 320125,
    "value": "Jogjogan",
    "postal_code": "16750"
  },
  {
    "id": 320125,
    "province_id": 32,
    "regency_id": 3201,
    "district_id": 320125,
    "value": "Kopo",
    "postal_code": "16750"
  },
  {
    "id": 320125,
    "province_id": 32,
    "regency_id": 3201,
    "district_id": 320125,
    "value": "Leuwimalang",
    "postal_code": "16750"
  },
  {
    "id": 320125,
    "province_id": 32,
    "regency_id": 3201,
    "district_id": 320125,
    "value": "Tugu Selatan",
    "postal_code": "16750"
  },
  {
    "id": 320125,
    "province_id": 32,
    "regency_id": 3201,
    "district_id": 320125,
    "value": "Tugu Utara",
    "postal_code": "16750"
  }
]