[
  {
    "id": 150814,
    "province_id": 15,
    "regency_id": 1508,
    "district_id": 150814,
    "value": "Aur Cino",
    "postal_code": "37260"
  },
  {
    "id": 150814,
    "province_id": 15,
    "regency_id": 1508,
    "district_id": 150814,
    "value": "Buat",
    "postal_code": "37260"
  },
  {
    "id": 150814,
    "province_id": 15,
    "regency_id": 1508,
    "district_id": 150814,
    "value": "Karak Apung",
    "postal_code": "37260"
  },
  {
    "id": 150814,
    "province_id": 15,
    "regency_id": 1508,
    "district_id": 150814,
    "value": "Laman Panjang",
    "postal_code": "37260"
  },
  {
    "id": 150814,
    "province_id": 15,
    "regency_id": 1508,
    "district_id": 150814,
    "value": "Lubuk Beringin",
    "postal_code": "37260"
  },
  {
    "id": 150814,
    "province_id": 15,
    "regency_id": 1508,
    "district_id": 150814,
    "value": "Muara Buat",
    "postal_code": "37260"
  },
  {
    "id": 150814,
    "province_id": 15,
    "regency_id": 1508,
    "district_id": 150814,
    "value": "Senamat Ulu",
    "postal_code": "37260"
  },
  {
    "id": 150814,
    "province_id": 15,
    "regency_id": 1508,
    "district_id": 150814,
    "value": "Sungai Telang",
    "postal_code": "37260"
  },
  {
    "id": 150814,
    "province_id": 15,
    "regency_id": 1508,
    "district_id": 150814,
    "value": "Timbolasi",
    "postal_code": "37260"
  }
]