[
  {
    "id": 1607032014,
    "province_id": 16,
    "regency_id": 1607,
    "district_id": 160703,
    "value": "Galang Tinggi",
    "postal_code": "30953"
  },
  {
    "id": 1607031008,
    "province_id": 16,
    "regency_id": 1607,
    "district_id": 160703,
    "value": "Kayuara Kuning",
    "postal_code": "30915"
  },
  {
    "id": 1607031033,
    "province_id": 16,
    "regency_id": 1607,
    "district_id": 160703,
    "value": "Kedondong Raye",
    "postal_code": "30953"
  },
  {
    "id": 1607032006,
    "province_id": 16,
    "regency_id": 1607,
    "district_id": 160703,
    "value": "Langkan",
    "postal_code": "30953"
  },
  {
    "id": 1607032010,
    "province_id": 16,
    "regency_id": 1607,
    "district_id": 160703,
    "value": "Lubuk Saung",
    "postal_code": "30953"
  },
  {
    "id": 1607031009,
    "province_id": 16,
    "regency_id": 1607,
    "district_id": 160703,
    "value": "Mulia Agung (Mulya Agung)",
    "postal_code": "30914"
  },
  {
    "id": 1607031012,
    "province_id": 16,
    "regency_id": 1607,
    "district_id": 160703,
    "value": "Pangkalan Balai",
    "postal_code": "30911"
  },
  {
    "id": 1607032007,
    "province_id": 16,
    "regency_id": 1607,
    "district_id": 160703,
    "value": "Pangkalan Panji",
    "postal_code": "30953"
  },
  {
    "id": 1607032024,
    "province_id": 16,
    "regency_id": 1607,
    "district_id": 160703,
    "value": "Pelajau",
    "postal_code": "30953"
  },
  {
    "id": 1607032017,
    "province_id": 16,
    "regency_id": 1607,
    "district_id": 160703,
    "value": "Pelajau Ilir",
    "postal_code": "30953"
  },
  {
    "id": 1607032015,
    "province_id": 16,
    "regency_id": 1607,
    "district_id": 160703,
    "value": "Petaling",
    "postal_code": "30953"
  },
  {
    "id": 1607032018,
    "province_id": 16,
    "regency_id": 1607,
    "district_id": 160703,
    "value": "Regan Agung",
    "postal_code": "30953"
  },
  {
    "id": 1607032016,
    "province_id": 16,
    "regency_id": 1607,
    "district_id": 160703,
    "value": "Rimba Alai",
    "postal_code": "30953"
  },
  {
    "id": 1607032038,
    "province_id": 16,
    "regency_id": 1607,
    "district_id": 160703,
    "value": "Rimba Balai",
    "postal_code": "30953"
  },
  {
    "id": 1607031023,
    "province_id": 16,
    "regency_id": 1607,
    "district_id": 160703,
    "value": "Seterio",
    "postal_code": "30912"
  },
  {
    "id": 1607032013,
    "province_id": 16,
    "regency_id": 1607,
    "district_id": 160703,
    "value": "Sidang Mas",
    "postal_code": "30953"
  },
  {
    "id": 1607032022,
    "province_id": 16,
    "regency_id": 1607,
    "district_id": 160703,
    "value": "Sri Bandung",
    "postal_code": "30953"
  },
  {
    "id": 1607032019,
    "province_id": 16,
    "regency_id": 1607,
    "district_id": 160703,
    "value": "Sukamulya (Suka Mulya)",
    "postal_code": "30916"
  },
  {
    "id": 1607032034,
    "province_id": 16,
    "regency_id": 1607,
    "district_id": 160703,
    "value": "Sukaraja Baru (Suka Raja Baru)",
    "postal_code": "30913"
  },
  {
    "id": 1607032020,
    "province_id": 16,
    "regency_id": 1607,
    "district_id": 160703,
    "value": "Tanjungagung (Tanjung Agung)",
    "postal_code": "30953"
  },
  {
    "id": 1607032025,
    "province_id": 16,
    "regency_id": 1607,
    "district_id": 160703,
    "value": "Tanjungberingin (Tanjung Beringin)",
    "postal_code": "30953"
  },
  {
    "id": 1607032028,
    "province_id": 16,
    "regency_id": 1607,
    "district_id": 160703,
    "value": "Tanjungkepayang (Tanjung Kepayang)",
    "postal_code": "30953"
  },
  {
    "id": 1607032021,
    "province_id": 16,
    "regency_id": 1607,
    "district_id": 160703,
    "value": "Tanjungmenang (Tanjung Menang)",
    "postal_code": "30953"
  },
  {
    "id": 1607032026,
    "province_id": 16,
    "regency_id": 1607,
    "district_id": 160703,
    "value": "Terentang",
    "postal_code": "30953"
  },
  {
    "id": 1607032037,
    "province_id": 16,
    "regency_id": 1607,
    "district_id": 160703,
    "value": "Terlangu",
    "postal_code": "30953"
  },
  {
    "id": 1607032011,
    "province_id": 16,
    "regency_id": 1607,
    "district_id": 160703,
    "value": "Ujung Tanjung",
    "postal_code": "30953"
  }
]