[
  {
    "id": 731709,
    "province_id": 73,
    "regency_id": 7317,
    "district_id": 731709,
    "value": "Awo' Gading",
    "postal_code": "91952"
  },
  {
    "id": 731709,
    "province_id": 73,
    "regency_id": 7317,
    "district_id": 731709,
    "value": "Lamasi",
    "postal_code": "91952"
  },
  {
    "id": 731709,
    "province_id": 73,
    "regency_id": 7317,
    "district_id": 731709,
    "value": "Padang Kalua",
    "postal_code": "91952"
  },
  {
    "id": 731709,
    "province_id": 73,
    "regency_id": 7317,
    "district_id": 731709,
    "value": "Pongsamelung",
    "postal_code": "91952"
  },
  {
    "id": 731709,
    "province_id": 73,
    "regency_id": 7317,
    "district_id": 731709,
    "value": "Salujambu (Salu Jambu)",
    "postal_code": "91952"
  },
  {
    "id": 731709,
    "province_id": 73,
    "regency_id": 7317,
    "district_id": 731709,
    "value": "Se'pon (Se Pong)",
    "postal_code": "91952"
  },
  {
    "id": 731709,
    "province_id": 73,
    "regency_id": 7317,
    "district_id": 731709,
    "value": "Setiarejo",
    "postal_code": "91952"
  },
  {
    "id": 731709,
    "province_id": 73,
    "regency_id": 7317,
    "district_id": 731709,
    "value": "To'pongo (To Pongo)",
    "postal_code": "91952"
  },
  {
    "id": 731709,
    "province_id": 73,
    "regency_id": 7317,
    "district_id": 731709,
    "value": "Wiwitan",
    "postal_code": "91952"
  },
  {
    "id": 731709,
    "province_id": 73,
    "regency_id": 7317,
    "district_id": 731709,
    "value": "Wiwitan Timur",
    "postal_code": "91952"
  }
]