[
  {
    "id": 9403082005,
    "province_id": 94,
    "regency_id": 9403,
    "district_id": 940308,
    "value": "Ayaigo",
    "postal_code": "98715"
  },
  {
    "id": 9403082008,
    "province_id": 94,
    "regency_id": 9403,
    "district_id": 940308,
    "value": "Bunaida",
    "postal_code": "98715"
  },
  {
    "id": 9403082011,
    "province_id": 94,
    "regency_id": 9403,
    "district_id": 940308,
    "value": "Dawawa",
    "postal_code": "98715"
  },
  {
    "id": 9403082006,
    "province_id": 94,
    "regency_id": 9403,
    "district_id": 940308,
    "value": "Geibu",
    "postal_code": "98715"
  },
  {
    "id": 9403082003,
    "province_id": 94,
    "regency_id": 9403,
    "district_id": 940308,
    "value": "Ibumaida",
    "postal_code": "98715"
  },
  {
    "id": 9403082004,
    "province_id": 94,
    "regency_id": 9403,
    "district_id": 940308,
    "value": "Kagupagu",
    "postal_code": "98715"
  },
  {
    "id": 9403082001,
    "province_id": 94,
    "regency_id": 9403,
    "district_id": 940308,
    "value": "Kebo II",
    "postal_code": "98715"
  },
  {
    "id": 9403082009,
    "province_id": 94,
    "regency_id": 9403,
    "district_id": 940308,
    "value": "Kedege",
    "postal_code": "98715"
  },
  {
    "id": 9403082012,
    "province_id": 94,
    "regency_id": 9403,
    "district_id": 940308,
    "value": "Mugime Ketago (Mugimeketago)",
    "postal_code": "98715"
  },
  {
    "id": 9403082002,
    "province_id": 94,
    "regency_id": 9403,
    "district_id": 940308,
    "value": "Togowa",
    "postal_code": "98715"
  },
  {
    "id": 9403082013,
    "province_id": 94,
    "regency_id": 9403,
    "district_id": 940308,
    "value": "Tuwamakida",
    "postal_code": "98715"
  },
  {
    "id": 9403082010,
    "province_id": 94,
    "regency_id": 9403,
    "district_id": 940308,
    "value": "Uwaiye",
    "postal_code": "98715"
  },
  {
    "id": 9403082007,
    "province_id": 94,
    "regency_id": 9403,
    "district_id": 940308,
    "value": "Yokadagi",
    "postal_code": "98715"
  }
]