[
  {
    "id": 530306,
    "province_id": 53,
    "regency_id": 5303,
    "district_id": 530306,
    "value": "Biloe",
    "postal_code": "85683"
  },
  {
    "id": 530306,
    "province_id": 53,
    "regency_id": 5303,
    "district_id": 530306,
    "value": "Boronubaen",
    "postal_code": "85683"
  },
  {
    "id": 530306,
    "province_id": 53,
    "regency_id": 5303,
    "district_id": 530306,
    "value": "Boronubaen Timur",
    "postal_code": "85683"
  },
  {
    "id": 530306,
    "province_id": 53,
    "regency_id": 5303,
    "district_id": 530306,
    "value": "Hautaes",
    "postal_code": "85683"
  },
  {
    "id": 530306,
    "province_id": 53,
    "regency_id": 5303,
    "district_id": 530306,
    "value": "Hauteas Barat",
    "postal_code": "85683"
  },
  {
    "id": 530306,
    "province_id": 53,
    "regency_id": 5303,
    "district_id": 530306,
    "value": "Lokomea",
    "postal_code": "85683"
  },
  {
    "id": 530306,
    "province_id": 53,
    "regency_id": 5303,
    "district_id": 530306,
    "value": "Sapaen",
    "postal_code": "85683"
  },
  {
    "id": 530306,
    "province_id": 53,
    "regency_id": 5303,
    "district_id": 530306,
    "value": "Taunbaen",
    "postal_code": "85683"
  },
  {
    "id": 530306,
    "province_id": 53,
    "regency_id": 5303,
    "district_id": 530306,
    "value": "Taunbaen Timur",
    "postal_code": "85683"
  },
  {
    "id": 530306,
    "province_id": 53,
    "regency_id": 5303,
    "district_id": 530306,
    "value": "Tualena",
    "postal_code": "85683"
  }
]