[
  {
    "id": 3201312003,
    "province_id": 32,
    "regency_id": 3201,
    "district_id": 320131,
    "value": "Pasireurih",
    "postal_code": "16611"
  },
  {
    "id": 3201312002,
    "province_id": 32,
    "regency_id": 3201,
    "district_id": 320131,
    "value": "Sirnagalih",
    "postal_code": "16611"
  },
  {
    "id": 3201312008,
    "province_id": 32,
    "regency_id": 3201,
    "district_id": 320131,
    "value": "Sukajadi",
    "postal_code": "16611"
  },
  {
    "id": 3201312007,
    "province_id": 32,
    "regency_id": 3201,
    "district_id": 320131,
    "value": "Sukajaya",
    "postal_code": "16611"
  },
  {
    "id": 3201312005,
    "province_id": 32,
    "regency_id": 3201,
    "district_id": 320131,
    "value": "Sukaluyu",
    "postal_code": "16611"
  },
  {
    "id": 3201312001,
    "province_id": 32,
    "regency_id": 3201,
    "district_id": 320131,
    "value": "Sukamantri",
    "postal_code": "16611"
  },
  {
    "id": 3201312006,
    "province_id": 32,
    "regency_id": 3201,
    "district_id": 320131,
    "value": "Sukaresmi",
    "postal_code": "16611"
  },
  {
    "id": 3201312004,
    "province_id": 32,
    "regency_id": 3201,
    "district_id": 320131,
    "value": "Tamansari",
    "postal_code": "16611"
  }
]