[
  {
    "id": 510808,
    "province_id": 51,
    "regency_id": 5108,
    "district_id": 510808,
    "value": "Bengkala",
    "postal_code": "81172"
  },
  {
    "id": 510808,
    "province_id": 51,
    "regency_id": 5108,
    "district_id": 510808,
    "value": "Bila",
    "postal_code": "81172"
  },
  {
    "id": 510808,
    "province_id": 51,
    "regency_id": 5108,
    "district_id": 510808,
    "value": "Bontihing",
    "postal_code": "81172"
  },
  {
    "id": 510808,
    "province_id": 51,
    "regency_id": 5108,
    "district_id": 510808,
    "value": "Bukti",
    "postal_code": "81172"
  },
  {
    "id": 510808,
    "province_id": 51,
    "regency_id": 5108,
    "district_id": 510808,
    "value": "Bulian",
    "postal_code": "81172"
  },
  {
    "id": 510808,
    "province_id": 51,
    "regency_id": 5108,
    "district_id": 510808,
    "value": "Depeha",
    "postal_code": "81172"
  },
  {
    "id": 510808,
    "province_id": 51,
    "regency_id": 5108,
    "district_id": 510808,
    "value": "Kubutambahan",
    "postal_code": "81172"
  },
  {
    "id": 510808,
    "province_id": 51,
    "regency_id": 5108,
    "district_id": 510808,
    "value": "Mengening",
    "postal_code": "81172"
  },
  {
    "id": 510808,
    "province_id": 51,
    "regency_id": 5108,
    "district_id": 510808,
    "value": "Pakisan",
    "postal_code": "81172"
  },
  {
    "id": 510808,
    "province_id": 51,
    "regency_id": 5108,
    "district_id": 510808,
    "value": "Tajun",
    "postal_code": "81172"
  },
  {
    "id": 510808,
    "province_id": 51,
    "regency_id": 5108,
    "district_id": 510808,
    "value": "Tambakan",
    "postal_code": "81172"
  },
  {
    "id": 510808,
    "province_id": 51,
    "regency_id": 5108,
    "district_id": 510808,
    "value": "Tamblang",
    "postal_code": "81172"
  },
  {
    "id": 510808,
    "province_id": 51,
    "regency_id": 5108,
    "district_id": 510808,
    "value": "Tunjung",
    "postal_code": "81172"
  }
]