[
  {
    "id": 7407071003,
    "province_id": 74,
    "regency_id": 7407,
    "district_id": 740707,
    "value": "Bahari",
    "postal_code": "93797"
  },
  {
    "id": 7407072006,
    "province_id": 74,
    "regency_id": 7407,
    "district_id": 740707,
    "value": "Dete",
    "postal_code": "93797"
  },
  {
    "id": 7407072009,
    "province_id": 74,
    "regency_id": 7407,
    "district_id": 740707,
    "value": "Kahiyanga (Kahianga)",
    "postal_code": "93797"
  },
  {
    "id": 7407072007,
    "province_id": 74,
    "regency_id": 7407,
    "district_id": 740707,
    "value": "Kulati (Kulate)",
    "postal_code": "93797"
  },
  {
    "id": 7407071001,
    "province_id": 74,
    "regency_id": 7407,
    "district_id": 740707,
    "value": "Patipelong",
    "postal_code": "93797"
  },
  {
    "id": 7407071011,
    "province_id": 74,
    "regency_id": 7407,
    "district_id": 740707,
    "value": "Rukuwa",
    "postal_code": "93797"
  },
  {
    "id": 7407072005,
    "province_id": 74,
    "regency_id": 7407,
    "district_id": 740707,
    "value": "Timu",
    "postal_code": "93797"
  },
  {
    "id": 7407071002,
    "province_id": 74,
    "regency_id": 7407,
    "district_id": 740707,
    "value": "Tongano Barat",
    "postal_code": "93797"
  },
  {
    "id": 7407071004,
    "province_id": 74,
    "regency_id": 7407,
    "district_id": 740707,
    "value": "Tongano Timur",
    "postal_code": "93797"
  },
  {
    "id": 7407072008,
    "province_id": 74,
    "regency_id": 7407,
    "district_id": 740707,
    "value": "Wawaotimu (Wawotimu)",
    "postal_code": "93797"
  }
]