[
  {
    "id": 331414,
    "province_id": 33,
    "regency_id": 3314,
    "district_id": 331414,
    "value": "Bagor",
    "postal_code": "57276"
  },
  {
    "id": 331414,
    "province_id": 33,
    "regency_id": 3314,
    "district_id": 331414,
    "value": "Brojol",
    "postal_code": "57276"
  },
  {
    "id": 331414,
    "province_id": 33,
    "regency_id": 3314,
    "district_id": 331414,
    "value": "Doyong",
    "postal_code": "57276"
  },
  {
    "id": 331414,
    "province_id": 33,
    "regency_id": 3314,
    "district_id": 331414,
    "value": "Geneng",
    "postal_code": "57276"
  },
  {
    "id": 331414,
    "province_id": 33,
    "regency_id": 3314,
    "district_id": 331414,
    "value": "Gilirejo",
    "postal_code": "57276"
  },
  {
    "id": 331414,
    "province_id": 33,
    "regency_id": 3314,
    "district_id": 331414,
    "value": "Gilirejo Baru",
    "postal_code": "57276"
  },
  {
    "id": 331414,
    "province_id": 33,
    "regency_id": 3314,
    "district_id": 331414,
    "value": "Girimargo",
    "postal_code": "57276"
  },
  {
    "id": 331414,
    "province_id": 33,
    "regency_id": 3314,
    "district_id": 331414,
    "value": "Jeruk",
    "postal_code": "57276"
  },
  {
    "id": 331414,
    "province_id": 33,
    "regency_id": 3314,
    "district_id": 331414,
    "value": "Soko",
    "postal_code": "57276"
  },
  {
    "id": 331414,
    "province_id": 33,
    "regency_id": 3314,
    "district_id": 331414,
    "value": "Sunggingan",
    "postal_code": "57276"
  }
]