[
  {
    "id": 731609,
    "province_id": 73,
    "regency_id": 7316,
    "district_id": 731609,
    "value": "Bonto",
    "postal_code": "91751"
  },
  {
    "id": 731609,
    "province_id": 73,
    "regency_id": 7316,
    "district_id": 731609,
    "value": "Buntu Batuan",
    "postal_code": "91751"
  },
  {
    "id": 731609,
    "province_id": 73,
    "regency_id": 7316,
    "district_id": 731609,
    "value": "Dulang",
    "postal_code": "91751"
  },
  {
    "id": 731609,
    "province_id": 73,
    "regency_id": 7316,
    "district_id": 731609,
    "value": "Kolai",
    "postal_code": "91751"
  },
  {
    "id": 731609,
    "province_id": 73,
    "regency_id": 7316,
    "district_id": 731609,
    "value": "Malua",
    "postal_code": "91751"
  },
  {
    "id": 731609,
    "province_id": 73,
    "regency_id": 7316,
    "district_id": 731609,
    "value": "Rante Mario",
    "postal_code": "91751"
  },
  {
    "id": 731609,
    "province_id": 73,
    "regency_id": 7316,
    "district_id": 731609,
    "value": "Tallung Tondok",
    "postal_code": "91751"
  },
  {
    "id": 731609,
    "province_id": 73,
    "regency_id": 7316,
    "district_id": 731609,
    "value": "Tangru",
    "postal_code": "91751"
  }
]