[
  {
    "id": 820807,
    "province_id": 82,
    "regency_id": 8208,
    "district_id": 820807,
    "value": "Bahu",
    "postal_code": "97794"
  },
  {
    "id": 820807,
    "province_id": 82,
    "regency_id": 8208,
    "district_id": 820807,
    "value": "Bapenu",
    "postal_code": "97794"
  },
  {
    "id": 820807,
    "province_id": 82,
    "regency_id": 8208,
    "district_id": 820807,
    "value": "Galebo",
    "postal_code": "97794"
  },
  {
    "id": 820807,
    "province_id": 82,
    "regency_id": 8208,
    "district_id": 820807,
    "value": "Kilo",
    "postal_code": "97794"
  },
  {
    "id": 820807,
    "province_id": 82,
    "regency_id": 8208,
    "district_id": 820807,
    "value": "Maluli",
    "postal_code": "97794"
  },
  {
    "id": 820807,
    "province_id": 82,
    "regency_id": 8208,
    "district_id": 820807,
    "value": "Nggaki",
    "postal_code": "97794"
  },
  {
    "id": 820807,
    "province_id": 82,
    "regency_id": 8208,
    "district_id": 820807,
    "value": "Nggoli",
    "postal_code": "97794"
  },
  {
    "id": 820807,
    "province_id": 82,
    "regency_id": 8208,
    "district_id": 820807,
    "value": "Pancado",
    "postal_code": "97794"
  },
  {
    "id": 820807,
    "province_id": 82,
    "regency_id": 8208,
    "district_id": 820807,
    "value": "Sumbong",
    "postal_code": "97794"
  }
]