[
  {
    "id": 320826,
    "province_id": 32,
    "regency_id": 3208,
    "district_id": 320826,
    "value": "Bunigeulis",
    "postal_code": "45564"
  },
  {
    "id": 320826,
    "province_id": 32,
    "regency_id": 3208,
    "district_id": 320826,
    "value": "Cikondang",
    "postal_code": "45564"
  },
  {
    "id": 320826,
    "province_id": 32,
    "regency_id": 3208,
    "district_id": 320826,
    "value": "Citapen",
    "postal_code": "45564"
  },
  {
    "id": 320826,
    "province_id": 32,
    "regency_id": 3208,
    "district_id": 320826,
    "value": "Hantara",
    "postal_code": "45564"
  },
  {
    "id": 320826,
    "province_id": 32,
    "regency_id": 3208,
    "district_id": 320826,
    "value": "Pakapasan Girang",
    "postal_code": "45564"
  },
  {
    "id": 320826,
    "province_id": 32,
    "regency_id": 3208,
    "district_id": 320826,
    "value": "Pakapasan Hilir",
    "postal_code": "45564"
  },
  {
    "id": 320826,
    "province_id": 32,
    "regency_id": 3208,
    "district_id": 320826,
    "value": "Pasiragung",
    "postal_code": "45564"
  },
  {
    "id": 320826,
    "province_id": 32,
    "regency_id": 3208,
    "district_id": 320826,
    "value": "Tundagan (Tudagan)",
    "postal_code": "45564"
  }
]