[
  {
    "id": 351509,
    "province_id": 35,
    "regency_id": 3515,
    "district_id": 351509,
    "value": "Gelang",
    "postal_code": "61273"
  },
  {
    "id": 351509,
    "province_id": 35,
    "regency_id": 3515,
    "district_id": 351509,
    "value": "Grabagan",
    "postal_code": "61273"
  },
  {
    "id": 351509,
    "province_id": 35,
    "regency_id": 3515,
    "district_id": 351509,
    "value": "Grinting",
    "postal_code": "61273"
  },
  {
    "id": 351509,
    "province_id": 35,
    "regency_id": 3515,
    "district_id": 351509,
    "value": "Grogol",
    "postal_code": "61273"
  },
  {
    "id": 351509,
    "province_id": 35,
    "regency_id": 3515,
    "district_id": 351509,
    "value": "Janti",
    "postal_code": "61273"
  },
  {
    "id": 351509,
    "province_id": 35,
    "regency_id": 3515,
    "district_id": 351509,
    "value": "Jiken",
    "postal_code": "61273"
  },
  {
    "id": 351509,
    "province_id": 35,
    "regency_id": 3515,
    "district_id": 351509,
    "value": "Kajeksan",
    "postal_code": "61273"
  },
  {
    "id": 351509,
    "province_id": 35,
    "regency_id": 3515,
    "district_id": 351509,
    "value": "Kebaron",
    "postal_code": "61273"
  },
  {
    "id": 351509,
    "province_id": 35,
    "regency_id": 3515,
    "district_id": 351509,
    "value": "Kedondong",
    "postal_code": "61273"
  },
  {
    "id": 351509,
    "province_id": 35,
    "regency_id": 3515,
    "district_id": 351509,
    "value": "Kemantren",
    "postal_code": "61273"
  },
  {
    "id": 351509,
    "province_id": 35,
    "regency_id": 3515,
    "district_id": 351509,
    "value": "Kenongo",
    "postal_code": "61273"
  },
  {
    "id": 351509,
    "province_id": 35,
    "regency_id": 3515,
    "district_id": 351509,
    "value": "Kepadangan",
    "postal_code": "61273"
  },
  {
    "id": 351509,
    "province_id": 35,
    "regency_id": 3515,
    "district_id": 351509,
    "value": "Kepatihan",
    "postal_code": "61273"
  },
  {
    "id": 351509,
    "province_id": 35,
    "regency_id": 3515,
    "district_id": 351509,
    "value": "Kepuhkemiri (Kepuh Kemiri)",
    "postal_code": "61273"
  },
  {
    "id": 351509,
    "province_id": 35,
    "regency_id": 3515,
    "district_id": 351509,
    "value": "Kepunten",
    "postal_code": "61273"
  },
  {
    "id": 351509,
    "province_id": 35,
    "regency_id": 3515,
    "district_id": 351509,
    "value": "Medalem",
    "postal_code": "61273"
  },
  {
    "id": 351509,
    "province_id": 35,
    "regency_id": 3515,
    "district_id": 351509,
    "value": "Modong",
    "postal_code": "61273"
  },
  {
    "id": 351509,
    "province_id": 35,
    "regency_id": 3515,
    "district_id": 351509,
    "value": "Pangkemiri",
    "postal_code": "61273"
  },
  {
    "id": 351509,
    "province_id": 35,
    "regency_id": 3515,
    "district_id": 351509,
    "value": "Singopadu",
    "postal_code": "61273"
  },
  {
    "id": 351509,
    "province_id": 35,
    "regency_id": 3515,
    "district_id": 351509,
    "value": "Sudimoro",
    "postal_code": "61273"
  },
  {
    "id": 351509,
    "province_id": 35,
    "regency_id": 3515,
    "district_id": 351509,
    "value": "Tlasih",
    "postal_code": "61273"
  },
  {
    "id": 351509,
    "province_id": 35,
    "regency_id": 3515,
    "district_id": 351509,
    "value": "Tulangan",
    "postal_code": "61273"
  }
]