[
  {
    "id": 611011,
    "province_id": 61,
    "regency_id": 6110,
    "district_id": 611011,
    "value": "Bukit Raya",
    "postal_code": "79676"
  },
  {
    "id": 611011,
    "province_id": 61,
    "regency_id": 6110,
    "district_id": 611011,
    "value": "Durian Jaya",
    "postal_code": "79676"
  },
  {
    "id": 611011,
    "province_id": 61,
    "regency_id": 6110,
    "district_id": 611011,
    "value": "Ganjang",
    "postal_code": "79676"
  },
  {
    "id": 611011,
    "province_id": 61,
    "regency_id": 6110,
    "district_id": 611011,
    "value": "Harapan Jaya",
    "postal_code": "79676"
  },
  {
    "id": 611011,
    "province_id": 61,
    "regency_id": 6110,
    "district_id": 611011,
    "value": "Keluas Hulu",
    "postal_code": "79676"
  },
  {
    "id": 611011,
    "province_id": 61,
    "regency_id": 6110,
    "district_id": 611011,
    "value": "Laja",
    "postal_code": "79676"
  },
  {
    "id": 611011,
    "province_id": 61,
    "regency_id": 6110,
    "district_id": 611011,
    "value": "Lintah Taum",
    "postal_code": "79676"
  },
  {
    "id": 611011,
    "province_id": 61,
    "regency_id": 6110,
    "district_id": 611011,
    "value": "Pelita Jaya",
    "postal_code": "79676"
  },
  {
    "id": 611011,
    "province_id": 61,
    "regency_id": 6110,
    "district_id": 611011,
    "value": "Togan Baru",
    "postal_code": "79676"
  },
  {
    "id": 611011,
    "province_id": 61,
    "regency_id": 6110,
    "district_id": 611011,
    "value": "Ulak Muid",
    "postal_code": "79676"
  }
]