[
  {
    "id": 320934,
    "province_id": 32,
    "regency_id": 3209,
    "district_id": 320934,
    "value": "Blender",
    "postal_code": "45184"
  },
  {
    "id": 320934,
    "province_id": 32,
    "regency_id": 3209,
    "district_id": 320934,
    "value": "Jatipiring",
    "postal_code": "45184"
  },
  {
    "id": 320934,
    "province_id": 32,
    "regency_id": 3209,
    "district_id": 320934,
    "value": "Karanganyar",
    "postal_code": "45184"
  },
  {
    "id": 320934,
    "province_id": 32,
    "regency_id": 3209,
    "district_id": 320934,
    "value": "Karangasem",
    "postal_code": "45184"
  },
  {
    "id": 320934,
    "province_id": 32,
    "regency_id": 3209,
    "district_id": 320934,
    "value": "Karangwangi",
    "postal_code": "45184"
  },
  {
    "id": 320934,
    "province_id": 32,
    "regency_id": 3209,
    "district_id": 320934,
    "value": "Karangwareng",
    "postal_code": "45184"
  },
  {
    "id": 320934,
    "province_id": 32,
    "regency_id": 3209,
    "district_id": 320934,
    "value": "Kubangdeleg",
    "postal_code": "45184"
  },
  {
    "id": 320934,
    "province_id": 32,
    "regency_id": 3209,
    "district_id": 320934,
    "value": "Seuseupan",
    "postal_code": "45184"
  },
  {
    "id": 320934,
    "province_id": 32,
    "regency_id": 3209,
    "district_id": 320934,
    "value": "Sumurkondang",
    "postal_code": "45184"
  }
]