[
  {
    "id": 321315,
    "province_id": 32,
    "regency_id": 3213,
    "district_id": 321315,
    "value": "Compreng",
    "postal_code": "41258"
  },
  {
    "id": 321315,
    "province_id": 32,
    "regency_id": 3213,
    "district_id": 321315,
    "value": "Jatimulya",
    "postal_code": "41258"
  },
  {
    "id": 321315,
    "province_id": 32,
    "regency_id": 3213,
    "district_id": 321315,
    "value": "Jatireja",
    "postal_code": "41258"
  },
  {
    "id": 321315,
    "province_id": 32,
    "regency_id": 3213,
    "district_id": 321315,
    "value": "Kalensari",
    "postal_code": "41258"
  },
  {
    "id": 321315,
    "province_id": 32,
    "regency_id": 3213,
    "district_id": 321315,
    "value": "Kiarasari",
    "postal_code": "41258"
  },
  {
    "id": 321315,
    "province_id": 32,
    "regency_id": 3213,
    "district_id": 321315,
    "value": "Mekarjaya",
    "postal_code": "41258"
  },
  {
    "id": 321315,
    "province_id": 32,
    "regency_id": 3213,
    "district_id": 321315,
    "value": "Sukadana",
    "postal_code": "41258"
  },
  {
    "id": 321315,
    "province_id": 32,
    "regency_id": 3213,
    "district_id": 321315,
    "value": "Sukatani",
    "postal_code": "41258"
  }
]