[
  {
    "id": 3209292008,
    "province_id": 32,
    "regency_id": 3209,
    "district_id": 320929,
    "value": "Guwa Kidul",
    "postal_code": "45165"
  },
  {
    "id": 3209292009,
    "province_id": 32,
    "regency_id": 3209,
    "district_id": 320929,
    "value": "Guwa Lor",
    "postal_code": "45165"
  },
  {
    "id": 3209292001,
    "province_id": 32,
    "regency_id": 3209,
    "district_id": 320929,
    "value": "Kalideres",
    "postal_code": "45165"
  },
  {
    "id": 3209292007,
    "province_id": 32,
    "regency_id": 3209,
    "district_id": 320929,
    "value": "Kaliwedi Kidul",
    "postal_code": "45165"
  },
  {
    "id": 3209292006,
    "province_id": 32,
    "regency_id": 3209,
    "district_id": 320929,
    "value": "Kaliwedi Lor",
    "postal_code": "45165"
  },
  {
    "id": 3209292002,
    "province_id": 32,
    "regency_id": 3209,
    "district_id": 320929,
    "value": "Prajawinangun Kulon",
    "postal_code": "45165"
  },
  {
    "id": 3209292003,
    "province_id": 32,
    "regency_id": 3209,
    "district_id": 320929,
    "value": "Prajawinangun Wetan",
    "postal_code": "45165"
  },
  {
    "id": 3209292004,
    "province_id": 32,
    "regency_id": 3209,
    "district_id": 320929,
    "value": "Ujungsemi",
    "postal_code": "45165"
  },
  {
    "id": 3209292005,
    "province_id": 32,
    "regency_id": 3209,
    "district_id": 320929,
    "value": "Wargabinangun",
    "postal_code": "45165"
  }
]