[
  {
    "id": 121110,
    "province_id": 12,
    "regency_id": 1211,
    "district_id": 121110,
    "value": "Bangun",
    "postal_code": "22282"
  },
  {
    "id": 121110,
    "province_id": 12,
    "regency_id": 1211,
    "district_id": 121110,
    "value": "Bangun I",
    "postal_code": "22282"
  },
  {
    "id": 121110,
    "province_id": 12,
    "regency_id": 1211,
    "district_id": 121110,
    "value": "Lae Hole",
    "postal_code": "22282"
  },
  {
    "id": 121110,
    "province_id": 12,
    "regency_id": 1211,
    "district_id": 121110,
    "value": "Lae Hole I",
    "postal_code": "22282"
  },
  {
    "id": 121110,
    "province_id": 12,
    "regency_id": 1211,
    "district_id": 121110,
    "value": "Lae Hole II",
    "postal_code": "22282"
  },
  {
    "id": 121110,
    "province_id": 12,
    "regency_id": 1211,
    "district_id": 121110,
    "value": "Parbuluan I",
    "postal_code": "22282"
  },
  {
    "id": 121110,
    "province_id": 12,
    "regency_id": 1211,
    "district_id": 121110,
    "value": "Parbuluan II",
    "postal_code": "22282"
  },
  {
    "id": 121110,
    "province_id": 12,
    "regency_id": 1211,
    "district_id": 121110,
    "value": "Parbuluan III",
    "postal_code": "22282"
  },
  {
    "id": 121110,
    "province_id": 12,
    "regency_id": 1211,
    "district_id": 121110,
    "value": "Parbuluan IV",
    "postal_code": "22282"
  },
  {
    "id": 121110,
    "province_id": 12,
    "regency_id": 1211,
    "district_id": 121110,
    "value": "Parbuluan V",
    "postal_code": "22282"
  },
  {
    "id": 121110,
    "province_id": 12,
    "regency_id": 1211,
    "district_id": 121110,
    "value": "Parbuluan VI",
    "postal_code": "22282"
  }
]