[
  {
    "id": 5108092005,
    "province_id": 51,
    "regency_id": 5108,
    "district_id": 510809,
    "value": "Bondalem",
    "postal_code": "81173"
  },
  {
    "id": 5108092003,
    "province_id": 51,
    "regency_id": 5108,
    "district_id": 510809,
    "value": "Julah",
    "postal_code": "81173"
  },
  {
    "id": 5108092007,
    "province_id": 51,
    "regency_id": 5108,
    "district_id": 510809,
    "value": "Les",
    "postal_code": "81173"
  },
  {
    "id": 5108092004,
    "province_id": 51,
    "regency_id": 5108,
    "district_id": 510809,
    "value": "Madenan",
    "postal_code": "81173"
  },
  {
    "id": 5108092002,
    "province_id": 51,
    "regency_id": 5108,
    "district_id": 510809,
    "value": "Pacung",
    "postal_code": "81173"
  },
  {
    "id": 5108092008,
    "province_id": 51,
    "regency_id": 5108,
    "district_id": 510809,
    "value": "Penuktukan",
    "postal_code": "81173"
  },
  {
    "id": 5108092009,
    "province_id": 51,
    "regency_id": 5108,
    "district_id": 510809,
    "value": "Sambirenteng",
    "postal_code": "81173"
  },
  {
    "id": 5108092001,
    "province_id": 51,
    "regency_id": 5108,
    "district_id": 510809,
    "value": "Sembiran",
    "postal_code": "81173"
  },
  {
    "id": 5108092006,
    "province_id": 51,
    "regency_id": 5108,
    "district_id": 510809,
    "value": "Tejakula",
    "postal_code": "81173"
  },
  {
    "id": 5108092010,
    "province_id": 51,
    "regency_id": 5108,
    "district_id": 510809,
    "value": "Tembok",
    "postal_code": "81173"
  }
]