[
  {
    "id": 331102,
    "province_id": 33,
    "regency_id": 3311,
    "district_id": 331102,
    "value": "Bulu",
    "postal_code": "57563"
  },
  {
    "id": 331102,
    "province_id": 33,
    "regency_id": 3311,
    "district_id": 331102,
    "value": "Gentan",
    "postal_code": "57563"
  },
  {
    "id": 331102,
    "province_id": 33,
    "regency_id": 3311,
    "district_id": 331102,
    "value": "Kamal",
    "postal_code": "57563"
  },
  {
    "id": 331102,
    "province_id": 33,
    "regency_id": 3311,
    "district_id": 331102,
    "value": "Karangasem",
    "postal_code": "57563"
  },
  {
    "id": 331102,
    "province_id": 33,
    "regency_id": 3311,
    "district_id": 331102,
    "value": "Kedungsono",
    "postal_code": "57563"
  },
  {
    "id": 331102,
    "province_id": 33,
    "regency_id": 3311,
    "district_id": 331102,
    "value": "Kunden",
    "postal_code": "57563"
  },
  {
    "id": 331102,
    "province_id": 33,
    "regency_id": 3311,
    "district_id": 331102,
    "value": "Lengking",
    "postal_code": "57563"
  },
  {
    "id": 331102,
    "province_id": 33,
    "regency_id": 3311,
    "district_id": 331102,
    "value": "Malangan",
    "postal_code": "57563"
  },
  {
    "id": 331102,
    "province_id": 33,
    "regency_id": 3311,
    "district_id": 331102,
    "value": "Ngasinan",
    "postal_code": "57563"
  },
  {
    "id": 331102,
    "province_id": 33,
    "regency_id": 3311,
    "district_id": 331102,
    "value": "Puron",
    "postal_code": "57563"
  },
  {
    "id": 331102,
    "province_id": 33,
    "regency_id": 3311,
    "district_id": 331102,
    "value": "Sanggang",
    "postal_code": "57563"
  },
  {
    "id": 331102,
    "province_id": 33,
    "regency_id": 3311,
    "district_id": 331102,
    "value": "Tiyaran",
    "postal_code": "57563"
  }
]