[
  {
    "id": 7604032013,
    "province_id": 76,
    "regency_id": 7604,
    "district_id": 760403,
    "value": "Arjo Sari (Arjosari)",
    "postal_code": "91342"
  },
  {
    "id": 7604032012,
    "province_id": 76,
    "regency_id": 7604,
    "district_id": 760403,
    "value": "Bakka-Bakka",
    "postal_code": "91342"
  },
  {
    "id": 7604032006,
    "province_id": 76,
    "regency_id": 7604,
    "district_id": 760403,
    "value": "Banua Baru",
    "postal_code": "91342"
  },
  {
    "id": 7604032004,
    "province_id": 76,
    "regency_id": 7604,
    "district_id": 760403,
    "value": "Bumiayu",
    "postal_code": "91342"
  },
  {
    "id": 7604032010,
    "province_id": 76,
    "regency_id": 7604,
    "district_id": 760403,
    "value": "Bumimulyo (Bumi Mulyo)",
    "postal_code": "91342"
  },
  {
    "id": 7604032009,
    "province_id": 76,
    "regency_id": 7604,
    "district_id": 760403,
    "value": "Campurjo",
    "postal_code": "91342"
  },
  {
    "id": 7604032014,
    "province_id": 76,
    "regency_id": 7604,
    "district_id": 760403,
    "value": "Galeson (Geleso)",
    "postal_code": "91342"
  },
  {
    "id": 7604032005,
    "province_id": 76,
    "regency_id": 7604,
    "district_id": 760403,
    "value": "Kebunsari",
    "postal_code": "91342"
  },
  {
    "id": 7604032007,
    "province_id": 76,
    "regency_id": 7604,
    "district_id": 760403,
    "value": "Nepo",
    "postal_code": "91342"
  },
  {
    "id": 7604031001,
    "province_id": 76,
    "regency_id": 7604,
    "district_id": 760403,
    "value": "Sidodadi",
    "postal_code": "91342"
  },
  {
    "id": 7604032002,
    "province_id": 76,
    "regency_id": 7604,
    "district_id": 760403,
    "value": "Sidorejo",
    "postal_code": "91342"
  },
  {
    "id": 7604032008,
    "province_id": 76,
    "regency_id": 7604,
    "district_id": 760403,
    "value": "Sugihwaras (Sugih Waras)",
    "postal_code": "91342"
  },
  {
    "id": 7604032003,
    "province_id": 76,
    "regency_id": 7604,
    "district_id": 760403,
    "value": "Sumberejo (Sumberjo)",
    "postal_code": "91342"
  },
  {
    "id": 7604032011,
    "province_id": 76,
    "regency_id": 7604,
    "district_id": 760403,
    "value": "Tumpiling",
    "postal_code": "91342"
  }
]