[
  {
    "id": 750207,
    "province_id": 75,
    "regency_id": 7502,
    "district_id": 750207,
    "value": "Apitalawu (Apitalawo)",
    "postal_code": "96261"
  },
  {
    "id": 750207,
    "province_id": 75,
    "regency_id": 7502,
    "district_id": 750207,
    "value": "Bangga",
    "postal_code": "96261"
  },
  {
    "id": 750207,
    "province_id": 75,
    "regency_id": 7502,
    "district_id": 750207,
    "value": "Bubaa",
    "postal_code": "96261"
  },
  {
    "id": 750207,
    "province_id": 75,
    "regency_id": 7502,
    "district_id": 750207,
    "value": "Bukit Karya",
    "postal_code": "96261"
  },
  {
    "id": 750207,
    "province_id": 75,
    "regency_id": 7502,
    "district_id": 750207,
    "value": "Limbatihu",
    "postal_code": "96261"
  },
  {
    "id": 750207,
    "province_id": 75,
    "regency_id": 7502,
    "district_id": 750207,
    "value": "Lito",
    "postal_code": "96261"
  },
  {
    "id": 750207,
    "province_id": 75,
    "regency_id": 7502,
    "district_id": 750207,
    "value": "Olibu",
    "postal_code": "96261"
  },
  {
    "id": 750207,
    "province_id": 75,
    "regency_id": 7502,
    "district_id": 750207,
    "value": "Towayu",
    "postal_code": "96261"
  }
]