[
  {
    "id": 731608,
    "province_id": 73,
    "regency_id": 7316,
    "district_id": 731608,
    "value": "Buntu Barana",
    "postal_code": "91756"
  },
  {
    "id": 731608,
    "province_id": 73,
    "regency_id": 7316,
    "district_id": 731608,
    "value": "Buntu Pema",
    "postal_code": "91756"
  },
  {
    "id": 731608,
    "province_id": 73,
    "regency_id": 7316,
    "district_id": 731608,
    "value": "Curio",
    "postal_code": "91756"
  },
  {
    "id": 731608,
    "province_id": 73,
    "regency_id": 7316,
    "district_id": 731608,
    "value": "Mandalan",
    "postal_code": "91756"
  },
  {
    "id": 731608,
    "province_id": 73,
    "regency_id": 7316,
    "district_id": 731608,
    "value": "Mekkala (Mekkale / Mekkalak)",
    "postal_code": "91756"
  },
  {
    "id": 731608,
    "province_id": 73,
    "regency_id": 7316,
    "district_id": 731608,
    "value": "Parombean",
    "postal_code": "91756"
  },
  {
    "id": 731608,
    "province_id": 73,
    "regency_id": 7316,
    "district_id": 731608,
    "value": "Pebaloran (Pabaloran)",
    "postal_code": "91756"
  },
  {
    "id": 731608,
    "province_id": 73,
    "regency_id": 7316,
    "district_id": 731608,
    "value": "Salassa",
    "postal_code": "91756"
  },
  {
    "id": 731608,
    "province_id": 73,
    "regency_id": 7316,
    "district_id": 731608,
    "value": "Sengiepongan",
    "postal_code": "91756"
  },
  {
    "id": 731608,
    "province_id": 73,
    "regency_id": 7316,
    "district_id": 731608,
    "value": "Sumbang",
    "postal_code": "91756"
  },
  {
    "id": 731608,
    "province_id": 73,
    "regency_id": 7316,
    "district_id": 731608,
    "value": "Tallung Ura (Tallungura)",
    "postal_code": "91756"
  }
]