[
  {
    "id": 121709,
    "province_id": 12,
    "regency_id": 1217,
    "district_id": 121709,
    "value": "Buntu Mauli",
    "postal_code": "22397"
  },
  {
    "id": 121709,
    "province_id": 12,
    "regency_id": 1217,
    "district_id": 121709,
    "value": "Cinta Maju",
    "postal_code": "22397"
  },
  {
    "id": 121709,
    "province_id": 12,
    "regency_id": 1217,
    "district_id": 121709,
    "value": "Holbung",
    "postal_code": "22397"
  },
  {
    "id": 121709,
    "province_id": 12,
    "regency_id": 1217,
    "district_id": 121709,
    "value": "Janji Maria",
    "postal_code": "22397"
  },
  {
    "id": 121709,
    "province_id": 12,
    "regency_id": 1217,
    "district_id": 121709,
    "value": "Janji Raja",
    "postal_code": "22397"
  },
  {
    "id": 121709,
    "province_id": 12,
    "regency_id": 1217,
    "district_id": 121709,
    "value": "Parsaoran",
    "postal_code": "22397"
  },
  {
    "id": 121709,
    "province_id": 12,
    "regency_id": 1217,
    "district_id": 121709,
    "value": "Sabulan",
    "postal_code": "22397"
  },
  {
    "id": 121709,
    "province_id": 12,
    "regency_id": 1217,
    "district_id": 121709,
    "value": "Tamba Dolok",
    "postal_code": "22397"
  }
]