[
  {
    "id": 810303,
    "province_id": 81,
    "regency_id": 8103,
    "district_id": 810303,
    "value": "Amdasa",
    "postal_code": "97473"
  },
  {
    "id": 810303,
    "province_id": 81,
    "regency_id": 8103,
    "district_id": 810303,
    "value": "Arui Bab",
    "postal_code": "97473"
  },
  {
    "id": 810303,
    "province_id": 81,
    "regency_id": 8103,
    "district_id": 810303,
    "value": "Arui Das",
    "postal_code": "97473"
  },
  {
    "id": 810303,
    "province_id": 81,
    "regency_id": 8103,
    "district_id": 810303,
    "value": "Atubul Da",
    "postal_code": "97473"
  },
  {
    "id": 810303,
    "province_id": 81,
    "regency_id": 8103,
    "district_id": 810303,
    "value": "Atubul Dol",
    "postal_code": "97473"
  },
  {
    "id": 810303,
    "province_id": 81,
    "regency_id": 8103,
    "district_id": 810303,
    "value": "Lorulun",
    "postal_code": "97473"
  },
  {
    "id": 810303,
    "province_id": 81,
    "regency_id": 8103,
    "district_id": 810303,
    "value": "Sangliat Dol",
    "postal_code": "97473"
  },
  {
    "id": 810303,
    "province_id": 81,
    "regency_id": 8103,
    "district_id": 810303,
    "value": "Sangliat Krawain",
    "postal_code": "97473"
  },
  {
    "id": 810303,
    "province_id": 81,
    "regency_id": 8103,
    "district_id": 810303,
    "value": "Tumbur",
    "postal_code": "97473"
  }
]