[
  {
    "id": 810811,
    "province_id": 81,
    "regency_id": 8108,
    "district_id": 810811,
    "value": "Herley (Herley Hoka)",
    "postal_code": "97452"
  },
  {
    "id": 810811,
    "province_id": 81,
    "regency_id": 8108,
    "district_id": 810811,
    "value": "Nusiata",
    "postal_code": "97452"
  },
  {
    "id": 810811,
    "province_id": 81,
    "regency_id": 8108,
    "district_id": 810811,
    "value": "Pota Besar",
    "postal_code": "97452"
  },
  {
    "id": 810811,
    "province_id": 81,
    "regency_id": 8108,
    "district_id": 810811,
    "value": "Pota Kecil",
    "postal_code": "97452"
  },
  {
    "id": 810811,
    "province_id": 81,
    "regency_id": 8108,
    "district_id": 810811,
    "value": "Rumalewang Besar (Rumahlewang Besar)",
    "postal_code": "97452"
  },
  {
    "id": 810811,
    "province_id": 81,
    "regency_id": 8108,
    "district_id": 810811,
    "value": "Rumalewang Kecil (Rumahlewang Kecil)",
    "postal_code": "97452"
  },
  {
    "id": 810811,
    "province_id": 81,
    "regency_id": 8108,
    "district_id": 810811,
    "value": "Upuhupun (Upuhupu)",
    "postal_code": "97452"
  },
  {
    "id": 810811,
    "province_id": 81,
    "regency_id": 8108,
    "district_id": 810811,
    "value": "Wasarili",
    "postal_code": "97452"
  }
]