[
  {
    "id": 620210,
    "province_id": 62,
    "regency_id": 6202,
    "district_id": 620210,
    "value": "Bhakti Karya (Bakti Karya)",
    "postal_code": "74352"
  },
  {
    "id": 620210,
    "province_id": 62,
    "regency_id": 6202,
    "district_id": 620210,
    "value": "Buntut Nusa",
    "postal_code": "74352"
  },
  {
    "id": 620210,
    "province_id": 62,
    "regency_id": 6202,
    "district_id": 620210,
    "value": "Gunung Makmur",
    "postal_code": "74352"
  },
  {
    "id": 620210,
    "province_id": 62,
    "regency_id": 6202,
    "district_id": 620210,
    "value": "Kuluk Telawang",
    "postal_code": "74352"
  },
  {
    "id": 620210,
    "province_id": 62,
    "regency_id": 6202,
    "district_id": 620210,
    "value": "Mulya Agung",
    "postal_code": "74352"
  },
  {
    "id": 620210,
    "province_id": 62,
    "regency_id": 6202,
    "district_id": 620210,
    "value": "Sungai Hanya",
    "postal_code": "74352"
  },
  {
    "id": 620210,
    "province_id": 62,
    "regency_id": 6202,
    "district_id": 620210,
    "value": "Sungai Puring",
    "postal_code": "74352"
  },
  {
    "id": 620210,
    "province_id": 62,
    "regency_id": 6202,
    "district_id": 620210,
    "value": "Tumbang Gagu",
    "postal_code": "74352"
  },
  {
    "id": 620210,
    "province_id": 62,
    "regency_id": 6202,
    "district_id": 620210,
    "value": "Tumbang Hejan",
    "postal_code": "74352"
  },
  {
    "id": 620210,
    "province_id": 62,
    "regency_id": 6202,
    "district_id": 620210,
    "value": "Tumbang Kalang",
    "postal_code": "74352"
  },
  {
    "id": 620210,
    "province_id": 62,
    "regency_id": 6202,
    "district_id": 620210,
    "value": "Tumbang Manya",
    "postal_code": "74352"
  },
  {
    "id": 620210,
    "province_id": 62,
    "regency_id": 6202,
    "district_id": 620210,
    "value": "Tumbang Ngahan",
    "postal_code": "74352"
  },
  {
    "id": 620210,
    "province_id": 62,
    "regency_id": 6202,
    "district_id": 620210,
    "value": "Tumbang Ramei (Tumbang Ramai)",
    "postal_code": "74352"
  },
  {
    "id": 620210,
    "province_id": 62,
    "regency_id": 6202,
    "district_id": 620210,
    "value": "Tumbang Sepayang (Tumbang Sepanyang)",
    "postal_code": "74352"
  },
  {
    "id": 620210,
    "province_id": 62,
    "regency_id": 6202,
    "district_id": 620210,
    "value": "Waringin Agung",
    "postal_code": "74352"
  }
]