[
  {
    "id": 3503042001,
    "province_id": 35,
    "regency_id": 3503,
    "district_id": 350304,
    "value": "Cakul",
    "postal_code": "66363"
  },
  {
    "id": 3503042007,
    "province_id": 35,
    "regency_id": 3503,
    "district_id": 350304,
    "value": "Dongko",
    "postal_code": "66363"
  },
  {
    "id": 3503042009,
    "province_id": 35,
    "regency_id": 3503,
    "district_id": 350304,
    "value": "Ngerdani",
    "postal_code": "66363"
  },
  {
    "id": 3503042004,
    "province_id": 35,
    "regency_id": 3503,
    "district_id": 350304,
    "value": "Pandean",
    "postal_code": "66363"
  },
  {
    "id": 3503042005,
    "province_id": 35,
    "regency_id": 3503,
    "district_id": 350304,
    "value": "Petung",
    "postal_code": "66363"
  },
  {
    "id": 3503042010,
    "province_id": 35,
    "regency_id": 3503,
    "district_id": 350304,
    "value": "Pringapus",
    "postal_code": "66363"
  },
  {
    "id": 3503042006,
    "province_id": 35,
    "regency_id": 3503,
    "district_id": 350304,
    "value": "Salamwates",
    "postal_code": "66363"
  },
  {
    "id": 3503042002,
    "province_id": 35,
    "regency_id": 3503,
    "district_id": 350304,
    "value": "Siki",
    "postal_code": "66363"
  },
  {
    "id": 3503042008,
    "province_id": 35,
    "regency_id": 3503,
    "district_id": 350304,
    "value": "Sumberbening",
    "postal_code": "66363"
  },
  {
    "id": 3503042003,
    "province_id": 35,
    "regency_id": 3503,
    "district_id": 350304,
    "value": "Watuagung",
    "postal_code": "66363"
  }
]