[
  {
    "id": 911503,
    "province_id": 91,
    "regency_id": 9115,
    "district_id": 911503,
    "value": "Bunggu",
    "postal_code": "98671"
  },
  {
    "id": 911503,
    "province_id": 91,
    "regency_id": 9115,
    "district_id": 911503,
    "value": "Emauri",
    "postal_code": "98671"
  },
  {
    "id": 911503,
    "province_id": 91,
    "regency_id": 9115,
    "district_id": 911503,
    "value": "Kali Baru",
    "postal_code": "98671"
  },
  {
    "id": 911503,
    "province_id": 91,
    "regency_id": 9115,
    "district_id": 911503,
    "value": "Kowogi",
    "postal_code": "98671"
  },
  {
    "id": 911503,
    "province_id": 91,
    "regency_id": 9115,
    "district_id": 911503,
    "value": "Obutay",
    "postal_code": "98671"
  },
  {
    "id": 911503,
    "province_id": 91,
    "regency_id": 9115,
    "district_id": 911503,
    "value": "Saurisirami",
    "postal_code": "98671"
  },
  {
    "id": 911503,
    "province_id": 91,
    "regency_id": 9115,
    "district_id": 911503,
    "value": "Sinonde",
    "postal_code": "98671"
  },
  {
    "id": 911503,
    "province_id": 91,
    "regency_id": 9115,
    "district_id": 911503,
    "value": "Sirami",
    "postal_code": "98671"
  },
  {
    "id": 911503,
    "province_id": 91,
    "regency_id": 9115,
    "district_id": 911503,
    "value": "Wairo",
    "postal_code": "98671"
  }
]