[
  {
    "id": 720909,
    "province_id": 72,
    "regency_id": 7209,
    "district_id": 720909,
    "value": "Biga",
    "postal_code": "94693"
  },
  {
    "id": 720909,
    "province_id": 72,
    "regency_id": 7209,
    "district_id": 720909,
    "value": "Katogop (Kotogop)",
    "postal_code": "94693"
  },
  {
    "id": 720909,
    "province_id": 72,
    "regency_id": 7209,
    "district_id": 720909,
    "value": "Kondongan",
    "postal_code": "94693"
  },
  {
    "id": 720909,
    "province_id": 72,
    "regency_id": 7209,
    "district_id": 720909,
    "value": "Malapo",
    "postal_code": "94693"
  },
  {
    "id": 720909,
    "province_id": 72,
    "regency_id": 7209,
    "district_id": 720909,
    "value": "Pasokan",
    "postal_code": "94693"
  },
  {
    "id": 720909,
    "province_id": 72,
    "regency_id": 7209,
    "district_id": 720909,
    "value": "Salinggoha",
    "postal_code": "94693"
  },
  {
    "id": 720909,
    "province_id": 72,
    "regency_id": 7209,
    "district_id": 720909,
    "value": "Tingki",
    "postal_code": "94693"
  },
  {
    "id": 720909,
    "province_id": 72,
    "regency_id": 7209,
    "district_id": 720909,
    "value": "Tongidon",
    "postal_code": "94693"
  }
]