[
  {
    "id": 740517,
    "province_id": 74,
    "regency_id": 7405,
    "district_id": 740517,
    "value": "Adaka Jaya",
    "postal_code": "93815"
  },
  {
    "id": 740517,
    "province_id": 74,
    "regency_id": 7405,
    "district_id": 740517,
    "value": "Adayu Indah",
    "postal_code": "93814"
  },
  {
    "id": 740517,
    "province_id": 74,
    "regency_id": 7405,
    "district_id": 740517,
    "value": "Andoolo Utama (Andolo Utama)",
    "postal_code": "93813"
  },
  {
    "id": 740517,
    "province_id": 74,
    "regency_id": 7405,
    "district_id": 740517,
    "value": "Anggokoti",
    "postal_code": "93819"
  },
  {
    "id": 740517,
    "province_id": 74,
    "regency_id": 7405,
    "district_id": 740517,
    "value": "Asembu Mulya",
    "postal_code": "93819"
  },
  {
    "id": 740517,
    "province_id": 74,
    "regency_id": 7405,
    "district_id": 740517,
    "value": "Awalo (Awolo)",
    "postal_code": "93816"
  },
  {
    "id": 740517,
    "province_id": 74,
    "regency_id": 7405,
    "district_id": 740517,
    "value": "Buke",
    "postal_code": "93812"
  },
  {
    "id": 740517,
    "province_id": 74,
    "regency_id": 7405,
    "district_id": 740517,
    "value": "Pelandia",
    "postal_code": "93812"
  },
  {
    "id": 740517,
    "province_id": 74,
    "regency_id": 7405,
    "district_id": 740517,
    "value": "Puudaria (Puudaria Jaya)",
    "postal_code": "93812"
  },
  {
    "id": 740517,
    "province_id": 74,
    "regency_id": 7405,
    "district_id": 740517,
    "value": "Rahamendaa (Raha Menda Jaya)",
    "postal_code": "93819"
  },
  {
    "id": 740517,
    "province_id": 74,
    "regency_id": 7405,
    "district_id": 740517,
    "value": "Ranooha Lestari",
    "postal_code": "93814"
  },
  {
    "id": 740517,
    "province_id": 74,
    "regency_id": 7405,
    "district_id": 740517,
    "value": "Silea Jaya",
    "postal_code": "93814"
  },
  {
    "id": 740517,
    "province_id": 74,
    "regency_id": 7405,
    "district_id": 740517,
    "value": "Tetenggolasa",
    "postal_code": "93814"
  },
  {
    "id": 740517,
    "province_id": 74,
    "regency_id": 7405,
    "district_id": 740517,
    "value": "Tirto Martani (Tirto / Tirta Wartani)",
    "postal_code": "93814"
  },
  {
    "id": 740517,
    "province_id": 74,
    "regency_id": 7405,
    "district_id": 740517,
    "value": "Wanua Maroa",
    "postal_code": "93814"
  },
  {
    "id": 740517,
    "province_id": 74,
    "regency_id": 7405,
    "district_id": 740517,
    "value": "Wulele Jaya",
    "postal_code": "93814"
  }
]