[
  {
    "id": 9212072005,
    "province_id": 92,
    "regency_id": 9212,
    "district_id": 921207,
    "value": "Aiga",
    "postal_code": "98352"
  },
  {
    "id": 9212072002,
    "province_id": 92,
    "regency_id": 9212,
    "district_id": 921207,
    "value": "Bigwaimud",
    "postal_code": "98352"
  },
  {
    "id": 9212072014,
    "province_id": 92,
    "regency_id": 9212,
    "district_id": 921207,
    "value": "Binggrayud",
    "postal_code": "98352"
  },
  {
    "id": 9212072001,
    "province_id": 92,
    "regency_id": 9212,
    "district_id": 921207,
    "value": "Catubouw",
    "postal_code": "98352"
  },
  {
    "id": 9212072021,
    "province_id": 92,
    "regency_id": 9212,
    "district_id": 921207,
    "value": "Coijut",
    "postal_code": "98352"
  },
  {
    "id": 9212072019,
    "province_id": 92,
    "regency_id": 9212,
    "district_id": 921207,
    "value": "Idemai",
    "postal_code": "98352"
  },
  {
    "id": 9212072011,
    "province_id": 92,
    "regency_id": 9212,
    "district_id": 921207,
    "value": "Ijigreg",
    "postal_code": "98352"
  },
  {
    "id": 9212072006,
    "province_id": 92,
    "regency_id": 9212,
    "district_id": 921207,
    "value": "Imandrigo",
    "postal_code": "98352"
  },
  {
    "id": 9212072012,
    "province_id": 92,
    "regency_id": 9212,
    "district_id": 921207,
    "value": "Jim",
    "postal_code": "98352"
  },
  {
    "id": 9212072004,
    "province_id": 92,
    "regency_id": 9212,
    "district_id": 921207,
    "value": "Kaungwam",
    "postal_code": "98352"
  },
  {
    "id": 9212072010,
    "province_id": 92,
    "regency_id": 9212,
    "district_id": 921207,
    "value": "Manggesuk",
    "postal_code": "98352"
  },
  {
    "id": 9212072020,
    "province_id": 92,
    "regency_id": 9212,
    "district_id": 921207,
    "value": "Mieycomti",
    "postal_code": "98352"
  },
  {
    "id": 9212072016,
    "province_id": 92,
    "regency_id": 9212,
    "district_id": 921207,
    "value": "Mihij",
    "postal_code": "98352"
  },
  {
    "id": 9212072003,
    "province_id": 92,
    "regency_id": 9212,
    "district_id": 921207,
    "value": "Mihou",
    "postal_code": "98352"
  },
  {
    "id": 9212072015,
    "province_id": 92,
    "regency_id": 9212,
    "district_id": 921207,
    "value": "Minmo",
    "postal_code": "98352"
  },
  {
    "id": 9212072008,
    "province_id": 92,
    "regency_id": 9212,
    "district_id": 921207,
    "value": "Ndabouw",
    "postal_code": "98352"
  },
  {
    "id": 9212072013,
    "province_id": 92,
    "regency_id": 9212,
    "district_id": 921207,
    "value": "Slomiou",
    "postal_code": "98352"
  },
  {
    "id": 9212072017,
    "province_id": 92,
    "regency_id": 9212,
    "district_id": 921207,
    "value": "Soudin",
    "postal_code": "98352"
  },
  {
    "id": 9212072009,
    "province_id": 92,
    "regency_id": 9212,
    "district_id": 921207,
    "value": "Sugemeh",
    "postal_code": "98352"
  },
  {
    "id": 9212072018,
    "province_id": 92,
    "regency_id": 9212,
    "district_id": 921207,
    "value": "Timtouw",
    "postal_code": "98352"
  },
  {
    "id": 9212072007,
    "province_id": 92,
    "regency_id": 9212,
    "district_id": 921207,
    "value": "Unti",
    "postal_code": "98352"
  }
]