[
  {
    "id": 1102162017,
    "province_id": 11,
    "regency_id": 1102,
    "district_id": 110216,
    "value": "Akhih Majile",
    "postal_code": "24677"
  },
  {
    "id": 1102162001,
    "province_id": 11,
    "regency_id": 1102,
    "district_id": 110216,
    "value": "Bintang Alga Musara",
    "postal_code": "24677"
  },
  {
    "id": 1102162002,
    "province_id": 11,
    "regency_id": 1102,
    "district_id": 110216,
    "value": "Bintang Bukit Indah (Bukit Bintang Indah)",
    "postal_code": "24677"
  },
  {
    "id": 1102162007,
    "province_id": 11,
    "regency_id": 1102,
    "district_id": 110216,
    "value": "Bukit Meriah (Bukit Mekhiah)",
    "postal_code": "24677"
  },
  {
    "id": 1102162004,
    "province_id": 11,
    "regency_id": 1102,
    "district_id": 110216,
    "value": "Bun-bun Alas (Bunbun Alas)",
    "postal_code": "24677"
  },
  {
    "id": 1102162012,
    "province_id": 11,
    "regency_id": 1102,
    "district_id": 110216,
    "value": "Bunbun Indah (Bunbun Indah War)",
    "postal_code": "24677"
  },
  {
    "id": 1102162020,
    "province_id": 11,
    "regency_id": 1102,
    "district_id": 110216,
    "value": "Gaye Sendah",
    "postal_code": "24677"
  },
  {
    "id": 1102162006,
    "province_id": 11,
    "regency_id": 1102,
    "district_id": 110216,
    "value": "Gunung Pak-Pak",
    "postal_code": "24677"
  },
  {
    "id": 1102162010,
    "province_id": 11,
    "regency_id": 1102,
    "district_id": 110216,
    "value": "Kane Mende",
    "postal_code": "24677"
  },
  {
    "id": 1102162022,
    "province_id": 11,
    "regency_id": 1102,
    "district_id": 110216,
    "value": "Kompas",
    "postal_code": "24677"
  },
  {
    "id": 1102162021,
    "province_id": 11,
    "regency_id": 1102,
    "district_id": 110216,
    "value": "Kute Hakhapen (Hakhapen)",
    "postal_code": "24677"
  },
  {
    "id": 1102162009,
    "province_id": 11,
    "regency_id": 1102,
    "district_id": 110216,
    "value": "Laut Tawar",
    "postal_code": "24677"
  },
  {
    "id": 1102162011,
    "province_id": 11,
    "regency_id": 1102,
    "district_id": 110216,
    "value": "Lawe Sekhakut",
    "postal_code": "24677"
  },
  {
    "id": 1102162005,
    "province_id": 11,
    "regency_id": 1102,
    "district_id": 110216,
    "value": "Naga Timbul",
    "postal_code": "24677"
  },
  {
    "id": 1102162008,
    "province_id": 11,
    "regency_id": 1102,
    "district_id": 110216,
    "value": "Permata Musara",
    "postal_code": "24677"
  },
  {
    "id": 1102162015,
    "province_id": 11,
    "regency_id": 1102,
    "district_id": 110216,
    "value": "Punce Nali",
    "postal_code": "24677"
  },
  {
    "id": 1102162016,
    "province_id": 11,
    "regency_id": 1102,
    "district_id": 110216,
    "value": "Sade Ate",
    "postal_code": "24677"
  },
  {
    "id": 1102162023,
    "province_id": 11,
    "regency_id": 1102,
    "district_id": 110216,
    "value": "Sepakat",
    "postal_code": "24677"
  },
  {
    "id": 1102162013,
    "province_id": 11,
    "regency_id": 1102,
    "district_id": 110216,
    "value": "Suka Damai",
    "postal_code": "24677"
  },
  {
    "id": 1102162003,
    "province_id": 11,
    "regency_id": 1102,
    "district_id": 110216,
    "value": "Tanjung Sari",
    "postal_code": "24677"
  },
  {
    "id": 1102162014,
    "province_id": 11,
    "regency_id": 1102,
    "district_id": 110216,
    "value": "Tuah Kekhine (Tanah Khekhine)",
    "postal_code": "24677"
  },
  {
    "id": 1102162019,
    "province_id": 11,
    "regency_id": 1102,
    "district_id": 110216,
    "value": "Tunas Mude",
    "postal_code": "24677"
  },
  {
    "id": 1102162018,
    "province_id": 11,
    "regency_id": 1102,
    "district_id": 110216,
    "value": "Ukhat Peseluk",
    "postal_code": "24677"
  }
]