[
  {
    "id": 1607042039,
    "province_id": 16,
    "regency_id": 1607,
    "district_id": 160704,
    "value": "Banjar Sari (Banjarsari / Air Senda IV)",
    "postal_code": "30959"
  },
  {
    "id": 1607042040,
    "province_id": 16,
    "regency_id": 1607,
    "district_id": 160704,
    "value": "Buana Murti (Air Senda III)",
    "postal_code": "30959"
  },
  {
    "id": 1607042009,
    "province_id": 16,
    "regency_id": 1607,
    "district_id": 160704,
    "value": "Budi Asih",
    "postal_code": "30959"
  },
  {
    "id": 1607042007,
    "province_id": 16,
    "regency_id": 1607,
    "district_id": 160704,
    "value": "Dana Mulya",
    "postal_code": "30959"
  },
  {
    "id": 1607042017,
    "province_id": 16,
    "regency_id": 1607,
    "district_id": 160704,
    "value": "Majatra",
    "postal_code": "30959"
  },
  {
    "id": 1607042004,
    "province_id": 16,
    "regency_id": 1607,
    "district_id": 160704,
    "value": "Mukut",
    "postal_code": "30959"
  },
  {
    "id": 1607042014,
    "province_id": 16,
    "regency_id": 1607,
    "district_id": 160704,
    "value": "Nunggal Sari",
    "postal_code": "30959"
  },
  {
    "id": 1607042032,
    "province_id": 16,
    "regency_id": 1607,
    "district_id": 160704,
    "value": "Rawa Banda",
    "postal_code": "30959"
  },
  {
    "id": 1607042013,
    "province_id": 16,
    "regency_id": 1607,
    "district_id": 160704,
    "value": "Rukun Makmur",
    "postal_code": "30959"
  },
  {
    "id": 1607042037,
    "province_id": 16,
    "regency_id": 1607,
    "district_id": 160704,
    "value": "Senda Mukti (Air Senda II)",
    "postal_code": "30959"
  },
  {
    "id": 1607042031,
    "province_id": 16,
    "regency_id": 1607,
    "district_id": 160704,
    "value": "Sumber Mulya/Mulyo",
    "postal_code": "30959"
  },
  {
    "id": 1607042006,
    "province_id": 16,
    "regency_id": 1607,
    "district_id": 160704,
    "value": "Sumber Rejeki",
    "postal_code": "30959"
  },
  {
    "id": 1607042041,
    "province_id": 16,
    "regency_id": 1607,
    "district_id": 160704,
    "value": "Tabuan Asri",
    "postal_code": "30959"
  },
  {
    "id": 1607042002,
    "province_id": 16,
    "regency_id": 1607,
    "district_id": 160704,
    "value": "Teluk Betung",
    "postal_code": "30959"
  },
  {
    "id": 1607042038,
    "province_id": 16,
    "regency_id": 1607,
    "district_id": 160704,
    "value": "Tirta Mulya (Tirto Mulyo)",
    "postal_code": "30959"
  },
  {
    "id": 1607042008,
    "province_id": 16,
    "regency_id": 1607,
    "district_id": 160704,
    "value": "Wana Mukti",
    "postal_code": "30959"
  },
  {
    "id": 1607042018,
    "province_id": 16,
    "regency_id": 1607,
    "district_id": 160704,
    "value": "Wonosari",
    "postal_code": "30959"
  }
]