[
  {
    "id": 320118,
    "province_id": 32,
    "regency_id": 3201,
    "district_id": 320118,
    "value": "Cibodas",
    "postal_code": "16350"
  },
  {
    "id": 320118,
    "province_id": 32,
    "regency_id": 3201,
    "district_id": 320118,
    "value": "Cidokom",
    "postal_code": "16350"
  },
  {
    "id": 320118,
    "province_id": 32,
    "regency_id": 3201,
    "district_id": 320118,
    "value": "Cipinang",
    "postal_code": "16350"
  },
  {
    "id": 320118,
    "province_id": 32,
    "regency_id": 3201,
    "district_id": 320118,
    "value": "Gobang",
    "postal_code": "16350"
  },
  {
    "id": 320118,
    "province_id": 32,
    "regency_id": 3201,
    "district_id": 320118,
    "value": "Kampungsawah (Kampung Sawah)",
    "postal_code": "16350"
  },
  {
    "id": 320118,
    "province_id": 32,
    "regency_id": 3201,
    "district_id": 320118,
    "value": "Kertajaya (Kerta Jaya)",
    "postal_code": "16350"
  },
  {
    "id": 320118,
    "province_id": 32,
    "regency_id": 3201,
    "district_id": 320118,
    "value": "Leuwibatu",
    "postal_code": "16350"
  },
  {
    "id": 320118,
    "province_id": 32,
    "regency_id": 3201,
    "district_id": 320118,
    "value": "Mekarjaya",
    "postal_code": "16350"
  },
  {
    "id": 320118,
    "province_id": 32,
    "regency_id": 3201,
    "district_id": 320118,
    "value": "Mekarsari (Mekar Sari)",
    "postal_code": "16350"
  },
  {
    "id": 320118,
    "province_id": 32,
    "regency_id": 3201,
    "district_id": 320118,
    "value": "Rabak",
    "postal_code": "16350"
  },
  {
    "id": 320118,
    "province_id": 32,
    "regency_id": 3201,
    "district_id": 320118,
    "value": "Rumpin",
    "postal_code": "16350"
  },
  {
    "id": 320118,
    "province_id": 32,
    "regency_id": 3201,
    "district_id": 320118,
    "value": "Sukamulya",
    "postal_code": "16350"
  },
  {
    "id": 320118,
    "province_id": 32,
    "regency_id": 3201,
    "district_id": 320118,
    "value": "Sukasari",
    "postal_code": "16350"
  },
  {
    "id": 320118,
    "province_id": 32,
    "regency_id": 3201,
    "district_id": 320118,
    "value": "Tamansari (Taman Sari)",
    "postal_code": "16350"
  }
]