[
  {
    "id": 630501,
    "province_id": 63,
    "regency_id": 6305,
    "district_id": 630501,
    "value": "A Yani Pura",
    "postal_code": "71183"
  },
  {
    "id": 630501,
    "province_id": 63,
    "regency_id": 6305,
    "district_id": 630501,
    "value": "Binuang",
    "postal_code": "71183"
  },
  {
    "id": 630501,
    "province_id": 63,
    "regency_id": 6305,
    "district_id": 630501,
    "value": "Gunungbatu (Gunung Batu)",
    "postal_code": "71183"
  },
  {
    "id": 630501,
    "province_id": 63,
    "regency_id": 6305,
    "district_id": 630501,
    "value": "Karang Putih",
    "postal_code": "71183"
  },
  {
    "id": 630501,
    "province_id": 63,
    "regency_id": 6305,
    "district_id": 630501,
    "value": "Mekarsari",
    "postal_code": "71183"
  },
  {
    "id": 630501,
    "province_id": 63,
    "regency_id": 6305,
    "district_id": 630501,
    "value": "Padang Sari",
    "postal_code": "71183"
  },
  {
    "id": 630501,
    "province_id": 63,
    "regency_id": 6305,
    "district_id": 630501,
    "value": "Pualam Sari",
    "postal_code": "71183"
  },
  {
    "id": 630501,
    "province_id": 63,
    "regency_id": 6305,
    "district_id": 630501,
    "value": "Pulaupinang (Pulau Pinang)",
    "postal_code": "71183"
  },
  {
    "id": 630501,
    "province_id": 63,
    "regency_id": 6305,
    "district_id": 630501,
    "value": "Pulaupinang Utara (Pulau Pinang Utara)",
    "postal_code": "71183"
  },
  {
    "id": 630501,
    "province_id": 63,
    "regency_id": 6305,
    "district_id": 630501,
    "value": "Raya Belanti",
    "postal_code": "71183"
  },
  {
    "id": 630501,
    "province_id": 63,
    "regency_id": 6305,
    "district_id": 630501,
    "value": "Tungkap",
    "postal_code": "71183"
  }
]