[
  {
    "id": 3573031011,
    "province_id": 35,
    "regency_id": 3573,
    "district_id": 357303,
    "value": "Arjowinangun",
    "postal_code": "65132"
  },
  {
    "id": 3573031003,
    "province_id": 35,
    "regency_id": 3573,
    "district_id": 357303,
    "value": "Bumiayu",
    "postal_code": "65135"
  },
  {
    "id": 3573031005,
    "province_id": 35,
    "regency_id": 3573,
    "district_id": 357303,
    "value": "Buring",
    "postal_code": "65136"
  },
  {
    "id": 3573031010,
    "province_id": 35,
    "regency_id": 3573,
    "district_id": 357303,
    "value": "Cemorokandang",
    "postal_code": "65138"
  },
  {
    "id": 3573031006,
    "province_id": 35,
    "regency_id": 3573,
    "district_id": 357303,
    "value": "Kedungkandang",
    "postal_code": "65137"
  },
  {
    "id": 3573031001,
    "province_id": 35,
    "regency_id": 3573,
    "district_id": 357303,
    "value": "Kotalama",
    "postal_code": "65136"
  },
  {
    "id": 3573031007,
    "province_id": 35,
    "regency_id": 3573,
    "district_id": 357303,
    "value": "Lesanpuro",
    "postal_code": "65138"
  },
  {
    "id": 3573031009,
    "province_id": 35,
    "regency_id": 3573,
    "district_id": 357303,
    "value": "Madyopuro",
    "postal_code": "65139"
  },
  {
    "id": 3573031002,
    "province_id": 35,
    "regency_id": 3573,
    "district_id": 357303,
    "value": "Mergosono",
    "postal_code": "65134"
  },
  {
    "id": 3573031008,
    "province_id": 35,
    "regency_id": 3573,
    "district_id": 357303,
    "value": "Sawojajar",
    "postal_code": "65139"
  },
  {
    "id": 3573031012,
    "province_id": 35,
    "regency_id": 3573,
    "district_id": 357303,
    "value": "Tlogowaru",
    "postal_code": "65133"
  },
  {
    "id": 3573031004,
    "province_id": 35,
    "regency_id": 3573,
    "district_id": 357303,
    "value": "Wonokoyo",
    "postal_code": "65135"
  }
]