[
  {
    "id": 730613,
    "province_id": 73,
    "regency_id": 7306,
    "district_id": 730613,
    "value": "Borongpala'la",
    "postal_code": "92172"
  },
  {
    "id": 730613,
    "province_id": 73,
    "regency_id": 7306,
    "district_id": 730613,
    "value": "Je'nemadinging (Jenemadinging)",
    "postal_code": "92172"
  },
  {
    "id": 730613,
    "province_id": 73,
    "regency_id": 7306,
    "district_id": 730613,
    "value": "Paccellekang (Pacellekang)",
    "postal_code": "92172"
  },
  {
    "id": 730613,
    "province_id": 73,
    "regency_id": 7306,
    "district_id": 730613,
    "value": "Palantikang (Pallantikang)",
    "postal_code": "92172"
  },
  {
    "id": 730613,
    "province_id": 73,
    "regency_id": 7306,
    "district_id": 730613,
    "value": "Panaikang",
    "postal_code": "92172"
  },
  {
    "id": 730613,
    "province_id": 73,
    "regency_id": 7306,
    "district_id": 730613,
    "value": "Pattallassang",
    "postal_code": "92172"
  },
  {
    "id": 730613,
    "province_id": 73,
    "regency_id": 7306,
    "district_id": 730613,
    "value": "Sunggumanai",
    "postal_code": "92172"
  },
  {
    "id": 730613,
    "province_id": 73,
    "regency_id": 7306,
    "district_id": 730613,
    "value": "Timbuseng",
    "postal_code": "92172"
  }
]