[
  {
    "id": 6411022009,
    "province_id": 64,
    "regency_id": 6411,
    "district_id": 641102,
    "value": "Datah Bilang Baru",
    "postal_code": "75770"
  },
  {
    "id": 6411022005,
    "province_id": 64,
    "regency_id": 6411,
    "district_id": 641102,
    "value": "Datah Bilang Ilir",
    "postal_code": "75770"
  },
  {
    "id": 6411022006,
    "province_id": 64,
    "regency_id": 6411,
    "district_id": 641102,
    "value": "Datah Bilang Ulu",
    "postal_code": "75770"
  },
  {
    "id": 6411022001,
    "province_id": 64,
    "regency_id": 6411,
    "district_id": 641102,
    "value": "Long Hubung",
    "postal_code": "75770"
  },
  {
    "id": 6411022011,
    "province_id": 64,
    "regency_id": 6411,
    "district_id": 641102,
    "value": "Long Hubung Ulu",
    "postal_code": "75770"
  },
  {
    "id": 6411022003,
    "province_id": 64,
    "regency_id": 6411,
    "district_id": 641102,
    "value": "Lutan",
    "postal_code": "75770"
  },
  {
    "id": 6411022004,
    "province_id": 64,
    "regency_id": 6411,
    "district_id": 641102,
    "value": "Matalibaq",
    "postal_code": "75770"
  },
  {
    "id": 6411022002,
    "province_id": 64,
    "regency_id": 6411,
    "district_id": 641102,
    "value": "Memahak Teboq",
    "postal_code": "75770"
  },
  {
    "id": 6411022010,
    "province_id": 64,
    "regency_id": 6411,
    "district_id": 641102,
    "value": "Sirau",
    "postal_code": "75770"
  },
  {
    "id": 6411022007,
    "province_id": 64,
    "regency_id": 6411,
    "district_id": 641102,
    "value": "Tri Pariq Makmur",
    "postal_code": "75770"
  },
  {
    "id": 6411022008,
    "province_id": 64,
    "regency_id": 6411,
    "district_id": 641102,
    "value": "Wana Pariq",
    "postal_code": "75770"
  }
]