[
  {
    "id": 630711,
    "province_id": 63,
    "regency_id": 6307,
    "district_id": 630711,
    "value": "Abung",
    "postal_code": "71392"
  },
  {
    "id": 630711,
    "province_id": 63,
    "regency_id": 6307,
    "district_id": 630711,
    "value": "Abung Surapati",
    "postal_code": "71392"
  },
  {
    "id": 630711,
    "province_id": 63,
    "regency_id": 6307,
    "district_id": 630711,
    "value": "Hawang",
    "postal_code": "71392"
  },
  {
    "id": 630711,
    "province_id": 63,
    "regency_id": 6307,
    "district_id": 630711,
    "value": "Kabang",
    "postal_code": "71392"
  },
  {
    "id": 630711,
    "province_id": 63,
    "regency_id": 6307,
    "district_id": 630711,
    "value": "Karatungan",
    "postal_code": "71392"
  },
  {
    "id": 630711,
    "province_id": 63,
    "regency_id": 6307,
    "district_id": 630711,
    "value": "Karau",
    "postal_code": "71392"
  },
  {
    "id": 630711,
    "province_id": 63,
    "regency_id": 6307,
    "district_id": 630711,
    "value": "Limpasu",
    "postal_code": "71392"
  },
  {
    "id": 630711,
    "province_id": 63,
    "regency_id": 6307,
    "district_id": 630711,
    "value": "Pauh",
    "postal_code": "71392"
  },
  {
    "id": 630711,
    "province_id": 63,
    "regency_id": 6307,
    "district_id": 630711,
    "value": "Tapuk",
    "postal_code": "71392"
  }
]