[
  {
    "id": 3601032012,
    "province_id": 36,
    "regency_id": 3601,
    "district_id": 360103,
    "value": "Cibaliung",
    "postal_code": "42285"
  },
  {
    "id": 3601032008,
    "province_id": 36,
    "regency_id": 3601,
    "district_id": 360103,
    "value": "Cibingbin",
    "postal_code": "42285"
  },
  {
    "id": 3601032015,
    "province_id": 36,
    "regency_id": 3601,
    "district_id": 360103,
    "value": "Cihanjuang",
    "postal_code": "42285"
  },
  {
    "id": 3601032007,
    "province_id": 36,
    "regency_id": 3601,
    "district_id": 360103,
    "value": "Curug",
    "postal_code": "42285"
  },
  {
    "id": 3601032011,
    "province_id": 36,
    "regency_id": 3601,
    "district_id": 360103,
    "value": "Mahendra",
    "postal_code": "42285"
  },
  {
    "id": 3601032001,
    "province_id": 36,
    "regency_id": 3601,
    "district_id": 360103,
    "value": "Mendung",
    "postal_code": "42285"
  },
  {
    "id": 3601032016,
    "province_id": 36,
    "regency_id": 3601,
    "district_id": 360103,
    "value": "Sorongan",
    "postal_code": "42285"
  },
  {
    "id": 3601032006,
    "province_id": 36,
    "regency_id": 3601,
    "district_id": 360103,
    "value": "Sudimanik",
    "postal_code": "42285"
  },
  {
    "id": 3601032009,
    "province_id": 36,
    "regency_id": 3601,
    "district_id": 360103,
    "value": "Sukajadi",
    "postal_code": "42285"
  }
]