[
  {
    "id": 750102,
    "province_id": 75,
    "regency_id": 7501,
    "district_id": 750102,
    "value": "Bulila",
    "postal_code": "96181"
  },
  {
    "id": 750102,
    "province_id": 75,
    "regency_id": 7501,
    "district_id": 750102,
    "value": "Dulamayo Barat",
    "postal_code": "96181"
  },
  {
    "id": 750102,
    "province_id": 75,
    "regency_id": 7501,
    "district_id": 750102,
    "value": "Dulamayo Selatan",
    "postal_code": "96181"
  },
  {
    "id": 750102,
    "province_id": 75,
    "regency_id": 7501,
    "district_id": 750102,
    "value": "Dulohupa",
    "postal_code": "96181"
  },
  {
    "id": 750102,
    "province_id": 75,
    "regency_id": 7501,
    "district_id": 750102,
    "value": "Hulawa",
    "postal_code": "96181"
  },
  {
    "id": 750102,
    "province_id": 75,
    "regency_id": 7501,
    "district_id": 750102,
    "value": "Luhu",
    "postal_code": "96181"
  },
  {
    "id": 750102,
    "province_id": 75,
    "regency_id": 7501,
    "district_id": 750102,
    "value": "Mongolato",
    "postal_code": "96181"
  },
  {
    "id": 750102,
    "province_id": 75,
    "regency_id": 7501,
    "district_id": 750102,
    "value": "Pilohayanga",
    "postal_code": "96181"
  },
  {
    "id": 750102,
    "province_id": 75,
    "regency_id": 7501,
    "district_id": 750102,
    "value": "Pilohayanga Barat",
    "postal_code": "96181"
  }
]