[
  {
    "id": 351801,
    "province_id": 35,
    "regency_id": 3518,
    "district_id": 351801,
    "value": "Bareng",
    "postal_code": "64475"
  },
  {
    "id": 351801,
    "province_id": 35,
    "regency_id": 3518,
    "district_id": 351801,
    "value": "Bendolo",
    "postal_code": "64475"
  },
  {
    "id": 351801,
    "province_id": 35,
    "regency_id": 3518,
    "district_id": 351801,
    "value": "Duren",
    "postal_code": "64475"
  },
  {
    "id": 351801,
    "province_id": 35,
    "regency_id": 3518,
    "district_id": 351801,
    "value": "Kebonagung (Kebon Agung)",
    "postal_code": "64475"
  },
  {
    "id": 351801,
    "province_id": 35,
    "regency_id": 3518,
    "district_id": 351801,
    "value": "Margopatut",
    "postal_code": "64475"
  },
  {
    "id": 351801,
    "province_id": 35,
    "regency_id": 3518,
    "district_id": 351801,
    "value": "Ngliman",
    "postal_code": "64475"
  },
  {
    "id": 351801,
    "province_id": 35,
    "regency_id": 3518,
    "district_id": 351801,
    "value": "Sawahan",
    "postal_code": "64475"
  },
  {
    "id": 351801,
    "province_id": 35,
    "regency_id": 3518,
    "district_id": 351801,
    "value": "Sidorejo",
    "postal_code": "64475"
  },
  {
    "id": 351801,
    "province_id": 35,
    "regency_id": 3518,
    "district_id": 351801,
    "value": "Siwalan",
    "postal_code": "64475"
  }
]