[
  {
    "id": 6210082003,
    "province_id": 62,
    "regency_id": 6210,
    "district_id": 621008,
    "value": "Karetau Rambangun",
    "postal_code": "74553"
  },
  {
    "id": 6210082004,
    "province_id": 62,
    "regency_id": 6210,
    "district_id": 621008,
    "value": "Karetau Sarian",
    "postal_code": "74553"
  },
  {
    "id": 6210082001,
    "province_id": 62,
    "regency_id": 6210,
    "district_id": 621008,
    "value": "Lawang Kanji",
    "postal_code": "74553"
  },
  {
    "id": 6210082007,
    "province_id": 62,
    "regency_id": 6210,
    "district_id": 621008,
    "value": "Tumbang Anoi",
    "postal_code": "74553"
  },
  {
    "id": 6210082002,
    "province_id": 62,
    "regency_id": 6210,
    "district_id": 621008,
    "value": "Tumbang Mahuroi",
    "postal_code": "74553"
  },
  {
    "id": 6210082006,
    "province_id": 62,
    "regency_id": 6210,
    "district_id": 621008,
    "value": "Tumbang Maraya",
    "postal_code": "74553"
  },
  {
    "id": 6210081008,
    "province_id": 62,
    "regency_id": 6210,
    "district_id": 621008,
    "value": "Tumbang Marikoi",
    "postal_code": "74553"
  },
  {
    "id": 6210082005,
    "province_id": 62,
    "regency_id": 6210,
    "district_id": 621008,
    "value": "Tumbang Posu",
    "postal_code": "74553"
  }
]