[
  {
    "id": 1214082001,
    "province_id": 12,
    "regency_id": 1214,
    "district_id": 121408,
    "value": "Amuri",
    "postal_code": "22864"
  },
  {
    "id": 1214082004,
    "province_id": 12,
    "regency_id": 1214,
    "district_id": 121408,
    "value": "Bawosalo'o Siwalawa (Bawosaloo Sowalawa)",
    "postal_code": "22864"
  },
  {
    "id": 1214082033,
    "province_id": 12,
    "regency_id": 1214,
    "district_id": 121408,
    "value": "Botohili",
    "postal_code": "22864"
  },
  {
    "id": 1214082009,
    "province_id": 12,
    "regency_id": 1214,
    "district_id": 121408,
    "value": "Hilifadolo (Hili Fadolo)",
    "postal_code": "22864"
  },
  {
    "id": 1214082035,
    "province_id": 12,
    "regency_id": 1214,
    "district_id": 121408,
    "value": "Hilikara",
    "postal_code": "22864"
  },
  {
    "id": 1214082047,
    "province_id": 12,
    "regency_id": 1214,
    "district_id": 121408,
    "value": "Hilimbowo Siwalawa",
    "postal_code": "22864"
  },
  {
    "id": 1214082014,
    "province_id": 12,
    "regency_id": 1214,
    "district_id": 121408,
    "value": "Lolofaoso",
    "postal_code": "22864"
  },
  {
    "id": 1214082017,
    "province_id": 12,
    "regency_id": 1214,
    "district_id": 121408,
    "value": "Lolohowa",
    "postal_code": "22864"
  },
  {
    "id": 1214082015,
    "province_id": 12,
    "regency_id": 1214,
    "district_id": 121408,
    "value": "Lolomoyo",
    "postal_code": "22864"
  },
  {
    "id": 1214082016,
    "province_id": 12,
    "regency_id": 1214,
    "district_id": 121408,
    "value": "Lolowau",
    "postal_code": "22864"
  },
  {
    "id": 1214082048,
    "province_id": 12,
    "regency_id": 1214,
    "district_id": 121408,
    "value": "Nituwu Boho",
    "postal_code": "22864"
  },
  {
    "id": 1214082044,
    "province_id": 12,
    "regency_id": 1214,
    "district_id": 121408,
    "value": "Samiri",
    "postal_code": "22864"
  },
  {
    "id": 1214082022,
    "province_id": 12,
    "regency_id": 1214,
    "district_id": 121408,
    "value": "Sisarahili Ekholo",
    "postal_code": "22864"
  },
  {
    "id": 1214082030,
    "province_id": 12,
    "regency_id": 1214,
    "district_id": 121408,
    "value": "Tuhegafoa",
    "postal_code": "22864"
  }
]