[
  {
    "id": 160317,
    "province_id": 16,
    "regency_id": 1603,
    "district_id": 160317,
    "value": "Alai",
    "postal_code": "31177"
  },
  {
    "id": 160317,
    "province_id": 16,
    "regency_id": 1603,
    "district_id": 160317,
    "value": "Alai Selatan",
    "postal_code": "31177"
  },
  {
    "id": 160317,
    "province_id": 16,
    "regency_id": 1603,
    "district_id": 160317,
    "value": "Kemang",
    "postal_code": "31177"
  },
  {
    "id": 160317,
    "province_id": 16,
    "regency_id": 1603,
    "district_id": 160317,
    "value": "Lembak",
    "postal_code": "31177"
  },
  {
    "id": 160317,
    "province_id": 16,
    "regency_id": 1603,
    "district_id": 160317,
    "value": "Lubuk Enau",
    "postal_code": "31177"
  },
  {
    "id": 160317,
    "province_id": 16,
    "regency_id": 1603,
    "district_id": 160317,
    "value": "Petanang",
    "postal_code": "31177"
  },
  {
    "id": 160317,
    "province_id": 16,
    "regency_id": 1603,
    "district_id": 160317,
    "value": "Sungai Duren",
    "postal_code": "31177"
  },
  {
    "id": 160317,
    "province_id": 16,
    "regency_id": 1603,
    "district_id": 160317,
    "value": "Talang Nangka",
    "postal_code": "31177"
  },
  {
    "id": 160317,
    "province_id": 16,
    "regency_id": 1603,
    "district_id": 160317,
    "value": "Tanjung Baru",
    "postal_code": "31177"
  },
  {
    "id": 160317,
    "province_id": 16,
    "regency_id": 1603,
    "district_id": 160317,
    "value": "Tapus",
    "postal_code": "31177"
  }
]