[
  {
    "id": 1501062042,
    "province_id": 15,
    "regency_id": 1501,
    "district_id": 150106,
    "value": "Air Betung",
    "postal_code": "37162"
  },
  {
    "id": 1501062040,
    "province_id": 15,
    "regency_id": 1501,
    "district_id": 150106,
    "value": "Baru Sungai Betung",
    "postal_code": "37162"
  },
  {
    "id": 1501062016,
    "province_id": 15,
    "regency_id": 1501,
    "district_id": 150106,
    "value": "Danautinggi (Danau Tinggi)",
    "postal_code": "37162"
  },
  {
    "id": 1501062013,
    "province_id": 15,
    "regency_id": 1501,
    "district_id": 150106,
    "value": "Simpang Tutup",
    "postal_code": "37162"
  },
  {
    "id": 1501061009,
    "province_id": 15,
    "regency_id": 1501,
    "district_id": 150106,
    "value": "Siulak Deras",
    "postal_code": "37162"
  },
  {
    "id": 1501062018,
    "province_id": 15,
    "regency_id": 1501,
    "district_id": 150106,
    "value": "Siulak Deras Mudik",
    "postal_code": "37162"
  },
  {
    "id": 1501062019,
    "province_id": 15,
    "regency_id": 1501,
    "district_id": 150106,
    "value": "Siulak Tenang",
    "postal_code": "37162"
  },
  {
    "id": 1501062014,
    "province_id": 15,
    "regency_id": 1501,
    "district_id": 150106,
    "value": "Suko Pangkat",
    "postal_code": "37162"
  },
  {
    "id": 1501062039,
    "province_id": 15,
    "regency_id": 1501,
    "district_id": 150106,
    "value": "Sungai Batu Gantih Hilir",
    "postal_code": "37162"
  },
  {
    "id": 1501062011,
    "province_id": 15,
    "regency_id": 1501,
    "district_id": 150106,
    "value": "Sungaibatu Gantih (Sungai Batu Gantih)",
    "postal_code": "37162"
  },
  {
    "id": 1501062010,
    "province_id": 15,
    "regency_id": 1501,
    "district_id": 150106,
    "value": "Sungaibetung Hilir (Sungai Betung Hilir)",
    "postal_code": "37162"
  },
  {
    "id": 1501062015,
    "province_id": 15,
    "regency_id": 1501,
    "district_id": 150106,
    "value": "Sungaibetung Mudik (Sungai Betung Mudik)",
    "postal_code": "37162"
  },
  {
    "id": 1501062017,
    "province_id": 15,
    "regency_id": 1501,
    "district_id": 150106,
    "value": "Sungaigelampeh (Sungai Gelampeh)",
    "postal_code": "37162"
  },
  {
    "id": 1501062012,
    "province_id": 15,
    "regency_id": 1501,
    "district_id": 150106,
    "value": "Tanjunggenting (Tanjung Genting)",
    "postal_code": "37162"
  },
  {
    "id": 1501062041,
    "province_id": 15,
    "regency_id": 1501,
    "district_id": 150106,
    "value": "Tanjunggenting Mudik",
    "postal_code": "37162"
  },
  {
    "id": 1501062043,
    "province_id": 15,
    "regency_id": 1501,
    "district_id": 150106,
    "value": "Ujung Ladang",
    "postal_code": "37162"
  }
]