[
  {
    "id": 160918,
    "province_id": 16,
    "regency_id": 1609,
    "district_id": 160918,
    "value": "Karang Pendeta",
    "postal_code": "32262"
  },
  {
    "id": 160918,
    "province_id": 16,
    "regency_id": 1609,
    "district_id": 160918,
    "value": "Kota Agung",
    "postal_code": "32262"
  },
  {
    "id": 160918,
    "province_id": 16,
    "regency_id": 1609,
    "district_id": 160918,
    "value": "Kuripan",
    "postal_code": "32262"
  },
  {
    "id": 160918,
    "province_id": 16,
    "regency_id": 1609,
    "district_id": 160918,
    "value": "Kuripan II / Dua",
    "postal_code": "32262"
  },
  {
    "id": 160918,
    "province_id": 16,
    "regency_id": 1609,
    "district_id": 160918,
    "value": "Peninggiran",
    "postal_code": "32262"
  },
  {
    "id": 160918,
    "province_id": 16,
    "regency_id": 1609,
    "district_id": 160918,
    "value": "Sukabumi",
    "postal_code": "32262"
  },
  {
    "id": 160918,
    "province_id": 16,
    "regency_id": 1609,
    "district_id": 160918,
    "value": "Sukarena",
    "postal_code": "32262"
  },
  {
    "id": 160918,
    "province_id": 16,
    "regency_id": 1609,
    "district_id": 160918,
    "value": "Surabaya",
    "postal_code": "32262"
  }
]