[
  {
    "id": 3604072001,
    "province_id": 36,
    "regency_id": 3604,
    "district_id": 360407,
    "value": "Bojonegara",
    "postal_code": "42454"
  },
  {
    "id": 3604072004,
    "province_id": 36,
    "regency_id": 3604,
    "district_id": 360407,
    "value": "Karang Kepuh (Karangkepuh)",
    "postal_code": "42454"
  },
  {
    "id": 3604072006,
    "province_id": 36,
    "regency_id": 3604,
    "district_id": 360407,
    "value": "Kertasana",
    "postal_code": "42454"
  },
  {
    "id": 3604072005,
    "province_id": 36,
    "regency_id": 3604,
    "district_id": 360407,
    "value": "Lambangsari",
    "postal_code": "42454"
  },
  {
    "id": 3604072002,
    "province_id": 36,
    "regency_id": 3604,
    "district_id": 360407,
    "value": "Mangkunegara",
    "postal_code": "42454"
  },
  {
    "id": 3604072007,
    "province_id": 36,
    "regency_id": 3604,
    "district_id": 360407,
    "value": "Margagiri",
    "postal_code": "42454"
  },
  {
    "id": 3604072011,
    "province_id": 36,
    "regency_id": 3604,
    "district_id": 360407,
    "value": "Mekar Jaya",
    "postal_code": "42454"
  },
  {
    "id": 3604072009,
    "province_id": 36,
    "regency_id": 3604,
    "district_id": 360407,
    "value": "Pakuncen",
    "postal_code": "42454"
  },
  {
    "id": 3604072010,
    "province_id": 36,
    "regency_id": 3604,
    "district_id": 360407,
    "value": "Pangarengan (Pengarengan)",
    "postal_code": "42454"
  },
  {
    "id": 3604072008,
    "province_id": 36,
    "regency_id": 3604,
    "district_id": 360407,
    "value": "Ukirsari",
    "postal_code": "42454"
  },
  {
    "id": 3604072003,
    "province_id": 36,
    "regency_id": 3604,
    "district_id": 360407,
    "value": "Wanakarta",
    "postal_code": "42454"
  }
]