[
  {
    "id": 711104,
    "province_id": 71,
    "regency_id": 7111,
    "district_id": 711104,
    "value": "Adow",
    "postal_code": "95776"
  },
  {
    "id": 711104,
    "province_id": 71,
    "regency_id": 7111,
    "district_id": 711104,
    "value": "Adow Selatan",
    "postal_code": "95776"
  },
  {
    "id": 711104,
    "province_id": 71,
    "regency_id": 7111,
    "district_id": 711104,
    "value": "Deaga",
    "postal_code": "95776"
  },
  {
    "id": 711104,
    "province_id": 71,
    "regency_id": 7111,
    "district_id": 711104,
    "value": "Mataindo",
    "postal_code": "95776"
  },
  {
    "id": 711104,
    "province_id": 71,
    "regency_id": 7111,
    "district_id": 711104,
    "value": "Mataindo Utara (Matandoi Utara)",
    "postal_code": "95776"
  },
  {
    "id": 711104,
    "province_id": 71,
    "regency_id": 7111,
    "district_id": 711104,
    "value": "Tobayagan",
    "postal_code": "95776"
  },
  {
    "id": 711104,
    "province_id": 71,
    "regency_id": 7111,
    "district_id": 711104,
    "value": "Tobayagan Selatan",
    "postal_code": "95776"
  },
  {
    "id": 711104,
    "province_id": 71,
    "regency_id": 7111,
    "district_id": 711104,
    "value": "Torosik",
    "postal_code": "95776"
  }
]