[
  {
    "id": 117405,
    "province_id": 11,
    "regency_id": 1174,
    "district_id": 117405,
    "value": "Alue Dua",
    "postal_code": "24415"
  },
  {
    "id": 117405,
    "province_id": 11,
    "regency_id": 1174,
    "district_id": 117405,
    "value": "Alue Dua Bakaran Batee (Alue Dua Bakaran Bate)",
    "postal_code": "24415"
  },
  {
    "id": 117405,
    "province_id": 11,
    "regency_id": 1174,
    "district_id": 117405,
    "value": "Birem Puntong",
    "postal_code": "24415"
  },
  {
    "id": 117405,
    "province_id": 11,
    "regency_id": 1174,
    "district_id": 117405,
    "value": "Geudubang Aceh (Gedubang Aceh)",
    "postal_code": "24415"
  },
  {
    "id": 117405,
    "province_id": 11,
    "regency_id": 1174,
    "district_id": 117405,
    "value": "Geudubang Jawa",
    "postal_code": "24415"
  },
  {
    "id": 117405,
    "province_id": 11,
    "regency_id": 1174,
    "district_id": 117405,
    "value": "Karang Anyar",
    "postal_code": "24415"
  },
  {
    "id": 117405,
    "province_id": 11,
    "regency_id": 1174,
    "district_id": 117405,
    "value": "Lengkong",
    "postal_code": "24415"
  },
  {
    "id": 117405,
    "province_id": 11,
    "regency_id": 1174,
    "district_id": 117405,
    "value": "Paya Bujok Seuleumak (Paya Bujuk Seuleumak)",
    "postal_code": "24415"
  },
  {
    "id": 117405,
    "province_id": 11,
    "regency_id": 1174,
    "district_id": 117405,
    "value": "Paya Bujok Tunong (Paya Bujuk Tunong)",
    "postal_code": "24415"
  },
  {
    "id": 117405,
    "province_id": 11,
    "regency_id": 1174,
    "district_id": 117405,
    "value": "Pondok Kelapa",
    "postal_code": "24415"
  },
  {
    "id": 117405,
    "province_id": 11,
    "regency_id": 1174,
    "district_id": 117405,
    "value": "Suka Jadi Makmur",
    "postal_code": "24415"
  },
  {
    "id": 117405,
    "province_id": 11,
    "regency_id": 1174,
    "district_id": 117405,
    "value": "Timbang Langsa",
    "postal_code": "24415"
  }
]