[
  {
    "id": 730607,
    "province_id": 73,
    "regency_id": 7306,
    "district_id": 730607,
    "value": "Bontoala",
    "postal_code": "92161"
  },
  {
    "id": 730607,
    "province_id": 73,
    "regency_id": 7306,
    "district_id": 730607,
    "value": "Bontoramba",
    "postal_code": "92161"
  },
  {
    "id": 730607,
    "province_id": 73,
    "regency_id": 7306,
    "district_id": 730607,
    "value": "Bungaejaya",
    "postal_code": "92161"
  },
  {
    "id": 730607,
    "province_id": 73,
    "regency_id": 7306,
    "district_id": 730607,
    "value": "Jenetallasa",
    "postal_code": "92161"
  },
  {
    "id": 730607,
    "province_id": 73,
    "regency_id": 7306,
    "district_id": 730607,
    "value": "Julubori",
    "postal_code": "92161"
  },
  {
    "id": 730607,
    "province_id": 73,
    "regency_id": 7306,
    "district_id": 730607,
    "value": "Julukanaya",
    "postal_code": "92161"
  },
  {
    "id": 730607,
    "province_id": 73,
    "regency_id": 7306,
    "district_id": 730607,
    "value": "Julupa'mai",
    "postal_code": "92161"
  },
  {
    "id": 730607,
    "province_id": 73,
    "regency_id": 7306,
    "district_id": 730607,
    "value": "Kampili",
    "postal_code": "92161"
  },
  {
    "id": 730607,
    "province_id": 73,
    "regency_id": 7306,
    "district_id": 730607,
    "value": "Mangalli (Mangalili)",
    "postal_code": "92161"
  },
  {
    "id": 730607,
    "province_id": 73,
    "regency_id": 7306,
    "district_id": 730607,
    "value": "Pallangga",
    "postal_code": "92161"
  },
  {
    "id": 730607,
    "province_id": 73,
    "regency_id": 7306,
    "district_id": 730607,
    "value": "Panakkukang",
    "postal_code": "92161"
  },
  {
    "id": 730607,
    "province_id": 73,
    "regency_id": 7306,
    "district_id": 730607,
    "value": "Pangkabinanga",
    "postal_code": "92161"
  },
  {
    "id": 730607,
    "province_id": 73,
    "regency_id": 7306,
    "district_id": 730607,
    "value": "Parangbanoa (Parang Banoa)",
    "postal_code": "92161"
  },
  {
    "id": 730607,
    "province_id": 73,
    "regency_id": 7306,
    "district_id": 730607,
    "value": "Taeng",
    "postal_code": "92161"
  },
  {
    "id": 730607,
    "province_id": 73,
    "regency_id": 7306,
    "district_id": 730607,
    "value": "Tetebatu",
    "postal_code": "92161"
  },
  {
    "id": 730607,
    "province_id": 73,
    "regency_id": 7306,
    "district_id": 730607,
    "value": "Toddotoa",
    "postal_code": "92161"
  }
]