[
  {
    "id": 710324,
    "province_id": 71,
    "regency_id": 7103,
    "district_id": 710324,
    "value": "Batulewehe",
    "postal_code": "95814"
  },
  {
    "id": 710324,
    "province_id": 71,
    "regency_id": 7103,
    "district_id": 710324,
    "value": "Dumuhung",
    "postal_code": "95816"
  },
  {
    "id": 710324,
    "province_id": 71,
    "regency_id": 7103,
    "district_id": 710324,
    "value": "Enengpahembang",
    "postal_code": "95815"
  },
  {
    "id": 710324,
    "province_id": 71,
    "regency_id": 7103,
    "district_id": 710324,
    "value": "Lesa",
    "postal_code": "95812"
  },
  {
    "id": 710324,
    "province_id": 71,
    "regency_id": 7103,
    "district_id": 710324,
    "value": "Tapuang",
    "postal_code": "95815"
  },
  {
    "id": 710324,
    "province_id": 71,
    "regency_id": 7103,
    "district_id": 710324,
    "value": "Tidore",
    "postal_code": "95814"
  },
  {
    "id": 710324,
    "province_id": 71,
    "regency_id": 7103,
    "district_id": 710324,
    "value": "Tona I",
    "postal_code": "95815"
  },
  {
    "id": 710324,
    "province_id": 71,
    "regency_id": 7103,
    "district_id": 710324,
    "value": "Tona II",
    "postal_code": "95815"
  }
]