[
  {
    "id": 720404,
    "province_id": 72,
    "regency_id": 7204,
    "district_id": 720404,
    "value": "Basi",
    "postal_code": "94552"
  },
  {
    "id": 720404,
    "province_id": 72,
    "regency_id": 7204,
    "district_id": 720404,
    "value": "Galandau",
    "postal_code": "94552"
  },
  {
    "id": 720404,
    "province_id": 72,
    "regency_id": 7204,
    "district_id": 720404,
    "value": "Kayu Lompa",
    "postal_code": "94552"
  },
  {
    "id": 720404,
    "province_id": 72,
    "regency_id": 7204,
    "district_id": 720404,
    "value": "Kinapasan",
    "postal_code": "94552"
  },
  {
    "id": 720404,
    "province_id": 72,
    "regency_id": 7204,
    "district_id": 720404,
    "value": "Kongkomos",
    "postal_code": "94552"
  },
  {
    "id": 720404,
    "province_id": 72,
    "regency_id": 7204,
    "district_id": 720404,
    "value": "Labonu",
    "postal_code": "94552"
  },
  {
    "id": 720404,
    "province_id": 72,
    "regency_id": 7204,
    "district_id": 720404,
    "value": "Marisa",
    "postal_code": "94552"
  },
  {
    "id": 720404,
    "province_id": 72,
    "regency_id": 7204,
    "district_id": 720404,
    "value": "Ogosipat",
    "postal_code": "94552"
  },
  {
    "id": 720404,
    "province_id": 72,
    "regency_id": 7204,
    "district_id": 720404,
    "value": "Sibaluton",
    "postal_code": "94552"
  },
  {
    "id": 720404,
    "province_id": 72,
    "regency_id": 7204,
    "district_id": 720404,
    "value": "Silondou",
    "postal_code": "94552"
  }
]