[
  {
    "id": 720706,
    "province_id": 72,
    "regency_id": 7207,
    "district_id": 720706,
    "value": "Alul",
    "postal_code": "94882"
  },
  {
    "id": 720706,
    "province_id": 72,
    "regency_id": 7207,
    "district_id": 720706,
    "value": "Boloi (Boloy)",
    "postal_code": "94882"
  },
  {
    "id": 720706,
    "province_id": 72,
    "regency_id": 7207,
    "district_id": 720706,
    "value": "Bulagi I (Bulagi Satu)",
    "postal_code": "94882"
  },
  {
    "id": 720706,
    "province_id": 72,
    "regency_id": 7207,
    "district_id": 720706,
    "value": "Bulagi II (Bulagi Dua)",
    "postal_code": "94882"
  },
  {
    "id": 720706,
    "province_id": 72,
    "regency_id": 7207,
    "district_id": 720706,
    "value": "Kambal",
    "postal_code": "94882"
  },
  {
    "id": 720706,
    "province_id": 72,
    "regency_id": 7207,
    "district_id": 720706,
    "value": "Kayubet",
    "postal_code": "94882"
  },
  {
    "id": 720706,
    "province_id": 72,
    "regency_id": 7207,
    "district_id": 720706,
    "value": "Komba-Komba",
    "postal_code": "94882"
  },
  {
    "id": 720706,
    "province_id": 72,
    "regency_id": 7207,
    "district_id": 720706,
    "value": "Lalandai (Lalanday)",
    "postal_code": "94882"
  },
  {
    "id": 720706,
    "province_id": 72,
    "regency_id": 7207,
    "district_id": 720706,
    "value": "Meselesek",
    "postal_code": "94882"
  },
  {
    "id": 720706,
    "province_id": 72,
    "regency_id": 7207,
    "district_id": 720706,
    "value": "Montomisan",
    "postal_code": "94882"
  },
  {
    "id": 720706,
    "province_id": 72,
    "regency_id": 7207,
    "district_id": 720706,
    "value": "Oluno",
    "postal_code": "94882"
  },
  {
    "id": 720706,
    "province_id": 72,
    "regency_id": 7207,
    "district_id": 720706,
    "value": "Pelingseasa (Peling Seasa)",
    "postal_code": "94882"
  },
  {
    "id": 720706,
    "province_id": 72,
    "regency_id": 7207,
    "district_id": 720706,
    "value": "Sosom",
    "postal_code": "94882"
  },
  {
    "id": 720706,
    "province_id": 72,
    "regency_id": 7207,
    "district_id": 720706,
    "value": "Sumondung",
    "postal_code": "94882"
  },
  {
    "id": 720706,
    "province_id": 72,
    "regency_id": 7207,
    "district_id": 720706,
    "value": "Tolo",
    "postal_code": "94882"
  },
  {
    "id": 720706,
    "province_id": 72,
    "regency_id": 7207,
    "district_id": 720706,
    "value": "Toolon",
    "postal_code": "94882"
  }
]