[
  {
    "id": 950335,
    "province_id": 95,
    "regency_id": 9503,
    "district_id": 950335,
    "value": "Bunde",
    "postal_code": "99739"
  },
  {
    "id": 950335,
    "province_id": 95,
    "regency_id": 9503,
    "district_id": 950335,
    "value": "Denema",
    "postal_code": "99739"
  },
  {
    "id": 950335,
    "province_id": 95,
    "regency_id": 9503,
    "district_id": 950335,
    "value": "Dinggila",
    "postal_code": "99739"
  },
  {
    "id": 950335,
    "province_id": 95,
    "regency_id": 9503,
    "district_id": 950335,
    "value": "Esalek",
    "postal_code": "99739"
  },
  {
    "id": 950335,
    "province_id": 95,
    "regency_id": 9503,
    "district_id": 950335,
    "value": "Lolat",
    "postal_code": "99739"
  },
  {
    "id": 950335,
    "province_id": 95,
    "regency_id": 9503,
    "district_id": 950335,
    "value": "Serahak",
    "postal_code": "99739"
  },
  {
    "id": 950335,
    "province_id": 95,
    "regency_id": 9503,
    "district_id": 950335,
    "value": "Wanim",
    "postal_code": "99739"
  },
  {
    "id": 950335,
    "province_id": 95,
    "regency_id": 9503,
    "district_id": 950335,
    "value": "Webile",
    "postal_code": "99739"
  }
]