[
  {
    "id": 2101092002,
    "province_id": 21,
    "regency_id": 2101,
    "district_id": 210109,
    "value": "Batu Lepuk",
    "postal_code": "29193"
  },
  {
    "id": 2101092003,
    "province_id": 21,
    "regency_id": 2101,
    "district_id": 210109,
    "value": "Kampung Hilir",
    "postal_code": "29193"
  },
  {
    "id": 2101092004,
    "province_id": 21,
    "regency_id": 2101,
    "district_id": 210109,
    "value": "Kampung Melayu",
    "postal_code": "29193"
  },
  {
    "id": 2101092007,
    "province_id": 21,
    "regency_id": 2101,
    "district_id": 210109,
    "value": "Kukup",
    "postal_code": "29193"
  },
  {
    "id": 2101092008,
    "province_id": 21,
    "regency_id": 2101,
    "district_id": 210109,
    "value": "Pengikik",
    "postal_code": "29193"
  },
  {
    "id": 2101092005,
    "province_id": 21,
    "regency_id": 2101,
    "district_id": 210109,
    "value": "Pulau Mentebung",
    "postal_code": "29193"
  },
  {
    "id": 2101092006,
    "province_id": 21,
    "regency_id": 2101,
    "district_id": 210109,
    "value": "Pulau Pinang",
    "postal_code": "29193"
  },
  {
    "id": 2101091001,
    "province_id": 21,
    "regency_id": 2101,
    "district_id": 210109,
    "value": "Teluk Sekuni",
    "postal_code": "29193"
  }
]