[
  {
    "id": 1376011004,
    "province_id": 13,
    "regency_id": 1376,
    "district_id": 137601,
    "value": "Bulakan Balai Kandi",
    "postal_code": "26225"
  },
  {
    "id": 1376011021,
    "province_id": 13,
    "regency_id": 1376,
    "district_id": 137601,
    "value": "Ibuah",
    "postal_code": "26229"
  },
  {
    "id": 1376011011,
    "province_id": 13,
    "regency_id": 1376,
    "district_id": 137601,
    "value": "Koto Tangah",
    "postal_code": "26223"
  },
  {
    "id": 1376011003,
    "province_id": 13,
    "regency_id": 1376,
    "district_id": 137601,
    "value": "Kubu Gadang",
    "postal_code": "26226"
  },
  {
    "id": 1376011020,
    "province_id": 13,
    "regency_id": 1376,
    "district_id": 137601,
    "value": "Labuah Basilang",
    "postal_code": "26229"
  },
  {
    "id": 1376011018,
    "province_id": 13,
    "regency_id": 1376,
    "district_id": 137601,
    "value": "Nunang Daya Bangun",
    "postal_code": "26221"
  },
  {
    "id": 1376011009,
    "province_id": 13,
    "regency_id": 1376,
    "district_id": 137601,
    "value": "Padang Tinggi Piliang",
    "postal_code": "26224"
  },
  {
    "id": 1376011034,
    "province_id": 13,
    "regency_id": 1376,
    "district_id": 137601,
    "value": "Padangdata Tanahmati",
    "postal_code": "26223"
  },
  {
    "id": 1376011033,
    "province_id": 13,
    "regency_id": 1376,
    "district_id": 137601,
    "value": "Padangtongah Balainanduo",
    "postal_code": "26224"
  },
  {
    "id": 1376011002,
    "province_id": 13,
    "regency_id": 1376,
    "district_id": 137601,
    "value": "Pakan Sinayan",
    "postal_code": "26226"
  },
  {
    "id": 1376011017,
    "province_id": 13,
    "regency_id": 1376,
    "district_id": 137601,
    "value": "Parak Batuang",
    "postal_code": "26222"
  },
  {
    "id": 1376011016,
    "province_id": 13,
    "regency_id": 1376,
    "district_id": 137601,
    "value": "Parik Rantang",
    "postal_code": "26222"
  },
  {
    "id": 1376011005,
    "province_id": 13,
    "regency_id": 1376,
    "district_id": 137601,
    "value": "Payolansek",
    "postal_code": "26225"
  },
  {
    "id": 1376011013,
    "province_id": 13,
    "regency_id": 1376,
    "district_id": 137601,
    "value": "Subarang Batuang",
    "postal_code": "26223"
  },
  {
    "id": 1376011007,
    "province_id": 13,
    "regency_id": 1376,
    "district_id": 137601,
    "value": "Talang",
    "postal_code": "26225"
  },
  {
    "id": 1376011022,
    "province_id": 13,
    "regency_id": 1376,
    "district_id": 137601,
    "value": "Tanjuang Pauh",
    "postal_code": "26229"
  },
  {
    "id": 1376011032,
    "province_id": 13,
    "regency_id": 1376,
    "district_id": 137601,
    "value": "Tanjuanggodang Sungai Pinago",
    "postal_code": "26225"
  }
]