[
  {
    "id": 121224,
    "province_id": 12,
    "regency_id": 1212,
    "district_id": 121224,
    "value": "Banjar Ganjang",
    "postal_code": "22384"
  },
  {
    "id": 121224,
    "province_id": 12,
    "regency_id": 1212,
    "district_id": 121224,
    "value": "Bius Gu Barat",
    "postal_code": "22384"
  },
  {
    "id": 121224,
    "province_id": 12,
    "regency_id": 1212,
    "district_id": 121224,
    "value": "Dolok Nauli",
    "postal_code": "22384"
  },
  {
    "id": 121224,
    "province_id": 12,
    "regency_id": 1212,
    "district_id": 121224,
    "value": "Jonggi Manulus",
    "postal_code": "22384"
  },
  {
    "id": 121224,
    "province_id": 12,
    "regency_id": 1212,
    "district_id": 121224,
    "value": "Lumban Huala",
    "postal_code": "22384"
  },
  {
    "id": 121224,
    "province_id": 12,
    "regency_id": 1212,
    "district_id": 121224,
    "value": "Lumban Manurung",
    "postal_code": "22384"
  },
  {
    "id": 121224,
    "province_id": 12,
    "regency_id": 1212,
    "district_id": 121224,
    "value": "Lumban Sitorus",
    "postal_code": "22384"
  },
  {
    "id": 121224,
    "province_id": 12,
    "regency_id": 1212,
    "district_id": 121224,
    "value": "Pangombusan",
    "postal_code": "22384"
  },
  {
    "id": 121224,
    "province_id": 12,
    "regency_id": 1212,
    "district_id": 121224,
    "value": "Siantar Utara",
    "postal_code": "22384"
  },
  {
    "id": 121224,
    "province_id": 12,
    "regency_id": 1212,
    "district_id": 121224,
    "value": "Tangga Batu I",
    "postal_code": "22384"
  },
  {
    "id": 121224,
    "province_id": 12,
    "regency_id": 1212,
    "district_id": 121224,
    "value": "Tangga Batu II",
    "postal_code": "22384"
  }
]