[
  {
    "id": 720209,
    "province_id": 72,
    "regency_id": 7202,
    "district_id": 720209,
    "value": "Badangkaiya (Badangkaia)",
    "postal_code": "94655"
  },
  {
    "id": 720209,
    "province_id": 72,
    "regency_id": 7202,
    "district_id": 720209,
    "value": "Bakekau",
    "postal_code": "94655"
  },
  {
    "id": 720209,
    "province_id": 72,
    "regency_id": 7202,
    "district_id": 720209,
    "value": "Bewa",
    "postal_code": "94655"
  },
  {
    "id": 720209,
    "province_id": 72,
    "regency_id": 7202,
    "district_id": 720209,
    "value": "Bomba",
    "postal_code": "94655"
  },
  {
    "id": 720209,
    "province_id": 72,
    "regency_id": 7202,
    "district_id": 720209,
    "value": "Bulili",
    "postal_code": "94655"
  },
  {
    "id": 720209,
    "province_id": 72,
    "regency_id": 7202,
    "district_id": 720209,
    "value": "Gintu",
    "postal_code": "94655"
  },
  {
    "id": 720209,
    "province_id": 72,
    "regency_id": 7202,
    "district_id": 720209,
    "value": "Pada",
    "postal_code": "94655"
  },
  {
    "id": 720209,
    "province_id": 72,
    "regency_id": 7202,
    "district_id": 720209,
    "value": "Runde",
    "postal_code": "94655"
  }
]