[
  {
    "id": 920908,
    "province_id": 92,
    "regency_id": 9209,
    "district_id": 920908,
    "value": "Bonem",
    "postal_code": "98361"
  },
  {
    "id": 920908,
    "province_id": 92,
    "regency_id": 9209,
    "district_id": 920908,
    "value": "Kwade",
    "postal_code": "98361"
  },
  {
    "id": 920908,
    "province_id": 92,
    "regency_id": 9209,
    "district_id": 920908,
    "value": "Malaworsai",
    "postal_code": "98361"
  },
  {
    "id": 920908,
    "province_id": 92,
    "regency_id": 9209,
    "district_id": 920908,
    "value": "Mega",
    "postal_code": "98361"
  },
  {
    "id": 920908,
    "province_id": 92,
    "regency_id": 9209,
    "district_id": 920908,
    "value": "Namuas",
    "postal_code": "98361"
  },
  {
    "id": 920908,
    "province_id": 92,
    "regency_id": 9209,
    "district_id": 920908,
    "value": "Selewok",
    "postal_code": "98361"
  },
  {
    "id": 920908,
    "province_id": 92,
    "regency_id": 9209,
    "district_id": 920908,
    "value": "Warafor",
    "postal_code": "98361"
  },
  {
    "id": 920908,
    "province_id": 92,
    "regency_id": 9209,
    "district_id": 920908,
    "value": "Warmanen",
    "postal_code": "98361"
  },
  {
    "id": 920908,
    "province_id": 92,
    "regency_id": 9209,
    "district_id": 920908,
    "value": "Warmasi",
    "postal_code": "98361"
  }
]