[
  {
    "id": 621308,
    "province_id": 62,
    "regency_id": 6213,
    "district_id": 621308,
    "value": "Baruyan",
    "postal_code": "73655"
  },
  {
    "id": 621308,
    "province_id": 62,
    "regency_id": 6213,
    "district_id": 621308,
    "value": "Batuah",
    "postal_code": "73655"
  },
  {
    "id": 621308,
    "province_id": 62,
    "regency_id": 6213,
    "district_id": 621308,
    "value": "Lenggang",
    "postal_code": "73655"
  },
  {
    "id": 621308,
    "province_id": 62,
    "regency_id": 6213,
    "district_id": 621308,
    "value": "Malintut (Malintot)",
    "postal_code": "73655"
  },
  {
    "id": 621308,
    "province_id": 62,
    "regency_id": 6213,
    "district_id": 621308,
    "value": "Puri",
    "postal_code": "73655"
  },
  {
    "id": 621308,
    "province_id": 62,
    "regency_id": 6213,
    "district_id": 621308,
    "value": "Sibung",
    "postal_code": "73655"
  },
  {
    "id": 621308,
    "province_id": 62,
    "regency_id": 6213,
    "district_id": 621308,
    "value": "Tangkum",
    "postal_code": "73655"
  },
  {
    "id": 621308,
    "province_id": 62,
    "regency_id": 6213,
    "district_id": 621308,
    "value": "Turan Amis",
    "postal_code": "73655"
  },
  {
    "id": 621308,
    "province_id": 62,
    "regency_id": 6213,
    "district_id": 621308,
    "value": "Unsum",
    "postal_code": "73655"
  }
]