[
  {
    "id": 710508,
    "province_id": 71,
    "regency_id": 7105,
    "district_id": 710508,
    "value": "Aergale",
    "postal_code": "95959"
  },
  {
    "id": 710508,
    "province_id": 71,
    "regency_id": 7105,
    "district_id": 710508,
    "value": "Blongko",
    "postal_code": "95959"
  },
  {
    "id": 710508,
    "province_id": 71,
    "regency_id": 7105,
    "district_id": 710508,
    "value": "Boyongpante (Boyong Pante)",
    "postal_code": "95959"
  },
  {
    "id": 710508,
    "province_id": 71,
    "regency_id": 7105,
    "district_id": 710508,
    "value": "Boyongpante Dua",
    "postal_code": "95959"
  },
  {
    "id": 710508,
    "province_id": 71,
    "regency_id": 7105,
    "district_id": 710508,
    "value": "Durian",
    "postal_code": "95959"
  },
  {
    "id": 710508,
    "province_id": 71,
    "regency_id": 7105,
    "district_id": 710508,
    "value": "Ongkaw I (Ongkaw Satu)",
    "postal_code": "95959"
  },
  {
    "id": 710508,
    "province_id": 71,
    "regency_id": 7105,
    "district_id": 710508,
    "value": "Ongkaw II (Ongkaw Dua)",
    "postal_code": "95959"
  },
  {
    "id": 710508,
    "province_id": 71,
    "regency_id": 7105,
    "district_id": 710508,
    "value": "Ongkaw Tiga",
    "postal_code": "95959"
  },
  {
    "id": 710508,
    "province_id": 71,
    "regency_id": 7105,
    "district_id": 710508,
    "value": "Poigar I (Poigar Satu)",
    "postal_code": "95959"
  },
  {
    "id": 710508,
    "province_id": 71,
    "regency_id": 7105,
    "district_id": 710508,
    "value": "Poigar II (Poigar Dua)",
    "postal_code": "95959"
  },
  {
    "id": 710508,
    "province_id": 71,
    "regency_id": 7105,
    "district_id": 710508,
    "value": "Tanamon",
    "postal_code": "95959"
  },
  {
    "id": 710508,
    "province_id": 71,
    "regency_id": 7105,
    "district_id": 710508,
    "value": "Tanamon Utara",
    "postal_code": "95959"
  },
  {
    "id": 710508,
    "province_id": 71,
    "regency_id": 7105,
    "district_id": 710508,
    "value": "Tiniwangko (Tiniawangko)",
    "postal_code": "95959"
  }
]