[
  {
    "id": 320613,
    "province_id": 32,
    "regency_id": 3206,
    "district_id": 320613,
    "value": "Banyuasih",
    "postal_code": "46474"
  },
  {
    "id": 320613,
    "province_id": 32,
    "regency_id": 3206,
    "district_id": 320613,
    "value": "Cikubang",
    "postal_code": "46474"
  },
  {
    "id": 320613,
    "province_id": 32,
    "regency_id": 3206,
    "district_id": 320613,
    "value": "Deudeul",
    "postal_code": "46474"
  },
  {
    "id": 320613,
    "province_id": 32,
    "regency_id": 3206,
    "district_id": 320613,
    "value": "Kertaraharja",
    "postal_code": "46474"
  },
  {
    "id": 320613,
    "province_id": 32,
    "regency_id": 3206,
    "district_id": 320613,
    "value": "Pageralam",
    "postal_code": "46474"
  },
  {
    "id": 320613,
    "province_id": 32,
    "regency_id": 3206,
    "district_id": 320613,
    "value": "Purwarahayu",
    "postal_code": "46474"
  },
  {
    "id": 320613,
    "province_id": 32,
    "regency_id": 3206,
    "district_id": 320613,
    "value": "Raksasari",
    "postal_code": "46474"
  },
  {
    "id": 320613,
    "province_id": 32,
    "regency_id": 3206,
    "district_id": 320613,
    "value": "Singasari",
    "postal_code": "46474"
  },
  {
    "id": 320613,
    "province_id": 32,
    "regency_id": 3206,
    "district_id": 320613,
    "value": "Taraju",
    "postal_code": "46474"
  }
]