[
  {
    "id": 331801,
    "province_id": 33,
    "regency_id": 3318,
    "district_id": 331801,
    "value": "Baleadi",
    "postal_code": "59172"
  },
  {
    "id": 331801,
    "province_id": 33,
    "regency_id": 3318,
    "district_id": 331801,
    "value": "Baturejo",
    "postal_code": "59172"
  },
  {
    "id": 331801,
    "province_id": 33,
    "regency_id": 3318,
    "district_id": 331801,
    "value": "Cengkalsewu",
    "postal_code": "59172"
  },
  {
    "id": 331801,
    "province_id": 33,
    "regency_id": 3318,
    "district_id": 331801,
    "value": "Gadudero",
    "postal_code": "59172"
  },
  {
    "id": 331801,
    "province_id": 33,
    "regency_id": 3318,
    "district_id": 331801,
    "value": "Kasiyan",
    "postal_code": "59172"
  },
  {
    "id": 331801,
    "province_id": 33,
    "regency_id": 3318,
    "district_id": 331801,
    "value": "Kedumulyo",
    "postal_code": "59172"
  },
  {
    "id": 331801,
    "province_id": 33,
    "regency_id": 3318,
    "district_id": 331801,
    "value": "Kedungwinong",
    "postal_code": "59172"
  },
  {
    "id": 331801,
    "province_id": 33,
    "regency_id": 3318,
    "district_id": 331801,
    "value": "Kuwawur",
    "postal_code": "59172"
  },
  {
    "id": 331801,
    "province_id": 33,
    "regency_id": 3318,
    "district_id": 331801,
    "value": "Pakem",
    "postal_code": "59172"
  },
  {
    "id": 331801,
    "province_id": 33,
    "regency_id": 3318,
    "district_id": 331801,
    "value": "Porangparing (Porang Paring)",
    "postal_code": "59172"
  },
  {
    "id": 331801,
    "province_id": 33,
    "regency_id": 3318,
    "district_id": 331801,
    "value": "Prawoto",
    "postal_code": "59172"
  },
  {
    "id": 331801,
    "province_id": 33,
    "regency_id": 3318,
    "district_id": 331801,
    "value": "Sukolilo",
    "postal_code": "59172"
  },
  {
    "id": 331801,
    "province_id": 33,
    "regency_id": 3318,
    "district_id": 331801,
    "value": "Sumbersoko",
    "postal_code": "59172"
  },
  {
    "id": 331801,
    "province_id": 33,
    "regency_id": 3318,
    "district_id": 331801,
    "value": "Tompegunung",
    "postal_code": "59172"
  },
  {
    "id": 331801,
    "province_id": 33,
    "regency_id": 3318,
    "district_id": 331801,
    "value": "Wegil",
    "postal_code": "59172"
  },
  {
    "id": 331801,
    "province_id": 33,
    "regency_id": 3318,
    "district_id": 331801,
    "value": "Wotan",
    "postal_code": "59172"
  }
]