[
  {
    "id": 3526022003,
    "province_id": 35,
    "regency_id": 3526,
    "district_id": 352602,
    "value": "Bilaporah",
    "postal_code": "69161"
  },
  {
    "id": 3526022006,
    "province_id": 35,
    "regency_id": 3526,
    "district_id": 352602,
    "value": "Buluh",
    "postal_code": "69161"
  },
  {
    "id": 3526022008,
    "province_id": 35,
    "regency_id": 3526,
    "district_id": 352602,
    "value": "Dakiring",
    "postal_code": "69161"
  },
  {
    "id": 3526022005,
    "province_id": 35,
    "regency_id": 3526,
    "district_id": 352602,
    "value": "Jaddih",
    "postal_code": "69161"
  },
  {
    "id": 3526022007,
    "province_id": 35,
    "regency_id": 3526,
    "district_id": 352602,
    "value": "Junganyar",
    "postal_code": "69161"
  },
  {
    "id": 3526022002,
    "province_id": 35,
    "regency_id": 3526,
    "district_id": 352602,
    "value": "Keleyan",
    "postal_code": "69161"
  },
  {
    "id": 3526022004,
    "province_id": 35,
    "regency_id": 3526,
    "district_id": 352602,
    "value": "Parseh",
    "postal_code": "69161"
  },
  {
    "id": 3526022010,
    "province_id": 35,
    "regency_id": 3526,
    "district_id": 352602,
    "value": "Pernajuh",
    "postal_code": "69161"
  },
  {
    "id": 3526022009,
    "province_id": 35,
    "regency_id": 3526,
    "district_id": 352602,
    "value": "Petaonan",
    "postal_code": "69161"
  },
  {
    "id": 3526022011,
    "province_id": 35,
    "regency_id": 3526,
    "district_id": 352602,
    "value": "Saggra Agung (Sanggra / Sanggar Agung)",
    "postal_code": "69161"
  },
  {
    "id": 3526022001,
    "province_id": 35,
    "regency_id": 3526,
    "district_id": 352602,
    "value": "Socah",
    "postal_code": "69161"
  }
]