[
  {
    "id": 750203,
    "province_id": 75,
    "regency_id": 7502,
    "district_id": 750203,
    "value": "Dulupi",
    "postal_code": "96267"
  },
  {
    "id": 750203,
    "province_id": 75,
    "regency_id": 7502,
    "district_id": 750203,
    "value": "Kotaraja",
    "postal_code": "96267"
  },
  {
    "id": 750203,
    "province_id": 75,
    "regency_id": 7502,
    "district_id": 750203,
    "value": "Pangi",
    "postal_code": "96267"
  },
  {
    "id": 750203,
    "province_id": 75,
    "regency_id": 7502,
    "district_id": 750203,
    "value": "Polohungo",
    "postal_code": "96267"
  },
  {
    "id": 750203,
    "province_id": 75,
    "regency_id": 7502,
    "district_id": 750203,
    "value": "Tabongo",
    "postal_code": "96267"
  },
  {
    "id": 750203,
    "province_id": 75,
    "regency_id": 7502,
    "district_id": 750203,
    "value": "Tanah Putih",
    "postal_code": "96267"
  },
  {
    "id": 750203,
    "province_id": 75,
    "regency_id": 7502,
    "district_id": 750203,
    "value": "Tangga Barito",
    "postal_code": "96267"
  },
  {
    "id": 750203,
    "province_id": 75,
    "regency_id": 7502,
    "district_id": 750203,
    "value": "Tangga Jaya",
    "postal_code": "96267"
  }
]