[
  {
    "id": 7402182009,
    "province_id": 74,
    "regency_id": 7402,
    "district_id": 740218,
    "value": "Amaroa",
    "postal_code": "93466"
  },
  {
    "id": 7402182002,
    "province_id": 74,
    "regency_id": 7402,
    "district_id": 740218,
    "value": "Ameroro",
    "postal_code": "93466"
  },
  {
    "id": 7402182015,
    "province_id": 74,
    "regency_id": 7402,
    "district_id": 740218,
    "value": "Anggawo",
    "postal_code": "93466"
  },
  {
    "id": 7402182011,
    "province_id": 74,
    "regency_id": 7402,
    "district_id": 740218,
    "value": "Anggopiu",
    "postal_code": "93466"
  },
  {
    "id": 7402182008,
    "province_id": 74,
    "regency_id": 7402,
    "district_id": 740218,
    "value": "Baruga",
    "postal_code": "93466"
  },
  {
    "id": 7402182013,
    "province_id": 74,
    "regency_id": 7402,
    "district_id": 740218,
    "value": "Humboto",
    "postal_code": "93466"
  },
  {
    "id": 7402182016,
    "province_id": 74,
    "regency_id": 7402,
    "district_id": 740218,
    "value": "Kasaeda",
    "postal_code": "93466"
  },
  {
    "id": 7402182006,
    "province_id": 74,
    "regency_id": 7402,
    "district_id": 740218,
    "value": "Langgomea",
    "postal_code": "93466"
  },
  {
    "id": 7402182005,
    "province_id": 74,
    "regency_id": 7402,
    "district_id": 740218,
    "value": "Matahoalu",
    "postal_code": "93466"
  },
  {
    "id": 7402182004,
    "province_id": 74,
    "regency_id": 7402,
    "district_id": 740218,
    "value": "Olo-Oloho (Alo-Oloho)",
    "postal_code": "93466"
  },
  {
    "id": 7402182018,
    "province_id": 74,
    "regency_id": 7402,
    "district_id": 740218,
    "value": "Panggulawu",
    "postal_code": "93466"
  },
  {
    "id": 7402182019,
    "province_id": 74,
    "regency_id": 7402,
    "district_id": 740218,
    "value": "Puuroda Jaya",
    "postal_code": "93466"
  },
  {
    "id": 7402182007,
    "province_id": 74,
    "regency_id": 7402,
    "district_id": 740218,
    "value": "Rawua",
    "postal_code": "93466"
  },
  {
    "id": 7402182012,
    "province_id": 74,
    "regency_id": 7402,
    "district_id": 740218,
    "value": "Tamesandi",
    "postal_code": "93466"
  },
  {
    "id": 7402182017,
    "province_id": 74,
    "regency_id": 7402,
    "district_id": 740218,
    "value": "Tanggondipo (Tanggodipo)",
    "postal_code": "93466"
  },
  {
    "id": 7402182010,
    "province_id": 74,
    "regency_id": 7402,
    "district_id": 740218,
    "value": "Tawamelewe",
    "postal_code": "93466"
  },
  {
    "id": 7402182003,
    "province_id": 74,
    "regency_id": 7402,
    "district_id": 740218,
    "value": "Tawarotebota",
    "postal_code": "93466"
  },
  {
    "id": 7402181001,
    "province_id": 74,
    "regency_id": 7402,
    "district_id": 740218,
    "value": "Uepai",
    "postal_code": "93466"
  }
]