[
  {
    "id": 9503022045,
    "province_id": 95,
    "regency_id": 9503,
    "district_id": 950302,
    "value": "Hohe",
    "postal_code": "99751"
  },
  {
    "id": 9503022037,
    "province_id": 95,
    "regency_id": 9503,
    "district_id": 950302,
    "value": "Ilwap",
    "postal_code": "99751"
  },
  {
    "id": 9503022038,
    "province_id": 95,
    "regency_id": 9503,
    "district_id": 950302,
    "value": "Kiltam",
    "postal_code": "99751"
  },
  {
    "id": 9503022022,
    "province_id": 95,
    "regency_id": 9503,
    "district_id": 950302,
    "value": "Lelambo",
    "postal_code": "99751"
  },
  {
    "id": 9503022044,
    "province_id": 95,
    "regency_id": 9503,
    "district_id": 950302,
    "value": "Letin",
    "postal_code": "99751"
  },
  {
    "id": 9503022043,
    "province_id": 95,
    "regency_id": 9503,
    "district_id": 950302,
    "value": "Paliptek",
    "postal_code": "99751"
  },
  {
    "id": 9503022039,
    "province_id": 95,
    "regency_id": 9503,
    "district_id": 950302,
    "value": "Pilong",
    "postal_code": "99751"
  },
  {
    "id": 9503022041,
    "province_id": 95,
    "regency_id": 9503,
    "district_id": 950302,
    "value": "Suahi",
    "postal_code": "99751"
  },
  {
    "id": 9503022042,
    "province_id": 95,
    "regency_id": 9503,
    "district_id": 950302,
    "value": "Tohong",
    "postal_code": "99751"
  },
  {
    "id": 9503022036,
    "province_id": 95,
    "regency_id": 9503,
    "district_id": 950302,
    "value": "Tulpa",
    "postal_code": "99751"
  },
  {
    "id": 9503022040,
    "province_id": 95,
    "regency_id": 9503,
    "district_id": 950302,
    "value": "Vuno",
    "postal_code": "99751"
  },
  {
    "id": 9503022001,
    "province_id": 95,
    "regency_id": 9503,
    "district_id": 950302,
    "value": "Yaholikma",
    "postal_code": "99751"
  }
]