[
  {
    "id": 130113,
    "province_id": 13,
    "regency_id": 1301,
    "district_id": 130113,
    "value": "Damar Lapan Batang Inderapura",
    "postal_code": "25673"
  },
  {
    "id": 130113,
    "province_id": 13,
    "regency_id": 1301,
    "district_id": 130113,
    "value": "Indrapura/Inderapura Timur",
    "postal_code": "25673"
  },
  {
    "id": 130113,
    "province_id": 13,
    "regency_id": 1301,
    "district_id": 130113,
    "value": "Indrapura/Inderapura Utara",
    "postal_code": "25673"
  },
  {
    "id": 130113,
    "province_id": 13,
    "regency_id": 1301,
    "district_id": 130113,
    "value": "Lalang Panjang Inderapura",
    "postal_code": "25673"
  },
  {
    "id": 130113,
    "province_id": 13,
    "regency_id": 1301,
    "district_id": 130113,
    "value": "Lubuk Betung Inderapura",
    "postal_code": "25673"
  },
  {
    "id": 130113,
    "province_id": 13,
    "regency_id": 1301,
    "district_id": 130113,
    "value": "Muara Inderapura",
    "postal_code": "25673"
  },
  {
    "id": 130113,
    "province_id": 13,
    "regency_id": 1301,
    "district_id": 130113,
    "value": "Palokan Inderapura",
    "postal_code": "25673"
  },
  {
    "id": 130113,
    "province_id": 13,
    "regency_id": 1301,
    "district_id": 130113,
    "value": "Pulau Rajo Inderapura (Pulaurajo Inderapura)",
    "postal_code": "25673"
  },
  {
    "id": 130113,
    "province_id": 13,
    "regency_id": 1301,
    "district_id": 130113,
    "value": "Tanah Bakali Inderapura",
    "postal_code": "25673"
  },
  {
    "id": 130113,
    "province_id": 13,
    "regency_id": 1301,
    "district_id": 130113,
    "value": "Tluk Kualo Inderapura",
    "postal_code": "25673"
  }
]