[
  {
    "id": 161301,
    "province_id": 16,
    "regency_id": 1613,
    "district_id": 161301,
    "value": "Batu Gajah",
    "postal_code": "31653"
  },
  {
    "id": 161301,
    "province_id": 16,
    "regency_id": 1613,
    "district_id": 161301,
    "value": "Batu Gajah Baru",
    "postal_code": "31653"
  },
  {
    "id": 161301,
    "province_id": 16,
    "regency_id": 1613,
    "district_id": 161301,
    "value": "Beringin Jaya",
    "postal_code": "31653"
  },
  {
    "id": 161301,
    "province_id": 16,
    "regency_id": 1613,
    "district_id": 161301,
    "value": "Bingin Rupit",
    "postal_code": "31653"
  },
  {
    "id": 161301,
    "province_id": 16,
    "regency_id": 1613,
    "district_id": 161301,
    "value": "Karang Anyar",
    "postal_code": "31653"
  },
  {
    "id": 161301,
    "province_id": 16,
    "regency_id": 1613,
    "district_id": 161301,
    "value": "Karang Waru",
    "postal_code": "31653"
  },
  {
    "id": 161301,
    "province_id": 16,
    "regency_id": 1613,
    "district_id": 161301,
    "value": "Lawang Agung",
    "postal_code": "31653"
  },
  {
    "id": 161301,
    "province_id": 16,
    "regency_id": 1613,
    "district_id": 161301,
    "value": "Lubuk Rumbai",
    "postal_code": "31653"
  },
  {
    "id": 161301,
    "province_id": 16,
    "regency_id": 1613,
    "district_id": 161301,
    "value": "Lubuk Rumbai Baru",
    "postal_code": "31653"
  },
  {
    "id": 161301,
    "province_id": 16,
    "regency_id": 1613,
    "district_id": 161301,
    "value": "Maur Baru",
    "postal_code": "31653"
  },
  {
    "id": 161301,
    "province_id": 16,
    "regency_id": 1613,
    "district_id": 161301,
    "value": "Maur Lama",
    "postal_code": "31653"
  },
  {
    "id": 161301,
    "province_id": 16,
    "regency_id": 1613,
    "district_id": 161301,
    "value": "Muara Rupit",
    "postal_code": "31653"
  },
  {
    "id": 161301,
    "province_id": 16,
    "regency_id": 1613,
    "district_id": 161301,
    "value": "Noman",
    "postal_code": "31653"
  },
  {
    "id": 161301,
    "province_id": 16,
    "regency_id": 1613,
    "district_id": 161301,
    "value": "Noman Baru",
    "postal_code": "31653"
  },
  {
    "id": 161301,
    "province_id": 16,
    "regency_id": 1613,
    "district_id": 161301,
    "value": "Pantai",
    "postal_code": "31653"
  },
  {
    "id": 161301,
    "province_id": 16,
    "regency_id": 1613,
    "district_id": 161301,
    "value": "Sungai Jernih",
    "postal_code": "31653"
  },
  {
    "id": 161301,
    "province_id": 16,
    "regency_id": 1613,
    "district_id": 161301,
    "value": "Tanjung Beringin",
    "postal_code": "31653"
  }
]