[
  {
    "id": 3316042012,
    "province_id": 33,
    "regency_id": 3316,
    "district_id": 331604,
    "value": "Bajo",
    "postal_code": "58381"
  },
  {
    "id": 3316042017,
    "province_id": 33,
    "regency_id": 3316,
    "district_id": 331604,
    "value": "Galuk",
    "postal_code": "58381"
  },
  {
    "id": 3316042001,
    "province_id": 33,
    "regency_id": 3316,
    "district_id": 331604,
    "value": "Gondel",
    "postal_code": "58381"
  },
  {
    "id": 3316042003,
    "province_id": 33,
    "regency_id": 3316,
    "district_id": 331604,
    "value": "Jimbung",
    "postal_code": "58381"
  },
  {
    "id": 3316042014,
    "province_id": 33,
    "regency_id": 3316,
    "district_id": 331604,
    "value": "Kalen",
    "postal_code": "58381"
  },
  {
    "id": 3316042016,
    "province_id": 33,
    "regency_id": 3316,
    "district_id": 331604,
    "value": "Kedungtuban",
    "postal_code": "58381"
  },
  {
    "id": 3316042006,
    "province_id": 33,
    "regency_id": 3316,
    "district_id": 331604,
    "value": "Kemantren",
    "postal_code": "58381"
  },
  {
    "id": 3316042002,
    "province_id": 33,
    "regency_id": 3316,
    "district_id": 331604,
    "value": "Ketuwan",
    "postal_code": "58381"
  },
  {
    "id": 3316042005,
    "province_id": 33,
    "regency_id": 3316,
    "district_id": 331604,
    "value": "Klagen",
    "postal_code": "58381"
  },
  {
    "id": 3316042013,
    "province_id": 33,
    "regency_id": 3316,
    "district_id": 331604,
    "value": "Nglandeyan",
    "postal_code": "58381"
  },
  {
    "id": 3316042015,
    "province_id": 33,
    "regency_id": 3316,
    "district_id": 331604,
    "value": "Ngraho",
    "postal_code": "58381"
  },
  {
    "id": 3316042004,
    "province_id": 33,
    "regency_id": 3316,
    "district_id": 331604,
    "value": "Panolan",
    "postal_code": "58381"
  },
  {
    "id": 3316042009,
    "province_id": 33,
    "regency_id": 3316,
    "district_id": 331604,
    "value": "Pulo",
    "postal_code": "58381"
  },
  {
    "id": 3316042007,
    "province_id": 33,
    "regency_id": 3316,
    "district_id": 331604,
    "value": "Sidorejo",
    "postal_code": "58381"
  },
  {
    "id": 3316042011,
    "province_id": 33,
    "regency_id": 3316,
    "district_id": 331604,
    "value": "Sogo",
    "postal_code": "58381"
  },
  {
    "id": 3316042010,
    "province_id": 33,
    "regency_id": 3316,
    "district_id": 331604,
    "value": "Tanjung",
    "postal_code": "58381"
  },
  {
    "id": 3316042008,
    "province_id": 33,
    "regency_id": 3316,
    "district_id": 331604,
    "value": "Wado",
    "postal_code": "58381"
  }
]