[
  {
    "id": 721107,
    "province_id": 72,
    "regency_id": 7211,
    "district_id": 721107,
    "value": "Adean",
    "postal_code": "94895"
  },
  {
    "id": 721107,
    "province_id": 72,
    "regency_id": 7211,
    "district_id": 721107,
    "value": "Badumpayan",
    "postal_code": "94895"
  },
  {
    "id": 721107,
    "province_id": 72,
    "regency_id": 7211,
    "district_id": 721107,
    "value": "Gonggong",
    "postal_code": "94895"
  },
  {
    "id": 721107,
    "province_id": 72,
    "regency_id": 7211,
    "district_id": 721107,
    "value": "Mominit",
    "postal_code": "94895"
  },
  {
    "id": 721107,
    "province_id": 72,
    "regency_id": 7211,
    "district_id": 721107,
    "value": "Monsongan",
    "postal_code": "94895"
  },
  {
    "id": 721107,
    "province_id": 72,
    "regency_id": 7211,
    "district_id": 721107,
    "value": "Pososlalongo (Posos Lalongo)",
    "postal_code": "94895"
  },
  {
    "id": 721107,
    "province_id": 72,
    "regency_id": 7211,
    "district_id": 721107,
    "value": "Timbong",
    "postal_code": "94895"
  },
  {
    "id": 721107,
    "province_id": 72,
    "regency_id": 7211,
    "district_id": 721107,
    "value": "Tintingo",
    "postal_code": "94895"
  }
]