[
  {
    "id": 3208012006,
    "province_id": 32,
    "regency_id": 3208,
    "district_id": 320801,
    "value": "Babatan",
    "postal_code": "45561"
  },
  {
    "id": 3208012008,
    "province_id": 32,
    "regency_id": 3208,
    "district_id": 320801,
    "value": "Bayuning",
    "postal_code": "45561"
  },
  {
    "id": 3208012010,
    "province_id": 32,
    "regency_id": 3208,
    "district_id": 320801,
    "value": "Ciherang",
    "postal_code": "45561"
  },
  {
    "id": 3208012002,
    "province_id": 32,
    "regency_id": 3208,
    "district_id": 320801,
    "value": "Ciketak",
    "postal_code": "45561"
  },
  {
    "id": 3208012007,
    "province_id": 32,
    "regency_id": 3208,
    "district_id": 320801,
    "value": "Cipondok",
    "postal_code": "45561"
  },
  {
    "id": 3208012011,
    "province_id": 32,
    "regency_id": 3208,
    "district_id": 320801,
    "value": "Cisukadana",
    "postal_code": "45561"
  },
  {
    "id": 3208012005,
    "province_id": 32,
    "regency_id": 3208,
    "district_id": 320801,
    "value": "Kadugede",
    "postal_code": "45561"
  },
  {
    "id": 3208012012,
    "province_id": 32,
    "regency_id": 3208,
    "district_id": 320801,
    "value": "Margabakti",
    "postal_code": "45561"
  },
  {
    "id": 3208012003,
    "province_id": 32,
    "regency_id": 3208,
    "district_id": 320801,
    "value": "Nangka",
    "postal_code": "45561"
  },
  {
    "id": 3208012001,
    "province_id": 32,
    "regency_id": 3208,
    "district_id": 320801,
    "value": "Sindangjawa",
    "postal_code": "45561"
  },
  {
    "id": 3208012009,
    "province_id": 32,
    "regency_id": 3208,
    "district_id": 320801,
    "value": "Tinggar",
    "postal_code": "45561"
  },
  {
    "id": 3208012004,
    "province_id": 32,
    "regency_id": 3208,
    "district_id": 320801,
    "value": "Windujanten",
    "postal_code": "45561"
  }
]