[
  {
    "id": 720226,
    "province_id": 72,
    "regency_id": 7202,
    "district_id": 720226,
    "value": "Barati",
    "postal_code": "94665"
  },
  {
    "id": 720226,
    "province_id": 72,
    "regency_id": 7202,
    "district_id": 720226,
    "value": "Korobono",
    "postal_code": "94665"
  },
  {
    "id": 720226,
    "province_id": 72,
    "regency_id": 7202,
    "district_id": 720226,
    "value": "Omporiwo (Amporiwo)",
    "postal_code": "94665"
  },
  {
    "id": 720226,
    "province_id": 72,
    "regency_id": 7202,
    "district_id": 720226,
    "value": "Salindu",
    "postal_code": "94665"
  },
  {
    "id": 720226,
    "province_id": 72,
    "regency_id": 7202,
    "district_id": 720226,
    "value": "Singkona",
    "postal_code": "94665"
  },
  {
    "id": 720226,
    "province_id": 72,
    "regency_id": 7202,
    "district_id": 720226,
    "value": "Tindoli",
    "postal_code": "94665"
  },
  {
    "id": 720226,
    "province_id": 72,
    "regency_id": 7202,
    "district_id": 720226,
    "value": "Tokilo",
    "postal_code": "94665"
  },
  {
    "id": 720226,
    "province_id": 72,
    "regency_id": 7202,
    "district_id": 720226,
    "value": "Tolambo",
    "postal_code": "94665"
  },
  {
    "id": 720226,
    "province_id": 72,
    "regency_id": 7202,
    "district_id": 720226,
    "value": "Wayura",
    "postal_code": "94665"
  }
]