[
  {
    "id": 760202,
    "province_id": 76,
    "regency_id": 7602,
    "district_id": 760202,
    "value": "Bela",
    "postal_code": "91551"
  },
  {
    "id": 760202,
    "province_id": 76,
    "regency_id": 7602,
    "district_id": 760202,
    "value": "Dayanginna",
    "postal_code": "91551"
  },
  {
    "id": 760202,
    "province_id": 76,
    "regency_id": 7602,
    "district_id": 760202,
    "value": "Galung",
    "postal_code": "91551"
  },
  {
    "id": 760202,
    "province_id": 76,
    "regency_id": 7602,
    "district_id": 760202,
    "value": "Kasambang",
    "postal_code": "91551"
  },
  {
    "id": 760202,
    "province_id": 76,
    "regency_id": 7602,
    "district_id": 760202,
    "value": "Kopeang",
    "postal_code": "91551"
  },
  {
    "id": 760202,
    "province_id": 76,
    "regency_id": 7602,
    "district_id": 760202,
    "value": "Orobatu",
    "postal_code": "91551"
  },
  {
    "id": 760202,
    "province_id": 76,
    "regency_id": 7602,
    "district_id": 760202,
    "value": "Rantedoda",
    "postal_code": "91551"
  },
  {
    "id": 760202,
    "province_id": 76,
    "regency_id": 7602,
    "district_id": 760202,
    "value": "Taan (Taang / Ta'an)",
    "postal_code": "91551"
  },
  {
    "id": 760202,
    "province_id": 76,
    "regency_id": 7602,
    "district_id": 760202,
    "value": "Takandeang",
    "postal_code": "91551"
  },
  {
    "id": 760202,
    "province_id": 76,
    "regency_id": 7602,
    "district_id": 760202,
    "value": "Tampalang",
    "postal_code": "91551"
  }
]