[
  {
    "id": 110821,
    "province_id": 11,
    "regency_id": 1108,
    "district_id": 110821,
    "value": "Alue Ie Mirah",
    "postal_code": "24385"
  },
  {
    "id": 110821,
    "province_id": 11,
    "regency_id": 1108,
    "district_id": 110821,
    "value": "Alue Ngom",
    "postal_code": "24385"
  },
  {
    "id": 110821,
    "province_id": 11,
    "regency_id": 1108,
    "district_id": 110821,
    "value": "Alue Panah",
    "postal_code": "24385"
  },
  {
    "id": 110821,
    "province_id": 11,
    "regency_id": 1108,
    "district_id": 110821,
    "value": "Bumban (Alue Buman)",
    "postal_code": "24385"
  },
  {
    "id": 110821,
    "province_id": 11,
    "regency_id": 1108,
    "district_id": 110821,
    "value": "Dayah Nibong",
    "postal_code": "24385"
  },
  {
    "id": 110821,
    "province_id": 11,
    "regency_id": 1108,
    "district_id": 110821,
    "value": "Keh Nibong",
    "postal_code": "24385"
  },
  {
    "id": 110821,
    "province_id": 11,
    "regency_id": 1108,
    "district_id": 110821,
    "value": "Keude Nibong",
    "postal_code": "24385"
  },
  {
    "id": 110821,
    "province_id": 11,
    "regency_id": 1108,
    "district_id": 110821,
    "value": "Keulilee",
    "postal_code": "24385"
  },
  {
    "id": 110821,
    "province_id": 11,
    "regency_id": 1108,
    "district_id": 110821,
    "value": "Keupok Nibong",
    "postal_code": "24385"
  },
  {
    "id": 110821,
    "province_id": 11,
    "regency_id": 1108,
    "district_id": 110821,
    "value": "Maddi",
    "postal_code": "24385"
  },
  {
    "id": 110821,
    "province_id": 11,
    "regency_id": 1108,
    "district_id": 110821,
    "value": "Mamplam",
    "postal_code": "24385"
  },
  {
    "id": 110821,
    "province_id": 11,
    "regency_id": 1108,
    "district_id": 110821,
    "value": "Meunye Lhee (Menye Lhee)",
    "postal_code": "24385"
  },
  {
    "id": 110821,
    "province_id": 11,
    "regency_id": 1108,
    "district_id": 110821,
    "value": "Nibong Baroh",
    "postal_code": "24385"
  },
  {
    "id": 110821,
    "province_id": 11,
    "regency_id": 1108,
    "district_id": 110821,
    "value": "Paya Terbang Teureubang)",
    "postal_code": "24385"
  },
  {
    "id": 110821,
    "province_id": 11,
    "regency_id": 1108,
    "district_id": 110821,
    "value": "Ranto",
    "postal_code": "24385"
  },
  {
    "id": 110821,
    "province_id": 11,
    "regency_id": 1108,
    "district_id": 110821,
    "value": "Seulunyok",
    "postal_code": "24385"
  },
  {
    "id": 110821,
    "province_id": 11,
    "regency_id": 1108,
    "district_id": 110821,
    "value": "Sumbok Rayeuk",
    "postal_code": "24385"
  },
  {
    "id": 110821,
    "province_id": 11,
    "regency_id": 1108,
    "district_id": 110821,
    "value": "Tanjong Putoh",
    "postal_code": "24385"
  },
  {
    "id": 110821,
    "province_id": 11,
    "regency_id": 1108,
    "district_id": 110821,
    "value": "Teupin Jok",
    "postal_code": "24385"
  },
  {
    "id": 110821,
    "province_id": 11,
    "regency_id": 1108,
    "district_id": 110821,
    "value": "Wakeuh (Nibong Wakheuh)",
    "postal_code": "24385"
  }
]