[
  {
    "id": 610105,
    "province_id": 61,
    "regency_id": 6101,
    "district_id": 610105,
    "value": "Gugah Sejahtera",
    "postal_code": "79455"
  },
  {
    "id": 610105,
    "province_id": 61,
    "regency_id": 6101,
    "district_id": 610105,
    "value": "Harapan",
    "postal_code": "79455"
  },
  {
    "id": 610105,
    "province_id": 61,
    "regency_id": 6101,
    "district_id": 610105,
    "value": "Jelutung",
    "postal_code": "79455"
  },
  {
    "id": 610105,
    "province_id": 61,
    "regency_id": 6101,
    "district_id": 610105,
    "value": "Lonam",
    "postal_code": "79455"
  },
  {
    "id": 610105,
    "province_id": 61,
    "regency_id": 6101,
    "district_id": 610105,
    "value": "Pemangkat Kota",
    "postal_code": "79455"
  },
  {
    "id": 610105,
    "province_id": 61,
    "regency_id": 6101,
    "district_id": 610105,
    "value": "Penjajap",
    "postal_code": "79455"
  },
  {
    "id": 610105,
    "province_id": 61,
    "regency_id": 6101,
    "district_id": 610105,
    "value": "Perapakan",
    "postal_code": "79455"
  },
  {
    "id": 610105,
    "province_id": 61,
    "regency_id": 6101,
    "district_id": 610105,
    "value": "Sebatuan",
    "postal_code": "79455"
  }
]