[
  {
    "id": 3326022015,
    "province_id": 33,
    "regency_id": 3326,
    "district_id": 332602,
    "value": "Bedagung",
    "postal_code": "51164"
  },
  {
    "id": 3326022008,
    "province_id": 33,
    "regency_id": 3326,
    "district_id": 332602,
    "value": "Botosari",
    "postal_code": "51164"
  },
  {
    "id": 3326022011,
    "province_id": 33,
    "regency_id": 3326,
    "district_id": 332602,
    "value": "Domiyang",
    "postal_code": "51164"
  },
  {
    "id": 3326022006,
    "province_id": 33,
    "regency_id": 3326,
    "district_id": 332602,
    "value": "Kaliboja",
    "postal_code": "51164"
  },
  {
    "id": 3326022007,
    "province_id": 33,
    "regency_id": 3326,
    "district_id": 332602,
    "value": "Kaliombo",
    "postal_code": "51164"
  },
  {
    "id": 3326022003,
    "province_id": 33,
    "regency_id": 3326,
    "district_id": 332602,
    "value": "Krandegan",
    "postal_code": "51164"
  },
  {
    "id": 3326022013,
    "province_id": 33,
    "regency_id": 3326,
    "district_id": 332602,
    "value": "Lambanggelun",
    "postal_code": "51164"
  },
  {
    "id": 3326022004,
    "province_id": 33,
    "regency_id": 3326,
    "district_id": 332602,
    "value": "Lumeneng (Lomeneng)",
    "postal_code": "51164"
  },
  {
    "id": 3326022012,
    "province_id": 33,
    "regency_id": 3326,
    "district_id": 332602,
    "value": "Notogiwang",
    "postal_code": "51164"
  },
  {
    "id": 3326022010,
    "province_id": 33,
    "regency_id": 3326,
    "district_id": 332602,
    "value": "Paninggaran",
    "postal_code": "51164"
  },
  {
    "id": 3326022009,
    "province_id": 33,
    "regency_id": 3326,
    "district_id": 332602,
    "value": "Sawangan",
    "postal_code": "51164"
  },
  {
    "id": 3326022005,
    "province_id": 33,
    "regency_id": 3326,
    "district_id": 332602,
    "value": "Tangeran (Tanggeran)",
    "postal_code": "51164"
  },
  {
    "id": 3326022014,
    "province_id": 33,
    "regency_id": 3326,
    "district_id": 332602,
    "value": "Tenogo",
    "postal_code": "51164"
  },
  {
    "id": 3326022001,
    "province_id": 33,
    "regency_id": 3326,
    "district_id": 332602,
    "value": "Werdi",
    "postal_code": "51164"
  },
  {
    "id": 3326022002,
    "province_id": 33,
    "regency_id": 3326,
    "district_id": 332602,
    "value": "Winduaji",
    "postal_code": "51164"
  }
]