[
  {
    "id": 150502,
    "province_id": 15,
    "regency_id": 1505,
    "district_id": 150502,
    "value": "Berembang",
    "postal_code": "36381"
  },
  {
    "id": 150502,
    "province_id": 15,
    "regency_id": 1505,
    "district_id": 150502,
    "value": "Bukit Baling",
    "postal_code": "36381"
  },
  {
    "id": 150502,
    "province_id": 15,
    "regency_id": 1505,
    "district_id": 150502,
    "value": "Gerunggung",
    "postal_code": "36381"
  },
  {
    "id": 150502,
    "province_id": 15,
    "regency_id": 1505,
    "district_id": 150502,
    "value": "Kedotan",
    "postal_code": "36381"
  },
  {
    "id": 150502,
    "province_id": 15,
    "regency_id": 1505,
    "district_id": 150502,
    "value": "Keranggan",
    "postal_code": "36381"
  },
  {
    "id": 150502,
    "province_id": 15,
    "regency_id": 1505,
    "district_id": 150502,
    "value": "Pematang Pulai/Pule",
    "postal_code": "36381"
  },
  {
    "id": 150502,
    "province_id": 15,
    "regency_id": 1505,
    "district_id": 150502,
    "value": "Pulau Kayu Aro",
    "postal_code": "36381"
  },
  {
    "id": 150502,
    "province_id": 15,
    "regency_id": 1505,
    "district_id": 150502,
    "value": "Rantau Majo",
    "postal_code": "36381"
  },
  {
    "id": 150502,
    "province_id": 15,
    "regency_id": 1505,
    "district_id": 150502,
    "value": "Sekernan",
    "postal_code": "36381"
  },
  {
    "id": 150502,
    "province_id": 15,
    "regency_id": 1505,
    "district_id": 150502,
    "value": "Sengeti",
    "postal_code": "36381"
  },
  {
    "id": 150502,
    "province_id": 15,
    "regency_id": 1505,
    "district_id": 150502,
    "value": "Suak Putat",
    "postal_code": "36381"
  },
  {
    "id": 150502,
    "province_id": 15,
    "regency_id": 1505,
    "district_id": 150502,
    "value": "Suko Awin Jaya",
    "postal_code": "36381"
  },
  {
    "id": 150502,
    "province_id": 15,
    "regency_id": 1505,
    "district_id": 150502,
    "value": "Tan Tan (Tantan)",
    "postal_code": "36381"
  },
  {
    "id": 150502,
    "province_id": 15,
    "regency_id": 1505,
    "district_id": 150502,
    "value": "Tanjung Lanjut",
    "postal_code": "36381"
  },
  {
    "id": 150502,
    "province_id": 15,
    "regency_id": 1505,
    "district_id": 150502,
    "value": "Tunas Baru",
    "postal_code": "36381"
  },
  {
    "id": 150502,
    "province_id": 15,
    "regency_id": 1505,
    "district_id": 150502,
    "value": "Tunas Mudo",
    "postal_code": "36381"
  }
]