[
  {
    "id": 710509,
    "province_id": 71,
    "regency_id": 7105,
    "district_id": 710509,
    "value": "Boyong Atas",
    "postal_code": "95355"
  },
  {
    "id": 710509,
    "province_id": 71,
    "regency_id": 7105,
    "district_id": 710509,
    "value": "Molinow",
    "postal_code": "95355"
  },
  {
    "id": 710509,
    "province_id": 71,
    "regency_id": 7105,
    "district_id": 710509,
    "value": "Paku Ure (Pakuure)",
    "postal_code": "95355"
  },
  {
    "id": 710509,
    "province_id": 71,
    "regency_id": 7105,
    "district_id": 710509,
    "value": "Paku Ure II (Pakuure Dua)",
    "postal_code": "95355"
  },
  {
    "id": 710509,
    "province_id": 71,
    "regency_id": 7105,
    "district_id": 710509,
    "value": "Paku Ure Kinamang (Pakuure Kinamang)",
    "postal_code": "95355"
  },
  {
    "id": 710509,
    "province_id": 71,
    "regency_id": 7105,
    "district_id": 710509,
    "value": "Paku Ure Tinanian (Pakuure Tinanian)",
    "postal_code": "95355"
  },
  {
    "id": 710509,
    "province_id": 71,
    "regency_id": 7105,
    "district_id": 710509,
    "value": "Pakuure Satu",
    "postal_code": "95355"
  },
  {
    "id": 710509,
    "province_id": 71,
    "regency_id": 7105,
    "district_id": 710509,
    "value": "Pakuure Tiga",
    "postal_code": "95355"
  },
  {
    "id": 710509,
    "province_id": 71,
    "regency_id": 7105,
    "district_id": 710509,
    "value": "Pakuweru",
    "postal_code": "95355"
  },
  {
    "id": 710509,
    "province_id": 71,
    "regency_id": 7105,
    "district_id": 710509,
    "value": "Pakuweru Utara",
    "postal_code": "95355"
  },
  {
    "id": 710509,
    "province_id": 71,
    "regency_id": 7105,
    "district_id": 710509,
    "value": "Radey",
    "postal_code": "95355"
  },
  {
    "id": 710509,
    "province_id": 71,
    "regency_id": 7105,
    "district_id": 710509,
    "value": "Sapa",
    "postal_code": "95355"
  },
  {
    "id": 710509,
    "province_id": 71,
    "regency_id": 7105,
    "district_id": 710509,
    "value": "Sapa Barat",
    "postal_code": "95355"
  },
  {
    "id": 710509,
    "province_id": 71,
    "regency_id": 7105,
    "district_id": 710509,
    "value": "Sapa Timur",
    "postal_code": "95355"
  },
  {
    "id": 710509,
    "province_id": 71,
    "regency_id": 7105,
    "district_id": 710509,
    "value": "Tawaang",
    "postal_code": "95355"
  },
  {
    "id": 710509,
    "province_id": 71,
    "regency_id": 7105,
    "district_id": 710509,
    "value": "Tawaang Barat",
    "postal_code": "95355"
  },
  {
    "id": 710509,
    "province_id": 71,
    "regency_id": 7105,
    "district_id": 710509,
    "value": "Tawaang Timur",
    "postal_code": "95355"
  },
  {
    "id": 710509,
    "province_id": 71,
    "regency_id": 7105,
    "district_id": 710509,
    "value": "Tenga",
    "postal_code": "95355"
  }
]