[
  {
    "id": 5309182001,
    "province_id": 53,
    "regency_id": 5309,
    "district_id": 530918,
    "value": "Bawarani",
    "postal_code": "86466"
  },
  {
    "id": 5309182004,
    "province_id": 53,
    "regency_id": 5309,
    "district_id": 530918,
    "value": "Boba",
    "postal_code": "86466"
  },
  {
    "id": 5309182005,
    "province_id": 53,
    "regency_id": 5309,
    "district_id": 530918,
    "value": "Boba Satu (Boba I)",
    "postal_code": "86466"
  },
  {
    "id": 5309182013,
    "province_id": 53,
    "regency_id": 5309,
    "district_id": 530918,
    "value": "Bobawa",
    "postal_code": "86466"
  },
  {
    "id": 5309182007,
    "province_id": 53,
    "regency_id": 5309,
    "district_id": 530918,
    "value": "Kezewea",
    "postal_code": "86466"
  },
  {
    "id": 5309182016,
    "province_id": 53,
    "regency_id": 5309,
    "district_id": 530918,
    "value": "Kezewea I",
    "postal_code": "86466"
  },
  {
    "id": 5309182008,
    "province_id": 53,
    "regency_id": 5309,
    "district_id": 530918,
    "value": "Nirmala",
    "postal_code": "86466"
  },
  {
    "id": 5309182011,
    "province_id": 53,
    "regency_id": 5309,
    "district_id": 530918,
    "value": "Radamasa",
    "postal_code": "86466"
  },
  {
    "id": 5309182009,
    "province_id": 53,
    "regency_id": 5309,
    "district_id": 530918,
    "value": "Sadha",
    "postal_code": "86466"
  },
  {
    "id": 5309182017,
    "province_id": 53,
    "regency_id": 5309,
    "district_id": 530918,
    "value": "Sadha I",
    "postal_code": "86466"
  },
  {
    "id": 5309182010,
    "province_id": 53,
    "regency_id": 5309,
    "district_id": 530918,
    "value": "Takatunga",
    "postal_code": "86466"
  },
  {
    "id": 5309182018,
    "province_id": 53,
    "regency_id": 5309,
    "district_id": 530918,
    "value": "Takatunga I",
    "postal_code": "86466"
  },
  {
    "id": 5309182003,
    "province_id": 53,
    "regency_id": 5309,
    "district_id": 530918,
    "value": "Watu Sipi (Watusipi)",
    "postal_code": "86466"
  },
  {
    "id": 5309182012,
    "province_id": 53,
    "regency_id": 5309,
    "district_id": 530918,
    "value": "Were Dua (Were II)",
    "postal_code": "86466"
  },
  {
    "id": 5309182006,
    "province_id": 53,
    "regency_id": 5309,
    "district_id": 530918,
    "value": "Were Tiga (Were III)",
    "postal_code": "86466"
  },
  {
    "id": 5309182014,
    "province_id": 53,
    "regency_id": 5309,
    "district_id": 530918,
    "value": "Were V",
    "postal_code": "86466"
  },
  {
    "id": 5309182015,
    "province_id": 53,
    "regency_id": 5309,
    "district_id": 530918,
    "value": "Were VI",
    "postal_code": "86466"
  },
  {
    "id": 5309182002,
    "province_id": 53,
    "regency_id": 5309,
    "district_id": 530918,
    "value": "Wogowela (Wagowela)",
    "postal_code": "86466"
  }
]