[
  {
    "id": 8272051006,
    "province_id": 82,
    "regency_id": 8272,
    "district_id": 827205,
    "value": "Afa Afa",
    "postal_code": "97823"
  },
  {
    "id": 8272051008,
    "province_id": 82,
    "regency_id": 8272,
    "district_id": 827205,
    "value": "Bobo (Bobo Menjadi)",
    "postal_code": "97823"
  },
  {
    "id": 8272051002,
    "province_id": 82,
    "regency_id": 8272,
    "district_id": 827205,
    "value": "Fobaharu",
    "postal_code": "97823"
  },
  {
    "id": 8272051009,
    "province_id": 82,
    "regency_id": 8272,
    "district_id": 827205,
    "value": "Gubu Kusuma",
    "postal_code": "97823"
  },
  {
    "id": 8272051003,
    "province_id": 82,
    "regency_id": 8272,
    "district_id": 827205,
    "value": "Jaya",
    "postal_code": "97823"
  },
  {
    "id": 8272052007,
    "province_id": 82,
    "regency_id": 8272,
    "district_id": 827205,
    "value": "Maitara",
    "postal_code": "97823"
  },
  {
    "id": 8272052012,
    "province_id": 82,
    "regency_id": 8272,
    "district_id": 827205,
    "value": "Maitara Selatan",
    "postal_code": "97823"
  },
  {
    "id": 8272052014,
    "province_id": 82,
    "regency_id": 8272,
    "district_id": 827205,
    "value": "Maitara Tengah",
    "postal_code": "97823"
  },
  {
    "id": 8272052013,
    "province_id": 82,
    "regency_id": 8272,
    "district_id": 827205,
    "value": "Maitara Utara",
    "postal_code": "97823"
  },
  {
    "id": 8272051005,
    "province_id": 82,
    "regency_id": 8272,
    "district_id": 827205,
    "value": "Mareku",
    "postal_code": "97823"
  },
  {
    "id": 8272051004,
    "province_id": 82,
    "regency_id": 8272,
    "district_id": 827205,
    "value": "Ome",
    "postal_code": "97823"
  },
  {
    "id": 8272051001,
    "province_id": 82,
    "regency_id": 8272,
    "district_id": 827205,
    "value": "Rum",
    "postal_code": "97823"
  },
  {
    "id": 8272051011,
    "province_id": 82,
    "regency_id": 8272,
    "district_id": 827205,
    "value": "Rum Balibunga",
    "postal_code": "97823"
  },
  {
    "id": 8272051010,
    "province_id": 82,
    "regency_id": 8272,
    "district_id": 827205,
    "value": "Sirongo Folaraha",
    "postal_code": "97823"
  }
]