[
  {
    "id": 9304022003,
    "province_id": 93,
    "regency_id": 9304,
    "district_id": 930402,
    "value": "Amanamkai",
    "postal_code": "99775"
  },
  {
    "id": 9304022004,
    "province_id": 93,
    "regency_id": 9304,
    "district_id": 930402,
    "value": "Ambisu",
    "postal_code": "99775"
  },
  {
    "id": 9304022001,
    "province_id": 93,
    "regency_id": 9304,
    "district_id": 930402,
    "value": "Atsj",
    "postal_code": "99775"
  },
  {
    "id": 9304022008,
    "province_id": 93,
    "regency_id": 9304,
    "district_id": 930402,
    "value": "Bakasai",
    "postal_code": "99775"
  },
  {
    "id": 9304022005,
    "province_id": 93,
    "regency_id": 9304,
    "district_id": 930402,
    "value": "Bine",
    "postal_code": "99775"
  },
  {
    "id": 9304022006,
    "province_id": 93,
    "regency_id": 9304,
    "district_id": 930402,
    "value": "Bipim",
    "postal_code": "99775"
  },
  {
    "id": 9304022009,
    "province_id": 93,
    "regency_id": 9304,
    "district_id": 930402,
    "value": "Cewewyamew",
    "postal_code": "99775"
  },
  {
    "id": 9304022002,
    "province_id": 93,
    "regency_id": 9304,
    "district_id": 930402,
    "value": "Sogoni",
    "postal_code": "99775"
  },
  {
    "id": 9304022007,
    "province_id": 93,
    "regency_id": 9304,
    "district_id": 930402,
    "value": "Yasiuw",
    "postal_code": "99775"
  }
]