[
  {
    "id": 9503372016,
    "province_id": 95,
    "regency_id": 9503,
    "district_id": 950337,
    "value": "Asok",
    "postal_code": "99741"
  },
  {
    "id": 9503372014,
    "province_id": 95,
    "regency_id": 9503,
    "district_id": 950337,
    "value": "Bera",
    "postal_code": "99741"
  },
  {
    "id": 9503372009,
    "province_id": 95,
    "regency_id": 9503,
    "district_id": 950337,
    "value": "Dolbol",
    "postal_code": "99741"
  },
  {
    "id": 9503372008,
    "province_id": 95,
    "regency_id": 9503,
    "district_id": 950337,
    "value": "Ejub",
    "postal_code": "99741"
  },
  {
    "id": 9503372010,
    "province_id": 95,
    "regency_id": 9503,
    "district_id": 950337,
    "value": "Hemuka",
    "postal_code": "99741"
  },
  {
    "id": 9503372015,
    "province_id": 95,
    "regency_id": 9503,
    "district_id": 950337,
    "value": "Holdomen",
    "postal_code": "99741"
  },
  {
    "id": 9503372004,
    "province_id": 95,
    "regency_id": 9503,
    "district_id": 950337,
    "value": "Horomon",
    "postal_code": "99741"
  },
  {
    "id": 9503372005,
    "province_id": 95,
    "regency_id": 9503,
    "district_id": 950337,
    "value": "Makero",
    "postal_code": "99741"
  },
  {
    "id": 9503372002,
    "province_id": 95,
    "regency_id": 9503,
    "district_id": 950337,
    "value": "Megom (Megon)",
    "postal_code": "99741"
  },
  {
    "id": 9503372013,
    "province_id": 95,
    "regency_id": 9503,
    "district_id": 950337,
    "value": "Mekdua",
    "postal_code": "99741"
  },
  {
    "id": 9503372007,
    "province_id": 95,
    "regency_id": 9503,
    "district_id": 950337,
    "value": "Monamna",
    "postal_code": "99741"
  },
  {
    "id": 9503372003,
    "province_id": 95,
    "regency_id": 9503,
    "district_id": 950337,
    "value": "Mondon",
    "postal_code": "99741"
  },
  {
    "id": 9503372006,
    "province_id": 95,
    "regency_id": 9503,
    "district_id": 950337,
    "value": "Orisin",
    "postal_code": "99741"
  },
  {
    "id": 9503372011,
    "province_id": 95,
    "regency_id": 9503,
    "district_id": 950337,
    "value": "Phoy",
    "postal_code": "99741"
  },
  {
    "id": 9503372001,
    "province_id": 95,
    "regency_id": 9503,
    "district_id": 950337,
    "value": "Sela",
    "postal_code": "99741"
  },
  {
    "id": 9503372012,
    "province_id": 95,
    "regency_id": 9503,
    "district_id": 950337,
    "value": "Sulda",
    "postal_code": "99741"
  }
]