[
  {
    "id": 7501032012,
    "province_id": 75,
    "regency_id": 7501,
    "district_id": 750103,
    "value": "Barakati",
    "postal_code": "96243"
  },
  {
    "id": 7501032002,
    "province_id": 75,
    "regency_id": 7501,
    "district_id": 750103,
    "value": "Bua",
    "postal_code": "96243"
  },
  {
    "id": 7501032014,
    "province_id": 75,
    "regency_id": 7501,
    "district_id": 750103,
    "value": "Dunggala",
    "postal_code": "96243"
  },
  {
    "id": 7501032003,
    "province_id": 75,
    "regency_id": 7501,
    "district_id": 750103,
    "value": "Huntu",
    "postal_code": "96243"
  },
  {
    "id": 7501032013,
    "province_id": 75,
    "regency_id": 7501,
    "district_id": 750103,
    "value": "Ilohungayo",
    "postal_code": "96243"
  },
  {
    "id": 7501032001,
    "province_id": 75,
    "regency_id": 7501,
    "district_id": 750103,
    "value": "Iluta",
    "postal_code": "96243"
  },
  {
    "id": 7501032004,
    "province_id": 75,
    "regency_id": 7501,
    "district_id": 750103,
    "value": "Payunga",
    "postal_code": "96243"
  },
  {
    "id": 7501032015,
    "province_id": 75,
    "regency_id": 7501,
    "district_id": 750103,
    "value": "Pilobuhuta",
    "postal_code": "96243"
  }
]