[
  {
    "id": 357501,
    "province_id": 35,
    "regency_id": 3575,
    "district_id": 357501,
    "value": "Bukir",
    "postal_code": "67138"
  },
  {
    "id": 357501,
    "province_id": 35,
    "regency_id": 3575,
    "district_id": 357501,
    "value": "Gadingrejo'an (Gadingrejo)",
    "postal_code": "67134"
  },
  {
    "id": 357501,
    "province_id": 35,
    "regency_id": 3575,
    "district_id": 357501,
    "value": "Gentong",
    "postal_code": "67139"
  },
  {
    "id": 357501,
    "province_id": 35,
    "regency_id": 3575,
    "district_id": 357501,
    "value": "Karangketug",
    "postal_code": "67135"
  },
  {
    "id": 357501,
    "province_id": 35,
    "regency_id": 3575,
    "district_id": 357501,
    "value": "Krapyakrejo",
    "postal_code": "67137"
  },
  {
    "id": 357501,
    "province_id": 35,
    "regency_id": 3575,
    "district_id": 357501,
    "value": "Petahunan",
    "postal_code": "67136"
  },
  {
    "id": 357501,
    "province_id": 35,
    "regency_id": 3575,
    "district_id": 357501,
    "value": "Randusari",
    "postal_code": "67136"
  },
  {
    "id": 357501,
    "province_id": 35,
    "regency_id": 3575,
    "district_id": 357501,
    "value": "Sebani",
    "postal_code": "67139"
  }
]