[
  {
    "id": 930403,
    "province_id": 93,
    "regency_id": 9304,
    "district_id": 930403,
    "value": "Agani",
    "postal_code": "99783"
  },
  {
    "id": 930403,
    "province_id": 93,
    "regency_id": 9304,
    "district_id": 930403,
    "value": "Bu",
    "postal_code": "99783"
  },
  {
    "id": 930403,
    "province_id": 93,
    "regency_id": 9304,
    "district_id": 930403,
    "value": "Er",
    "postal_code": "99783"
  },
  {
    "id": 930403,
    "province_id": 93,
    "regency_id": 9304,
    "district_id": 930403,
    "value": "Erma",
    "postal_code": "99783"
  },
  {
    "id": 930403,
    "province_id": 93,
    "regency_id": 9304,
    "district_id": 930403,
    "value": "Mumugi II (Mumugu Dua)",
    "postal_code": "99783"
  },
  {
    "id": 930403,
    "province_id": 93,
    "regency_id": 9304,
    "district_id": 930403,
    "value": "Mumugu",
    "postal_code": "99783"
  },
  {
    "id": 930403,
    "province_id": 93,
    "regency_id": 9304,
    "district_id": 930403,
    "value": "Pupis",
    "postal_code": "99783"
  },
  {
    "id": 930403,
    "province_id": 93,
    "regency_id": 9304,
    "district_id": 930403,
    "value": "Sauti",
    "postal_code": "99783"
  },
  {
    "id": 930403,
    "province_id": 93,
    "regency_id": 9304,
    "district_id": 930403,
    "value": "Sawa",
    "postal_code": "99783"
  },
  {
    "id": 930403,
    "province_id": 93,
    "regency_id": 9304,
    "district_id": 930403,
    "value": "Sona",
    "postal_code": "99783"
  }
]