[
  {
    "id": 332009,
    "province_id": 33,
    "regency_id": 3320,
    "district_id": 332009,
    "value": "Bumiharjo",
    "postal_code": "59456"
  },
  {
    "id": 332009,
    "province_id": 33,
    "regency_id": 3320,
    "district_id": 332009,
    "value": "Damarwulan",
    "postal_code": "59456"
  },
  {
    "id": 332009,
    "province_id": 33,
    "regency_id": 3320,
    "district_id": 332009,
    "value": "Gelang",
    "postal_code": "59456"
  },
  {
    "id": 332009,
    "province_id": 33,
    "regency_id": 3320,
    "district_id": 332009,
    "value": "Jlegong",
    "postal_code": "59456"
  },
  {
    "id": 332009,
    "province_id": 33,
    "regency_id": 3320,
    "district_id": 332009,
    "value": "Kaligarang",
    "postal_code": "59456"
  },
  {
    "id": 332009,
    "province_id": 33,
    "regency_id": 3320,
    "district_id": 332009,
    "value": "Kelet",
    "postal_code": "59456"
  },
  {
    "id": 332009,
    "province_id": 33,
    "regency_id": 3320,
    "district_id": 332009,
    "value": "Keling",
    "postal_code": "59456"
  },
  {
    "id": 332009,
    "province_id": 33,
    "regency_id": 3320,
    "district_id": 332009,
    "value": "Klepu",
    "postal_code": "59456"
  },
  {
    "id": 332009,
    "province_id": 33,
    "regency_id": 3320,
    "district_id": 332009,
    "value": "Kunir",
    "postal_code": "59456"
  },
  {
    "id": 332009,
    "province_id": 33,
    "regency_id": 3320,
    "district_id": 332009,
    "value": "Tempur",
    "postal_code": "59456"
  },
  {
    "id": 332009,
    "province_id": 33,
    "regency_id": 3320,
    "district_id": 332009,
    "value": "Tunahan",
    "postal_code": "59456"
  },
  {
    "id": 332009,
    "province_id": 33,
    "regency_id": 3320,
    "district_id": 332009,
    "value": "Watuaji",
    "postal_code": "59456"
  }
]