[
  {
    "id": 331404,
    "province_id": 33,
    "regency_id": 3314,
    "district_id": 331404,
    "value": "Bendungan",
    "postal_code": "57292"
  },
  {
    "id": 331404,
    "province_id": 33,
    "regency_id": 3314,
    "district_id": 331404,
    "value": "Celep",
    "postal_code": "57292"
  },
  {
    "id": 331404,
    "province_id": 33,
    "regency_id": 3314,
    "district_id": 331404,
    "value": "Jenggrik",
    "postal_code": "57292"
  },
  {
    "id": 331404,
    "province_id": 33,
    "regency_id": 3314,
    "district_id": 331404,
    "value": "Karangpelem (Karang Pelem)",
    "postal_code": "57292"
  },
  {
    "id": 331404,
    "province_id": 33,
    "regency_id": 3314,
    "district_id": 331404,
    "value": "Kedawung",
    "postal_code": "57292"
  },
  {
    "id": 331404,
    "province_id": 33,
    "regency_id": 3314,
    "district_id": 331404,
    "value": "Mojodoyong",
    "postal_code": "57292"
  },
  {
    "id": 331404,
    "province_id": 33,
    "regency_id": 3314,
    "district_id": 331404,
    "value": "Mojokerto",
    "postal_code": "57292"
  },
  {
    "id": 331404,
    "province_id": 33,
    "regency_id": 3314,
    "district_id": 331404,
    "value": "Pengkok",
    "postal_code": "57292"
  },
  {
    "id": 331404,
    "province_id": 33,
    "regency_id": 3314,
    "district_id": 331404,
    "value": "Wonokerso",
    "postal_code": "57292"
  },
  {
    "id": 331404,
    "province_id": 33,
    "regency_id": 3314,
    "district_id": 331404,
    "value": "Wonorejo",
    "postal_code": "57292"
  }
]