[
  {
    "id": 3313162008,
    "province_id": 33,
    "regency_id": 3313,
    "district_id": 331316,
    "value": "Botok",
    "postal_code": "57753"
  },
  {
    "id": 3313162003,
    "province_id": 33,
    "regency_id": 3313,
    "district_id": 331316,
    "value": "Ganten",
    "postal_code": "57753"
  },
  {
    "id": 3313162004,
    "province_id": 33,
    "regency_id": 3313,
    "district_id": 331316,
    "value": "Gempolan",
    "postal_code": "57753"
  },
  {
    "id": 3313162006,
    "province_id": 33,
    "regency_id": 3313,
    "district_id": 331316,
    "value": "Karangrejo",
    "postal_code": "57711"
  },
  {
    "id": 3313162001,
    "province_id": 33,
    "regency_id": 3313,
    "district_id": 331316,
    "value": "Kuto",
    "postal_code": "57753"
  },
  {
    "id": 3313162007,
    "province_id": 33,
    "regency_id": 3313,
    "district_id": 331316,
    "value": "Kwadungan",
    "postal_code": "57753"
  },
  {
    "id": 3313162005,
    "province_id": 33,
    "regency_id": 3313,
    "district_id": 331316,
    "value": "Plosorejo",
    "postal_code": "57753"
  },
  {
    "id": 3313162009,
    "province_id": 33,
    "regency_id": 3313,
    "district_id": 331316,
    "value": "Sumberejo",
    "postal_code": "57753"
  },
  {
    "id": 3313162002,
    "province_id": 33,
    "regency_id": 3313,
    "district_id": 331316,
    "value": "Tamansari",
    "postal_code": "57753"
  },
  {
    "id": 3313162010,
    "province_id": 33,
    "regency_id": 3313,
    "district_id": 331316,
    "value": "Tawangsari",
    "postal_code": "57753"
  }
]