[
  {
    "id": 352114,
    "province_id": 35,
    "regency_id": 3521,
    "district_id": 352114,
    "value": "Babadan",
    "postal_code": "63282"
  },
  {
    "id": 352114,
    "province_id": 35,
    "regency_id": 3521,
    "district_id": 352114,
    "value": "Gandri",
    "postal_code": "63282"
  },
  {
    "id": 352114,
    "province_id": 35,
    "regency_id": 3521,
    "district_id": 352114,
    "value": "Ngompro",
    "postal_code": "63282"
  },
  {
    "id": 352114,
    "province_id": 35,
    "regency_id": 3521,
    "district_id": 352114,
    "value": "Pangkur",
    "postal_code": "63282"
  },
  {
    "id": 352114,
    "province_id": 35,
    "regency_id": 3521,
    "district_id": 352114,
    "value": "Paras",
    "postal_code": "63282"
  },
  {
    "id": 352114,
    "province_id": 35,
    "regency_id": 3521,
    "district_id": 352114,
    "value": "Pleset",
    "postal_code": "63282"
  },
  {
    "id": 352114,
    "province_id": 35,
    "regency_id": 3521,
    "district_id": 352114,
    "value": "Pohkonyal (Poh Konyal)",
    "postal_code": "63282"
  },
  {
    "id": 352114,
    "province_id": 35,
    "regency_id": 3521,
    "district_id": 352114,
    "value": "Sumber",
    "postal_code": "63282"
  },
  {
    "id": 352114,
    "province_id": 35,
    "regency_id": 3521,
    "district_id": 352114,
    "value": "Warutengah (Waruk Tengah)",
    "postal_code": "63282"
  }
]