[
  {
    "id": 720615,
    "province_id": 72,
    "regency_id": 7206,
    "district_id": 720615,
    "value": "Buleleng",
    "postal_code": "94981"
  },
  {
    "id": 720615,
    "province_id": 72,
    "regency_id": 7206,
    "district_id": 720615,
    "value": "Lafeu",
    "postal_code": "94981"
  },
  {
    "id": 720615,
    "province_id": 72,
    "regency_id": 7206,
    "district_id": 720615,
    "value": "Laroenai",
    "postal_code": "94981"
  },
  {
    "id": 720615,
    "province_id": 72,
    "regency_id": 7206,
    "district_id": 720615,
    "value": "One Ete",
    "postal_code": "94981"
  },
  {
    "id": 720615,
    "province_id": 72,
    "regency_id": 7206,
    "district_id": 720615,
    "value": "Puungkeu",
    "postal_code": "94981"
  },
  {
    "id": 720615,
    "province_id": 72,
    "regency_id": 7206,
    "district_id": 720615,
    "value": "Sambalagi",
    "postal_code": "94981"
  },
  {
    "id": 720615,
    "province_id": 72,
    "regency_id": 7206,
    "district_id": 720615,
    "value": "Tandaoleo",
    "postal_code": "94981"
  },
  {
    "id": 720615,
    "province_id": 72,
    "regency_id": 7206,
    "district_id": 720615,
    "value": "Tangofa",
    "postal_code": "94981"
  },
  {
    "id": 720615,
    "province_id": 72,
    "regency_id": 7206,
    "district_id": 720615,
    "value": "Torete",
    "postal_code": "94981"
  },
  {
    "id": 720615,
    "province_id": 72,
    "regency_id": 7206,
    "district_id": 720615,
    "value": "Were'a",
    "postal_code": "94981"
  }
]