[
  {
    "id": 1207032001,
    "province_id": 12,
    "regency_id": 1207,
    "district_id": 120703,
    "value": "Bandar Baru",
    "postal_code": "20357"
  },
  {
    "id": 1207032002,
    "province_id": 12,
    "regency_id": 1207,
    "district_id": 120703,
    "value": "Batu Layang",
    "postal_code": "20357"
  },
  {
    "id": 1207032003,
    "province_id": 12,
    "regency_id": 1207,
    "district_id": 120703,
    "value": "Batu Mbelin",
    "postal_code": "20357"
  },
  {
    "id": 1207032005,
    "province_id": 12,
    "regency_id": 1207,
    "district_id": 120703,
    "value": "Bengkurung",
    "postal_code": "20357"
  },
  {
    "id": 1207032004,
    "province_id": 12,
    "regency_id": 1207,
    "district_id": 120703,
    "value": "Betimus Mbaru (Betimus Baru)",
    "postal_code": "20357"
  },
  {
    "id": 1207032006,
    "province_id": 12,
    "regency_id": 1207,
    "district_id": 120703,
    "value": "Bingkawan",
    "postal_code": "20357"
  },
  {
    "id": 1207032007,
    "province_id": 12,
    "regency_id": 1207,
    "district_id": 120703,
    "value": "Buah Nabar",
    "postal_code": "20357"
  },
  {
    "id": 1207032008,
    "province_id": 12,
    "regency_id": 1207,
    "district_id": 120703,
    "value": "Bukum",
    "postal_code": "20357"
  },
  {
    "id": 1207032009,
    "province_id": 12,
    "regency_id": 1207,
    "district_id": 120703,
    "value": "Buluh Awar",
    "postal_code": "20357"
  },
  {
    "id": 1207032010,
    "province_id": 12,
    "regency_id": 1207,
    "district_id": 120703,
    "value": "Cinta Rakyat",
    "postal_code": "20357"
  },
  {
    "id": 1207032011,
    "province_id": 12,
    "regency_id": 1207,
    "district_id": 120703,
    "value": "Durin Serugun",
    "postal_code": "20357"
  },
  {
    "id": 1207032012,
    "province_id": 12,
    "regency_id": 1207,
    "district_id": 120703,
    "value": "Ketangkuhen",
    "postal_code": "20357"
  },
  {
    "id": 1207032013,
    "province_id": 12,
    "regency_id": 1207,
    "district_id": 120703,
    "value": "Kuala",
    "postal_code": "20357"
  },
  {
    "id": 1207032014,
    "province_id": 12,
    "regency_id": 1207,
    "district_id": 120703,
    "value": "Martelu",
    "postal_code": "20357"
  },
  {
    "id": 1207032015,
    "province_id": 12,
    "regency_id": 1207,
    "district_id": 120703,
    "value": "Negeri Gugung (Negri Gugung)",
    "postal_code": "20357"
  },
  {
    "id": 1207032016,
    "province_id": 12,
    "regency_id": 1207,
    "district_id": 120703,
    "value": "Puangaja (Puang Aja)",
    "postal_code": "20357"
  },
  {
    "id": 1207032018,
    "province_id": 12,
    "regency_id": 1207,
    "district_id": 120703,
    "value": "Rambung Baru",
    "postal_code": "20357"
  },
  {
    "id": 1207032017,
    "province_id": 12,
    "regency_id": 1207,
    "district_id": 120703,
    "value": "Rumah Kinangkung Sp",
    "postal_code": "20357"
  },
  {
    "id": 1207032019,
    "province_id": 12,
    "regency_id": 1207,
    "district_id": 120703,
    "value": "Rumah Pil-Pil",
    "postal_code": "20357"
  },
  {
    "id": 1207032020,
    "province_id": 12,
    "regency_id": 1207,
    "district_id": 120703,
    "value": "Rumah Sumbul",
    "postal_code": "20357"
  },
  {
    "id": 1207032021,
    "province_id": 12,
    "regency_id": 1207,
    "district_id": 120703,
    "value": "Sala Bulan",
    "postal_code": "20357"
  },
  {
    "id": 1207032022,
    "province_id": 12,
    "regency_id": 1207,
    "district_id": 120703,
    "value": "Sayum Sabah",
    "postal_code": "20357"
  },
  {
    "id": 1207032023,
    "province_id": 12,
    "regency_id": 1207,
    "district_id": 120703,
    "value": "Sembahe",
    "postal_code": "20357"
  },
  {
    "id": 1207032024,
    "province_id": 12,
    "regency_id": 1207,
    "district_id": 120703,
    "value": "Sibolangit",
    "postal_code": "20357"
  },
  {
    "id": 1207032025,
    "province_id": 12,
    "regency_id": 1207,
    "district_id": 120703,
    "value": "Sikeben",
    "postal_code": "20357"
  },
  {
    "id": 1207032026,
    "province_id": 12,
    "regency_id": 1207,
    "district_id": 120703,
    "value": "Suka Maju",
    "postal_code": "20357"
  },
  {
    "id": 1207032027,
    "province_id": 12,
    "regency_id": 1207,
    "district_id": 120703,
    "value": "Suka Makmur",
    "postal_code": "20357"
  },
  {
    "id": 1207032028,
    "province_id": 12,
    "regency_id": 1207,
    "district_id": 120703,
    "value": "Tambunen",
    "postal_code": "20357"
  },
  {
    "id": 1207032029,
    "province_id": 12,
    "regency_id": 1207,
    "district_id": 120703,
    "value": "Tanjung Beringin",
    "postal_code": "20357"
  },
  {
    "id": 1207032030,
    "province_id": 12,
    "regency_id": 1207,
    "district_id": 120703,
    "value": "Ujung Deleng",
    "postal_code": "20357"
  }
]