[
  {
    "id": 330408,
    "province_id": 33,
    "regency_id": 3304,
    "district_id": 330408,
    "value": "Bantarwaru",
    "postal_code": "53482"
  },
  {
    "id": 330408,
    "province_id": 33,
    "regency_id": 3304,
    "district_id": 330408,
    "value": "Blitar",
    "postal_code": "53482"
  },
  {
    "id": 330408,
    "province_id": 33,
    "regency_id": 3304,
    "district_id": 330408,
    "value": "Clapar",
    "postal_code": "53482"
  },
  {
    "id": 330408,
    "province_id": 33,
    "regency_id": 3304,
    "district_id": 330408,
    "value": "Dawuhan",
    "postal_code": "53482"
  },
  {
    "id": 330408,
    "province_id": 33,
    "regency_id": 3304,
    "district_id": 330408,
    "value": "Gununggiana",
    "postal_code": "53482"
  },
  {
    "id": 330408,
    "province_id": 33,
    "regency_id": 3304,
    "district_id": 330408,
    "value": "Kaliurip",
    "postal_code": "53482"
  },
  {
    "id": 330408,
    "province_id": 33,
    "regency_id": 3304,
    "district_id": 330408,
    "value": "Karanganyar",
    "postal_code": "53482"
  },
  {
    "id": 330408,
    "province_id": 33,
    "regency_id": 3304,
    "district_id": 330408,
    "value": "Kenteng",
    "postal_code": "53482"
  },
  {
    "id": 330408,
    "province_id": 33,
    "regency_id": 3304,
    "district_id": 330408,
    "value": "Kutayasa",
    "postal_code": "53482"
  },
  {
    "id": 330408,
    "province_id": 33,
    "regency_id": 3304,
    "district_id": 330408,
    "value": "Limbangan",
    "postal_code": "53482"
  },
  {
    "id": 330408,
    "province_id": 33,
    "regency_id": 3304,
    "district_id": 330408,
    "value": "Madukara",
    "postal_code": "53482"
  },
  {
    "id": 330408,
    "province_id": 33,
    "regency_id": 3304,
    "district_id": 330408,
    "value": "Pagelak",
    "postal_code": "53482"
  },
  {
    "id": 330408,
    "province_id": 33,
    "regency_id": 3304,
    "district_id": 330408,
    "value": "Pakelen",
    "postal_code": "53482"
  },
  {
    "id": 330408,
    "province_id": 33,
    "regency_id": 3304,
    "district_id": 330408,
    "value": "Pekauman",
    "postal_code": "53482"
  },
  {
    "id": 330408,
    "province_id": 33,
    "regency_id": 3304,
    "district_id": 330408,
    "value": "Penawangan",
    "postal_code": "53482"
  },
  {
    "id": 330408,
    "province_id": 33,
    "regency_id": 3304,
    "district_id": 330408,
    "value": "Petambakan",
    "postal_code": "53482"
  },
  {
    "id": 330408,
    "province_id": 33,
    "regency_id": 3304,
    "district_id": 330408,
    "value": "Rakitan",
    "postal_code": "53482"
  },
  {
    "id": 330408,
    "province_id": 33,
    "regency_id": 3304,
    "district_id": 330408,
    "value": "Rejasa",
    "postal_code": "53482"
  },
  {
    "id": 330408,
    "province_id": 33,
    "regency_id": 3304,
    "district_id": 330408,
    "value": "Sered",
    "postal_code": "53482"
  },
  {
    "id": 330408,
    "province_id": 33,
    "regency_id": 3304,
    "district_id": 330408,
    "value": "Talunamba",
    "postal_code": "53482"
  }
]