[
  {
    "id": 1608102018,
    "province_id": 16,
    "regency_id": 1608,
    "district_id": 160810,
    "value": "Dadi Rejo",
    "postal_code": "32385"
  },
  {
    "id": 1608102019,
    "province_id": 16,
    "regency_id": 1608,
    "district_id": 160810,
    "value": "Ganti Warno",
    "postal_code": "32385"
  },
  {
    "id": 1608102017,
    "province_id": 16,
    "regency_id": 1608,
    "district_id": 160810,
    "value": "Karang Jadi",
    "postal_code": "32385"
  },
  {
    "id": 1608102011,
    "province_id": 16,
    "regency_id": 1608,
    "district_id": 160810,
    "value": "Karang Sari",
    "postal_code": "32385"
  },
  {
    "id": 1608102023,
    "province_id": 16,
    "regency_id": 1608,
    "district_id": 160810,
    "value": "Karya Maju",
    "postal_code": "32385"
  },
  {
    "id": 1608102001,
    "province_id": 16,
    "regency_id": 1608,
    "district_id": 160810,
    "value": "Kutosari",
    "postal_code": "32385"
  },
  {
    "id": 1608102008,
    "province_id": 16,
    "regency_id": 1608,
    "district_id": 160810,
    "value": "Nusa Agung",
    "postal_code": "32385"
  },
  {
    "id": 1608102005,
    "province_id": 16,
    "regency_id": 1608,
    "district_id": 160810,
    "value": "Nusa Bakti",
    "postal_code": "32385"
  },
  {
    "id": 1608102004,
    "province_id": 16,
    "regency_id": 1608,
    "district_id": 160810,
    "value": "Nusa Bali",
    "postal_code": "32385"
  },
  {
    "id": 1608102006,
    "province_id": 16,
    "regency_id": 1608,
    "district_id": 160810,
    "value": "Nusa Jaya",
    "postal_code": "32385"
  },
  {
    "id": 1608102009,
    "province_id": 16,
    "regency_id": 1608,
    "district_id": 160810,
    "value": "Nusa Maju",
    "postal_code": "32385"
  },
  {
    "id": 1608102002,
    "province_id": 16,
    "regency_id": 1608,
    "district_id": 160810,
    "value": "Nusa Raya (Nusaraya)",
    "postal_code": "32385"
  },
  {
    "id": 1608102007,
    "province_id": 16,
    "regency_id": 1608,
    "district_id": 160810,
    "value": "Nusa Tenggara",
    "postal_code": "32385"
  },
  {
    "id": 1608102003,
    "province_id": 16,
    "regency_id": 1608,
    "district_id": 160810,
    "value": "Nusa Tunggal",
    "postal_code": "32385"
  },
  {
    "id": 1608102022,
    "province_id": 16,
    "regency_id": 1608,
    "district_id": 160810,
    "value": "Ringin Sari",
    "postal_code": "32385"
  },
  {
    "id": 1608102010,
    "province_id": 16,
    "regency_id": 1608,
    "district_id": 160810,
    "value": "Senu Marga",
    "postal_code": "32385"
  },
  {
    "id": 1608102020,
    "province_id": 16,
    "regency_id": 1608,
    "district_id": 160810,
    "value": "Sinar Bali",
    "postal_code": "32385"
  },
  {
    "id": 1608102016,
    "province_id": 16,
    "regency_id": 1608,
    "district_id": 160810,
    "value": "Suka Negara (Sukanegara)",
    "postal_code": "32385"
  },
  {
    "id": 1608102021,
    "province_id": 16,
    "regency_id": 1608,
    "district_id": 160810,
    "value": "Sumber Rejo",
    "postal_code": "32385"
  },
  {
    "id": 1608102013,
    "province_id": 16,
    "regency_id": 1608,
    "district_id": 160810,
    "value": "Trikarya (Tri Karya)",
    "postal_code": "32385"
  }
]