[
  {
    "id": 320123,
    "province_id": 32,
    "regency_id": 3201,
    "district_id": 320123,
    "value": "Babakan",
    "postal_code": "16370"
  },
  {
    "id": 320123,
    "province_id": 32,
    "regency_id": 3201,
    "district_id": 320123,
    "value": "Batok",
    "postal_code": "16370"
  },
  {
    "id": 320123,
    "province_id": 32,
    "regency_id": 3201,
    "district_id": 320123,
    "value": "Bojong",
    "postal_code": "16370"
  },
  {
    "id": 320123,
    "province_id": 32,
    "regency_id": 3201,
    "district_id": 320123,
    "value": "Cilaku",
    "postal_code": "16370"
  },
  {
    "id": 320123,
    "province_id": 32,
    "regency_id": 3201,
    "district_id": 320123,
    "value": "Ciomas",
    "postal_code": "16370"
  },
  {
    "id": 320123,
    "province_id": 32,
    "regency_id": 3201,
    "district_id": 320123,
    "value": "Singabangsa",
    "postal_code": "16370"
  },
  {
    "id": 320123,
    "province_id": 32,
    "regency_id": 3201,
    "district_id": 320123,
    "value": "Singabraja",
    "postal_code": "16370"
  },
  {
    "id": 320123,
    "province_id": 32,
    "regency_id": 3201,
    "district_id": 320123,
    "value": "Tapos",
    "postal_code": "16370"
  },
  {
    "id": 320123,
    "province_id": 32,
    "regency_id": 3201,
    "district_id": 320123,
    "value": "Tenjo",
    "postal_code": "16370"
  }
]