[
  {
    "id": 320938,
    "province_id": 32,
    "regency_id": 3209,
    "district_id": 320938,
    "value": "Durajaya",
    "postal_code": "45170"
  },
  {
    "id": 320938,
    "province_id": 32,
    "regency_id": 3209,
    "district_id": 320938,
    "value": "Greged (Greget)",
    "postal_code": "45170"
  },
  {
    "id": 320938,
    "province_id": 32,
    "regency_id": 3209,
    "district_id": 320938,
    "value": "Gumulung Lebak (Gumulunglebak)",
    "postal_code": "45170"
  },
  {
    "id": 320938,
    "province_id": 32,
    "regency_id": 3209,
    "district_id": 320938,
    "value": "Gumulung Tonggoh (Gumulungtonggoh)",
    "postal_code": "45170"
  },
  {
    "id": 320938,
    "province_id": 32,
    "regency_id": 3209,
    "district_id": 320938,
    "value": "Jatipancur",
    "postal_code": "45170"
  },
  {
    "id": 320938,
    "province_id": 32,
    "regency_id": 3209,
    "district_id": 320938,
    "value": "Kamarang",
    "postal_code": "45170"
  },
  {
    "id": 320938,
    "province_id": 32,
    "regency_id": 3209,
    "district_id": 320938,
    "value": "Kamarang Lebak (Kamaranglebak)",
    "postal_code": "45170"
  },
  {
    "id": 320938,
    "province_id": 32,
    "regency_id": 3209,
    "district_id": 320938,
    "value": "Lebak Mekar (Lebakmekar)",
    "postal_code": "45170"
  },
  {
    "id": 320938,
    "province_id": 32,
    "regency_id": 3209,
    "district_id": 320938,
    "value": "Nanggela",
    "postal_code": "45170"
  },
  {
    "id": 320938,
    "province_id": 32,
    "regency_id": 3209,
    "district_id": 320938,
    "value": "Sindang Kempeng (Sindangkempeng)",
    "postal_code": "45170"
  }
]