[
  {
    "id": 3514082015,
    "province_id": 35,
    "regency_id": 3514,
    "district_id": 351408,
    "value": "Bakalan",
    "postal_code": "67162"
  },
  {
    "id": 3514082009,
    "province_id": 35,
    "regency_id": 3514,
    "district_id": 351408,
    "value": "Cendono",
    "postal_code": "67162"
  },
  {
    "id": 3514082010,
    "province_id": 35,
    "regency_id": 3514,
    "district_id": 351408,
    "value": "Karangrejo (Karang Rejo)",
    "postal_code": "67162"
  },
  {
    "id": 3514082013,
    "province_id": 35,
    "regency_id": 3514,
    "district_id": 351408,
    "value": "Kayoman",
    "postal_code": "67162"
  },
  {
    "id": 3514082004,
    "province_id": 35,
    "regency_id": 3514,
    "district_id": 351408,
    "value": "Kertosari",
    "postal_code": "67162"
  },
  {
    "id": 3514082005,
    "province_id": 35,
    "regency_id": 3514,
    "district_id": 351408,
    "value": "Martopuro",
    "postal_code": "67162"
  },
  {
    "id": 3514082008,
    "province_id": 35,
    "regency_id": 3514,
    "district_id": 351408,
    "value": "Pager",
    "postal_code": "67162"
  },
  {
    "id": 3514082012,
    "province_id": 35,
    "regency_id": 3514,
    "district_id": 351408,
    "value": "Pucang Sari (Pucangsari)",
    "postal_code": "67162"
  },
  {
    "id": 3514081006,
    "province_id": 35,
    "regency_id": 3514,
    "district_id": 351408,
    "value": "Purwosari",
    "postal_code": "67162"
  },
  {
    "id": 3514082002,
    "province_id": 35,
    "regency_id": 3514,
    "district_id": 351408,
    "value": "Sekarmojo (Sekar Mojo)",
    "postal_code": "67162"
  },
  {
    "id": 3514082007,
    "province_id": 35,
    "regency_id": 3514,
    "district_id": 351408,
    "value": "Sengonagung (Sengon Agung)",
    "postal_code": "67162"
  },
  {
    "id": 3514082014,
    "province_id": 35,
    "regency_id": 3514,
    "district_id": 351408,
    "value": "Sukodermo",
    "postal_code": "67162"
  },
  {
    "id": 3514082001,
    "province_id": 35,
    "regency_id": 3514,
    "district_id": 351408,
    "value": "Sumberrejo (Sumber Rejo)",
    "postal_code": "67162"
  },
  {
    "id": 3514082011,
    "province_id": 35,
    "regency_id": 3514,
    "district_id": 351408,
    "value": "Sumbersuko (Sumber Suko)",
    "postal_code": "67162"
  },
  {
    "id": 3514082003,
    "province_id": 35,
    "regency_id": 3514,
    "district_id": 351408,
    "value": "Tejowangi",
    "postal_code": "67162"
  }
]