[
  {
    "id": 3204362011,
    "province_id": 32,
    "regency_id": 3204,
    "district_id": 320436,
    "value": "Cibeet",
    "postal_code": "40384"
  },
  {
    "id": 3204362003,
    "province_id": 32,
    "regency_id": 3204,
    "district_id": 320436,
    "value": "Dukuh",
    "postal_code": "40384"
  },
  {
    "id": 3204362001,
    "province_id": 32,
    "regency_id": 3204,
    "district_id": 320436,
    "value": "Ibun",
    "postal_code": "40384"
  },
  {
    "id": 3204362012,
    "province_id": 32,
    "regency_id": 3204,
    "district_id": 320436,
    "value": "Karyalaksana",
    "postal_code": "40384"
  },
  {
    "id": 3204362002,
    "province_id": 32,
    "regency_id": 3204,
    "district_id": 320436,
    "value": "Laksana",
    "postal_code": "40384"
  },
  {
    "id": 3204362006,
    "province_id": 32,
    "regency_id": 3204,
    "district_id": 320436,
    "value": "Lampegan",
    "postal_code": "40384"
  },
  {
    "id": 3204362008,
    "province_id": 32,
    "regency_id": 3204,
    "district_id": 320436,
    "value": "Mekarwangi",
    "postal_code": "40384"
  },
  {
    "id": 3204362007,
    "province_id": 32,
    "regency_id": 3204,
    "district_id": 320436,
    "value": "Neglasari",
    "postal_code": "40384"
  },
  {
    "id": 3204362005,
    "province_id": 32,
    "regency_id": 3204,
    "district_id": 320436,
    "value": "Pangguh",
    "postal_code": "40384"
  },
  {
    "id": 3204362009,
    "province_id": 32,
    "regency_id": 3204,
    "district_id": 320436,
    "value": "Sudi",
    "postal_code": "40384"
  },
  {
    "id": 3204362004,
    "province_id": 32,
    "regency_id": 3204,
    "district_id": 320436,
    "value": "Talun",
    "postal_code": "40384"
  },
  {
    "id": 3204362010,
    "province_id": 32,
    "regency_id": 3204,
    "district_id": 320436,
    "value": "Tangulun (Tanggulun)",
    "postal_code": "40384"
  }
]