[
  {
    "id": 740621,
    "province_id": 74,
    "regency_id": 7406,
    "district_id": 740621,
    "value": "Anugerah",
    "postal_code": "93774"
  },
  {
    "id": 740621,
    "province_id": 74,
    "regency_id": 7406,
    "district_id": 740621,
    "value": "Kalaero",
    "postal_code": "93774"
  },
  {
    "id": 740621,
    "province_id": 74,
    "regency_id": 7406,
    "district_id": 740621,
    "value": "Lambikasi",
    "postal_code": "93774"
  },
  {
    "id": 740621,
    "province_id": 74,
    "regency_id": 7406,
    "district_id": 740621,
    "value": "Langkowala",
    "postal_code": "93774"
  },
  {
    "id": 740621,
    "province_id": 74,
    "regency_id": 7406,
    "district_id": 740621,
    "value": "Lantari",
    "postal_code": "93774"
  },
  {
    "id": 740621,
    "province_id": 74,
    "regency_id": 7406,
    "district_id": 740621,
    "value": "Pasare Apua",
    "postal_code": "93774"
  },
  {
    "id": 740621,
    "province_id": 74,
    "regency_id": 7406,
    "district_id": 740621,
    "value": "Rarongkeu",
    "postal_code": "93774"
  },
  {
    "id": 740621,
    "province_id": 74,
    "regency_id": 7406,
    "district_id": 740621,
    "value": "Tinabite",
    "postal_code": "93774"
  },
  {
    "id": 740621,
    "province_id": 74,
    "regency_id": 7406,
    "district_id": 740621,
    "value": "Watu-Watu",
    "postal_code": "93774"
  }
]