[
  {
    "id": 810308,
    "province_id": 81,
    "regency_id": 8103,
    "district_id": 810308,
    "value": "Alusi Batjasi",
    "postal_code": "97461"
  },
  {
    "id": 810308,
    "province_id": 81,
    "regency_id": 8103,
    "district_id": 810308,
    "value": "Alusi Bukjalim",
    "postal_code": "97461"
  },
  {
    "id": 810308,
    "province_id": 81,
    "regency_id": 8103,
    "district_id": 810308,
    "value": "Alusi Kelaan",
    "postal_code": "97461"
  },
  {
    "id": 810308,
    "province_id": 81,
    "regency_id": 8103,
    "district_id": 810308,
    "value": "Alusi Krawain",
    "postal_code": "97461"
  },
  {
    "id": 810308,
    "province_id": 81,
    "regency_id": 8103,
    "district_id": 810308,
    "value": "Alusi Tamrian",
    "postal_code": "97461"
  },
  {
    "id": 810308,
    "province_id": 81,
    "regency_id": 8103,
    "district_id": 810308,
    "value": "Kilmasa",
    "postal_code": "97461"
  },
  {
    "id": 810308,
    "province_id": 81,
    "regency_id": 8103,
    "district_id": 810308,
    "value": "Lorwembun",
    "postal_code": "97461"
  },
  {
    "id": 810308,
    "province_id": 81,
    "regency_id": 8103,
    "district_id": 810308,
    "value": "Lumasebu",
    "postal_code": "97461"
  },
  {
    "id": 810308,
    "province_id": 81,
    "regency_id": 8103,
    "district_id": 810308,
    "value": "Meyano Bab",
    "postal_code": "97461"
  },
  {
    "id": 810308,
    "province_id": 81,
    "regency_id": 8103,
    "district_id": 810308,
    "value": "Meyano Das",
    "postal_code": "97461"
  }
]