[
  {
    "id": 7402101001,
    "province_id": 74,
    "regency_id": 7402,
    "district_id": 740210,
    "value": "Abuki",
    "postal_code": "93452"
  },
  {
    "id": 7402102042,
    "province_id": 74,
    "regency_id": 7402,
    "district_id": 740210,
    "value": "Anggoro",
    "postal_code": "93452"
  },
  {
    "id": 7402102039,
    "province_id": 74,
    "regency_id": 7402,
    "district_id": 740210,
    "value": "Arubia Jaya",
    "postal_code": "93452"
  },
  {
    "id": 7402102008,
    "province_id": 74,
    "regency_id": 7402,
    "district_id": 740210,
    "value": "Asolu",
    "postal_code": "93452"
  },
  {
    "id": 7402102015,
    "province_id": 74,
    "regency_id": 7402,
    "district_id": 740210,
    "value": "Epeea (Epeeya)",
    "postal_code": "93452"
  },
  {
    "id": 7402102038,
    "province_id": 74,
    "regency_id": 7402,
    "district_id": 740210,
    "value": "Kasuwura Indah",
    "postal_code": "93452"
  },
  {
    "id": 7402102024,
    "province_id": 74,
    "regency_id": 7402,
    "district_id": 740210,
    "value": "Kumapo",
    "postal_code": "93452"
  },
  {
    "id": 7402102040,
    "province_id": 74,
    "regency_id": 7402,
    "district_id": 740210,
    "value": "Padangguni Utama",
    "postal_code": "93452"
  },
  {
    "id": 7402102009,
    "province_id": 74,
    "regency_id": 7402,
    "district_id": 740210,
    "value": "Punggaluku",
    "postal_code": "93452"
  },
  {
    "id": 7402102007,
    "province_id": 74,
    "regency_id": 7402,
    "district_id": 740210,
    "value": "Sambeani",
    "postal_code": "93452"
  },
  {
    "id": 7402102035,
    "province_id": 74,
    "regency_id": 7402,
    "district_id": 740210,
    "value": "Unaasi Jaya",
    "postal_code": "93452"
  },
  {
    "id": 7402102012,
    "province_id": 74,
    "regency_id": 7402,
    "district_id": 740210,
    "value": "Walay",
    "postal_code": "93452"
  }
]