[
  {
    "id": 321226,
    "province_id": 32,
    "regency_id": 3212,
    "district_id": 321226,
    "value": "Cibereng",
    "postal_code": "45260"
  },
  {
    "id": 321226,
    "province_id": 32,
    "regency_id": 3212,
    "district_id": 321226,
    "value": "Cikawung",
    "postal_code": "45260"
  },
  {
    "id": 321226,
    "province_id": 32,
    "regency_id": 3212,
    "district_id": 321226,
    "value": "Jatimulya",
    "postal_code": "45260"
  },
  {
    "id": 321226,
    "province_id": 32,
    "regency_id": 3212,
    "district_id": 321226,
    "value": "Jatimunggul",
    "postal_code": "45260"
  },
  {
    "id": 321226,
    "province_id": 32,
    "regency_id": 3212,
    "district_id": 321226,
    "value": "Karangasem",
    "postal_code": "45260"
  },
  {
    "id": 321226,
    "province_id": 32,
    "regency_id": 3212,
    "district_id": 321226,
    "value": "Kendayakan",
    "postal_code": "45260"
  },
  {
    "id": 321226,
    "province_id": 32,
    "regency_id": 3212,
    "district_id": 321226,
    "value": "Manggungan",
    "postal_code": "45260"
  },
  {
    "id": 321226,
    "province_id": 32,
    "regency_id": 3212,
    "district_id": 321226,
    "value": "Plosokerep",
    "postal_code": "45260"
  },
  {
    "id": 321226,
    "province_id": 32,
    "regency_id": 3212,
    "district_id": 321226,
    "value": "Rajasinga",
    "postal_code": "45260"
  }
]