[
  {
    "id": 950314,
    "province_id": 95,
    "regency_id": 9503,
    "district_id": 950314,
    "value": "Dugumhad",
    "postal_code": "99703"
  },
  {
    "id": 950314,
    "province_id": 95,
    "regency_id": 9503,
    "district_id": 950314,
    "value": "Hogio Dua / II",
    "postal_code": "99703"
  },
  {
    "id": 950314,
    "province_id": 95,
    "regency_id": 9503,
    "district_id": 950314,
    "value": "Hogio Satu / I",
    "postal_code": "99703"
  },
  {
    "id": 950314,
    "province_id": 95,
    "regency_id": 9503,
    "district_id": 950314,
    "value": "Leleak",
    "postal_code": "99703"
  },
  {
    "id": 950314,
    "province_id": 95,
    "regency_id": 9503,
    "district_id": 950314,
    "value": "Paima",
    "postal_code": "99703"
  },
  {
    "id": 950314,
    "province_id": 95,
    "regency_id": 9503,
    "district_id": 950314,
    "value": "Sengsenagaik",
    "postal_code": "99703"
  },
  {
    "id": 950314,
    "province_id": 95,
    "regency_id": 9503,
    "district_id": 950314,
    "value": "Sipnidipmu",
    "postal_code": "99703"
  },
  {
    "id": 950314,
    "province_id": 95,
    "regency_id": 9503,
    "district_id": 950314,
    "value": "Subsal",
    "postal_code": "99703"
  }
]