[
  {
    "id": 3205122001,
    "province_id": 32,
    "regency_id": 3205,
    "district_id": 320512,
    "value": "Cibatu",
    "postal_code": "44185"
  },
  {
    "id": 3205122003,
    "province_id": 32,
    "regency_id": 3205,
    "district_id": 320512,
    "value": "Cibunar",
    "postal_code": "44185"
  },
  {
    "id": 3205122009,
    "province_id": 32,
    "regency_id": 3205,
    "district_id": 320512,
    "value": "Girimukti",
    "postal_code": "44185"
  },
  {
    "id": 3205122008,
    "province_id": 32,
    "regency_id": 3205,
    "district_id": 320512,
    "value": "Karyamukti",
    "postal_code": "44185"
  },
  {
    "id": 3205122010,
    "province_id": 32,
    "regency_id": 3205,
    "district_id": 320512,
    "value": "Keresek",
    "postal_code": "44185"
  },
  {
    "id": 3205122005,
    "province_id": 32,
    "regency_id": 3205,
    "district_id": 320512,
    "value": "Kertajaya",
    "postal_code": "44185"
  },
  {
    "id": 3205122002,
    "province_id": 32,
    "regency_id": 3205,
    "district_id": 320512,
    "value": "Mekarsari",
    "postal_code": "44185"
  },
  {
    "id": 3205122007,
    "province_id": 32,
    "regency_id": 3205,
    "district_id": 320512,
    "value": "Padasuka",
    "postal_code": "44185"
  },
  {
    "id": 3205122004,
    "province_id": 32,
    "regency_id": 3205,
    "district_id": 320512,
    "value": "Sindangsuka",
    "postal_code": "44185"
  },
  {
    "id": 3205122006,
    "province_id": 32,
    "regency_id": 3205,
    "district_id": 320512,
    "value": "Sukalilah",
    "postal_code": "44185"
  },
  {
    "id": 3205122011,
    "province_id": 32,
    "regency_id": 3205,
    "district_id": 320512,
    "value": "Wanakerta",
    "postal_code": "44185"
  }
]