[
  {
    "id": 1809052001,
    "province_id": 18,
    "regency_id": 1809,
    "district_id": 180905,
    "value": "Banjaran",
    "postal_code": "35451"
  },
  {
    "id": 1809052032,
    "province_id": 18,
    "regency_id": 1809,
    "district_id": 180905,
    "value": "Dantar",
    "postal_code": "35451"
  },
  {
    "id": 1809052004,
    "province_id": 18,
    "regency_id": 1809,
    "district_id": 180905,
    "value": "Durian",
    "postal_code": "35451"
  },
  {
    "id": 1809052031,
    "province_id": 18,
    "regency_id": 1809,
    "district_id": 180905,
    "value": "Gayau",
    "postal_code": "35451"
  },
  {
    "id": 1809052009,
    "province_id": 18,
    "regency_id": 1809,
    "district_id": 180905,
    "value": "Hanau Berak",
    "postal_code": "35451"
  },
  {
    "id": 1809052025,
    "province_id": 18,
    "regency_id": 1809,
    "district_id": 180905,
    "value": "Khepong Jaya",
    "postal_code": "35451"
  },
  {
    "id": 1809052011,
    "province_id": 18,
    "regency_id": 1809,
    "district_id": 180905,
    "value": "Padang Cermin",
    "postal_code": "35451"
  },
  {
    "id": 1809052010,
    "province_id": 18,
    "regency_id": 1809,
    "district_id": 180905,
    "value": "Paya",
    "postal_code": "35451"
  },
  {
    "id": 1809052012,
    "province_id": 18,
    "regency_id": 1809,
    "district_id": 180905,
    "value": "Sanggi",
    "postal_code": "35451"
  },
  {
    "id": 1809052016,
    "province_id": 18,
    "regency_id": 1809,
    "district_id": 180905,
    "value": "Tambangan",
    "postal_code": "35451"
  },
  {
    "id": 1809052026,
    "province_id": 18,
    "regency_id": 1809,
    "district_id": 180905,
    "value": "Trimulyo",
    "postal_code": "35451"
  },
  {
    "id": 1809052017,
    "province_id": 18,
    "regency_id": 1809,
    "district_id": 180905,
    "value": "Way Urang",
    "postal_code": "35451"
  }
]