[
  {
    "id": 180522,
    "province_id": 18,
    "regency_id": 1805,
    "district_id": 180522,
    "value": "Andalas Cermin",
    "postal_code": "34594"
  },
  {
    "id": 180522,
    "province_id": 18,
    "regency_id": 1805,
    "district_id": 180522,
    "value": "Batang Hari",
    "postal_code": "34594"
  },
  {
    "id": 180522,
    "province_id": 18,
    "regency_id": 1805,
    "district_id": 180522,
    "value": "Bumi Sari",
    "postal_code": "34594"
  },
  {
    "id": 180522,
    "province_id": 18,
    "regency_id": 1805,
    "district_id": 180522,
    "value": "Gedung Jaya",
    "postal_code": "34594"
  },
  {
    "id": 180522,
    "province_id": 18,
    "regency_id": 1805,
    "district_id": 180522,
    "value": "Mulyo Dadi",
    "postal_code": "34594"
  },
  {
    "id": 180522,
    "province_id": 18,
    "regency_id": 1805,
    "district_id": 180522,
    "value": "Panggung Mulya (Panggung Mulyo)",
    "postal_code": "34594"
  },
  {
    "id": 180522,
    "province_id": 18,
    "regency_id": 1805,
    "district_id": 180522,
    "value": "Rawa Ragil",
    "postal_code": "34594"
  },
  {
    "id": 180522,
    "province_id": 18,
    "regency_id": 1805,
    "district_id": 180522,
    "value": "Sumber Agung",
    "postal_code": "34594"
  },
  {
    "id": 180522,
    "province_id": 18,
    "regency_id": 1805,
    "district_id": 180522,
    "value": "Yoso Mulyo (Duto Yoso Mulyo)",
    "postal_code": "34594"
  }
]