[
  {
    "id": 1871041007,
    "province_id": 18,
    "regency_id": 1871,
    "district_id": 187104,
    "value": "Karang Maritim",
    "postal_code": "35245"
  },
  {
    "id": 1871041009,
    "province_id": 18,
    "regency_id": 1871,
    "district_id": 187104,
    "value": "Ketapang",
    "postal_code": "35245"
  },
  {
    "id": 1871041010,
    "province_id": 18,
    "regency_id": 1871,
    "district_id": 187104,
    "value": "Ketapang Kuala",
    "postal_code": "35246"
  },
  {
    "id": 1871041001,
    "province_id": 18,
    "regency_id": 1871,
    "district_id": 187104,
    "value": "Panjang Selatan",
    "postal_code": "35243"
  },
  {
    "id": 1871041003,
    "province_id": 18,
    "regency_id": 1871,
    "district_id": 187104,
    "value": "Panjang Utara",
    "postal_code": "35241"
  },
  {
    "id": 1871041004,
    "province_id": 18,
    "regency_id": 1871,
    "district_id": 187104,
    "value": "Pidada",
    "postal_code": "35241"
  },
  {
    "id": 1871041002,
    "province_id": 18,
    "regency_id": 1871,
    "district_id": 187104,
    "value": "Srengsem",
    "postal_code": "35242"
  },
  {
    "id": 1871041008,
    "province_id": 18,
    "regency_id": 1871,
    "district_id": 187104,
    "value": "Way Lunik",
    "postal_code": "35244"
  }
]