[
  {
    "id": 3271061011,
    "province_id": 32,
    "regency_id": 3271,
    "district_id": 327106,
    "value": "Cibadak",
    "postal_code": "16166"
  },
  {
    "id": 3271061010,
    "province_id": 32,
    "regency_id": 3271,
    "district_id": 327106,
    "value": "Kayu Manis (Kayumanis)",
    "postal_code": "16169"
  },
  {
    "id": 3271061002,
    "province_id": 32,
    "regency_id": 3271,
    "district_id": 327106,
    "value": "Kebon Pedes",
    "postal_code": "16162"
  },
  {
    "id": 3271061003,
    "province_id": 32,
    "regency_id": 3271,
    "district_id": 327106,
    "value": "Kedung Badak",
    "postal_code": "16164"
  },
  {
    "id": 3271061006,
    "province_id": 32,
    "regency_id": 3271,
    "district_id": 327106,
    "value": "Kedung Jaya",
    "postal_code": "16164"
  },
  {
    "id": 3271061005,
    "province_id": 32,
    "regency_id": 3271,
    "district_id": 327106,
    "value": "Kedung Waringin",
    "postal_code": "16164"
  },
  {
    "id": 3271061009,
    "province_id": 32,
    "regency_id": 3271,
    "district_id": 327106,
    "value": "Kencana",
    "postal_code": "16167"
  },
  {
    "id": 3271061008,
    "province_id": 32,
    "regency_id": 3271,
    "district_id": 327106,
    "value": "Mekar Wangi (Mekarwangi)",
    "postal_code": "16168"
  },
  {
    "id": 3271061007,
    "province_id": 32,
    "regency_id": 3271,
    "district_id": 327106,
    "value": "Sukadamai",
    "postal_code": "16165"
  },
  {
    "id": 3271061004,
    "province_id": 32,
    "regency_id": 3271,
    "district_id": 327106,
    "value": "Sukaresmi",
    "postal_code": "16165"
  },
  {
    "id": 3271061001,
    "province_id": 32,
    "regency_id": 3271,
    "district_id": 327106,
    "value": "Tanah Sareal",
    "postal_code": "16161"
  }
]