[
  {
    "id": 730202,
    "province_id": 73,
    "regency_id": 7302,
    "district_id": 730202,
    "value": "Bentengnge",
    "postal_code": "92511"
  },
  {
    "id": 730202,
    "province_id": 73,
    "regency_id": 7302,
    "district_id": 730202,
    "value": "Bintarore",
    "postal_code": "92514"
  },
  {
    "id": 730202,
    "province_id": 73,
    "regency_id": 7302,
    "district_id": 730202,
    "value": "Caile",
    "postal_code": "92517"
  },
  {
    "id": 730202,
    "province_id": 73,
    "regency_id": 7302,
    "district_id": 730202,
    "value": "Ela-Ela",
    "postal_code": "92511"
  },
  {
    "id": 730202,
    "province_id": 73,
    "regency_id": 7302,
    "district_id": 730202,
    "value": "Kalumeme",
    "postal_code": "92518"
  },
  {
    "id": 730202,
    "province_id": 73,
    "regency_id": 7302,
    "district_id": 730202,
    "value": "Kasimpureng",
    "postal_code": "92511"
  },
  {
    "id": 730202,
    "province_id": 73,
    "regency_id": 7302,
    "district_id": 730202,
    "value": "L O K A (Loka)",
    "postal_code": "92511"
  },
  {
    "id": 730202,
    "province_id": 73,
    "regency_id": 7302,
    "district_id": 730202,
    "value": "Tanah Kongkong",
    "postal_code": "92513"
  },
  {
    "id": 730202,
    "province_id": 73,
    "regency_id": 7302,
    "district_id": 730202,
    "value": "Terang-Terang",
    "postal_code": "92511"
  }
]