[
  {
    "id": 320132,
    "province_id": 32,
    "regency_id": 3201,
    "district_id": 320132,
    "value": "Bantar Jati",
    "postal_code": "16710"
  },
  {
    "id": 320132,
    "province_id": 32,
    "regency_id": 3201,
    "district_id": 320132,
    "value": "Bojong",
    "postal_code": "16710"
  },
  {
    "id": 320132,
    "province_id": 32,
    "regency_id": 3201,
    "district_id": 320132,
    "value": "Cikahuripan",
    "postal_code": "16710"
  },
  {
    "id": 320132,
    "province_id": 32,
    "regency_id": 3201,
    "district_id": 320132,
    "value": "Kembang Kuning",
    "postal_code": "16710"
  },
  {
    "id": 320132,
    "province_id": 32,
    "regency_id": 3201,
    "district_id": 320132,
    "value": "Klapanunggal",
    "postal_code": "16710"
  },
  {
    "id": 320132,
    "province_id": 32,
    "regency_id": 3201,
    "district_id": 320132,
    "value": "Leuwikaret",
    "postal_code": "16710"
  },
  {
    "id": 320132,
    "province_id": 32,
    "regency_id": 3201,
    "district_id": 320132,
    "value": "Ligarmukti",
    "postal_code": "16710"
  },
  {
    "id": 320132,
    "province_id": 32,
    "regency_id": 3201,
    "district_id": 320132,
    "value": "Lulut",
    "postal_code": "16710"
  },
  {
    "id": 320132,
    "province_id": 32,
    "regency_id": 3201,
    "district_id": 320132,
    "value": "Nambo",
    "postal_code": "16710"
  }
]