[
  {
    "id": 317303,
    "province_id": 31,
    "regency_id": 3173,
    "district_id": 317303,
    "value": "Glodok",
    "postal_code": "11120"
  },
  {
    "id": 317303,
    "province_id": 31,
    "regency_id": 3173,
    "district_id": 317303,
    "value": "Keagungan",
    "postal_code": "11130"
  },
  {
    "id": 317303,
    "province_id": 31,
    "regency_id": 3173,
    "district_id": 317303,
    "value": "Krukut",
    "postal_code": "11140"
  },
  {
    "id": 317303,
    "province_id": 31,
    "regency_id": 3173,
    "district_id": 317303,
    "value": "Mangga Besar",
    "postal_code": "11180"
  },
  {
    "id": 317303,
    "province_id": 31,
    "regency_id": 3173,
    "district_id": 317303,
    "value": "Maphar",
    "postal_code": "11160"
  },
  {
    "id": 317303,
    "province_id": 31,
    "regency_id": 3173,
    "district_id": 317303,
    "value": "Pinangsia",
    "postal_code": "11110"
  },
  {
    "id": 317303,
    "province_id": 31,
    "regency_id": 3173,
    "district_id": 317303,
    "value": "Taman Sari",
    "postal_code": "11150"
  },
  {
    "id": 317303,
    "province_id": 31,
    "regency_id": 3173,
    "district_id": 317303,
    "value": "Tangki",
    "postal_code": "11170"
  }
]