[
  {
    "id": 732608,
    "province_id": 73,
    "regency_id": 7326,
    "district_id": 732608,
    "value": "Langda",
    "postal_code": "91850"
  },
  {
    "id": 732608,
    "province_id": 73,
    "regency_id": 7326,
    "district_id": 732608,
    "value": "Marante",
    "postal_code": "91850"
  },
  {
    "id": 732608,
    "province_id": 73,
    "regency_id": 7326,
    "district_id": 732608,
    "value": "Nonongan Selatan",
    "postal_code": "91850"
  },
  {
    "id": 732608,
    "province_id": 73,
    "regency_id": 7326,
    "district_id": 732608,
    "value": "Nonongan Utara",
    "postal_code": "91850"
  },
  {
    "id": 732608,
    "province_id": 73,
    "regency_id": 7326,
    "district_id": 732608,
    "value": "Salu",
    "postal_code": "91850"
  },
  {
    "id": 732608,
    "province_id": 73,
    "regency_id": 7326,
    "district_id": 732608,
    "value": "Salu Sarre (Salu Rante)",
    "postal_code": "91850"
  },
  {
    "id": 732608,
    "province_id": 73,
    "regency_id": 7326,
    "district_id": 732608,
    "value": "Salu Sopai",
    "postal_code": "91850"
  },
  {
    "id": 732608,
    "province_id": 73,
    "regency_id": 7326,
    "district_id": 732608,
    "value": "Tombang Langda",
    "postal_code": "91850"
  }
]