[
  {
    "id": 6105152022,
    "province_id": 61,
    "regency_id": 6105,
    "district_id": 610515,
    "value": "Bukai Tukun",
    "postal_code": "78684"
  },
  {
    "id": 6105152021,
    "province_id": 61,
    "regency_id": 6105,
    "district_id": 610515,
    "value": "Bukit Tinggi",
    "postal_code": "78684"
  },
  {
    "id": 6105152006,
    "province_id": 61,
    "regency_id": 6105,
    "district_id": 610515,
    "value": "Buntut Pimpin",
    "postal_code": "78684"
  },
  {
    "id": 6105152012,
    "province_id": 61,
    "regency_id": 6105,
    "district_id": 610515,
    "value": "Buntut Purun",
    "postal_code": "78684"
  },
  {
    "id": 6105152009,
    "province_id": 61,
    "regency_id": 6105,
    "district_id": 610515,
    "value": "Buntut Sabon",
    "postal_code": "78684"
  },
  {
    "id": 6105152019,
    "province_id": 61,
    "regency_id": 6105,
    "district_id": 610515,
    "value": "Dahtah Bungai",
    "postal_code": "78684"
  },
  {
    "id": 6105152032,
    "province_id": 61,
    "regency_id": 6105,
    "district_id": 610515,
    "value": "Deme",
    "postal_code": "78684"
  },
  {
    "id": 6105152031,
    "province_id": 61,
    "regency_id": 6105,
    "district_id": 610515,
    "value": "Jengkarang",
    "postal_code": "78684"
  },
  {
    "id": 6105152007,
    "province_id": 61,
    "regency_id": 6105,
    "district_id": 610515,
    "value": "Kepala Jungai",
    "postal_code": "78684"
  },
  {
    "id": 6105152029,
    "province_id": 61,
    "regency_id": 6105,
    "district_id": 610515,
    "value": "Kolangan Juoi",
    "postal_code": "78684"
  },
  {
    "id": 6105152027,
    "province_id": 61,
    "regency_id": 6105,
    "district_id": 610515,
    "value": "Korong Daso",
    "postal_code": "78684"
  },
  {
    "id": 6105152020,
    "province_id": 61,
    "regency_id": 6105,
    "district_id": 610515,
    "value": "Lunjan Tingang",
    "postal_code": "78684"
  },
  {
    "id": 6105152028,
    "province_id": 61,
    "regency_id": 6105,
    "district_id": 610515,
    "value": "Luting Mingan",
    "postal_code": "78684"
  },
  {
    "id": 6105152018,
    "province_id": 61,
    "regency_id": 6105,
    "district_id": 610515,
    "value": "Mensuang",
    "postal_code": "78684"
  },
  {
    "id": 6105152002,
    "province_id": 61,
    "regency_id": 6105,
    "district_id": 610515,
    "value": "Nanga Ambalau",
    "postal_code": "78684"
  },
  {
    "id": 6105152001,
    "province_id": 61,
    "regency_id": 6105,
    "district_id": 610515,
    "value": "Nanga Kemangai",
    "postal_code": "78684"
  },
  {
    "id": 6105152010,
    "province_id": 61,
    "regency_id": 6105,
    "district_id": 610515,
    "value": "Nanga Keremoi",
    "postal_code": "78684"
  },
  {
    "id": 6105152003,
    "province_id": 61,
    "regency_id": 6105,
    "district_id": 610515,
    "value": "Nanga Kesange",
    "postal_code": "78684"
  },
  {
    "id": 6105152004,
    "province_id": 61,
    "regency_id": 6105,
    "district_id": 610515,
    "value": "Nanga Menakon",
    "postal_code": "78684"
  },
  {
    "id": 6105152011,
    "province_id": 61,
    "regency_id": 6105,
    "district_id": 610515,
    "value": "Nanga Menantak",
    "postal_code": "78684"
  },
  {
    "id": 6105152014,
    "province_id": 61,
    "regency_id": 6105,
    "district_id": 610515,
    "value": "Nanga Mentomoi",
    "postal_code": "78684"
  },
  {
    "id": 6105152033,
    "province_id": 61,
    "regency_id": 6105,
    "district_id": 610515,
    "value": "Nanga Pahangan",
    "postal_code": "78684"
  },
  {
    "id": 6105152030,
    "province_id": 61,
    "regency_id": 6105,
    "district_id": 610515,
    "value": "Nanga Rade",
    "postal_code": "78684"
  },
  {
    "id": 6105152013,
    "province_id": 61,
    "regency_id": 6105,
    "district_id": 610515,
    "value": "Nanga Sakai",
    "postal_code": "78684"
  },
  {
    "id": 6105152005,
    "province_id": 61,
    "regency_id": 6105,
    "district_id": 610515,
    "value": "Nanga Sake",
    "postal_code": "78684"
  },
  {
    "id": 6105152017,
    "province_id": 61,
    "regency_id": 6105,
    "district_id": 610515,
    "value": "Nanga Ukai",
    "postal_code": "78684"
  },
  {
    "id": 6105152023,
    "province_id": 61,
    "regency_id": 6105,
    "district_id": 610515,
    "value": "Nusa Poring",
    "postal_code": "78684"
  },
  {
    "id": 6105152026,
    "province_id": 61,
    "regency_id": 6105,
    "district_id": 610515,
    "value": "Patih Jepara",
    "postal_code": "78684"
  },
  {
    "id": 6105152025,
    "province_id": 61,
    "regency_id": 6105,
    "district_id": 610515,
    "value": "Pulou Sabhang",
    "postal_code": "78684"
  },
  {
    "id": 6105152024,
    "province_id": 61,
    "regency_id": 6105,
    "district_id": 610515,
    "value": "Purut Beribit",
    "postal_code": "78684"
  },
  {
    "id": 6105152016,
    "province_id": 61,
    "regency_id": 6105,
    "district_id": 610515,
    "value": "Riam Sabon",
    "postal_code": "78684"
  },
  {
    "id": 6105152015,
    "province_id": 61,
    "regency_id": 6105,
    "district_id": 610515,
    "value": "Sungai Tambun",
    "postal_code": "78684"
  },
  {
    "id": 6105152008,
    "province_id": 61,
    "regency_id": 6105,
    "district_id": 610515,
    "value": "Tanjung Andan",
    "postal_code": "78684"
  }
]