[
  {
    "id": 121425,
    "province_id": 12,
    "regency_id": 1214,
    "district_id": 121425,
    "value": "Hilidohona",
    "postal_code": "22874"
  },
  {
    "id": 121425,
    "province_id": 12,
    "regency_id": 1214,
    "district_id": 121425,
    "value": "Hililaora",
    "postal_code": "22874"
  },
  {
    "id": 121425,
    "province_id": 12,
    "regency_id": 1214,
    "district_id": 121425,
    "value": "Hilisao'oto",
    "postal_code": "22874"
  },
  {
    "id": 121425,
    "province_id": 12,
    "regency_id": 1214,
    "district_id": 121425,
    "value": "Hilizanuwo",
    "postal_code": "22874"
  },
  {
    "id": 121425,
    "province_id": 12,
    "regency_id": 1214,
    "district_id": 121425,
    "value": "Hoya",
    "postal_code": "22874"
  },
  {
    "id": 121425,
    "province_id": 12,
    "regency_id": 1214,
    "district_id": 121425,
    "value": "Mondrowe",
    "postal_code": "22874"
  },
  {
    "id": 121425,
    "province_id": 12,
    "regency_id": 1214,
    "district_id": 121425,
    "value": "Na'ai",
    "postal_code": "22874"
  },
  {
    "id": 121425,
    "province_id": 12,
    "regency_id": 1214,
    "district_id": 121425,
    "value": "Olanori",
    "postal_code": "22874"
  },
  {
    "id": 121425,
    "province_id": 12,
    "regency_id": 1214,
    "district_id": 121425,
    "value": "Taluzusua",
    "postal_code": "22874"
  },
  {
    "id": 121425,
    "province_id": 12,
    "regency_id": 1214,
    "district_id": 121425,
    "value": "Uluidanoduo",
    "postal_code": "22874"
  },
  {
    "id": 121425,
    "province_id": 12,
    "regency_id": 1214,
    "district_id": 121425,
    "value": "Umbu Sohahau (Umbu Sohahua)",
    "postal_code": "22874"
  }
]