[
  {
    "id": 160717,
    "province_id": 16,
    "regency_id": 1607,
    "district_id": 160717,
    "value": "Lalang Sembawa",
    "postal_code": "30953"
  },
  {
    "id": 160717,
    "province_id": 16,
    "regency_id": 1607,
    "district_id": 160717,
    "value": "Limau",
    "postal_code": "30953"
  },
  {
    "id": 160717,
    "province_id": 16,
    "regency_id": 1607,
    "district_id": 160717,
    "value": "Limbang Mulia (Limbang Mulya)",
    "postal_code": "30953"
  },
  {
    "id": 160717,
    "province_id": 16,
    "regency_id": 1607,
    "district_id": 160717,
    "value": "Mainan",
    "postal_code": "30953"
  },
  {
    "id": 160717,
    "province_id": 16,
    "regency_id": 1607,
    "district_id": 160717,
    "value": "Muaradamai (Muara Damai)",
    "postal_code": "30953"
  },
  {
    "id": 160717,
    "province_id": 16,
    "regency_id": 1607,
    "district_id": 160717,
    "value": "Pulauharapan (Pulau Harapan)",
    "postal_code": "30953"
  },
  {
    "id": 160717,
    "province_id": 16,
    "regency_id": 1607,
    "district_id": 160717,
    "value": "Pulaumuning (Pulau Muning)",
    "postal_code": "30953"
  },
  {
    "id": 160717,
    "province_id": 16,
    "regency_id": 1607,
    "district_id": 160717,
    "value": "Purwo Sari (Purwosari)",
    "postal_code": "30953"
  },
  {
    "id": 160717,
    "province_id": 16,
    "regency_id": 1607,
    "district_id": 160717,
    "value": "Rejodadi",
    "postal_code": "30953"
  },
  {
    "id": 160717,
    "province_id": 16,
    "regency_id": 1607,
    "district_id": 160717,
    "value": "Sako Makmur (Suka Makmur)",
    "postal_code": "30953"
  },
  {
    "id": 160717,
    "province_id": 16,
    "regency_id": 1607,
    "district_id": 160717,
    "value": "Santan Sari (Santansari)",
    "postal_code": "30953"
  }
]