[
  {
    "id": 531402,
    "province_id": 53,
    "regency_id": 5314,
    "district_id": 531402,
    "value": "Busalangga",
    "postal_code": "85981"
  },
  {
    "id": 531402,
    "province_id": 53,
    "regency_id": 5314,
    "district_id": 531402,
    "value": "Busalangga Barat",
    "postal_code": "85981"
  },
  {
    "id": 531402,
    "province_id": 53,
    "regency_id": 5314,
    "district_id": 531402,
    "value": "Busalangga Timur",
    "postal_code": "85981"
  },
  {
    "id": 531402,
    "province_id": 53,
    "regency_id": 5314,
    "district_id": 531402,
    "value": "Daudolu",
    "postal_code": "85981"
  },
  {
    "id": 531402,
    "province_id": 53,
    "regency_id": 5314,
    "district_id": 531402,
    "value": "Hundihuk",
    "postal_code": "85981"
  },
  {
    "id": 531402,
    "province_id": 53,
    "regency_id": 5314,
    "district_id": 531402,
    "value": "Ingguinak",
    "postal_code": "85981"
  },
  {
    "id": 531402,
    "province_id": 53,
    "regency_id": 5314,
    "district_id": 531402,
    "value": "Modosinal",
    "postal_code": "85981"
  },
  {
    "id": 531402,
    "province_id": 53,
    "regency_id": 5314,
    "district_id": 531402,
    "value": "Netenaen",
    "postal_code": "85981"
  },
  {
    "id": 531402,
    "province_id": 53,
    "regency_id": 5314,
    "district_id": 531402,
    "value": "Oetutulu",
    "postal_code": "85981"
  },
  {
    "id": 531402,
    "province_id": 53,
    "regency_id": 5314,
    "district_id": 531402,
    "value": "Saindule",
    "postal_code": "85981"
  },
  {
    "id": 531402,
    "province_id": 53,
    "regency_id": 5314,
    "district_id": 531402,
    "value": "Temas",
    "postal_code": "85981"
  },
  {
    "id": 531402,
    "province_id": 53,
    "regency_id": 5314,
    "district_id": 531402,
    "value": "Tualima",
    "postal_code": "85981"
  }
]