[
  {
    "id": 940203,
    "province_id": 94,
    "regency_id": 9402,
    "district_id": 940203,
    "value": "Bakusi",
    "postal_code": "98942"
  },
  {
    "id": 940203,
    "province_id": 94,
    "regency_id": 9402,
    "district_id": 940203,
    "value": "Biricare",
    "postal_code": "98942"
  },
  {
    "id": 940203,
    "province_id": 94,
    "regency_id": 9402,
    "district_id": 940203,
    "value": "Dorey",
    "postal_code": "98942"
  },
  {
    "id": 940203,
    "province_id": 94,
    "regency_id": 9402,
    "district_id": 940203,
    "value": "Evo",
    "postal_code": "98942"
  },
  {
    "id": 940203,
    "province_id": 94,
    "regency_id": 9402,
    "district_id": 940203,
    "value": "Fawi",
    "postal_code": "98942"
  },
  {
    "id": 940203,
    "province_id": 94,
    "regency_id": 9402,
    "district_id": 940203,
    "value": "Fii",
    "postal_code": "98942"
  },
  {
    "id": 940203,
    "province_id": 94,
    "regency_id": 9402,
    "district_id": 940203,
    "value": "Kaho",
    "postal_code": "98942"
  },
  {
    "id": 940203,
    "province_id": 94,
    "regency_id": 9402,
    "district_id": 940203,
    "value": "Turumo",
    "postal_code": "98942"
  },
  {
    "id": 940203,
    "province_id": 94,
    "regency_id": 9402,
    "district_id": 940203,
    "value": "Yerei",
    "postal_code": "98942"
  }
]