[
  {
    "id": 331411,
    "province_id": 33,
    "regency_id": 3314,
    "district_id": 331411,
    "value": "Bentak",
    "postal_code": "57281"
  },
  {
    "id": 331411,
    "province_id": 33,
    "regency_id": 3314,
    "district_id": 331411,
    "value": "Duyungan",
    "postal_code": "57281"
  },
  {
    "id": 331411,
    "province_id": 33,
    "regency_id": 3314,
    "district_id": 331411,
    "value": "Jambanan",
    "postal_code": "57281"
  },
  {
    "id": 331411,
    "province_id": 33,
    "regency_id": 3314,
    "district_id": 331411,
    "value": "Jetak",
    "postal_code": "57281"
  },
  {
    "id": 331411,
    "province_id": 33,
    "regency_id": 3314,
    "district_id": 331411,
    "value": "Pandak",
    "postal_code": "57281"
  },
  {
    "id": 331411,
    "province_id": 33,
    "regency_id": 3314,
    "district_id": 331411,
    "value": "Patihan",
    "postal_code": "57281"
  },
  {
    "id": 331411,
    "province_id": 33,
    "regency_id": 3314,
    "district_id": 331411,
    "value": "Purwosuman",
    "postal_code": "57281"
  },
  {
    "id": 331411,
    "province_id": 33,
    "regency_id": 3314,
    "district_id": 331411,
    "value": "Sidoharjo",
    "postal_code": "57281"
  },
  {
    "id": 331411,
    "province_id": 33,
    "regency_id": 3314,
    "district_id": 331411,
    "value": "Singopadu",
    "postal_code": "57281"
  },
  {
    "id": 331411,
    "province_id": 33,
    "regency_id": 3314,
    "district_id": 331411,
    "value": "Sribit",
    "postal_code": "57281"
  },
  {
    "id": 331411,
    "province_id": 33,
    "regency_id": 3314,
    "district_id": 331411,
    "value": "Taraman",
    "postal_code": "57281"
  },
  {
    "id": 331411,
    "province_id": 33,
    "regency_id": 3314,
    "district_id": 331411,
    "value": "Tenggak",
    "postal_code": "57281"
  }
]