[
  {
    "id": 190406,
    "province_id": 19,
    "regency_id": 1904,
    "district_id": 190406,
    "value": "Batu Beriga",
    "postal_code": "33682"
  },
  {
    "id": 190406,
    "province_id": 19,
    "regency_id": 1904,
    "district_id": 190406,
    "value": "Belimbing",
    "postal_code": "33682"
  },
  {
    "id": 190406,
    "province_id": 19,
    "regency_id": 1904,
    "district_id": 190406,
    "value": "Kulur",
    "postal_code": "33682"
  },
  {
    "id": 190406,
    "province_id": 19,
    "regency_id": 1904,
    "district_id": 190406,
    "value": "Kulur Ilir (Kulur Hilir)",
    "postal_code": "33682"
  },
  {
    "id": 190406,
    "province_id": 19,
    "regency_id": 1904,
    "district_id": 190406,
    "value": "Lubuk Besar",
    "postal_code": "33682"
  },
  {
    "id": 190406,
    "province_id": 19,
    "regency_id": 1904,
    "district_id": 190406,
    "value": "Lubuk Lingkuk",
    "postal_code": "33682"
  },
  {
    "id": 190406,
    "province_id": 19,
    "regency_id": 1904,
    "district_id": 190406,
    "value": "Lubuk Pabrik",
    "postal_code": "33682"
  },
  {
    "id": 190406,
    "province_id": 19,
    "regency_id": 1904,
    "district_id": 190406,
    "value": "Perlang",
    "postal_code": "33682"
  },
  {
    "id": 190406,
    "province_id": 19,
    "regency_id": 1904,
    "district_id": 190406,
    "value": "Trubus",
    "postal_code": "33682"
  }
]