[
  {
    "id": 520804,
    "province_id": 52,
    "regency_id": 5208,
    "district_id": 520804,
    "value": "Akat Akar (Akar Akar)",
    "postal_code": "83354"
  },
  {
    "id": 520804,
    "province_id": 52,
    "regency_id": 5208,
    "district_id": 520804,
    "value": "Andalan",
    "postal_code": "83354"
  },
  {
    "id": 520804,
    "province_id": 52,
    "regency_id": 5208,
    "district_id": 520804,
    "value": "Anyar",
    "postal_code": "83354"
  },
  {
    "id": 520804,
    "province_id": 52,
    "regency_id": 5208,
    "district_id": 520804,
    "value": "Batu Rakit",
    "postal_code": "83354"
  },
  {
    "id": 520804,
    "province_id": 52,
    "regency_id": 5208,
    "district_id": 520804,
    "value": "Bayan",
    "postal_code": "83354"
  },
  {
    "id": 520804,
    "province_id": 52,
    "regency_id": 5208,
    "district_id": 520804,
    "value": "Gunjan Asri",
    "postal_code": "83354"
  },
  {
    "id": 520804,
    "province_id": 52,
    "regency_id": 5208,
    "district_id": 520804,
    "value": "Karang Bajo",
    "postal_code": "83354"
  },
  {
    "id": 520804,
    "province_id": 52,
    "regency_id": 5208,
    "district_id": 520804,
    "value": "Loloan",
    "postal_code": "83354"
  },
  {
    "id": 520804,
    "province_id": 52,
    "regency_id": 5208,
    "district_id": 520804,
    "value": "Mumbul Sari",
    "postal_code": "83354"
  },
  {
    "id": 520804,
    "province_id": 52,
    "regency_id": 5208,
    "district_id": 520804,
    "value": "Sambik Elen",
    "postal_code": "83354"
  },
  {
    "id": 520804,
    "province_id": 52,
    "regency_id": 5208,
    "district_id": 520804,
    "value": "Senaru",
    "postal_code": "83354"
  },
  {
    "id": 520804,
    "province_id": 52,
    "regency_id": 5208,
    "district_id": 520804,
    "value": "Sukadana",
    "postal_code": "83354"
  }
]