[
  {
    "id": 9507222001,
    "province_id": 95,
    "regency_id": 9507,
    "district_id": 950722,
    "value": "Anitila",
    "postal_code": "99573"
  },
  {
    "id": 9507222007,
    "province_id": 95,
    "regency_id": 9507,
    "district_id": 950722,
    "value": "Bogogunik",
    "postal_code": "99573"
  },
  {
    "id": 9507222010,
    "province_id": 95,
    "regency_id": 9507,
    "district_id": 950722,
    "value": "Luagame",
    "postal_code": "99573"
  },
  {
    "id": 9507222003,
    "province_id": 95,
    "regency_id": 9507,
    "district_id": 950722,
    "value": "Lubutini",
    "postal_code": "99573"
  },
  {
    "id": 9507222002,
    "province_id": 95,
    "regency_id": 9507,
    "district_id": 950722,
    "value": "Nanim",
    "postal_code": "99573"
  },
  {
    "id": 9507222009,
    "province_id": 95,
    "regency_id": 9507,
    "district_id": 950722,
    "value": "Nindonak",
    "postal_code": "99573"
  },
  {
    "id": 9507222004,
    "province_id": 95,
    "regency_id": 9507,
    "district_id": 950722,
    "value": "Tikome",
    "postal_code": "99573"
  },
  {
    "id": 9507222006,
    "province_id": 95,
    "regency_id": 9507,
    "district_id": 950722,
    "value": "Tikoyowa",
    "postal_code": "99573"
  },
  {
    "id": 9507222008,
    "province_id": 95,
    "regency_id": 9507,
    "district_id": 950722,
    "value": "Wanggunom",
    "postal_code": "99573"
  }
]