[
  {
    "id": 3302112001,
    "province_id": 33,
    "regency_id": 3302,
    "district_id": 330211,
    "value": "Binangun",
    "postal_code": "53192"
  },
  {
    "id": 3302112006,
    "province_id": 33,
    "regency_id": 3302,
    "district_id": 330211,
    "value": "Danaraja",
    "postal_code": "53192"
  },
  {
    "id": 3302112011,
    "province_id": 33,
    "regency_id": 3302,
    "district_id": 330211,
    "value": "Dawuhan",
    "postal_code": "53192"
  },
  {
    "id": 3302112010,
    "province_id": 33,
    "regency_id": 3302,
    "district_id": 330211,
    "value": "Kalisube",
    "postal_code": "53192"
  },
  {
    "id": 3302112004,
    "province_id": 33,
    "regency_id": 3302,
    "district_id": 330211,
    "value": "Karangrau",
    "postal_code": "53192"
  },
  {
    "id": 3302112003,
    "province_id": 33,
    "regency_id": 3302,
    "district_id": 330211,
    "value": "Kedunggede",
    "postal_code": "53192"
  },
  {
    "id": 3302112007,
    "province_id": 33,
    "regency_id": 3302,
    "district_id": 330211,
    "value": "Kedunguter",
    "postal_code": "53192"
  },
  {
    "id": 3302112005,
    "province_id": 33,
    "regency_id": 3302,
    "district_id": 330211,
    "value": "Kejawar",
    "postal_code": "53192"
  },
  {
    "id": 3302112012,
    "province_id": 33,
    "regency_id": 3302,
    "district_id": 330211,
    "value": "Papringan",
    "postal_code": "53192"
  },
  {
    "id": 3302112002,
    "province_id": 33,
    "regency_id": 3302,
    "district_id": 330211,
    "value": "Pasinggangan",
    "postal_code": "53192"
  },
  {
    "id": 3302112009,
    "province_id": 33,
    "regency_id": 3302,
    "district_id": 330211,
    "value": "Pekunden",
    "postal_code": "53192"
  },
  {
    "id": 3302112008,
    "province_id": 33,
    "regency_id": 3302,
    "district_id": 330211,
    "value": "Sudagaran",
    "postal_code": "53192"
  }
]