[
  {
    "id": 740318,
    "province_id": 74,
    "regency_id": 7403,
    "district_id": 740318,
    "value": "Kondongia",
    "postal_code": "93626"
  },
  {
    "id": 740318,
    "province_id": 74,
    "regency_id": 7403,
    "district_id": 740318,
    "value": "Korihi",
    "postal_code": "93626"
  },
  {
    "id": 740318,
    "province_id": 74,
    "regency_id": 7403,
    "district_id": 740318,
    "value": "Lakarinta",
    "postal_code": "93626"
  },
  {
    "id": 740318,
    "province_id": 74,
    "regency_id": 7403,
    "district_id": 740318,
    "value": "Liangkobori",
    "postal_code": "93626"
  },
  {
    "id": 740318,
    "province_id": 74,
    "regency_id": 7403,
    "district_id": 740318,
    "value": "Loghiya",
    "postal_code": "93626"
  },
  {
    "id": 740318,
    "province_id": 74,
    "regency_id": 7403,
    "district_id": 740318,
    "value": "Lohia",
    "postal_code": "93626"
  },
  {
    "id": 740318,
    "province_id": 74,
    "regency_id": 7403,
    "district_id": 740318,
    "value": "Maabholu",
    "postal_code": "93626"
  },
  {
    "id": 740318,
    "province_id": 74,
    "regency_id": 7403,
    "district_id": 740318,
    "value": "Mantobua",
    "postal_code": "93626"
  },
  {
    "id": 740318,
    "province_id": 74,
    "regency_id": 7403,
    "district_id": 740318,
    "value": "Waara (Waarah)",
    "postal_code": "93626"
  }
]