[
  {
    "id": 7411092003,
    "province_id": 74,
    "regency_id": 7411,
    "district_id": 741109,
    "value": "Ambapa",
    "postal_code": "93570"
  },
  {
    "id": 7411092004,
    "province_id": 74,
    "regency_id": 7411,
    "district_id": 741109,
    "value": "Ameroro",
    "postal_code": "93570"
  },
  {
    "id": 7411092012,
    "province_id": 74,
    "regency_id": 7411,
    "district_id": 741109,
    "value": "Iwoimea",
    "postal_code": "93570"
  },
  {
    "id": 7411092005,
    "province_id": 74,
    "regency_id": 7411,
    "district_id": 741109,
    "value": "Lamunde",
    "postal_code": "93570"
  },
  {
    "id": 7411092010,
    "province_id": 74,
    "regency_id": 7411,
    "district_id": 741109,
    "value": "Singgere",
    "postal_code": "93570"
  },
  {
    "id": 7411092002,
    "province_id": 74,
    "regency_id": 7411,
    "district_id": 741109,
    "value": "Solewatu",
    "postal_code": "93570"
  },
  {
    "id": 7411092007,
    "province_id": 74,
    "regency_id": 7411,
    "district_id": 741109,
    "value": "Talata",
    "postal_code": "93570"
  },
  {
    "id": 7411092009,
    "province_id": 74,
    "regency_id": 7411,
    "district_id": 741109,
    "value": "Tawa-tawaro",
    "postal_code": "93570"
  },
  {
    "id": 7411092006,
    "province_id": 74,
    "regency_id": 7411,
    "district_id": 741109,
    "value": "Tawarombadaka",
    "postal_code": "93570"
  },
  {
    "id": 7411091001,
    "province_id": 74,
    "regency_id": 7411,
    "district_id": 741109,
    "value": "Tinengi",
    "postal_code": "93570"
  },
  {
    "id": 7411092011,
    "province_id": 74,
    "regency_id": 7411,
    "district_id": 741109,
    "value": "Tutuwi",
    "postal_code": "93570"
  },
  {
    "id": 7411092008,
    "province_id": 74,
    "regency_id": 7411,
    "district_id": 741109,
    "value": "Weamo",
    "postal_code": "93570"
  }
]