[
  {
    "id": 710319,
    "province_id": 71,
    "regency_id": 7103,
    "district_id": 710319,
    "value": "Aha Patung",
    "postal_code": "95859"
  },
  {
    "id": 710319,
    "province_id": 71,
    "regency_id": 7103,
    "district_id": 710319,
    "value": "Beeng",
    "postal_code": "95859"
  },
  {
    "id": 710319,
    "province_id": 71,
    "regency_id": 7103,
    "district_id": 710319,
    "value": "Beeng Laut",
    "postal_code": "95859"
  },
  {
    "id": 710319,
    "province_id": 71,
    "regency_id": 7103,
    "district_id": 710319,
    "value": "Bowone",
    "postal_code": "95859"
  },
  {
    "id": 710319,
    "province_id": 71,
    "regency_id": 7103,
    "district_id": 710319,
    "value": "Hangke",
    "postal_code": "95859"
  },
  {
    "id": 710319,
    "province_id": 71,
    "regency_id": 7103,
    "district_id": 710319,
    "value": "Lehupu",
    "postal_code": "95859"
  },
  {
    "id": 710319,
    "province_id": 71,
    "regency_id": 7103,
    "district_id": 710319,
    "value": "Salurang",
    "postal_code": "95859"
  },
  {
    "id": 710319,
    "province_id": 71,
    "regency_id": 7103,
    "district_id": 710319,
    "value": "Tambung",
    "postal_code": "95859"
  },
  {
    "id": 710319,
    "province_id": 71,
    "regency_id": 7103,
    "district_id": 710319,
    "value": "Tenda",
    "postal_code": "95859"
  }
]