[
  {
    "id": 737111,
    "province_id": 73,
    "regency_id": 7371,
    "district_id": 737111,
    "value": "Bakung",
    "postal_code": "90242"
  },
  {
    "id": 737111,
    "province_id": 73,
    "regency_id": 7371,
    "district_id": 737111,
    "value": "Berua",
    "postal_code": "90241"
  },
  {
    "id": 737111,
    "province_id": 73,
    "regency_id": 7371,
    "district_id": 737111,
    "value": "Buluroken (Bulurokeng)",
    "postal_code": "90243"
  },
  {
    "id": 737111,
    "province_id": 73,
    "regency_id": 7371,
    "district_id": 737111,
    "value": "Daya",
    "postal_code": "90241"
  },
  {
    "id": 737111,
    "province_id": 73,
    "regency_id": 7371,
    "district_id": 737111,
    "value": "Katimbang",
    "postal_code": "90241"
  },
  {
    "id": 737111,
    "province_id": 73,
    "regency_id": 7371,
    "district_id": 737111,
    "value": "Laikang",
    "postal_code": "90242"
  },
  {
    "id": 737111,
    "province_id": 73,
    "regency_id": 7371,
    "district_id": 737111,
    "value": "Paccerakkang (Paccerakang)",
    "postal_code": "90241"
  },
  {
    "id": 737111,
    "province_id": 73,
    "regency_id": 7371,
    "district_id": 737111,
    "value": "Pai",
    "postal_code": "90243"
  },
  {
    "id": 737111,
    "province_id": 73,
    "regency_id": 7371,
    "district_id": 737111,
    "value": "Sudiang",
    "postal_code": "90242"
  },
  {
    "id": 737111,
    "province_id": 73,
    "regency_id": 7371,
    "district_id": 737111,
    "value": "Sudiang Raya",
    "postal_code": "90242"
  },
  {
    "id": 737111,
    "province_id": 73,
    "regency_id": 7371,
    "district_id": 737111,
    "value": "Untia",
    "postal_code": "90241"
  }
]