[
  {
    "id": 731507,
    "province_id": 73,
    "regency_id": 7315,
    "district_id": 731507,
    "value": "Bakaru",
    "postal_code": "91254"
  },
  {
    "id": 731507,
    "province_id": 73,
    "regency_id": 7315,
    "district_id": 731507,
    "value": "Basseang",
    "postal_code": "91254"
  },
  {
    "id": 731507,
    "province_id": 73,
    "regency_id": 7315,
    "district_id": 731507,
    "value": "Benteng Paremba",
    "postal_code": "91254"
  },
  {
    "id": 731507,
    "province_id": 73,
    "regency_id": 7315,
    "district_id": 731507,
    "value": "Betteng",
    "postal_code": "91254"
  },
  {
    "id": 731507,
    "province_id": 73,
    "regency_id": 7315,
    "district_id": 731507,
    "value": "Binanga Karaeng",
    "postal_code": "91254"
  },
  {
    "id": 731507,
    "province_id": 73,
    "regency_id": 7315,
    "district_id": 731507,
    "value": "Kariango",
    "postal_code": "91254"
  },
  {
    "id": 731507,
    "province_id": 73,
    "regency_id": 7315,
    "district_id": 731507,
    "value": "Lembang Mesakada",
    "postal_code": "91254"
  },
  {
    "id": 731507,
    "province_id": 73,
    "regency_id": 7315,
    "district_id": 731507,
    "value": "Letta",
    "postal_code": "91254"
  },
  {
    "id": 731507,
    "province_id": 73,
    "regency_id": 7315,
    "district_id": 731507,
    "value": "Pakeng",
    "postal_code": "91254"
  },
  {
    "id": 731507,
    "province_id": 73,
    "regency_id": 7315,
    "district_id": 731507,
    "value": "Pangaparang",
    "postal_code": "91254"
  },
  {
    "id": 731507,
    "province_id": 73,
    "regency_id": 7315,
    "district_id": 731507,
    "value": "Rajang",
    "postal_code": "91254"
  },
  {
    "id": 731507,
    "province_id": 73,
    "regency_id": 7315,
    "district_id": 731507,
    "value": "Sabbang Paru",
    "postal_code": "91254"
  },
  {
    "id": 731507,
    "province_id": 73,
    "regency_id": 7315,
    "district_id": 731507,
    "value": "Sali Sali",
    "postal_code": "91254"
  },
  {
    "id": 731507,
    "province_id": 73,
    "regency_id": 7315,
    "district_id": 731507,
    "value": "Suppirang",
    "postal_code": "91254"
  },
  {
    "id": 731507,
    "province_id": 73,
    "regency_id": 7315,
    "district_id": 731507,
    "value": "Taddokong (Tadokkong)",
    "postal_code": "91254"
  },
  {
    "id": 731507,
    "province_id": 73,
    "regency_id": 7315,
    "district_id": 731507,
    "value": "Ulu Saddang (Ulusaddang)",
    "postal_code": "91254"
  }
]