[
  {
    "id": 360207,
    "province_id": 36,
    "regency_id": 3602,
    "district_id": 360207,
    "value": "Bojongmanik",
    "postal_code": "42363"
  },
  {
    "id": 360207,
    "province_id": 36,
    "regency_id": 3602,
    "district_id": 360207,
    "value": "Cimayang",
    "postal_code": "42363"
  },
  {
    "id": 360207,
    "province_id": 36,
    "regency_id": 3602,
    "district_id": 360207,
    "value": "Harjawana",
    "postal_code": "42363"
  },
  {
    "id": 360207,
    "province_id": 36,
    "regency_id": 3602,
    "district_id": 360207,
    "value": "Kadurahayu",
    "postal_code": "42363"
  },
  {
    "id": 360207,
    "province_id": 36,
    "regency_id": 3602,
    "district_id": 360207,
    "value": "Keboncau",
    "postal_code": "42363"
  },
  {
    "id": 360207,
    "province_id": 36,
    "regency_id": 3602,
    "district_id": 360207,
    "value": "Mekar Rahayu",
    "postal_code": "42363"
  },
  {
    "id": 360207,
    "province_id": 36,
    "regency_id": 3602,
    "district_id": 360207,
    "value": "Mekarmanik",
    "postal_code": "42363"
  },
  {
    "id": 360207,
    "province_id": 36,
    "regency_id": 3602,
    "district_id": 360207,
    "value": "Parakanbeusi",
    "postal_code": "42363"
  },
  {
    "id": 360207,
    "province_id": 36,
    "regency_id": 3602,
    "district_id": 360207,
    "value": "Pasirbitung",
    "postal_code": "42363"
  }
]