[
  {
    "id": 140303,
    "province_id": 14,
    "regency_id": 1403,
    "district_id": 140303,
    "value": "Batang Duku",
    "postal_code": "28761"
  },
  {
    "id": 140303,
    "province_id": 14,
    "regency_id": 1403,
    "district_id": 140303,
    "value": "Bukit Batu",
    "postal_code": "28761"
  },
  {
    "id": 140303,
    "province_id": 14,
    "regency_id": 1403,
    "district_id": 140303,
    "value": "Buruk Bakul",
    "postal_code": "28761"
  },
  {
    "id": 140303,
    "province_id": 14,
    "regency_id": 1403,
    "district_id": 140303,
    "value": "Dompas",
    "postal_code": "28761"
  },
  {
    "id": 140303,
    "province_id": 14,
    "regency_id": 1403,
    "district_id": 140303,
    "value": "Pakning Asal",
    "postal_code": "28761"
  },
  {
    "id": 140303,
    "province_id": 14,
    "regency_id": 1403,
    "district_id": 140303,
    "value": "Pangkalan Jambi",
    "postal_code": "28761"
  },
  {
    "id": 140303,
    "province_id": 14,
    "regency_id": 1403,
    "district_id": 140303,
    "value": "Sejangat",
    "postal_code": "28761"
  },
  {
    "id": 140303,
    "province_id": 14,
    "regency_id": 1403,
    "district_id": 140303,
    "value": "Sukajadi",
    "postal_code": "28761"
  },
  {
    "id": 140303,
    "province_id": 14,
    "regency_id": 1403,
    "district_id": 140303,
    "value": "Sungai Pakning",
    "postal_code": "28761"
  },
  {
    "id": 140303,
    "province_id": 14,
    "regency_id": 1403,
    "district_id": 140303,
    "value": "Sungai Selari",
    "postal_code": "28761"
  }
]