[
  {
    "id": 321316,
    "province_id": 32,
    "regency_id": 3213,
    "district_id": 321316,
    "value": "Ciberes",
    "postal_code": "41263"
  },
  {
    "id": 321316,
    "province_id": 32,
    "regency_id": 3213,
    "district_id": 321316,
    "value": "Gempolsari",
    "postal_code": "41263"
  },
  {
    "id": 321316,
    "province_id": 32,
    "regency_id": 3213,
    "district_id": 321316,
    "value": "Jatiragas Hilir",
    "postal_code": "41263"
  },
  {
    "id": 321316,
    "province_id": 32,
    "regency_id": 3213,
    "district_id": 321316,
    "value": "Rancaasih",
    "postal_code": "41263"
  },
  {
    "id": 321316,
    "province_id": 32,
    "regency_id": 3213,
    "district_id": 321316,
    "value": "Rancabango",
    "postal_code": "41263"
  },
  {
    "id": 321316,
    "province_id": 32,
    "regency_id": 3213,
    "district_id": 321316,
    "value": "Rancajaya",
    "postal_code": "41263"
  },
  {
    "id": 321316,
    "province_id": 32,
    "regency_id": 3213,
    "district_id": 321316,
    "value": "Rancamulya",
    "postal_code": "41263"
  },
  {
    "id": 321316,
    "province_id": 32,
    "regency_id": 3213,
    "district_id": 321316,
    "value": "Tambakjati",
    "postal_code": "41263"
  },
  {
    "id": 321316,
    "province_id": 32,
    "regency_id": 3213,
    "district_id": 321316,
    "value": "Tanjungrasa (Tanjungrasa Kaler)",
    "postal_code": "41263"
  },
  {
    "id": 321316,
    "province_id": 32,
    "regency_id": 3213,
    "district_id": 321316,
    "value": "Tanjungrasa Kidul",
    "postal_code": "41263"
  }
]