[
  {
    "id": 321016,
    "province_id": 32,
    "regency_id": 3210,
    "district_id": 321016,
    "value": "Ampel",
    "postal_code": "45456"
  },
  {
    "id": 321016,
    "province_id": 32,
    "regency_id": 3210,
    "district_id": 321016,
    "value": "Bantarwaru",
    "postal_code": "45456"
  },
  {
    "id": 321016,
    "province_id": 32,
    "regency_id": 3210,
    "district_id": 321016,
    "value": "Beber",
    "postal_code": "45456"
  },
  {
    "id": 321016,
    "province_id": 32,
    "regency_id": 3210,
    "district_id": 321016,
    "value": "Beusi",
    "postal_code": "45456"
  },
  {
    "id": 321016,
    "province_id": 32,
    "regency_id": 3210,
    "district_id": 321016,
    "value": "Buntu",
    "postal_code": "45456"
  },
  {
    "id": 321016,
    "province_id": 32,
    "regency_id": 3210,
    "district_id": 321016,
    "value": "Cibogor",
    "postal_code": "45456"
  },
  {
    "id": 321016,
    "province_id": 32,
    "regency_id": 3210,
    "district_id": 321016,
    "value": "Gandawesi",
    "postal_code": "45456"
  },
  {
    "id": 321016,
    "province_id": 32,
    "regency_id": 3210,
    "district_id": 321016,
    "value": "Kedungkencana (Kedungkancana)",
    "postal_code": "45456"
  },
  {
    "id": 321016,
    "province_id": 32,
    "regency_id": 3210,
    "district_id": 321016,
    "value": "Kedungsari",
    "postal_code": "45456"
  },
  {
    "id": 321016,
    "province_id": 32,
    "regency_id": 3210,
    "district_id": 321016,
    "value": "Kertasari",
    "postal_code": "45456"
  },
  {
    "id": 321016,
    "province_id": 32,
    "regency_id": 3210,
    "district_id": 321016,
    "value": "Kodasari",
    "postal_code": "45456"
  },
  {
    "id": 321016,
    "province_id": 32,
    "regency_id": 3210,
    "district_id": 321016,
    "value": "Leuweunghapit",
    "postal_code": "45456"
  },
  {
    "id": 321016,
    "province_id": 32,
    "regency_id": 3210,
    "district_id": 321016,
    "value": "Leuwiliang Baru",
    "postal_code": "45456"
  },
  {
    "id": 321016,
    "province_id": 32,
    "regency_id": 3210,
    "district_id": 321016,
    "value": "Ligung",
    "postal_code": "45456"
  },
  {
    "id": 321016,
    "province_id": 32,
    "regency_id": 3210,
    "district_id": 321016,
    "value": "Ligung Lor",
    "postal_code": "45456"
  },
  {
    "id": 321016,
    "province_id": 32,
    "regency_id": 3210,
    "district_id": 321016,
    "value": "Majasari",
    "postal_code": "45456"
  },
  {
    "id": 321016,
    "province_id": 32,
    "regency_id": 3210,
    "district_id": 321016,
    "value": "Sukawera",
    "postal_code": "45456"
  },
  {
    "id": 321016,
    "province_id": 32,
    "regency_id": 3210,
    "district_id": 321016,
    "value": "Tegalaren",
    "postal_code": "45456"
  },
  {
    "id": 321016,
    "province_id": 32,
    "regency_id": 3210,
    "district_id": 321016,
    "value": "Wanasalam",
    "postal_code": "45456"
  }
]