[
  {
    "id": 332215,
    "province_id": 33,
    "regency_id": 3322,
    "district_id": 332215,
    "value": "Candirejo",
    "postal_code": "50214"
  },
  {
    "id": 332215,
    "province_id": 33,
    "regency_id": 3322,
    "district_id": 332215,
    "value": "Derekan",
    "postal_code": "50214"
  },
  {
    "id": 332215,
    "province_id": 33,
    "regency_id": 3322,
    "district_id": 332215,
    "value": "Jatirunggo",
    "postal_code": "50214"
  },
  {
    "id": 332215,
    "province_id": 33,
    "regency_id": 3322,
    "district_id": 332215,
    "value": "Klepu",
    "postal_code": "50552"
  },
  {
    "id": 332215,
    "province_id": 33,
    "regency_id": 3322,
    "district_id": 332215,
    "value": "Penawangan",
    "postal_code": "50513"
  },
  {
    "id": 332215,
    "province_id": 33,
    "regency_id": 3322,
    "district_id": 332215,
    "value": "Pringapus",
    "postal_code": "50214"
  },
  {
    "id": 332215,
    "province_id": 33,
    "regency_id": 3322,
    "district_id": 332215,
    "value": "Pringsari",
    "postal_code": "50214"
  },
  {
    "id": 332215,
    "province_id": 33,
    "regency_id": 3322,
    "district_id": 332215,
    "value": "Wonorejo",
    "postal_code": "50212"
  },
  {
    "id": 332215,
    "province_id": 33,
    "regency_id": 3322,
    "district_id": 332215,
    "value": "Wonoyoso",
    "postal_code": "50214"
  }
]