[
  {
    "id": 7407052015,
    "province_id": 74,
    "regency_id": 7407,
    "district_id": 740705,
    "value": "Kabita",
    "postal_code": "93795"
  },
  {
    "id": 7407052024,
    "province_id": 74,
    "regency_id": 7407,
    "district_id": 740705,
    "value": "Kabita Togo",
    "postal_code": "93795"
  },
  {
    "id": 7407052011,
    "province_id": 74,
    "regency_id": 7407,
    "district_id": 740705,
    "value": "Kapota",
    "postal_code": "93795"
  },
  {
    "id": 7407052023,
    "province_id": 74,
    "regency_id": 7407,
    "district_id": 740705,
    "value": "Kapota Utara",
    "postal_code": "93795"
  },
  {
    "id": 7407052012,
    "province_id": 74,
    "regency_id": 7407,
    "district_id": 740705,
    "value": "Komala",
    "postal_code": "93795"
  },
  {
    "id": 7407052031,
    "province_id": 74,
    "regency_id": 7407,
    "district_id": 740705,
    "value": "Liya Bahari Indah",
    "postal_code": "93795"
  },
  {
    "id": 7407052021,
    "province_id": 74,
    "regency_id": 7407,
    "district_id": 740705,
    "value": "Liya Mawi (Liyamawi)",
    "postal_code": "93795"
  },
  {
    "id": 7407052026,
    "province_id": 74,
    "regency_id": 7407,
    "district_id": 740705,
    "value": "Liya Onemaelangka",
    "postal_code": "93795"
  },
  {
    "id": 7407052022,
    "province_id": 74,
    "regency_id": 7407,
    "district_id": 740705,
    "value": "Liya Togo",
    "postal_code": "93795"
  },
  {
    "id": 7407051017,
    "province_id": 74,
    "regency_id": 7407,
    "district_id": 740705,
    "value": "Mandati I",
    "postal_code": "93795"
  },
  {
    "id": 7407051016,
    "province_id": 74,
    "regency_id": 7407,
    "district_id": 740705,
    "value": "Mandati II",
    "postal_code": "93795"
  },
  {
    "id": 7407051025,
    "province_id": 74,
    "regency_id": 7407,
    "district_id": 740705,
    "value": "Mandati III",
    "postal_code": "93795"
  },
  {
    "id": 7407052014,
    "province_id": 74,
    "regency_id": 7407,
    "district_id": 740705,
    "value": "Matahora (Metohora)",
    "postal_code": "93795"
  },
  {
    "id": 7407052029,
    "province_id": 74,
    "regency_id": 7407,
    "district_id": 740705,
    "value": "Mola Bahari",
    "postal_code": "93795"
  },
  {
    "id": 7407052030,
    "province_id": 74,
    "regency_id": 7407,
    "district_id": 740705,
    "value": "Mola Nelayan Bhakti",
    "postal_code": "93795"
  },
  {
    "id": 7407052028,
    "province_id": 74,
    "regency_id": 7407,
    "district_id": 740705,
    "value": "Mola Samaturu",
    "postal_code": "93795"
  },
  {
    "id": 7407052019,
    "province_id": 74,
    "regency_id": 7407,
    "district_id": 740705,
    "value": "Mola Selatan",
    "postal_code": "93795"
  },
  {
    "id": 7407052018,
    "province_id": 74,
    "regency_id": 7407,
    "district_id": 740705,
    "value": "Mola Utara",
    "postal_code": "93795"
  },
  {
    "id": 7407052020,
    "province_id": 74,
    "regency_id": 7407,
    "district_id": 740705,
    "value": "Numana",
    "postal_code": "93795"
  },
  {
    "id": 7407052027,
    "province_id": 74,
    "regency_id": 7407,
    "district_id": 740705,
    "value": "Wisata Kolo (Wisata Koto)",
    "postal_code": "93795"
  },
  {
    "id": 7407052013,
    "province_id": 74,
    "regency_id": 7407,
    "district_id": 740705,
    "value": "Wungka",
    "postal_code": "93795"
  }
]