[
  {
    "id": 350416,
    "province_id": 35,
    "regency_id": 3504,
    "district_id": 350416,
    "value": "Campurdarat",
    "postal_code": "66272"
  },
  {
    "id": 350416,
    "province_id": 35,
    "regency_id": 3504,
    "district_id": 350416,
    "value": "Gamping",
    "postal_code": "66272"
  },
  {
    "id": 350416,
    "province_id": 35,
    "regency_id": 3504,
    "district_id": 350416,
    "value": "Gedangan",
    "postal_code": "66272"
  },
  {
    "id": 350416,
    "province_id": 35,
    "regency_id": 3504,
    "district_id": 350416,
    "value": "Ngentrong",
    "postal_code": "66272"
  },
  {
    "id": 350416,
    "province_id": 35,
    "regency_id": 3504,
    "district_id": 350416,
    "value": "Pelem",
    "postal_code": "66272"
  },
  {
    "id": 350416,
    "province_id": 35,
    "regency_id": 3504,
    "district_id": 350416,
    "value": "Pojok",
    "postal_code": "66272"
  },
  {
    "id": 350416,
    "province_id": 35,
    "regency_id": 3504,
    "district_id": 350416,
    "value": "Sawo",
    "postal_code": "66272"
  },
  {
    "id": 350416,
    "province_id": 35,
    "regency_id": 3504,
    "district_id": 350416,
    "value": "Tanggung",
    "postal_code": "66272"
  },
  {
    "id": 350416,
    "province_id": 35,
    "regency_id": 3504,
    "district_id": 350416,
    "value": "Wates",
    "postal_code": "66272"
  }
]