[
  {
    "id": 350519,
    "province_id": 35,
    "regency_id": 3505,
    "district_id": 350519,
    "value": "Bumirejo",
    "postal_code": "66191"
  },
  {
    "id": 350519,
    "province_id": 35,
    "regency_id": 3505,
    "district_id": 350519,
    "value": "Jugo",
    "postal_code": "66191"
  },
  {
    "id": 350519,
    "province_id": 35,
    "regency_id": 3505,
    "district_id": 350519,
    "value": "Kemirigede",
    "postal_code": "66191"
  },
  {
    "id": 350519,
    "province_id": 35,
    "regency_id": 3505,
    "district_id": 350519,
    "value": "Kesamben",
    "postal_code": "66191"
  },
  {
    "id": 350519,
    "province_id": 35,
    "regency_id": 3505,
    "district_id": 350519,
    "value": "Pagergunung",
    "postal_code": "66191"
  },
  {
    "id": 350519,
    "province_id": 35,
    "regency_id": 3505,
    "district_id": 350519,
    "value": "Pagerwojo",
    "postal_code": "66191"
  },
  {
    "id": 350519,
    "province_id": 35,
    "regency_id": 3505,
    "district_id": 350519,
    "value": "Siraman",
    "postal_code": "66191"
  },
  {
    "id": 350519,
    "province_id": 35,
    "regency_id": 3505,
    "district_id": 350519,
    "value": "Sukoanyar",
    "postal_code": "66191"
  },
  {
    "id": 350519,
    "province_id": 35,
    "regency_id": 3505,
    "district_id": 350519,
    "value": "Tapakrejo",
    "postal_code": "66191"
  },
  {
    "id": 350519,
    "province_id": 35,
    "regency_id": 3505,
    "district_id": 350519,
    "value": "Tepas",
    "postal_code": "66191"
  }
]