[
  {
    "id": 330918,
    "province_id": 33,
    "regency_id": 3309,
    "district_id": 330918,
    "value": "Bandung",
    "postal_code": "57382"
  },
  {
    "id": 330918,
    "province_id": 33,
    "regency_id": 3309,
    "district_id": 330918,
    "value": "Banyusri",
    "postal_code": "57382"
  },
  {
    "id": 330918,
    "province_id": 33,
    "regency_id": 3309,
    "district_id": 330918,
    "value": "Bojong",
    "postal_code": "57382"
  },
  {
    "id": 330918,
    "province_id": 33,
    "regency_id": 3309,
    "district_id": 330918,
    "value": "Bolo",
    "postal_code": "57382"
  },
  {
    "id": 330918,
    "province_id": 33,
    "regency_id": 3309,
    "district_id": 330918,
    "value": "Gosono",
    "postal_code": "57382"
  },
  {
    "id": 330918,
    "province_id": 33,
    "regency_id": 3309,
    "district_id": 330918,
    "value": "Guwo",
    "postal_code": "57383"
  },
  {
    "id": 330918,
    "province_id": 33,
    "regency_id": 3309,
    "district_id": 330918,
    "value": "Karangjati",
    "postal_code": "57382"
  },
  {
    "id": 330918,
    "province_id": 33,
    "regency_id": 3309,
    "district_id": 330918,
    "value": "Kauman",
    "postal_code": "57383"
  },
  {
    "id": 330918,
    "province_id": 33,
    "regency_id": 3309,
    "district_id": 330918,
    "value": "Ketoyan",
    "postal_code": "57382"
  },
  {
    "id": 330918,
    "province_id": 33,
    "regency_id": 3309,
    "district_id": 330918,
    "value": "Lemahireng",
    "postal_code": "57383"
  },
  {
    "id": 330918,
    "province_id": 33,
    "regency_id": 3309,
    "district_id": 330918,
    "value": "Wonosegoro",
    "postal_code": "57382"
  }
]