[
  {
    "id": 630415,
    "province_id": 63,
    "regency_id": 6304,
    "district_id": 630415,
    "value": "Antar Baru",
    "postal_code": "70511"
  },
  {
    "id": 630415,
    "province_id": 63,
    "regency_id": 6304,
    "district_id": 630415,
    "value": "Antar Jaya",
    "postal_code": "70511"
  },
  {
    "id": 630415,
    "province_id": 63,
    "regency_id": 6304,
    "district_id": 630415,
    "value": "Antar Raya",
    "postal_code": "70511"
  },
  {
    "id": 630415,
    "province_id": 63,
    "regency_id": 6304,
    "district_id": 630415,
    "value": "Bagus",
    "postal_code": "70511"
  },
  {
    "id": 630415,
    "province_id": 63,
    "regency_id": 6304,
    "district_id": 630415,
    "value": "Baliuk",
    "postal_code": "70511"
  },
  {
    "id": 630415,
    "province_id": 63,
    "regency_id": 6304,
    "district_id": 630415,
    "value": "Karya Maju",
    "postal_code": "70513"
  },
  {
    "id": 630415,
    "province_id": 63,
    "regency_id": 6304,
    "district_id": 630415,
    "value": "Marabahan Kota",
    "postal_code": "70511"
  },
  {
    "id": 630415,
    "province_id": 63,
    "regency_id": 6304,
    "district_id": 630415,
    "value": "Penghulu",
    "postal_code": "70511"
  },
  {
    "id": 630415,
    "province_id": 63,
    "regency_id": 6304,
    "district_id": 630415,
    "value": "Sido Makmur (Sidomakmur)",
    "postal_code": "70511"
  },
  {
    "id": 630415,
    "province_id": 63,
    "regency_id": 6304,
    "district_id": 630415,
    "value": "Ulu Benteng",
    "postal_code": "70513"
  }
]