[
  {
    "id": 321417,
    "province_id": 32,
    "regency_id": 3214,
    "district_id": 321417,
    "value": "Cibeber",
    "postal_code": "41175"
  },
  {
    "id": 321417,
    "province_id": 32,
    "regency_id": 3214,
    "district_id": 321417,
    "value": "Ciracas",
    "postal_code": "41175"
  },
  {
    "id": 321417,
    "province_id": 32,
    "regency_id": 3214,
    "district_id": 321417,
    "value": "Gardu",
    "postal_code": "41175"
  },
  {
    "id": 321417,
    "province_id": 32,
    "regency_id": 3214,
    "district_id": 321417,
    "value": "Karangpedas (Kiarapedes)",
    "postal_code": "41175"
  },
  {
    "id": 321417,
    "province_id": 32,
    "regency_id": 3214,
    "district_id": 321417,
    "value": "Margaluyu",
    "postal_code": "41175"
  },
  {
    "id": 321417,
    "province_id": 32,
    "regency_id": 3214,
    "district_id": 321417,
    "value": "Mekarjaya",
    "postal_code": "41175"
  },
  {
    "id": 321417,
    "province_id": 32,
    "regency_id": 3214,
    "district_id": 321417,
    "value": "Parakangarokgek (Parakan Garokgek)",
    "postal_code": "41175"
  },
  {
    "id": 321417,
    "province_id": 32,
    "regency_id": 3214,
    "district_id": 321417,
    "value": "Pusakamulya",
    "postal_code": "41175"
  },
  {
    "id": 321417,
    "province_id": 32,
    "regency_id": 3214,
    "district_id": 321417,
    "value": "Sumbersari",
    "postal_code": "41175"
  },
  {
    "id": 321417,
    "province_id": 32,
    "regency_id": 3214,
    "district_id": 321417,
    "value": "Taringgullandeuh (Taringgul Landeuh)",
    "postal_code": "41175"
  }
]