[
  {
    "id": 3518072009,
    "province_id": 35,
    "regency_id": 3518,
    "district_id": 351807,
    "value": "Banjarsari (Banjar Sari)",
    "postal_code": "64395"
  },
  {
    "id": 3518072007,
    "province_id": 35,
    "regency_id": 3518,
    "district_id": 351807,
    "value": "Betet",
    "postal_code": "64395"
  },
  {
    "id": 3518072001,
    "province_id": 35,
    "regency_id": 3518,
    "district_id": 351807,
    "value": "Cengkok",
    "postal_code": "64395"
  },
  {
    "id": 3518072010,
    "province_id": 35,
    "regency_id": 3518,
    "district_id": 351807,
    "value": "Dadapan",
    "postal_code": "64395"
  },
  {
    "id": 3518072003,
    "province_id": 35,
    "regency_id": 3518,
    "district_id": 351807,
    "value": "Juwet",
    "postal_code": "64395"
  },
  {
    "id": 3518072012,
    "province_id": 35,
    "regency_id": 3518,
    "district_id": 351807,
    "value": "Kalianyar (Kali Anyar)",
    "postal_code": "64395"
  },
  {
    "id": 3518072008,
    "province_id": 35,
    "regency_id": 3518,
    "district_id": 351807,
    "value": "Kaloran",
    "postal_code": "64395"
  },
  {
    "id": 3518072004,
    "province_id": 35,
    "regency_id": 3518,
    "district_id": 351807,
    "value": "Kelutan",
    "postal_code": "64395"
  },
  {
    "id": 3518072013,
    "province_id": 35,
    "regency_id": 3518,
    "district_id": 351807,
    "value": "Klurahan",
    "postal_code": "64395"
  },
  {
    "id": 3518072006,
    "province_id": 35,
    "regency_id": 3518,
    "district_id": 351807,
    "value": "Mojokendil",
    "postal_code": "64395"
  },
  {
    "id": 3518072005,
    "province_id": 35,
    "regency_id": 3518,
    "district_id": 351807,
    "value": "Ngronggot",
    "postal_code": "64395"
  },
  {
    "id": 3518072002,
    "province_id": 35,
    "regency_id": 3518,
    "district_id": 351807,
    "value": "Tanjungkalang (Tanjung Kalang)",
    "postal_code": "64395"
  },
  {
    "id": 3518072011,
    "province_id": 35,
    "regency_id": 3518,
    "district_id": 351807,
    "value": "Trayang",
    "postal_code": "64395"
  }
]