[
  {
    "id": 320312,
    "province_id": 32,
    "regency_id": 3203,
    "district_id": 320312,
    "value": "Cigunungherang",
    "postal_code": "43291"
  },
  {
    "id": 320312,
    "province_id": 32,
    "regency_id": 3203,
    "district_id": 320312,
    "value": "Cijagang",
    "postal_code": "43291"
  },
  {
    "id": 320312,
    "province_id": 32,
    "regency_id": 3203,
    "district_id": 320312,
    "value": "Cinangsi",
    "postal_code": "43291"
  },
  {
    "id": 320312,
    "province_id": 32,
    "regency_id": 3203,
    "district_id": 320312,
    "value": "Ciramagirang (Cirama Girang)",
    "postal_code": "43291"
  },
  {
    "id": 320312,
    "province_id": 32,
    "regency_id": 3203,
    "district_id": 320312,
    "value": "Gudang",
    "postal_code": "43291"
  },
  {
    "id": 320312,
    "province_id": 32,
    "regency_id": 3203,
    "district_id": 320312,
    "value": "Kamurang",
    "postal_code": "43291"
  },
  {
    "id": 320312,
    "province_id": 32,
    "regency_id": 3203,
    "district_id": 320312,
    "value": "Lembahsari",
    "postal_code": "43291"
  },
  {
    "id": 320312,
    "province_id": 32,
    "regency_id": 3203,
    "district_id": 320312,
    "value": "Majalaya",
    "postal_code": "43291"
  },
  {
    "id": 320312,
    "province_id": 32,
    "regency_id": 3203,
    "district_id": 320312,
    "value": "Mekargalih",
    "postal_code": "43291"
  },
  {
    "id": 320312,
    "province_id": 32,
    "regency_id": 3203,
    "district_id": 320312,
    "value": "Mekarjaya",
    "postal_code": "43291"
  },
  {
    "id": 320312,
    "province_id": 32,
    "regency_id": 3203,
    "district_id": 320312,
    "value": "Mekarmulya (Mekar Mulya)",
    "postal_code": "43291"
  },
  {
    "id": 320312,
    "province_id": 32,
    "regency_id": 3203,
    "district_id": 320312,
    "value": "Mekarsari (Mekar Sari)",
    "postal_code": "43291"
  },
  {
    "id": 320312,
    "province_id": 32,
    "regency_id": 3203,
    "district_id": 320312,
    "value": "Mentengsari",
    "postal_code": "43291"
  },
  {
    "id": 320312,
    "province_id": 32,
    "regency_id": 3203,
    "district_id": 320312,
    "value": "Neglasari",
    "postal_code": "43291"
  },
  {
    "id": 320312,
    "province_id": 32,
    "regency_id": 3203,
    "district_id": 320312,
    "value": "Padajaya",
    "postal_code": "43291"
  },
  {
    "id": 320312,
    "province_id": 32,
    "regency_id": 3203,
    "district_id": 320312,
    "value": "Sukagalih",
    "postal_code": "43291"
  },
  {
    "id": 320312,
    "province_id": 32,
    "regency_id": 3203,
    "district_id": 320312,
    "value": "Sukamulya",
    "postal_code": "43291"
  },
  {
    "id": 320312,
    "province_id": 32,
    "regency_id": 3203,
    "district_id": 320312,
    "value": "Warudoyong",
    "postal_code": "43291"
  }
]