[
  {
    "id": 3520152011,
    "province_id": 35,
    "regency_id": 3520,
    "district_id": 352015,
    "value": "Bayemtaman (Bayem Taman)",
    "postal_code": "63394"
  },
  {
    "id": 3520152010,
    "province_id": 35,
    "regency_id": 3520,
    "district_id": 352015,
    "value": "Bayemwetan (Bayem Wetan)",
    "postal_code": "63394"
  },
  {
    "id": 3520152008,
    "province_id": 35,
    "regency_id": 3520,
    "district_id": 352015,
    "value": "Gunungan",
    "postal_code": "63394"
  },
  {
    "id": 3520152007,
    "province_id": 35,
    "regency_id": 3520,
    "district_id": 352015,
    "value": "Jajar",
    "postal_code": "63394"
  },
  {
    "id": 3520152009,
    "province_id": 35,
    "regency_id": 3520,
    "district_id": 352015,
    "value": "Jeruk",
    "postal_code": "63394"
  },
  {
    "id": 3520152012,
    "province_id": 35,
    "regency_id": 3520,
    "district_id": 352015,
    "value": "Karangmojo",
    "postal_code": "63394"
  },
  {
    "id": 3520152001,
    "province_id": 35,
    "regency_id": 3520,
    "district_id": 352015,
    "value": "Kartoharjo (Kertoharjo)",
    "postal_code": "63394"
  },
  {
    "id": 3520152003,
    "province_id": 35,
    "regency_id": 3520,
    "district_id": 352015,
    "value": "Klurahan",
    "postal_code": "63394"
  },
  {
    "id": 3520152002,
    "province_id": 35,
    "regency_id": 3520,
    "district_id": 352015,
    "value": "Mrahu",
    "postal_code": "63394"
  },
  {
    "id": 3520152006,
    "province_id": 35,
    "regency_id": 3520,
    "district_id": 352015,
    "value": "Ngelang",
    "postal_code": "63394"
  },
  {
    "id": 3520152004,
    "province_id": 35,
    "regency_id": 3520,
    "district_id": 352015,
    "value": "Pencol",
    "postal_code": "63394"
  },
  {
    "id": 3520152005,
    "province_id": 35,
    "regency_id": 3520,
    "district_id": 352015,
    "value": "Sukowidi",
    "postal_code": "63394"
  }
]