[
  {
    "id": 337403,
    "province_id": 33,
    "regency_id": 3374,
    "district_id": 337403,
    "value": "Bugangan",
    "postal_code": "50126"
  },
  {
    "id": 337403,
    "province_id": 33,
    "regency_id": 3374,
    "district_id": 337403,
    "value": "Karangtempel",
    "postal_code": "50232"
  },
  {
    "id": 337403,
    "province_id": 33,
    "regency_id": 3374,
    "district_id": 337403,
    "value": "Karangturi",
    "postal_code": "50124"
  },
  {
    "id": 337403,
    "province_id": 33,
    "regency_id": 3374,
    "district_id": 337403,
    "value": "Kebonagung",
    "postal_code": "50123"
  },
  {
    "id": 337403,
    "province_id": 33,
    "regency_id": 3374,
    "district_id": 337403,
    "value": "Kemijen",
    "postal_code": "50228"
  },
  {
    "id": 337403,
    "province_id": 33,
    "regency_id": 3374,
    "district_id": 337403,
    "value": "Mlatibaru",
    "postal_code": "50122"
  },
  {
    "id": 337403,
    "province_id": 33,
    "regency_id": 3374,
    "district_id": 337403,
    "value": "Mlatiharjo",
    "postal_code": "50126"
  },
  {
    "id": 337403,
    "province_id": 33,
    "regency_id": 3374,
    "district_id": 337403,
    "value": "Rejomulyo",
    "postal_code": "50227"
  },
  {
    "id": 337403,
    "province_id": 33,
    "regency_id": 3374,
    "district_id": 337403,
    "value": "Rejosari",
    "postal_code": "50125"
  },
  {
    "id": 337403,
    "province_id": 33,
    "regency_id": 3374,
    "district_id": 337403,
    "value": "Sarirejo",
    "postal_code": "50124"
  }
]