[
  {
    "id": 827103,
    "province_id": 82,
    "regency_id": 8271,
    "district_id": 827103,
    "value": "Akehuda",
    "postal_code": "97735"
  },
  {
    "id": 827103,
    "province_id": 82,
    "regency_id": 8271,
    "district_id": 827103,
    "value": "Dufa Dufa",
    "postal_code": "97727"
  },
  {
    "id": 827103,
    "province_id": 82,
    "regency_id": 8271,
    "district_id": 827103,
    "value": "Kasturian",
    "postal_code": "97726"
  },
  {
    "id": 827103,
    "province_id": 82,
    "regency_id": 8271,
    "district_id": 827103,
    "value": "Salero",
    "postal_code": "97725"
  },
  {
    "id": 827103,
    "province_id": 82,
    "regency_id": 8271,
    "district_id": 827103,
    "value": "Sangaji",
    "postal_code": "97727"
  },
  {
    "id": 827103,
    "province_id": 82,
    "regency_id": 8271,
    "district_id": 827103,
    "value": "Sangaji Utara",
    "postal_code": "97736"
  },
  {
    "id": 827103,
    "province_id": 82,
    "regency_id": 8271,
    "district_id": 827103,
    "value": "Sango",
    "postal_code": "97729"
  },
  {
    "id": 827103,
    "province_id": 82,
    "regency_id": 8271,
    "district_id": 827103,
    "value": "Soa",
    "postal_code": "97725"
  },
  {
    "id": 827103,
    "province_id": 82,
    "regency_id": 8271,
    "district_id": 827103,
    "value": "Soa Sio",
    "postal_code": "97723"
  },
  {
    "id": 827103,
    "province_id": 82,
    "regency_id": 8271,
    "district_id": 827103,
    "value": "Tabam",
    "postal_code": "97728"
  },
  {
    "id": 827103,
    "province_id": 82,
    "regency_id": 8271,
    "district_id": 827103,
    "value": "Tafure",
    "postal_code": "97728"
  },
  {
    "id": 827103,
    "province_id": 82,
    "regency_id": 8271,
    "district_id": 827103,
    "value": "Tarau",
    "postal_code": "97737"
  },
  {
    "id": 827103,
    "province_id": 82,
    "regency_id": 8271,
    "district_id": 827103,
    "value": "Toboleu",
    "postal_code": "97726"
  },
  {
    "id": 827103,
    "province_id": 82,
    "regency_id": 8271,
    "district_id": 827103,
    "value": "Tubo",
    "postal_code": "97738"
  }
]