[
  {
    "id": 731506,
    "province_id": 73,
    "regency_id": 7315,
    "district_id": 731506,
    "value": "Bababinanga (Baba Binanga)",
    "postal_code": "91251"
  },
  {
    "id": 731506,
    "province_id": 73,
    "regency_id": 7315,
    "district_id": 731506,
    "value": "Barugae",
    "postal_code": "91251"
  },
  {
    "id": 731506,
    "province_id": 73,
    "regency_id": 7315,
    "district_id": 731506,
    "value": "Bittoeng",
    "postal_code": "91251"
  },
  {
    "id": 731506,
    "province_id": 73,
    "regency_id": 7315,
    "district_id": 731506,
    "value": "Bungi",
    "postal_code": "91251"
  },
  {
    "id": 731506,
    "province_id": 73,
    "regency_id": 7315,
    "district_id": 731506,
    "value": "Buttusawe",
    "postal_code": "91251"
  },
  {
    "id": 731506,
    "province_id": 73,
    "regency_id": 7315,
    "district_id": 731506,
    "value": "Data",
    "postal_code": "91251"
  },
  {
    "id": 731506,
    "province_id": 73,
    "regency_id": 7315,
    "district_id": 731506,
    "value": "Kaballangan (Kaballangang)",
    "postal_code": "91251"
  },
  {
    "id": 731506,
    "province_id": 73,
    "regency_id": 7315,
    "district_id": 731506,
    "value": "Kaliang",
    "postal_code": "91251"
  },
  {
    "id": 731506,
    "province_id": 73,
    "regency_id": 7315,
    "district_id": 731506,
    "value": "Katomporang",
    "postal_code": "91251"
  },
  {
    "id": 731506,
    "province_id": 73,
    "regency_id": 7315,
    "district_id": 731506,
    "value": "Lampa",
    "postal_code": "91251"
  },
  {
    "id": 731506,
    "province_id": 73,
    "regency_id": 7315,
    "district_id": 731506,
    "value": "Maroneng",
    "postal_code": "91251"
  },
  {
    "id": 731506,
    "province_id": 73,
    "regency_id": 7315,
    "district_id": 731506,
    "value": "Massewae",
    "postal_code": "91251"
  },
  {
    "id": 731506,
    "province_id": 73,
    "regency_id": 7315,
    "district_id": 731506,
    "value": "Paria",
    "postal_code": "91251"
  },
  {
    "id": 731506,
    "province_id": 73,
    "regency_id": 7315,
    "district_id": 731506,
    "value": "Pekkabata",
    "postal_code": "91251"
  },
  {
    "id": 731506,
    "province_id": 73,
    "regency_id": 7315,
    "district_id": 731506,
    "value": "Tatae",
    "postal_code": "91251"
  }
]