[
  {
    "id": 520706,
    "province_id": 52,
    "regency_id": 5207,
    "district_id": 520706,
    "value": "Kiantar",
    "postal_code": "84454"
  },
  {
    "id": 520706,
    "province_id": 52,
    "regency_id": 5207,
    "district_id": 520706,
    "value": "Kokarlian",
    "postal_code": "84454"
  },
  {
    "id": 520706,
    "province_id": 52,
    "regency_id": 5207,
    "district_id": 520706,
    "value": "Mantar",
    "postal_code": "84454"
  },
  {
    "id": 520706,
    "province_id": 52,
    "regency_id": 5207,
    "district_id": 520706,
    "value": "Poto Tano",
    "postal_code": "84454"
  },
  {
    "id": 520706,
    "province_id": 52,
    "regency_id": 5207,
    "district_id": 520706,
    "value": "Senayan",
    "postal_code": "84454"
  },
  {
    "id": 520706,
    "province_id": 52,
    "regency_id": 5207,
    "district_id": 520706,
    "value": "Tebo",
    "postal_code": "84454"
  },
  {
    "id": 520706,
    "province_id": 52,
    "regency_id": 5207,
    "district_id": 520706,
    "value": "Tuananga",
    "postal_code": "84454"
  },
  {
    "id": 520706,
    "province_id": 52,
    "regency_id": 5207,
    "district_id": 520706,
    "value": "UPT Tambak Sari (Tambak Sari)",
    "postal_code": "84454"
  }
]