[
  {
    "id": 9111012006,
    "province_id": 91,
    "regency_id": 9111,
    "district_id": 911101,
    "value": "Ampas",
    "postal_code": "99467"
  },
  {
    "id": 9111012001,
    "province_id": 91,
    "regency_id": 9111,
    "district_id": 911101,
    "value": "Banda",
    "postal_code": "99467"
  },
  {
    "id": 9111012007,
    "province_id": 91,
    "regency_id": 9111,
    "district_id": 911101,
    "value": "Bompai",
    "postal_code": "99467"
  },
  {
    "id": 9111012003,
    "province_id": 91,
    "regency_id": 9111,
    "district_id": 911101,
    "value": "Kalifam",
    "postal_code": "99467"
  },
  {
    "id": 9111012005,
    "province_id": 91,
    "regency_id": 9111,
    "district_id": 911101,
    "value": "Kalimala",
    "postal_code": "99467"
  },
  {
    "id": 9111012002,
    "province_id": 91,
    "regency_id": 9111,
    "district_id": 911101,
    "value": "Pund",
    "postal_code": "99467"
  },
  {
    "id": 9111012008,
    "province_id": 91,
    "regency_id": 9111,
    "district_id": 911101,
    "value": "Sack",
    "postal_code": "99467"
  },
  {
    "id": 9111012004,
    "province_id": 91,
    "regency_id": 9111,
    "district_id": 911101,
    "value": "Yuwainda",
    "postal_code": "99467"
  }
]