[
  {
    "id": 350705,
    "province_id": 35,
    "regency_id": 3507,
    "district_id": 350705,
    "value": "Amandanom (Amadanom)",
    "postal_code": "65181"
  },
  {
    "id": 350705,
    "province_id": 35,
    "regency_id": 3507,
    "district_id": 350705,
    "value": "Baturetno",
    "postal_code": "65181"
  },
  {
    "id": 350705,
    "province_id": 35,
    "regency_id": 3507,
    "district_id": 350705,
    "value": "Bumirejo",
    "postal_code": "65181"
  },
  {
    "id": 350705,
    "province_id": 35,
    "regency_id": 3507,
    "district_id": 350705,
    "value": "Dampit",
    "postal_code": "65181"
  },
  {
    "id": 350705,
    "province_id": 35,
    "regency_id": 3507,
    "district_id": 350705,
    "value": "Jambangan",
    "postal_code": "65181"
  },
  {
    "id": 350705,
    "province_id": 35,
    "regency_id": 3507,
    "district_id": 350705,
    "value": "Majangtengah",
    "postal_code": "65181"
  },
  {
    "id": 350705,
    "province_id": 35,
    "regency_id": 3507,
    "district_id": 350705,
    "value": "Pamotan",
    "postal_code": "65181"
  },
  {
    "id": 350705,
    "province_id": 35,
    "regency_id": 3507,
    "district_id": 350705,
    "value": "Pojok",
    "postal_code": "65181"
  },
  {
    "id": 350705,
    "province_id": 35,
    "regency_id": 3507,
    "district_id": 350705,
    "value": "Rembun",
    "postal_code": "65181"
  },
  {
    "id": 350705,
    "province_id": 35,
    "regency_id": 3507,
    "district_id": 350705,
    "value": "Srimulyo",
    "postal_code": "65181"
  },
  {
    "id": 350705,
    "province_id": 35,
    "regency_id": 3507,
    "district_id": 350705,
    "value": "Sukodono",
    "postal_code": "65181"
  },
  {
    "id": 350705,
    "province_id": 35,
    "regency_id": 3507,
    "district_id": 350705,
    "value": "Sumbersuko",
    "postal_code": "65181"
  }
]