[
  {
    "id": 611204,
    "province_id": 61,
    "regency_id": 6112,
    "district_id": 611204,
    "value": "Betuah",
    "postal_code": "78392"
  },
  {
    "id": 611204,
    "province_id": 61,
    "regency_id": 6112,
    "district_id": 611204,
    "value": "Permata",
    "postal_code": "78392"
  },
  {
    "id": 611204,
    "province_id": 61,
    "regency_id": 6112,
    "district_id": 611204,
    "value": "Radak Baru",
    "postal_code": "78392"
  },
  {
    "id": 611204,
    "province_id": 61,
    "regency_id": 6112,
    "district_id": 611204,
    "value": "Sungai Dungun",
    "postal_code": "78392"
  },
  {
    "id": 611204,
    "province_id": 61,
    "regency_id": 6112,
    "district_id": 611204,
    "value": "Sungai Radak Dua (Sei / Sungai Radak II)",
    "postal_code": "78392"
  },
  {
    "id": 611204,
    "province_id": 61,
    "regency_id": 6112,
    "district_id": 611204,
    "value": "Sungai Radak Satu (Sei / Sungai Radak I)",
    "postal_code": "78392"
  },
  {
    "id": 611204,
    "province_id": 61,
    "regency_id": 6112,
    "district_id": 611204,
    "value": "Teluk Bayur",
    "postal_code": "78392"
  },
  {
    "id": 611204,
    "province_id": 61,
    "regency_id": 6112,
    "district_id": 611204,
    "value": "Teluk Empening",
    "postal_code": "78392"
  },
  {
    "id": 611204,
    "province_id": 61,
    "regency_id": 6112,
    "district_id": 611204,
    "value": "Terentang Hilir",
    "postal_code": "78392"
  },
  {
    "id": 611204,
    "province_id": 61,
    "regency_id": 6112,
    "district_id": 611204,
    "value": "Terentang Hulu",
    "postal_code": "78392"
  }
]