[
  {
    "id": 3327032005,
    "province_id": 33,
    "regency_id": 3327,
    "district_id": 332703,
    "value": "Badak",
    "postal_code": "52356"
  },
  {
    "id": 3327032002,
    "province_id": 33,
    "regency_id": 3327,
    "district_id": 332703,
    "value": "Belik",
    "postal_code": "52356"
  },
  {
    "id": 3327032009,
    "province_id": 33,
    "regency_id": 3327,
    "district_id": 332703,
    "value": "Beluk",
    "postal_code": "52356"
  },
  {
    "id": 3327032010,
    "province_id": 33,
    "regency_id": 3327,
    "district_id": 332703,
    "value": "Bulakan",
    "postal_code": "52356"
  },
  {
    "id": 3327032001,
    "province_id": 33,
    "regency_id": 3327,
    "district_id": 332703,
    "value": "Gombong",
    "postal_code": "52356"
  },
  {
    "id": 3327032006,
    "province_id": 33,
    "regency_id": 3327,
    "district_id": 332703,
    "value": "Gunungjaya",
    "postal_code": "52356"
  },
  {
    "id": 3327032003,
    "province_id": 33,
    "regency_id": 3327,
    "district_id": 332703,
    "value": "Gunungtiga",
    "postal_code": "52356"
  },
  {
    "id": 3327032012,
    "province_id": 33,
    "regency_id": 3327,
    "district_id": 332703,
    "value": "Kalisaleh",
    "postal_code": "52356"
  },
  {
    "id": 3327032004,
    "province_id": 33,
    "regency_id": 3327,
    "district_id": 332703,
    "value": "Kuta",
    "postal_code": "52356"
  },
  {
    "id": 3327032008,
    "province_id": 33,
    "regency_id": 3327,
    "district_id": 332703,
    "value": "Mendelem",
    "postal_code": "52356"
  },
  {
    "id": 3327032011,
    "province_id": 33,
    "regency_id": 3327,
    "district_id": 332703,
    "value": "Sikasur",
    "postal_code": "52356"
  },
  {
    "id": 3327032007,
    "province_id": 33,
    "regency_id": 3327,
    "district_id": 332703,
    "value": "Simpur",
    "postal_code": "52356"
  },
  {
    "id": 3327032013,
    "province_id": 33,
    "regency_id": 3327,
    "district_id": 332703,
    "value": "Sodong Basari",
    "postal_code": "52356"
  }
]