[
  {
    "id": 6402082017,
    "province_id": 64,
    "regency_id": 6402,
    "district_id": 640208,
    "value": "Kedang Murung",
    "postal_code": "75561"
  },
  {
    "id": 6402082018,
    "province_id": 64,
    "regency_id": 6402,
    "district_id": 640208,
    "value": "Kota Bangun (Kota Bangun Seberang)",
    "postal_code": "75561"
  },
  {
    "id": 6402082006,
    "province_id": 64,
    "regency_id": 6402,
    "district_id": 640208,
    "value": "Kota Bangun Ilir",
    "postal_code": "75561"
  },
  {
    "id": 6402082005,
    "province_id": 64,
    "regency_id": 6402,
    "district_id": 640208,
    "value": "Kota Bangun Ulu",
    "postal_code": "75561"
  },
  {
    "id": 6402082007,
    "province_id": 64,
    "regency_id": 6402,
    "district_id": 640208,
    "value": "Liang",
    "postal_code": "75561"
  },
  {
    "id": 6402082019,
    "province_id": 64,
    "regency_id": 6402,
    "district_id": 640208,
    "value": "Liang Ulu",
    "postal_code": "75561"
  },
  {
    "id": 6402082004,
    "province_id": 64,
    "regency_id": 6402,
    "district_id": 640208,
    "value": "Loleng",
    "postal_code": "75561"
  },
  {
    "id": 6402082008,
    "province_id": 64,
    "regency_id": 6402,
    "district_id": 640208,
    "value": "Muhuran",
    "postal_code": "75561"
  },
  {
    "id": 6402082009,
    "province_id": 64,
    "regency_id": 6402,
    "district_id": 640208,
    "value": "Pela",
    "postal_code": "75561"
  },
  {
    "id": 6402082021,
    "province_id": 64,
    "regency_id": 6402,
    "district_id": 640208,
    "value": "Sangkuliman",
    "postal_code": "75561"
  },
  {
    "id": 6402082020,
    "province_id": 64,
    "regency_id": 6402,
    "district_id": 640208,
    "value": "Sebelimbingan",
    "postal_code": "75561"
  }
]