[
  {
    "id": 337203,
    "province_id": 33,
    "regency_id": 3372,
    "district_id": 337203,
    "value": "Baluwarti",
    "postal_code": "57114"
  },
  {
    "id": 337203,
    "province_id": 33,
    "regency_id": 3372,
    "district_id": 337203,
    "value": "Gajahan",
    "postal_code": "57115"
  },
  {
    "id": 337203,
    "province_id": 33,
    "regency_id": 3372,
    "district_id": 337203,
    "value": "Joyosuran",
    "postal_code": "57116"
  },
  {
    "id": 337203,
    "province_id": 33,
    "regency_id": 3372,
    "district_id": 337203,
    "value": "Kampungbaru (Kampung Baru)",
    "postal_code": "57111"
  },
  {
    "id": 337203,
    "province_id": 33,
    "regency_id": 3372,
    "district_id": 337203,
    "value": "Kauman",
    "postal_code": "57112"
  },
  {
    "id": 337203,
    "province_id": 33,
    "regency_id": 3372,
    "district_id": 337203,
    "value": "Kedunglumbu (Kedung Lumbu)",
    "postal_code": "57113"
  },
  {
    "id": 337203,
    "province_id": 33,
    "regency_id": 3372,
    "district_id": 337203,
    "value": "Mojo",
    "postal_code": "57117"
  },
  {
    "id": 337203,
    "province_id": 33,
    "regency_id": 3372,
    "district_id": 337203,
    "value": "Pasarkliwon (Pasar Kliwon)",
    "postal_code": "57118"
  },
  {
    "id": 337203,
    "province_id": 33,
    "regency_id": 3372,
    "district_id": 337203,
    "value": "Sangkrah",
    "postal_code": "57119"
  },
  {
    "id": 337203,
    "province_id": 33,
    "regency_id": 3372,
    "district_id": 337203,
    "value": "Semanggi",
    "postal_code": "57117"
  }
]