[
  {
    "id": 121203,
    "province_id": 12,
    "regency_id": 1212,
    "district_id": 121203,
    "value": "Dalihan Natolu",
    "postal_code": "22382"
  },
  {
    "id": 121203,
    "province_id": 12,
    "regency_id": 1212,
    "district_id": 121203,
    "value": "Huta Gur- Gur II (Huta Gurgur II)",
    "postal_code": "22382"
  },
  {
    "id": 121203,
    "province_id": 12,
    "regency_id": 1212,
    "district_id": 121203,
    "value": "Huta Gur-Gur I (Huta Gurgur I)",
    "postal_code": "22382"
  },
  {
    "id": 121203,
    "province_id": 12,
    "regency_id": 1212,
    "district_id": 121203,
    "value": "Hutagaol Sihujur",
    "postal_code": "22382"
  },
  {
    "id": 121203,
    "province_id": 12,
    "regency_id": 1212,
    "district_id": 121203,
    "value": "Hutanamora (Huta Namora)",
    "postal_code": "22382"
  },
  {
    "id": 121203,
    "province_id": 12,
    "regency_id": 1212,
    "district_id": 121203,
    "value": "Lumban Dolok",
    "postal_code": "22382"
  },
  {
    "id": 121203,
    "province_id": 12,
    "regency_id": 1212,
    "district_id": 121203,
    "value": "Marbulang",
    "postal_code": "22382"
  },
  {
    "id": 121203,
    "province_id": 12,
    "regency_id": 1212,
    "district_id": 121203,
    "value": "Meranti Barat",
    "postal_code": "22382"
  },
  {
    "id": 121203,
    "province_id": 12,
    "regency_id": 1212,
    "district_id": 121203,
    "value": "Napitupulu",
    "postal_code": "22382"
  },
  {
    "id": 121203,
    "province_id": 12,
    "regency_id": 1212,
    "district_id": 121203,
    "value": "Natolutali",
    "postal_code": "22382"
  },
  {
    "id": 121203,
    "province_id": 12,
    "regency_id": 1212,
    "district_id": 121203,
    "value": "Ombur",
    "postal_code": "22382"
  },
  {
    "id": 121203,
    "province_id": 12,
    "regency_id": 1212,
    "district_id": 121203,
    "value": "Panindi",
    "postal_code": "22382"
  },
  {
    "id": 121203,
    "province_id": 12,
    "regency_id": 1212,
    "district_id": 121203,
    "value": "Pardomuan",
    "postal_code": "22382"
  },
  {
    "id": 121203,
    "province_id": 12,
    "regency_id": 1212,
    "district_id": 121203,
    "value": "Parsambilan",
    "postal_code": "22382"
  },
  {
    "id": 121203,
    "province_id": 12,
    "regency_id": 1212,
    "district_id": 121203,
    "value": "Pintu Batu",
    "postal_code": "22382"
  },
  {
    "id": 121203,
    "province_id": 12,
    "regency_id": 1212,
    "district_id": 121203,
    "value": "Sibide",
    "postal_code": "22382"
  },
  {
    "id": 121203,
    "province_id": 12,
    "regency_id": 1212,
    "district_id": 121203,
    "value": "Sibide Barat",
    "postal_code": "22382"
  },
  {
    "id": 121203,
    "province_id": 12,
    "regency_id": 1212,
    "district_id": 121203,
    "value": "Sigodang Tua",
    "postal_code": "22382"
  },
  {
    "id": 121203,
    "province_id": 12,
    "regency_id": 1212,
    "district_id": 121203,
    "value": "Silaen",
    "postal_code": "22382"
  },
  {
    "id": 121203,
    "province_id": 12,
    "regency_id": 1212,
    "district_id": 121203,
    "value": "Simanobak",
    "postal_code": "22382"
  },
  {
    "id": 121203,
    "province_id": 12,
    "regency_id": 1212,
    "district_id": 121203,
    "value": "Sinta Dame (Cinta Damai)",
    "postal_code": "22382"
  },
  {
    "id": 121203,
    "province_id": 12,
    "regency_id": 1212,
    "district_id": 121203,
    "value": "Siringkiron",
    "postal_code": "22382"
  },
  {
    "id": 121203,
    "province_id": 12,
    "regency_id": 1212,
    "district_id": 121203,
    "value": "Sitorang (Sitorang I)",
    "postal_code": "22382"
  }
]