[
  {
    "id": 320121,
    "province_id": 32,
    "regency_id": 3201,
    "district_id": 320121,
    "value": "Bantarkaret (Bantar Karet)",
    "postal_code": "16650"
  },
  {
    "id": 320121,
    "province_id": 32,
    "regency_id": 3201,
    "district_id": 320121,
    "value": "Batu Tulis",
    "postal_code": "16650"
  },
  {
    "id": 320121,
    "province_id": 32,
    "regency_id": 3201,
    "district_id": 320121,
    "value": "Cisarua",
    "postal_code": "16650"
  },
  {
    "id": 320121,
    "province_id": 32,
    "regency_id": 3201,
    "district_id": 320121,
    "value": "Curugbitung (Curug Bitung)",
    "postal_code": "16650"
  },
  {
    "id": 320121,
    "province_id": 32,
    "regency_id": 3201,
    "district_id": 320121,
    "value": "Hambaro",
    "postal_code": "16650"
  },
  {
    "id": 320121,
    "province_id": 32,
    "regency_id": 3201,
    "district_id": 320121,
    "value": "Kalongliud (Kalong Liud)",
    "postal_code": "16650"
  },
  {
    "id": 320121,
    "province_id": 32,
    "regency_id": 3201,
    "district_id": 320121,
    "value": "Malasari",
    "postal_code": "16650"
  },
  {
    "id": 320121,
    "province_id": 32,
    "regency_id": 3201,
    "district_id": 320121,
    "value": "Nanggung",
    "postal_code": "16650"
  },
  {
    "id": 320121,
    "province_id": 32,
    "regency_id": 3201,
    "district_id": 320121,
    "value": "Pangkaljaya (Pangkal Jaya)",
    "postal_code": "16650"
  },
  {
    "id": 320121,
    "province_id": 32,
    "regency_id": 3201,
    "district_id": 320121,
    "value": "Parakanmuncang (Parakan Muncang)",
    "postal_code": "16650"
  },
  {
    "id": 320121,
    "province_id": 32,
    "regency_id": 3201,
    "district_id": 320121,
    "value": "Sukaluyu",
    "postal_code": "16650"
  }
]