[
  {
    "id": 9402202001,
    "province_id": 94,
    "regency_id": 9402,
    "district_id": 940220,
    "value": "Amberiambut",
    "postal_code": "98937"
  },
  {
    "id": 9402202011,
    "province_id": 94,
    "regency_id": 9402,
    "district_id": 940220,
    "value": "Bunume",
    "postal_code": "98937"
  },
  {
    "id": 9402202010,
    "province_id": 94,
    "regency_id": 9402,
    "district_id": 940220,
    "value": "Digolome",
    "postal_code": "98937"
  },
  {
    "id": 9402202009,
    "province_id": 94,
    "regency_id": 9402,
    "district_id": 940220,
    "value": "Gumawi",
    "postal_code": "98937"
  },
  {
    "id": 9402202013,
    "province_id": 94,
    "regency_id": 9402,
    "district_id": 940220,
    "value": "Jembeneri",
    "postal_code": "98937"
  },
  {
    "id": 9402202016,
    "province_id": 94,
    "regency_id": 9402,
    "district_id": 940220,
    "value": "Jibonok",
    "postal_code": "98937"
  },
  {
    "id": 9402202014,
    "province_id": 94,
    "regency_id": 9402,
    "district_id": 940220,
    "value": "Jigelo",
    "postal_code": "98937"
  },
  {
    "id": 9402202007,
    "province_id": 94,
    "regency_id": 9402,
    "district_id": 940220,
    "value": "Jiguluk",
    "postal_code": "98937"
  },
  {
    "id": 9402202006,
    "province_id": 94,
    "regency_id": 9402,
    "district_id": 940220,
    "value": "Jimbanime",
    "postal_code": "98937"
  },
  {
    "id": 9402202002,
    "province_id": 94,
    "regency_id": 9402,
    "district_id": 940220,
    "value": "Kobarak",
    "postal_code": "98937"
  },
  {
    "id": 9402202005,
    "province_id": 94,
    "regency_id": 9402,
    "district_id": 940220,
    "value": "Moulo",
    "postal_code": "98937"
  },
  {
    "id": 9402202012,
    "province_id": 94,
    "regency_id": 9402,
    "district_id": 940220,
    "value": "Ngginigum",
    "postal_code": "98937"
  },
  {
    "id": 9402202015,
    "province_id": 94,
    "regency_id": 9402,
    "district_id": 940220,
    "value": "Piyapigi",
    "postal_code": "98937"
  },
  {
    "id": 9402202003,
    "province_id": 94,
    "regency_id": 9402,
    "district_id": 940220,
    "value": "Wugiwagi",
    "postal_code": "98937"
  },
  {
    "id": 9402202004,
    "province_id": 94,
    "regency_id": 9402,
    "district_id": 940220,
    "value": "Yagaluk",
    "postal_code": "98937"
  },
  {
    "id": 9402202008,
    "province_id": 94,
    "regency_id": 9402,
    "district_id": 940220,
    "value": "Yamoneri",
    "postal_code": "98937"
  }
]