[
  {
    "id": 721206,
    "province_id": 72,
    "regency_id": 7212,
    "district_id": 721206,
    "value": "Era",
    "postal_code": "94964"
  },
  {
    "id": 721206,
    "province_id": 72,
    "regency_id": 7212,
    "district_id": 721206,
    "value": "Lembontonara",
    "postal_code": "94964"
  },
  {
    "id": 721206,
    "province_id": 72,
    "regency_id": 7212,
    "district_id": 721206,
    "value": "Mayumba",
    "postal_code": "94964"
  },
  {
    "id": 721206,
    "province_id": 72,
    "regency_id": 7212,
    "district_id": 721206,
    "value": "Peleru",
    "postal_code": "94964"
  },
  {
    "id": 721206,
    "province_id": 72,
    "regency_id": 7212,
    "district_id": 721206,
    "value": "Tabarano",
    "postal_code": "94964"
  },
  {
    "id": 721206,
    "province_id": 72,
    "regency_id": 7212,
    "district_id": 721206,
    "value": "Tamonjengi",
    "postal_code": "94964"
  },
  {
    "id": 721206,
    "province_id": 72,
    "regency_id": 7212,
    "district_id": 721206,
    "value": "Tiwa'a (Tiwaa)",
    "postal_code": "94964"
  },
  {
    "id": 721206,
    "province_id": 72,
    "regency_id": 7212,
    "district_id": 721206,
    "value": "Wawondula (Wawondul)",
    "postal_code": "94964"
  }
]