[
  {
    "id": 350733,
    "province_id": 35,
    "regency_id": 3507,
    "district_id": 350733,
    "value": "Balearjo",
    "postal_code": "65170"
  },
  {
    "id": 350733,
    "province_id": 35,
    "regency_id": 3507,
    "district_id": 350733,
    "value": "Banjarejo",
    "postal_code": "65170"
  },
  {
    "id": 350733,
    "province_id": 35,
    "regency_id": 3507,
    "district_id": 350733,
    "value": "Brongkal",
    "postal_code": "65170"
  },
  {
    "id": 350733,
    "province_id": 35,
    "regency_id": 3507,
    "district_id": 350733,
    "value": "Clumprit",
    "postal_code": "65170"
  },
  {
    "id": 350733,
    "province_id": 35,
    "regency_id": 3507,
    "district_id": 350733,
    "value": "Kademangan",
    "postal_code": "65170"
  },
  {
    "id": 350733,
    "province_id": 35,
    "regency_id": 3507,
    "district_id": 350733,
    "value": "Kanigoro",
    "postal_code": "65170"
  },
  {
    "id": 350733,
    "province_id": 35,
    "regency_id": 3507,
    "district_id": 350733,
    "value": "Karangsuko",
    "postal_code": "65170"
  },
  {
    "id": 350733,
    "province_id": 35,
    "regency_id": 3507,
    "district_id": 350733,
    "value": "Pagelaran",
    "postal_code": "65170"
  },
  {
    "id": 350733,
    "province_id": 35,
    "regency_id": 3507,
    "district_id": 350733,
    "value": "Sidorejo",
    "postal_code": "65170"
  },
  {
    "id": 350733,
    "province_id": 35,
    "regency_id": 3507,
    "district_id": 350733,
    "value": "Suwaru",
    "postal_code": "65170"
  }
]