[
  {
    "id": 611203,
    "province_id": 61,
    "regency_id": 6112,
    "district_id": 611203,
    "value": "Ampera Raya",
    "postal_code": "78393"
  },
  {
    "id": 611203,
    "province_id": 61,
    "regency_id": 6112,
    "district_id": 611203,
    "value": "Bengkarek",
    "postal_code": "78393"
  },
  {
    "id": 611203,
    "province_id": 61,
    "regency_id": 6112,
    "district_id": 611203,
    "value": "Durian",
    "postal_code": "78393"
  },
  {
    "id": 611203,
    "province_id": 61,
    "regency_id": 6112,
    "district_id": 611203,
    "value": "Jawa Tengah",
    "postal_code": "78393"
  },
  {
    "id": 611203,
    "province_id": 61,
    "regency_id": 6112,
    "district_id": 611203,
    "value": "Korek",
    "postal_code": "78393"
  },
  {
    "id": 611203,
    "province_id": 61,
    "regency_id": 6112,
    "district_id": 611203,
    "value": "Lingga",
    "postal_code": "78393"
  },
  {
    "id": 611203,
    "province_id": 61,
    "regency_id": 6112,
    "district_id": 611203,
    "value": "Mega Timur",
    "postal_code": "78393"
  },
  {
    "id": 611203,
    "province_id": 61,
    "regency_id": 6112,
    "district_id": 611203,
    "value": "Pancaroba",
    "postal_code": "78393"
  },
  {
    "id": 611203,
    "province_id": 61,
    "regency_id": 6112,
    "district_id": 611203,
    "value": "Pasak",
    "postal_code": "78393"
  },
  {
    "id": 611203,
    "province_id": 61,
    "regency_id": 6112,
    "district_id": 611203,
    "value": "Pasak Piang",
    "postal_code": "78393"
  },
  {
    "id": 611203,
    "province_id": 61,
    "regency_id": 6112,
    "district_id": 611203,
    "value": "Puguk",
    "postal_code": "78393"
  },
  {
    "id": 611203,
    "province_id": 61,
    "regency_id": 6112,
    "district_id": 611203,
    "value": "Simpang Kanan",
    "postal_code": "78393"
  },
  {
    "id": 611203,
    "province_id": 61,
    "regency_id": 6112,
    "district_id": 611203,
    "value": "Sungai Ambawang Kuala",
    "postal_code": "78393"
  },
  {
    "id": 611203,
    "province_id": 61,
    "regency_id": 6112,
    "district_id": 611203,
    "value": "Sungai Malaya",
    "postal_code": "78393"
  },
  {
    "id": 611203,
    "province_id": 61,
    "regency_id": 6112,
    "district_id": 611203,
    "value": "Teluk Bakung",
    "postal_code": "78393"
  }
]