[
  {
    "id": 730819,
    "province_id": 73,
    "regency_id": 7308,
    "district_id": 730819,
    "value": "Cabbeng",
    "postal_code": "92753"
  },
  {
    "id": 730819,
    "province_id": 73,
    "regency_id": 7308,
    "district_id": 730819,
    "value": "Kampoti",
    "postal_code": "92753"
  },
  {
    "id": 730819,
    "province_id": 73,
    "regency_id": 7308,
    "district_id": 730819,
    "value": "Laccori",
    "postal_code": "92753"
  },
  {
    "id": 730819,
    "province_id": 73,
    "regency_id": 7308,
    "district_id": 730819,
    "value": "Lallatang",
    "postal_code": "92753"
  },
  {
    "id": 730819,
    "province_id": 73,
    "regency_id": 7308,
    "district_id": 730819,
    "value": "Mario",
    "postal_code": "92753"
  },
  {
    "id": 730819,
    "province_id": 73,
    "regency_id": 7308,
    "district_id": 730819,
    "value": "Matajang",
    "postal_code": "92753"
  },
  {
    "id": 730819,
    "province_id": 73,
    "regency_id": 7308,
    "district_id": 730819,
    "value": "Melle",
    "postal_code": "92753"
  },
  {
    "id": 730819,
    "province_id": 73,
    "regency_id": 7308,
    "district_id": 730819,
    "value": "Padacenga (Pada Cengnga)",
    "postal_code": "92753"
  },
  {
    "id": 730819,
    "province_id": 73,
    "regency_id": 7308,
    "district_id": 730819,
    "value": "Pakkassalo (Pakkasalo)",
    "postal_code": "92753"
  },
  {
    "id": 730819,
    "province_id": 73,
    "regency_id": 7308,
    "district_id": 730819,
    "value": "Panyili",
    "postal_code": "92753"
  },
  {
    "id": 730819,
    "province_id": 73,
    "regency_id": 7308,
    "district_id": 730819,
    "value": "Pattiro",
    "postal_code": "92753"
  },
  {
    "id": 730819,
    "province_id": 73,
    "regency_id": 7308,
    "district_id": 730819,
    "value": "Praja Maju",
    "postal_code": "92753"
  },
  {
    "id": 730819,
    "province_id": 73,
    "regency_id": 7308,
    "district_id": 730819,
    "value": "Sailong",
    "postal_code": "92753"
  },
  {
    "id": 730819,
    "province_id": 73,
    "regency_id": 7308,
    "district_id": 730819,
    "value": "Sanrangeng",
    "postal_code": "92753"
  },
  {
    "id": 730819,
    "province_id": 73,
    "regency_id": 7308,
    "district_id": 730819,
    "value": "Solo",
    "postal_code": "92753"
  },
  {
    "id": 730819,
    "province_id": 73,
    "regency_id": 7308,
    "district_id": 730819,
    "value": "Tawaroe",
    "postal_code": "92753"
  },
  {
    "id": 730819,
    "province_id": 73,
    "regency_id": 7308,
    "district_id": 730819,
    "value": "Tempe",
    "postal_code": "92753"
  },
  {
    "id": 730819,
    "province_id": 73,
    "regency_id": 7308,
    "district_id": 730819,
    "value": "Tocina",
    "postal_code": "92753"
  },
  {
    "id": 730819,
    "province_id": 73,
    "regency_id": 7308,
    "district_id": 730819,
    "value": "Ujung",
    "postal_code": "92753"
  },
  {
    "id": 730819,
    "province_id": 73,
    "regency_id": 7308,
    "district_id": 730819,
    "value": "Uloe",
    "postal_code": "92753"
  },
  {
    "id": 730819,
    "province_id": 73,
    "regency_id": 7308,
    "district_id": 730819,
    "value": "Unyi (Unnyi)",
    "postal_code": "92753"
  },
  {
    "id": 730819,
    "province_id": 73,
    "regency_id": 7308,
    "district_id": 730819,
    "value": "Watang Padacenga (Turumame/Padacengnga)",
    "postal_code": "92753"
  }
]