[
  {
    "id": 5315022030,
    "province_id": 53,
    "regency_id": 5315,
    "district_id": 531502,
    "value": "Bangka Lewat",
    "postal_code": "86752"
  },
  {
    "id": 5315022018,
    "province_id": 53,
    "regency_id": 5315,
    "district_id": 531502,
    "value": "Benteng Suru",
    "postal_code": "86752"
  },
  {
    "id": 5315022002,
    "province_id": 53,
    "regency_id": 5315,
    "district_id": 531502,
    "value": "Coal",
    "postal_code": "86752"
  },
  {
    "id": 5315022017,
    "province_id": 53,
    "regency_id": 5315,
    "district_id": 531502,
    "value": "Compang Suka",
    "postal_code": "86752"
  },
  {
    "id": 5315022032,
    "province_id": 53,
    "regency_id": 5315,
    "district_id": 531502,
    "value": "Golo Pua",
    "postal_code": "86752"
  },
  {
    "id": 5315021022,
    "province_id": 53,
    "regency_id": 5315,
    "district_id": 531502,
    "value": "Golo Ru'u",
    "postal_code": "86752"
  },
  {
    "id": 5315022011,
    "province_id": 53,
    "regency_id": 5315,
    "district_id": 531502,
    "value": "Lawi",
    "postal_code": "86752"
  },
  {
    "id": 5315022010,
    "province_id": 53,
    "regency_id": 5315,
    "district_id": 531502,
    "value": "Lewur",
    "postal_code": "86752"
  },
  {
    "id": 5315021023,
    "province_id": 53,
    "regency_id": 5315,
    "district_id": 531502,
    "value": "Nantal",
    "postal_code": "86752"
  },
  {
    "id": 5315022004,
    "province_id": 53,
    "regency_id": 5315,
    "district_id": 531502,
    "value": "Pangga",
    "postal_code": "86752"
  },
  {
    "id": 5315022021,
    "province_id": 53,
    "regency_id": 5315,
    "district_id": 531502,
    "value": "Sama",
    "postal_code": "86752"
  },
  {
    "id": 5315022031,
    "province_id": 53,
    "regency_id": 5315,
    "district_id": 531502,
    "value": "Suka Kiong",
    "postal_code": "86752"
  }
]