[
  {
    "id": 741303,
    "province_id": 74,
    "regency_id": 7413,
    "district_id": 741303,
    "value": "Lagadi",
    "postal_code": "93651"
  },
  {
    "id": 741303,
    "province_id": 74,
    "regency_id": 7413,
    "district_id": 741303,
    "value": "Lalemba",
    "postal_code": "93651"
  },
  {
    "id": 741303,
    "province_id": 74,
    "regency_id": 7413,
    "district_id": 741303,
    "value": "Lapadaku",
    "postal_code": "93651"
  },
  {
    "id": 741303,
    "province_id": 74,
    "regency_id": 7413,
    "district_id": 741303,
    "value": "Latompe",
    "postal_code": "93651"
  },
  {
    "id": 741303,
    "province_id": 74,
    "regency_id": 7413,
    "district_id": 741303,
    "value": "Latugho",
    "postal_code": "93651"
  },
  {
    "id": 741303,
    "province_id": 74,
    "regency_id": 7413,
    "district_id": 741303,
    "value": "Madampi",
    "postal_code": "93651"
  },
  {
    "id": 741303,
    "province_id": 74,
    "regency_id": 7413,
    "district_id": 741303,
    "value": "Wamelai",
    "postal_code": "93651"
  },
  {
    "id": 741303,
    "province_id": 74,
    "regency_id": 7413,
    "district_id": 741303,
    "value": "Watumela",
    "postal_code": "93651"
  }
]