[
  {
    "id": 127101,
    "province_id": 12,
    "regency_id": 1271,
    "district_id": 127101,
    "value": "Kotamatsum III (Kota Matsum III)",
    "postal_code": "20215"
  },
  {
    "id": 127101,
    "province_id": 12,
    "regency_id": 1271,
    "district_id": 127101,
    "value": "Mesjid",
    "postal_code": "20213"
  },
  {
    "id": 127101,
    "province_id": 12,
    "regency_id": 1271,
    "district_id": 127101,
    "value": "Pandau Hulu I",
    "postal_code": "20211"
  },
  {
    "id": 127101,
    "province_id": 12,
    "regency_id": 1271,
    "district_id": 127101,
    "value": "Pasar Baru",
    "postal_code": "20212"
  },
  {
    "id": 127101,
    "province_id": 12,
    "regency_id": 1271,
    "district_id": 127101,
    "value": "Pasar Merah Barat",
    "postal_code": "20217"
  },
  {
    "id": 127101,
    "province_id": 12,
    "regency_id": 1271,
    "district_id": 127101,
    "value": "Pusat Pasar",
    "postal_code": "20212"
  },
  {
    "id": 127101,
    "province_id": 12,
    "regency_id": 1271,
    "district_id": 127101,
    "value": "Sei Rengas I",
    "postal_code": "20214"
  },
  {
    "id": 127101,
    "province_id": 12,
    "regency_id": 1271,
    "district_id": 127101,
    "value": "Sitirejo I (Siti Rejo I)",
    "postal_code": "20219"
  },
  {
    "id": 127101,
    "province_id": 12,
    "regency_id": 1271,
    "district_id": 127101,
    "value": "Sudirejo (Sudi Rejo I)",
    "postal_code": "20218"
  },
  {
    "id": 127101,
    "province_id": 12,
    "regency_id": 1271,
    "district_id": 127101,
    "value": "Sudirejo II (Sudi Rejo II)",
    "postal_code": "20218"
  },
  {
    "id": 127101,
    "province_id": 12,
    "regency_id": 1271,
    "district_id": 127101,
    "value": "Teladan Barat",
    "postal_code": "20217"
  },
  {
    "id": 127101,
    "province_id": 12,
    "regency_id": 1271,
    "district_id": 127101,
    "value": "Teladan Timur",
    "postal_code": "20217"
  }
]