[
  {
    "id": 321414,
    "province_id": 32,
    "regency_id": 3214,
    "district_id": 321414,
    "value": "Cibatu",
    "postal_code": "41182"
  },
  {
    "id": 321414,
    "province_id": 32,
    "regency_id": 3214,
    "district_id": 321414,
    "value": "Cibukamanah",
    "postal_code": "41182"
  },
  {
    "id": 321414,
    "province_id": 32,
    "regency_id": 3214,
    "district_id": 321414,
    "value": "Cikadu",
    "postal_code": "41182"
  },
  {
    "id": 321414,
    "province_id": 32,
    "regency_id": 3214,
    "district_id": 321414,
    "value": "Cilandak",
    "postal_code": "41182"
  },
  {
    "id": 321414,
    "province_id": 32,
    "regency_id": 3214,
    "district_id": 321414,
    "value": "Cipancur",
    "postal_code": "41182"
  },
  {
    "id": 321414,
    "province_id": 32,
    "regency_id": 3214,
    "district_id": 321414,
    "value": "Ciparungsari",
    "postal_code": "41182"
  },
  {
    "id": 321414,
    "province_id": 32,
    "regency_id": 3214,
    "district_id": 321414,
    "value": "Cipinang",
    "postal_code": "41182"
  },
  {
    "id": 321414,
    "province_id": 32,
    "regency_id": 3214,
    "district_id": 321414,
    "value": "Cirangkong",
    "postal_code": "41182"
  },
  {
    "id": 321414,
    "province_id": 32,
    "regency_id": 3214,
    "district_id": 321414,
    "value": "Karyamekar",
    "postal_code": "41182"
  },
  {
    "id": 321414,
    "province_id": 32,
    "regency_id": 3214,
    "district_id": 321414,
    "value": "Wanawali",
    "postal_code": "41182"
  }
]