[
  {
    "id": 810512,
    "province_id": 81,
    "regency_id": 8105,
    "district_id": 810512,
    "value": "Aki Jaya",
    "postal_code": "97522"
  },
  {
    "id": 810512,
    "province_id": 81,
    "regency_id": 8105,
    "district_id": 810512,
    "value": "Banggoi",
    "postal_code": "97522"
  },
  {
    "id": 810512,
    "province_id": 81,
    "regency_id": 8105,
    "district_id": 810512,
    "value": "Banggoi Pancorang",
    "postal_code": "97522"
  },
  {
    "id": 810512,
    "province_id": 81,
    "regency_id": 8105,
    "district_id": 810512,
    "value": "Dreamland Hills",
    "postal_code": "97522"
  },
  {
    "id": 810512,
    "province_id": 81,
    "regency_id": 8105,
    "district_id": 810512,
    "value": "Hote",
    "postal_code": "97522"
  },
  {
    "id": 810512,
    "province_id": 81,
    "regency_id": 8105,
    "district_id": 810512,
    "value": "Jakarta Baru",
    "postal_code": "97522"
  },
  {
    "id": 810512,
    "province_id": 81,
    "regency_id": 8105,
    "district_id": 810512,
    "value": "Jembatan Basah",
    "postal_code": "97522"
  },
  {
    "id": 810512,
    "province_id": 81,
    "regency_id": 8105,
    "district_id": 810512,
    "value": "Rukun Jaya",
    "postal_code": "97522"
  },
  {
    "id": 810512,
    "province_id": 81,
    "regency_id": 8105,
    "district_id": 810512,
    "value": "Silohan",
    "postal_code": "97522"
  },
  {
    "id": 810512,
    "province_id": 81,
    "regency_id": 8105,
    "district_id": 810512,
    "value": "Sumber Agung",
    "postal_code": "97522"
  },
  {
    "id": 810512,
    "province_id": 81,
    "regency_id": 8105,
    "district_id": 810512,
    "value": "Waematakabo",
    "postal_code": "97522"
  },
  {
    "id": 810512,
    "province_id": 81,
    "regency_id": 8105,
    "district_id": 810512,
    "value": "Waiketam Baru",
    "postal_code": "97522"
  },
  {
    "id": 810512,
    "province_id": 81,
    "regency_id": 8105,
    "district_id": 810512,
    "value": "Waisamet",
    "postal_code": "97522"
  }
]