[
  {
    "id": 330420,
    "province_id": 33,
    "regency_id": 3304,
    "district_id": 330420,
    "value": "Duren",
    "postal_code": "53418"
  },
  {
    "id": 330420,
    "province_id": 33,
    "regency_id": 3304,
    "district_id": 330420,
    "value": "Gentansari",
    "postal_code": "53418"
  },
  {
    "id": 330420,
    "province_id": 33,
    "regency_id": 3304,
    "district_id": 330420,
    "value": "Gunungjati",
    "postal_code": "53418"
  },
  {
    "id": 330420,
    "province_id": 33,
    "regency_id": 3304,
    "district_id": 330420,
    "value": "Kebutuhduwur",
    "postal_code": "53418"
  },
  {
    "id": 330420,
    "province_id": 33,
    "regency_id": 3304,
    "district_id": 330420,
    "value": "Kebutuhjurang",
    "postal_code": "53418"
  },
  {
    "id": 330420,
    "province_id": 33,
    "regency_id": 3304,
    "district_id": 330420,
    "value": "Lebakwangi",
    "postal_code": "53418"
  },
  {
    "id": 330420,
    "province_id": 33,
    "regency_id": 3304,
    "district_id": 330420,
    "value": "Pagedongan",
    "postal_code": "53418"
  },
  {
    "id": 330420,
    "province_id": 33,
    "regency_id": 3304,
    "district_id": 330420,
    "value": "Pesangkalan",
    "postal_code": "53418"
  },
  {
    "id": 330420,
    "province_id": 33,
    "regency_id": 3304,
    "district_id": 330420,
    "value": "Twelagiri",
    "postal_code": "53418"
  }
]