[
  {
    "id": 7305112007,
    "province_id": 73,
    "regency_id": 7305,
    "district_id": 730511,
    "value": "Balangtanaya",
    "postal_code": "92221"
  },
  {
    "id": 7305112003,
    "province_id": 73,
    "regency_id": 7305,
    "district_id": 730511,
    "value": "Barugaya",
    "postal_code": "92221"
  },
  {
    "id": 7305112002,
    "province_id": 73,
    "regency_id": 7305,
    "district_id": 730511,
    "value": "Kale Ko'mara",
    "postal_code": "92221"
  },
  {
    "id": 7305112008,
    "province_id": 73,
    "regency_id": 7305,
    "district_id": 730511,
    "value": "Kampung Beru",
    "postal_code": "92221"
  },
  {
    "id": 7305112001,
    "province_id": 73,
    "regency_id": 7305,
    "district_id": 730511,
    "value": "Ko'mara (Ko Mara)",
    "postal_code": "92221"
  },
  {
    "id": 7305112005,
    "province_id": 73,
    "regency_id": 7305,
    "district_id": 730511,
    "value": "Massamaturu",
    "postal_code": "92221"
  },
  {
    "id": 7305112004,
    "province_id": 73,
    "regency_id": 7305,
    "district_id": 730511,
    "value": "Parang Baddo",
    "postal_code": "92221"
  },
  {
    "id": 7305112006,
    "province_id": 73,
    "regency_id": 7305,
    "district_id": 730511,
    "value": "Timbuseng",
    "postal_code": "92221"
  }
]