[
  {
    "id": 352511,
    "province_id": 35,
    "regency_id": 3525,
    "district_id": 352511,
    "value": "Banjarsari",
    "postal_code": "61171"
  },
  {
    "id": 352511,
    "province_id": 35,
    "regency_id": 3525,
    "district_id": 352511,
    "value": "Betiting",
    "postal_code": "61171"
  },
  {
    "id": 352511,
    "province_id": 35,
    "regency_id": 3525,
    "district_id": 352511,
    "value": "Cagakagung",
    "postal_code": "61171"
  },
  {
    "id": 352511,
    "province_id": 35,
    "regency_id": 3525,
    "district_id": 352511,
    "value": "Cerme Kidul",
    "postal_code": "61171"
  },
  {
    "id": 352511,
    "province_id": 35,
    "regency_id": 3525,
    "district_id": 352511,
    "value": "Cerme Lor",
    "postal_code": "61171"
  },
  {
    "id": 352511,
    "province_id": 35,
    "regency_id": 3525,
    "district_id": 352511,
    "value": "Dadapkuning",
    "postal_code": "61171"
  },
  {
    "id": 352511,
    "province_id": 35,
    "regency_id": 3525,
    "district_id": 352511,
    "value": "Dampaan",
    "postal_code": "61171"
  },
  {
    "id": 352511,
    "province_id": 35,
    "regency_id": 3525,
    "district_id": 352511,
    "value": "Dooro",
    "postal_code": "61171"
  },
  {
    "id": 352511,
    "province_id": 35,
    "regency_id": 3525,
    "district_id": 352511,
    "value": "Dungus",
    "postal_code": "61171"
  },
  {
    "id": 352511,
    "province_id": 35,
    "regency_id": 3525,
    "district_id": 352511,
    "value": "Gedangkulud (Gedangkulut)",
    "postal_code": "61171"
  },
  {
    "id": 352511,
    "province_id": 35,
    "regency_id": 3525,
    "district_id": 352511,
    "value": "Guranganyar",
    "postal_code": "61171"
  },
  {
    "id": 352511,
    "province_id": 35,
    "regency_id": 3525,
    "district_id": 352511,
    "value": "Iker - iker Geger (Ikerikergeger)",
    "postal_code": "61171"
  },
  {
    "id": 352511,
    "province_id": 35,
    "regency_id": 3525,
    "district_id": 352511,
    "value": "Jono",
    "postal_code": "61171"
  },
  {
    "id": 352511,
    "province_id": 35,
    "regency_id": 3525,
    "district_id": 352511,
    "value": "Kambingan",
    "postal_code": "61171"
  },
  {
    "id": 352511,
    "province_id": 35,
    "regency_id": 3525,
    "district_id": 352511,
    "value": "Kandangan",
    "postal_code": "61171"
  },
  {
    "id": 352511,
    "province_id": 35,
    "regency_id": 3525,
    "district_id": 352511,
    "value": "Lengkong",
    "postal_code": "61171"
  },
  {
    "id": 352511,
    "province_id": 35,
    "regency_id": 3525,
    "district_id": 352511,
    "value": "Morowudi",
    "postal_code": "61171"
  },
  {
    "id": 352511,
    "province_id": 35,
    "regency_id": 3525,
    "district_id": 352511,
    "value": "Ngabetan",
    "postal_code": "61171"
  },
  {
    "id": 352511,
    "province_id": 35,
    "regency_id": 3525,
    "district_id": 352511,
    "value": "Ngembung",
    "postal_code": "61171"
  },
  {
    "id": 352511,
    "province_id": 35,
    "regency_id": 3525,
    "district_id": 352511,
    "value": "Padeg",
    "postal_code": "61171"
  },
  {
    "id": 352511,
    "province_id": 35,
    "regency_id": 3525,
    "district_id": 352511,
    "value": "Pandu",
    "postal_code": "61171"
  },
  {
    "id": 352511,
    "province_id": 35,
    "regency_id": 3525,
    "district_id": 352511,
    "value": "Semampir",
    "postal_code": "61171"
  },
  {
    "id": 352511,
    "province_id": 35,
    "regency_id": 3525,
    "district_id": 352511,
    "value": "Sukoanyar",
    "postal_code": "61171"
  },
  {
    "id": 352511,
    "province_id": 35,
    "regency_id": 3525,
    "district_id": 352511,
    "value": "Tambakberas",
    "postal_code": "61171"
  },
  {
    "id": 352511,
    "province_id": 35,
    "regency_id": 3525,
    "district_id": 352511,
    "value": "Wedani",
    "postal_code": "61171"
  }
]