[
  {
    "id": 3519052003,
    "province_id": 35,
    "regency_id": 3519,
    "district_id": 351905,
    "value": "Bodag",
    "postal_code": "63182"
  },
  {
    "id": 3519052004,
    "province_id": 35,
    "regency_id": 3519,
    "district_id": 351905,
    "value": "Bolo",
    "postal_code": "63182"
  },
  {
    "id": 3519052007,
    "province_id": 35,
    "regency_id": 3519,
    "district_id": 351905,
    "value": "Cermo",
    "postal_code": "63182"
  },
  {
    "id": 3519052001,
    "province_id": 35,
    "regency_id": 3519,
    "district_id": 351905,
    "value": "Kare",
    "postal_code": "63182"
  },
  {
    "id": 3519052002,
    "province_id": 35,
    "regency_id": 3519,
    "district_id": 351905,
    "value": "Kepel",
    "postal_code": "63182"
  },
  {
    "id": 3519052005,
    "province_id": 35,
    "regency_id": 3519,
    "district_id": 351905,
    "value": "Kuwiran",
    "postal_code": "63182"
  },
  {
    "id": 3519052008,
    "province_id": 35,
    "regency_id": 3519,
    "district_id": 351905,
    "value": "Morang",
    "postal_code": "63182"
  },
  {
    "id": 3519052006,
    "province_id": 35,
    "regency_id": 3519,
    "district_id": 351905,
    "value": "Randualas",
    "postal_code": "63182"
  }
]