[
  {
    "id": 3328082005,
    "province_id": 33,
    "regency_id": 3328,
    "district_id": 332808,
    "value": "Dukuhjati Wetan",
    "postal_code": "52472"
  },
  {
    "id": 3328082002,
    "province_id": 33,
    "regency_id": 3328,
    "district_id": 332808,
    "value": "Karanganyar (Karang Anyar)",
    "postal_code": "52472"
  },
  {
    "id": 3328082009,
    "province_id": 33,
    "regency_id": 3328,
    "district_id": 332808,
    "value": "Karangmalang",
    "postal_code": "52472"
  },
  {
    "id": 3328082008,
    "province_id": 33,
    "regency_id": 3328,
    "district_id": 332808,
    "value": "Kebandingan",
    "postal_code": "52472"
  },
  {
    "id": 3328082004,
    "province_id": 33,
    "regency_id": 3328,
    "district_id": 332808,
    "value": "Kedungbanteng (Kedung Banteng)",
    "postal_code": "52472"
  },
  {
    "id": 3328082007,
    "province_id": 33,
    "regency_id": 3328,
    "district_id": 332808,
    "value": "Margamulya",
    "postal_code": "52472"
  },
  {
    "id": 3328082001,
    "province_id": 33,
    "regency_id": 3328,
    "district_id": 332808,
    "value": "Penujah",
    "postal_code": "52472"
  },
  {
    "id": 3328082010,
    "province_id": 33,
    "regency_id": 3328,
    "district_id": 332808,
    "value": "Semedo",
    "postal_code": "52472"
  },
  {
    "id": 3328082006,
    "province_id": 33,
    "regency_id": 3328,
    "district_id": 332808,
    "value": "Sumingkir",
    "postal_code": "52472"
  },
  {
    "id": 3328082003,
    "province_id": 33,
    "regency_id": 3328,
    "district_id": 332808,
    "value": "Tonggara",
    "postal_code": "52472"
  }
]