[
  {
    "id": 127120,
    "province_id": 12,
    "regency_id": 1271,
    "district_id": 127120,
    "value": "Durian",
    "postal_code": "20235"
  },
  {
    "id": 127120,
    "province_id": 12,
    "regency_id": 1271,
    "district_id": 127120,
    "value": "Gaharu",
    "postal_code": "20235"
  },
  {
    "id": 127120,
    "province_id": 12,
    "regency_id": 1271,
    "district_id": 127120,
    "value": "Gang Buntu",
    "postal_code": "20231"
  },
  {
    "id": 127120,
    "province_id": 12,
    "regency_id": 1271,
    "district_id": 127120,
    "value": "Glugur Darat I",
    "postal_code": "20238"
  },
  {
    "id": 127120,
    "province_id": 12,
    "regency_id": 1271,
    "district_id": 127120,
    "value": "Glugur Darat II",
    "postal_code": "20238"
  },
  {
    "id": 127120,
    "province_id": 12,
    "regency_id": 1271,
    "district_id": 127120,
    "value": "P Berayan Bengkel (Pulo Brayan Bengkel)",
    "postal_code": "20239"
  },
  {
    "id": 127120,
    "province_id": 12,
    "regency_id": 1271,
    "district_id": 127120,
    "value": "P Berayan Darat I (Pulo Brayan Darat I)",
    "postal_code": "20239"
  },
  {
    "id": 127120,
    "province_id": 12,
    "regency_id": 1271,
    "district_id": 127120,
    "value": "P Berayan Darat II",
    "postal_code": "20239"
  },
  {
    "id": 127120,
    "province_id": 12,
    "regency_id": 1271,
    "district_id": 127120,
    "value": "PB Bengkel Baru (Pulo Brayan Bengkel Baru)",
    "postal_code": "20239"
  },
  {
    "id": 127120,
    "province_id": 12,
    "regency_id": 1271,
    "district_id": 127120,
    "value": "Perintis",
    "postal_code": "20231"
  },
  {
    "id": 127120,
    "province_id": 12,
    "regency_id": 1271,
    "district_id": 127120,
    "value": "Sidodadi",
    "postal_code": "20234"
  }
]