[
  {
    "id": 7413072002,
    "province_id": 74,
    "regency_id": 7413,
    "district_id": 741307,
    "value": "Labukolo",
    "postal_code": "93654"
  },
  {
    "id": 7413072007,
    "province_id": 74,
    "regency_id": 7413,
    "district_id": 741307,
    "value": "Lakabu",
    "postal_code": "93654"
  },
  {
    "id": 7413072003,
    "province_id": 74,
    "regency_id": 7413,
    "district_id": 741307,
    "value": "Langku Langku",
    "postal_code": "93654"
  },
  {
    "id": 7413072004,
    "province_id": 74,
    "regency_id": 7413,
    "district_id": 741307,
    "value": "Mekar Jaya",
    "postal_code": "93654"
  },
  {
    "id": 7413072006,
    "province_id": 74,
    "regency_id": 7413,
    "district_id": 741307,
    "value": "Momuntu",
    "postal_code": "93654"
  },
  {
    "id": 7413072008,
    "province_id": 74,
    "regency_id": 7413,
    "district_id": 741307,
    "value": "Suka Damai (Sukadamai)",
    "postal_code": "93654"
  },
  {
    "id": 7413072001,
    "province_id": 74,
    "regency_id": 7413,
    "district_id": 741307,
    "value": "Wanseriwu",
    "postal_code": "93654"
  },
  {
    "id": 7413072005,
    "province_id": 74,
    "regency_id": 7413,
    "district_id": 741307,
    "value": "Wapae Jaya",
    "postal_code": "93654"
  }
]