[
  {
    "id": 740522,
    "province_id": 74,
    "regency_id": 7405,
    "district_id": 740522,
    "value": "Ambeko (Abeko)",
    "postal_code": "93871"
  },
  {
    "id": 740522,
    "province_id": 74,
    "regency_id": 7405,
    "district_id": 740522,
    "value": "Amokuni",
    "postal_code": "93871"
  },
  {
    "id": 740522,
    "province_id": 74,
    "regency_id": 7405,
    "district_id": 740522,
    "value": "Boro-Boro Lameuru",
    "postal_code": "93871"
  },
  {
    "id": 740522,
    "province_id": 74,
    "regency_id": 7405,
    "district_id": 740522,
    "value": "Jati Bali",
    "postal_code": "93871"
  },
  {
    "id": 740522,
    "province_id": 74,
    "regency_id": 7405,
    "district_id": 740522,
    "value": "Laikandonga",
    "postal_code": "93871"
  },
  {
    "id": 740522,
    "province_id": 74,
    "regency_id": 7405,
    "district_id": 740522,
    "value": "Lameruru (Lameuru)",
    "postal_code": "93871"
  },
  {
    "id": 740522,
    "province_id": 74,
    "regency_id": 7405,
    "district_id": 740522,
    "value": "Opaasi",
    "postal_code": "93871"
  },
  {
    "id": 740522,
    "province_id": 74,
    "regency_id": 7405,
    "district_id": 740522,
    "value": "Sindang Kasih",
    "postal_code": "93871"
  },
  {
    "id": 740522,
    "province_id": 74,
    "regency_id": 7405,
    "district_id": 740522,
    "value": "Tunduno",
    "postal_code": "93871"
  }
]