[
  {
    "id": 7210152005,
    "province_id": 72,
    "regency_id": 7210,
    "district_id": 721015,
    "value": "Dombu",
    "postal_code": "94374"
  },
  {
    "id": 7210152012,
    "province_id": 72,
    "regency_id": 7210,
    "district_id": 721015,
    "value": "Lemosiranindi",
    "postal_code": "94374"
  },
  {
    "id": 7210152004,
    "province_id": 72,
    "regency_id": 7210,
    "district_id": 721015,
    "value": "Lewara",
    "postal_code": "94374"
  },
  {
    "id": 7210152003,
    "province_id": 72,
    "regency_id": 7210,
    "district_id": 721015,
    "value": "Matantimali",
    "postal_code": "94374"
  },
  {
    "id": 7210152009,
    "province_id": 72,
    "regency_id": 7210,
    "district_id": 721015,
    "value": "Ongulero",
    "postal_code": "94374"
  },
  {
    "id": 7210152008,
    "province_id": 72,
    "regency_id": 7210,
    "district_id": 721015,
    "value": "Panasibaja",
    "postal_code": "94374"
  },
  {
    "id": 7210152006,
    "province_id": 72,
    "regency_id": 7210,
    "district_id": 721015,
    "value": "Soi",
    "postal_code": "94374"
  },
  {
    "id": 7210152002,
    "province_id": 72,
    "regency_id": 7210,
    "district_id": 721015,
    "value": "Taipanggabe",
    "postal_code": "94374"
  },
  {
    "id": 7210152011,
    "province_id": 72,
    "regency_id": 7210,
    "district_id": 721015,
    "value": "Wawujai",
    "postal_code": "94374"
  },
  {
    "id": 7210152001,
    "province_id": 72,
    "regency_id": 7210,
    "district_id": 721015,
    "value": "Wayu",
    "postal_code": "94374"
  },
  {
    "id": 7210152010,
    "province_id": 72,
    "regency_id": 7210,
    "district_id": 721015,
    "value": "Wiapore",
    "postal_code": "94374"
  },
  {
    "id": 7210152007,
    "province_id": 72,
    "regency_id": 7210,
    "district_id": 721015,
    "value": "Wugaga",
    "postal_code": "94374"
  }
]