[
  {
    "id": 810801,
    "province_id": 81,
    "regency_id": 8108,
    "district_id": 810801,
    "value": "Kaiwatu",
    "postal_code": "97442"
  },
  {
    "id": 810801,
    "province_id": 81,
    "regency_id": 8108,
    "district_id": 810801,
    "value": "Klis",
    "postal_code": "97442"
  },
  {
    "id": 810801,
    "province_id": 81,
    "regency_id": 8108,
    "district_id": 810801,
    "value": "Moain",
    "postal_code": "97442"
  },
  {
    "id": 810801,
    "province_id": 81,
    "regency_id": 8108,
    "district_id": 810801,
    "value": "Patti",
    "postal_code": "97442"
  },
  {
    "id": 810801,
    "province_id": 81,
    "regency_id": 8108,
    "district_id": 810801,
    "value": "Tiakur",
    "postal_code": "97442"
  },
  {
    "id": 810801,
    "province_id": 81,
    "regency_id": 8108,
    "district_id": 810801,
    "value": "Tounwawan",
    "postal_code": "97442"
  },
  {
    "id": 810801,
    "province_id": 81,
    "regency_id": 8108,
    "district_id": 810801,
    "value": "Wakarleli",
    "postal_code": "97442"
  },
  {
    "id": 810801,
    "province_id": 81,
    "regency_id": 8108,
    "district_id": 810801,
    "value": "Werwaru",
    "postal_code": "97442"
  }
]