[
  {
    "id": 3515062008,
    "province_id": 35,
    "regency_id": 3515,
    "district_id": 351506,
    "value": "Banjarasri (Banjar Asri)",
    "postal_code": "61272"
  },
  {
    "id": 3515062009,
    "province_id": 35,
    "regency_id": 3515,
    "district_id": 351506,
    "value": "Banjarpanji (Banjar Panji)",
    "postal_code": "61272"
  },
  {
    "id": 3515062015,
    "province_id": 35,
    "regency_id": 3515,
    "district_id": 351506,
    "value": "Boro",
    "postal_code": "61272"
  },
  {
    "id": 3515062018,
    "province_id": 35,
    "regency_id": 3515,
    "district_id": 351506,
    "value": "Ganggangpanjang (Ganggang Panjang)",
    "postal_code": "61272"
  },
  {
    "id": 3515062005,
    "province_id": 35,
    "regency_id": 3515,
    "district_id": 351506,
    "value": "Gempolsari (Gempol Sari)",
    "postal_code": "61272"
  },
  {
    "id": 3515062011,
    "province_id": 35,
    "regency_id": 3515,
    "district_id": 351506,
    "value": "Kalidawir",
    "postal_code": "61272"
  },
  {
    "id": 3515062001,
    "province_id": 35,
    "regency_id": 3515,
    "district_id": 351506,
    "value": "Kalisampurno",
    "postal_code": "61272"
  },
  {
    "id": 3515062004,
    "province_id": 35,
    "regency_id": 3515,
    "district_id": 351506,
    "value": "Kalitengah",
    "postal_code": "61272"
  },
  {
    "id": 3515062016,
    "province_id": 35,
    "regency_id": 3515,
    "district_id": 351506,
    "value": "Kedensari",
    "postal_code": "61272"
  },
  {
    "id": 3515062010,
    "province_id": 35,
    "regency_id": 3515,
    "district_id": 351506,
    "value": "Kedungbanteng (Kedung Banteng)",
    "postal_code": "61272"
  },
  {
    "id": 3515062002,
    "province_id": 35,
    "regency_id": 3515,
    "district_id": 351506,
    "value": "Ketapang",
    "postal_code": "61272"
  },
  {
    "id": 3515062017,
    "province_id": 35,
    "regency_id": 3515,
    "district_id": 351506,
    "value": "Ketegan",
    "postal_code": "61272"
  },
  {
    "id": 3515062014,
    "province_id": 35,
    "regency_id": 3515,
    "district_id": 351506,
    "value": "Kludan",
    "postal_code": "61272"
  },
  {
    "id": 3515062013,
    "province_id": 35,
    "regency_id": 3515,
    "district_id": 351506,
    "value": "Ngaban",
    "postal_code": "61272"
  },
  {
    "id": 3515062007,
    "province_id": 35,
    "regency_id": 3515,
    "district_id": 351506,
    "value": "Penatarsewu",
    "postal_code": "61272"
  },
  {
    "id": 3515062012,
    "province_id": 35,
    "regency_id": 3515,
    "district_id": 351506,
    "value": "Putat",
    "postal_code": "61272"
  },
  {
    "id": 3515062019,
    "province_id": 35,
    "regency_id": 3515,
    "district_id": 351506,
    "value": "Randegan",
    "postal_code": "61272"
  },
  {
    "id": 3515062006,
    "province_id": 35,
    "regency_id": 3515,
    "district_id": 351506,
    "value": "Sentul",
    "postal_code": "61272"
  }
]