[
  {
    "id": 3529062012,
    "province_id": 35,
    "regency_id": 3529,
    "district_id": 352906,
    "value": "Aengtongtong",
    "postal_code": "69467"
  },
  {
    "id": 3529062011,
    "province_id": 35,
    "regency_id": 3529,
    "district_id": 352906,
    "value": "Juluk",
    "postal_code": "69467"
  },
  {
    "id": 3529062014,
    "province_id": 35,
    "regency_id": 3529,
    "district_id": 352906,
    "value": "Kambingan Timur",
    "postal_code": "69467"
  },
  {
    "id": 3529062005,
    "province_id": 35,
    "regency_id": 3529,
    "district_id": 352906,
    "value": "Kebundadap Barat",
    "postal_code": "69467"
  },
  {
    "id": 3529062003,
    "province_id": 35,
    "regency_id": 3529,
    "district_id": 352906,
    "value": "Kebundadap Timur",
    "postal_code": "69467"
  },
  {
    "id": 3529062004,
    "province_id": 35,
    "regency_id": 3529,
    "district_id": 352906,
    "value": "Langsar",
    "postal_code": "69467"
  },
  {
    "id": 3529062010,
    "province_id": 35,
    "regency_id": 3529,
    "district_id": 352906,
    "value": "Moangan (Muangan)",
    "postal_code": "69467"
  },
  {
    "id": 3529062008,
    "province_id": 35,
    "regency_id": 3529,
    "district_id": 352906,
    "value": "Nambakor",
    "postal_code": "69467"
  },
  {
    "id": 3529062001,
    "province_id": 35,
    "regency_id": 3529,
    "district_id": 352906,
    "value": "Pagar Batu (Pagarbatu)",
    "postal_code": "69467"
  },
  {
    "id": 3529062006,
    "province_id": 35,
    "regency_id": 3529,
    "district_id": 352906,
    "value": "Saroka",
    "postal_code": "69467"
  },
  {
    "id": 3529062009,
    "province_id": 35,
    "regency_id": 3529,
    "district_id": 352906,
    "value": "Saronggi",
    "postal_code": "69467"
  },
  {
    "id": 3529062013,
    "province_id": 35,
    "regency_id": 3529,
    "district_id": 352906,
    "value": "Talang",
    "postal_code": "69467"
  },
  {
    "id": 3529062007,
    "province_id": 35,
    "regency_id": 3529,
    "district_id": 352906,
    "value": "Tanamerah (Tanah Merah)",
    "postal_code": "69467"
  },
  {
    "id": 3529062002,
    "province_id": 35,
    "regency_id": 3529,
    "district_id": 352906,
    "value": "Tanjung",
    "postal_code": "69467"
  }
]