[
  {
    "id": 360120,
    "province_id": 36,
    "regency_id": 3601,
    "district_id": 360120,
    "value": "Bandung",
    "postal_code": "42252"
  },
  {
    "id": 360120,
    "province_id": 36,
    "regency_id": 3601,
    "district_id": 360120,
    "value": "Banjar",
    "postal_code": "42252"
  },
  {
    "id": 360120,
    "province_id": 36,
    "regency_id": 3601,
    "district_id": 360120,
    "value": "Cibeureum",
    "postal_code": "42252"
  },
  {
    "id": 360120,
    "province_id": 36,
    "regency_id": 3601,
    "district_id": 360120,
    "value": "Cibodas",
    "postal_code": "42252"
  },
  {
    "id": 360120,
    "province_id": 36,
    "regency_id": 3601,
    "district_id": 360120,
    "value": "Citalahab",
    "postal_code": "42252"
  },
  {
    "id": 360120,
    "province_id": 36,
    "regency_id": 3601,
    "district_id": 360120,
    "value": "Gunungputri",
    "postal_code": "42252"
  },
  {
    "id": 360120,
    "province_id": 36,
    "regency_id": 3601,
    "district_id": 360120,
    "value": "Kadubale",
    "postal_code": "42252"
  },
  {
    "id": 360120,
    "province_id": 36,
    "regency_id": 3601,
    "district_id": 360120,
    "value": "Kadulimus",
    "postal_code": "42252"
  },
  {
    "id": 360120,
    "province_id": 36,
    "regency_id": 3601,
    "district_id": 360120,
    "value": "Kadumaneuh",
    "postal_code": "42252"
  },
  {
    "id": 360120,
    "province_id": 36,
    "regency_id": 3601,
    "district_id": 360120,
    "value": "Mogana",
    "postal_code": "42252"
  },
  {
    "id": 360120,
    "province_id": 36,
    "regency_id": 3601,
    "district_id": 360120,
    "value": "Pasirawi",
    "postal_code": "42252"
  }
]