[
  {
    "id": 3313091008,
    "province_id": 33,
    "regency_id": 3313,
    "district_id": 331309,
    "value": "Bejen",
    "postal_code": "57716"
  },
  {
    "id": 3313091002,
    "province_id": 33,
    "regency_id": 3313,
    "district_id": 331309,
    "value": "Bolong",
    "postal_code": "57716"
  },
  {
    "id": 3313091006,
    "province_id": 33,
    "regency_id": 3313,
    "district_id": 331309,
    "value": "Cangakan",
    "postal_code": "57712"
  },
  {
    "id": 3313091011,
    "province_id": 33,
    "regency_id": 3313,
    "district_id": 331309,
    "value": "Delingan",
    "postal_code": "57716"
  },
  {
    "id": 3313091010,
    "province_id": 33,
    "regency_id": 3313,
    "district_id": 331309,
    "value": "Gayamdompo",
    "postal_code": "57716"
  },
  {
    "id": 3313091012,
    "province_id": 33,
    "regency_id": 3313,
    "district_id": 331309,
    "value": "Gedong",
    "postal_code": "57716"
  },
  {
    "id": 3313091003,
    "province_id": 33,
    "regency_id": 3313,
    "district_id": 331309,
    "value": "Jantiharjo",
    "postal_code": "57716"
  },
  {
    "id": 3313091005,
    "province_id": 33,
    "regency_id": 3313,
    "district_id": 331309,
    "value": "Jungke",
    "postal_code": "57713"
  },
  {
    "id": 3313091007,
    "province_id": 33,
    "regency_id": 3313,
    "district_id": 331309,
    "value": "Karanganyar",
    "postal_code": "57711"
  },
  {
    "id": 3313091001,
    "province_id": 33,
    "regency_id": 3313,
    "district_id": 331309,
    "value": "Lalung",
    "postal_code": "57716"
  },
  {
    "id": 3313091009,
    "province_id": 33,
    "regency_id": 3313,
    "district_id": 331309,
    "value": "Popongan",
    "postal_code": "57715"
  },
  {
    "id": 3313091004,
    "province_id": 33,
    "regency_id": 3313,
    "district_id": 331309,
    "value": "Tegalgede",
    "postal_code": "57714"
  }
]