[
  {
    "id": 710522,
    "province_id": 71,
    "regency_id": 7105,
    "district_id": 710522,
    "value": "Karimbow",
    "postal_code": "95943"
  },
  {
    "id": 710522,
    "province_id": 71,
    "regency_id": 7105,
    "district_id": 710522,
    "value": "Karimbow Talikuran",
    "postal_code": "95943"
  },
  {
    "id": 710522,
    "province_id": 71,
    "regency_id": 7105,
    "district_id": 710522,
    "value": "Picuan",
    "postal_code": "95943"
  },
  {
    "id": 710522,
    "province_id": 71,
    "regency_id": 7105,
    "district_id": 710522,
    "value": "Picuan Satu",
    "postal_code": "95943"
  },
  {
    "id": 710522,
    "province_id": 71,
    "regency_id": 7105,
    "district_id": 710522,
    "value": "Tokin",
    "postal_code": "95943"
  },
  {
    "id": 710522,
    "province_id": 71,
    "regency_id": 7105,
    "district_id": 710522,
    "value": "Tokin Baru",
    "postal_code": "95943"
  },
  {
    "id": 710522,
    "province_id": 71,
    "regency_id": 7105,
    "district_id": 710522,
    "value": "Wanga",
    "postal_code": "95943"
  },
  {
    "id": 710522,
    "province_id": 71,
    "regency_id": 7105,
    "district_id": 710522,
    "value": "Wanga Amongena",
    "postal_code": "95943"
  }
]