[
  {
    "id": 120514,
    "province_id": 12,
    "regency_id": 1205,
    "district_id": 120514,
    "value": "Berandan Barat (Brandan Barat)",
    "postal_code": "20857"
  },
  {
    "id": 120514,
    "province_id": 12,
    "regency_id": 1205,
    "district_id": 120514,
    "value": "Berandan Timur (Brandan Timur)",
    "postal_code": "20857"
  },
  {
    "id": 120514,
    "province_id": 12,
    "regency_id": 1205,
    "district_id": 120514,
    "value": "Berandan Timur Baru (Brandan Timur Baru)",
    "postal_code": "20857"
  },
  {
    "id": 120514,
    "province_id": 12,
    "regency_id": 1205,
    "district_id": 120514,
    "value": "Pelawi Selatan",
    "postal_code": "20857"
  },
  {
    "id": 120514,
    "province_id": 12,
    "regency_id": 1205,
    "district_id": 120514,
    "value": "Pelawi Utara",
    "postal_code": "20857"
  },
  {
    "id": 120514,
    "province_id": 12,
    "regency_id": 1205,
    "district_id": 120514,
    "value": "Securai Selatan",
    "postal_code": "20857"
  },
  {
    "id": 120514,
    "province_id": 12,
    "regency_id": 1205,
    "district_id": 120514,
    "value": "Securai Utara",
    "postal_code": "20857"
  },
  {
    "id": 120514,
    "province_id": 12,
    "regency_id": 1205,
    "district_id": 120514,
    "value": "Teluk Meku",
    "postal_code": "20857"
  }
]