[
  {
    "id": 7317032005,
    "province_id": 73,
    "regency_id": 7317,
    "district_id": 731703,
    "value": "Botta",
    "postal_code": "91985"
  },
  {
    "id": 7317032008,
    "province_id": 73,
    "regency_id": 7317,
    "district_id": 731703,
    "value": "Buntu Kunyi",
    "postal_code": "91985"
  },
  {
    "id": 7317032013,
    "province_id": 73,
    "regency_id": 7317,
    "district_id": 731703,
    "value": "Cakkeawo",
    "postal_code": "91985"
  },
  {
    "id": 7317032006,
    "province_id": 73,
    "regency_id": 7317,
    "district_id": 731703,
    "value": "Cimpu",
    "postal_code": "91985"
  },
  {
    "id": 7317032017,
    "province_id": 73,
    "regency_id": 7317,
    "district_id": 731703,
    "value": "Cimpu Utara",
    "postal_code": "91985"
  },
  {
    "id": 7317032012,
    "province_id": 73,
    "regency_id": 7317,
    "district_id": 731703,
    "value": "Kasiwiang",
    "postal_code": "91985"
  },
  {
    "id": 7317032015,
    "province_id": 73,
    "regency_id": 7317,
    "district_id": 731703,
    "value": "Lempopacci (Lempo Pacci)",
    "postal_code": "91985"
  },
  {
    "id": 7317032004,
    "province_id": 73,
    "regency_id": 7317,
    "district_id": 731703,
    "value": "Malela",
    "postal_code": "91985"
  },
  {
    "id": 7317032002,
    "province_id": 73,
    "regency_id": 7317,
    "district_id": 731703,
    "value": "Murante",
    "postal_code": "91985"
  },
  {
    "id": 7317032011,
    "province_id": 73,
    "regency_id": 7317,
    "district_id": 731703,
    "value": "Padang Lambe",
    "postal_code": "91985"
  },
  {
    "id": 7317032018,
    "province_id": 73,
    "regency_id": 7317,
    "district_id": 731703,
    "value": "Papakaju",
    "postal_code": "91985"
  },
  {
    "id": 7317031003,
    "province_id": 73,
    "regency_id": 7317,
    "district_id": 731703,
    "value": "Suli",
    "postal_code": "91985"
  },
  {
    "id": 7317032016,
    "province_id": 73,
    "regency_id": 7317,
    "district_id": 731703,
    "value": "Towondo (Towondu)",
    "postal_code": "91985"
  }
]