[
  {
    "id": 320708,
    "province_id": 32,
    "regency_id": 3207,
    "district_id": 320708,
    "value": "Bahara",
    "postal_code": "46264"
  },
  {
    "id": 320708,
    "province_id": 32,
    "regency_id": 3207,
    "district_id": 320708,
    "value": "Ciomas",
    "postal_code": "46264"
  },
  {
    "id": 320708,
    "province_id": 32,
    "regency_id": 3207,
    "district_id": 320708,
    "value": "Hujungtiwu",
    "postal_code": "46264"
  },
  {
    "id": 320708,
    "province_id": 32,
    "regency_id": 3207,
    "district_id": 320708,
    "value": "Kertamandala",
    "postal_code": "46264"
  },
  {
    "id": 320708,
    "province_id": 32,
    "regency_id": 3207,
    "district_id": 320708,
    "value": "Mandalare",
    "postal_code": "46264"
  },
  {
    "id": 320708,
    "province_id": 32,
    "regency_id": 3207,
    "district_id": 320708,
    "value": "Maparah",
    "postal_code": "46264"
  },
  {
    "id": 320708,
    "province_id": 32,
    "regency_id": 3207,
    "district_id": 320708,
    "value": "Panjalu",
    "postal_code": "46264"
  },
  {
    "id": 320708,
    "province_id": 32,
    "regency_id": 3207,
    "district_id": 320708,
    "value": "Sandingtaman",
    "postal_code": "46264"
  }
]