[
  {
    "id": 1115062019,
    "province_id": 11,
    "regency_id": 1115,
    "district_id": 111506,
    "value": "Alue Gajah",
    "postal_code": "23674"
  },
  {
    "id": 1115062002,
    "province_id": 11,
    "regency_id": 1115,
    "district_id": 111506,
    "value": "Alue Kambuk/Kambuek",
    "postal_code": "23674"
  },
  {
    "id": 1115062018,
    "province_id": 11,
    "regency_id": 1115,
    "district_id": 111506,
    "value": "Alue Peusaja",
    "postal_code": "23674"
  },
  {
    "id": 1115062014,
    "province_id": 11,
    "regency_id": 1115,
    "district_id": 111506,
    "value": "Blang Muling (Blang Mulieng)",
    "postal_code": "23674"
  },
  {
    "id": 1115062010,
    "province_id": 11,
    "regency_id": 1115,
    "district_id": 111506,
    "value": "Blang Sapek",
    "postal_code": "23674"
  },
  {
    "id": 1115062007,
    "province_id": 11,
    "regency_id": 1115,
    "district_id": 111506,
    "value": "Cot Kuta",
    "postal_code": "23674"
  },
  {
    "id": 1115062009,
    "province_id": 11,
    "regency_id": 1115,
    "district_id": 111506,
    "value": "Cot Peradi/Peuradi",
    "postal_code": "23674"
  },
  {
    "id": 1115062012,
    "province_id": 11,
    "regency_id": 1115,
    "district_id": 111506,
    "value": "Gampong Teungoh",
    "postal_code": "23674"
  },
  {
    "id": 1115062008,
    "province_id": 11,
    "regency_id": 1115,
    "district_id": 111506,
    "value": "Kabu Blang Sapek",
    "postal_code": "23674"
  },
  {
    "id": 1115062015,
    "province_id": 11,
    "regency_id": 1115,
    "district_id": 111506,
    "value": "Krak Tampai",
    "postal_code": "23674"
  },
  {
    "id": 1115062017,
    "province_id": 11,
    "regency_id": 1115,
    "district_id": 111506,
    "value": "Kuta Baro Blang Muling (Kuta Baro Blang Mulieng)",
    "postal_code": "23674"
  },
  {
    "id": 1115062003,
    "province_id": 11,
    "regency_id": 1115,
    "district_id": 111506,
    "value": "Kuta Padang",
    "postal_code": "23674"
  },
  {
    "id": 1115062011,
    "province_id": 11,
    "regency_id": 1115,
    "district_id": 111506,
    "value": "Lhok Beutong",
    "postal_code": "23674"
  },
  {
    "id": 1115062013,
    "province_id": 11,
    "regency_id": 1115,
    "district_id": 111506,
    "value": "Lhok Rameuan (Lhok Rameun)",
    "postal_code": "23674"
  },
  {
    "id": 1115062001,
    "province_id": 11,
    "regency_id": 1115,
    "district_id": 111506,
    "value": "Lueng Baro",
    "postal_code": "23674"
  },
  {
    "id": 1115062005,
    "province_id": 11,
    "regency_id": 1115,
    "district_id": 111506,
    "value": "Macah",
    "postal_code": "23674"
  },
  {
    "id": 1115062016,
    "province_id": 11,
    "regency_id": 1115,
    "district_id": 111506,
    "value": "Meureubo",
    "postal_code": "23674"
  },
  {
    "id": 1115062006,
    "province_id": 11,
    "regency_id": 1115,
    "district_id": 111506,
    "value": "Seumambek",
    "postal_code": "23674"
  },
  {
    "id": 1115062004,
    "province_id": 11,
    "regency_id": 1115,
    "district_id": 111506,
    "value": "Suak Bilie",
    "postal_code": "23674"
  }
]