[
  {
    "id": 9404132008,
    "province_id": 94,
    "regency_id": 9404,
    "district_id": 940413,
    "value": "Amole",
    "postal_code": "99951"
  },
  {
    "id": 9404132005,
    "province_id": 94,
    "regency_id": 9404,
    "district_id": 940413,
    "value": "Bintang Lima",
    "postal_code": "99951"
  },
  {
    "id": 9404132006,
    "province_id": 94,
    "regency_id": 9404,
    "district_id": 940413,
    "value": "Damai",
    "postal_code": "99951"
  },
  {
    "id": 9404131001,
    "province_id": 94,
    "regency_id": 9404,
    "district_id": 940413,
    "value": "Harapan",
    "postal_code": "99951"
  },
  {
    "id": 9404132009,
    "province_id": 94,
    "regency_id": 9404,
    "district_id": 940413,
    "value": "Lamopi",
    "postal_code": "99951"
  },
  {
    "id": 9404132003,
    "province_id": 94,
    "regency_id": 9404,
    "district_id": 940413,
    "value": "Landun Mekar",
    "postal_code": "99951"
  },
  {
    "id": 9404132002,
    "province_id": 94,
    "regency_id": 9404,
    "district_id": 940413,
    "value": "Meekurima",
    "postal_code": "99951"
  },
  {
    "id": 9404132004,
    "province_id": 94,
    "regency_id": 9404,
    "district_id": 940413,
    "value": "Olaroa",
    "postal_code": "99951"
  },
  {
    "id": 9404132010,
    "province_id": 94,
    "regency_id": 9404,
    "district_id": 940413,
    "value": "Tunas Matoa",
    "postal_code": "99951"
  },
  {
    "id": 9404132007,
    "province_id": 94,
    "regency_id": 9404,
    "district_id": 940413,
    "value": "Walani",
    "postal_code": "99951"
  }
]