[
  {
    "id": 3307042002,
    "province_id": 33,
    "regency_id": 3307,
    "district_id": 330704,
    "value": "Bendungan",
    "postal_code": "56364"
  },
  {
    "id": 3307042017,
    "province_id": 33,
    "regency_id": 3307,
    "district_id": 330704,
    "value": "Cledok",
    "postal_code": "56364"
  },
  {
    "id": 3307042011,
    "province_id": 33,
    "regency_id": 3307,
    "district_id": 330704,
    "value": "Gambaran",
    "postal_code": "56364"
  },
  {
    "id": 3307042013,
    "province_id": 33,
    "regency_id": 3307,
    "district_id": 330704,
    "value": "Grugu",
    "postal_code": "56364"
  },
  {
    "id": 3307042007,
    "province_id": 33,
    "regency_id": 3307,
    "district_id": 330704,
    "value": "Kaliguwo",
    "postal_code": "56364"
  },
  {
    "id": 3307041015,
    "province_id": 33,
    "regency_id": 3307,
    "district_id": 330704,
    "value": "Kaliwiro",
    "postal_code": "56364"
  },
  {
    "id": 3307042016,
    "province_id": 33,
    "regency_id": 3307,
    "district_id": 330704,
    "value": "Kauman",
    "postal_code": "56364"
  },
  {
    "id": 3307042020,
    "province_id": 33,
    "regency_id": 3307,
    "district_id": 330704,
    "value": "Kemiriombo",
    "postal_code": "56364"
  },
  {
    "id": 3307042009,
    "province_id": 33,
    "regency_id": 3307,
    "district_id": 330704,
    "value": "Lamuk",
    "postal_code": "56364"
  },
  {
    "id": 3307042005,
    "province_id": 33,
    "regency_id": 3307,
    "district_id": 330704,
    "value": "Lebak",
    "postal_code": "56364"
  },
  {
    "id": 3307042003,
    "province_id": 33,
    "regency_id": 3307,
    "district_id": 330704,
    "value": "Medono",
    "postal_code": "56364"
  },
  {
    "id": 3307042004,
    "province_id": 33,
    "regency_id": 3307,
    "district_id": 330704,
    "value": "Ngadisono",
    "postal_code": "56364"
  },
  {
    "id": 3307042006,
    "province_id": 33,
    "regency_id": 3307,
    "district_id": 330704,
    "value": "Ngasinan",
    "postal_code": "56364"
  },
  {
    "id": 3307042008,
    "province_id": 33,
    "regency_id": 3307,
    "district_id": 330704,
    "value": "Pesodongan",
    "postal_code": "56364"
  },
  {
    "id": 3307042010,
    "province_id": 33,
    "regency_id": 3307,
    "district_id": 330704,
    "value": "Pucungkerep",
    "postal_code": "56364"
  },
  {
    "id": 3307042012,
    "province_id": 33,
    "regency_id": 3307,
    "district_id": 330704,
    "value": "Purwosari",
    "postal_code": "56364"
  },
  {
    "id": 3307042001,
    "province_id": 33,
    "regency_id": 3307,
    "district_id": 330704,
    "value": "Selomanik",
    "postal_code": "56364"
  },
  {
    "id": 3307042019,
    "province_id": 33,
    "regency_id": 3307,
    "district_id": 330704,
    "value": "Sukoreno",
    "postal_code": "56364"
  },
  {
    "id": 3307042021,
    "province_id": 33,
    "regency_id": 3307,
    "district_id": 330704,
    "value": "Tanjunganom",
    "postal_code": "56364"
  },
  {
    "id": 3307042014,
    "province_id": 33,
    "regency_id": 3307,
    "district_id": 330704,
    "value": "Tracap",
    "postal_code": "56364"
  },
  {
    "id": 3307042018,
    "province_id": 33,
    "regency_id": 3307,
    "district_id": 330704,
    "value": "Winongsari",
    "postal_code": "56364"
  }
]