[
  {
    "id": 350708,
    "province_id": 35,
    "regency_id": 3507,
    "district_id": 350708,
    "value": "Bambang",
    "postal_code": "65173"
  },
  {
    "id": 350708,
    "province_id": 35,
    "regency_id": 3507,
    "district_id": 350708,
    "value": "Blayu",
    "postal_code": "65173"
  },
  {
    "id": 350708,
    "province_id": 35,
    "regency_id": 3507,
    "district_id": 350708,
    "value": "Bringin",
    "postal_code": "65173"
  },
  {
    "id": 350708,
    "province_id": 35,
    "regency_id": 3507,
    "district_id": 350708,
    "value": "Codo",
    "postal_code": "65173"
  },
  {
    "id": 350708,
    "province_id": 35,
    "regency_id": 3507,
    "district_id": 350708,
    "value": "Dadapan",
    "postal_code": "65173"
  },
  {
    "id": 350708,
    "province_id": 35,
    "regency_id": 3507,
    "district_id": 350708,
    "value": "Kidangbang",
    "postal_code": "65173"
  },
  {
    "id": 350708,
    "province_id": 35,
    "regency_id": 3507,
    "district_id": 350708,
    "value": "Ngembal",
    "postal_code": "65173"
  },
  {
    "id": 350708,
    "province_id": 35,
    "regency_id": 3507,
    "district_id": 350708,
    "value": "Patokpicis",
    "postal_code": "65173"
  },
  {
    "id": 350708,
    "province_id": 35,
    "regency_id": 3507,
    "district_id": 350708,
    "value": "Sukoanyar",
    "postal_code": "65173"
  },
  {
    "id": 350708,
    "province_id": 35,
    "regency_id": 3507,
    "district_id": 350708,
    "value": "Sukolilo",
    "postal_code": "65173"
  },
  {
    "id": 350708,
    "province_id": 35,
    "regency_id": 3507,
    "district_id": 350708,
    "value": "Sumberputih",
    "postal_code": "65173"
  },
  {
    "id": 350708,
    "province_id": 35,
    "regency_id": 3507,
    "district_id": 350708,
    "value": "Wajak",
    "postal_code": "65173"
  },
  {
    "id": 350708,
    "province_id": 35,
    "regency_id": 3507,
    "district_id": 350708,
    "value": "Wonoayu",
    "postal_code": "65173"
  }
]