[
  {
    "id": 9115112003,
    "province_id": 91,
    "regency_id": 9115,
    "district_id": 911511,
    "value": "Baino Jaya",
    "postal_code": "98665"
  },
  {
    "id": 9115112001,
    "province_id": 91,
    "regency_id": 9115,
    "district_id": 911511,
    "value": "Botawa",
    "postal_code": "98665"
  },
  {
    "id": 9115112007,
    "province_id": 91,
    "regency_id": 9115,
    "district_id": 911511,
    "value": "Moroa",
    "postal_code": "98665"
  },
  {
    "id": 9115112004,
    "province_id": 91,
    "regency_id": 9115,
    "district_id": 911511,
    "value": "Nau",
    "postal_code": "98665"
  },
  {
    "id": 9115112008,
    "province_id": 91,
    "regency_id": 9115,
    "district_id": 911511,
    "value": "Oiboa",
    "postal_code": "98665"
  },
  {
    "id": 9115112005,
    "province_id": 91,
    "regency_id": 9115,
    "district_id": 911511,
    "value": "Rasawa",
    "postal_code": "98665"
  },
  {
    "id": 9115112006,
    "province_id": 91,
    "regency_id": 9115,
    "district_id": 911511,
    "value": "Ruambak Jaya",
    "postal_code": "98665"
  },
  {
    "id": 9115112002,
    "province_id": 91,
    "regency_id": 9115,
    "district_id": 911511,
    "value": "Sowiwa",
    "postal_code": "98665"
  }
]