[
  {
    "id": 110708,
    "province_id": 11,
    "regency_id": 1107,
    "district_id": 110708,
    "value": "Ara (Are)",
    "postal_code": "24182"
  },
  {
    "id": 110708,
    "province_id": 11,
    "regency_id": 1107,
    "district_id": 110708,
    "value": "Aron Asan Kumbang",
    "postal_code": "24182"
  },
  {
    "id": 110708,
    "province_id": 11,
    "regency_id": 1107,
    "district_id": 110708,
    "value": "Aron Kuta Baro",
    "postal_code": "24182"
  },
  {
    "id": 110708,
    "province_id": 11,
    "regency_id": 1107,
    "district_id": 110708,
    "value": "Arusan (Arosan)",
    "postal_code": "24182"
  },
  {
    "id": 110708,
    "province_id": 11,
    "regency_id": 1107,
    "district_id": 110708,
    "value": "Babah Jurong",
    "postal_code": "24182"
  },
  {
    "id": 110708,
    "province_id": 11,
    "regency_id": 1107,
    "district_id": 110708,
    "value": "Bentayan",
    "postal_code": "24182"
  },
  {
    "id": 110708,
    "province_id": 11,
    "regency_id": 1107,
    "district_id": 110708,
    "value": "Blang Cut",
    "postal_code": "24182"
  },
  {
    "id": 110708,
    "province_id": 11,
    "regency_id": 1107,
    "district_id": 110708,
    "value": "Cebrek",
    "postal_code": "24182"
  },
  {
    "id": 110708,
    "province_id": 11,
    "regency_id": 1107,
    "district_id": 110708,
    "value": "Deyah Blang",
    "postal_code": "24182"
  },
  {
    "id": 110708,
    "province_id": 11,
    "regency_id": 1107,
    "district_id": 110708,
    "value": "Deyah Mon Ara",
    "postal_code": "24182"
  },
  {
    "id": 110708,
    "province_id": 11,
    "regency_id": 1107,
    "district_id": 110708,
    "value": "Geulumpang",
    "postal_code": "24182"
  },
  {
    "id": 110708,
    "province_id": 11,
    "regency_id": 1107,
    "district_id": 110708,
    "value": "Jareng",
    "postal_code": "24182"
  },
  {
    "id": 110708,
    "province_id": 11,
    "regency_id": 1107,
    "district_id": 110708,
    "value": "Jeumeurang",
    "postal_code": "24182"
  },
  {
    "id": 110708,
    "province_id": 11,
    "regency_id": 1107,
    "district_id": 110708,
    "value": "Jurong Balee",
    "postal_code": "24182"
  },
  {
    "id": 110708,
    "province_id": 11,
    "regency_id": 1107,
    "district_id": 110708,
    "value": "Jurong Mesjid",
    "postal_code": "24182"
  },
  {
    "id": 110708,
    "province_id": 11,
    "regency_id": 1107,
    "district_id": 110708,
    "value": "Kampong Araih",
    "postal_code": "24182"
  },
  {
    "id": 110708,
    "province_id": 11,
    "regency_id": 1107,
    "district_id": 110708,
    "value": "Kampong Asan",
    "postal_code": "24182"
  },
  {
    "id": 110708,
    "province_id": 11,
    "regency_id": 1107,
    "district_id": 110708,
    "value": "Kampong Barat",
    "postal_code": "24182"
  },
  {
    "id": 110708,
    "province_id": 11,
    "regency_id": 1107,
    "district_id": 110708,
    "value": "Kampong Panjoe",
    "postal_code": "24182"
  },
  {
    "id": 110708,
    "province_id": 11,
    "regency_id": 1107,
    "district_id": 110708,
    "value": "Kandang",
    "postal_code": "24182"
  },
  {
    "id": 110708,
    "province_id": 11,
    "regency_id": 1107,
    "district_id": 110708,
    "value": "Kayee Panyang",
    "postal_code": "24182"
  },
  {
    "id": 110708,
    "province_id": 11,
    "regency_id": 1107,
    "district_id": 110708,
    "value": "Keude ie Leubeue",
    "postal_code": "24182"
  },
  {
    "id": 110708,
    "province_id": 11,
    "regency_id": 1107,
    "district_id": 110708,
    "value": "Keupula",
    "postal_code": "24182"
  },
  {
    "id": 110708,
    "province_id": 11,
    "regency_id": 1107,
    "district_id": 110708,
    "value": "Keureumbok",
    "postal_code": "24182"
  },
  {
    "id": 110708,
    "province_id": 11,
    "regency_id": 1107,
    "district_id": 110708,
    "value": "Krueng Dhoe",
    "postal_code": "24182"
  },
  {
    "id": 110708,
    "province_id": 11,
    "regency_id": 1107,
    "district_id": 110708,
    "value": "Lamkawe",
    "postal_code": "24182"
  },
  {
    "id": 110708,
    "province_id": 11,
    "regency_id": 1107,
    "district_id": 110708,
    "value": "Lancang",
    "postal_code": "24182"
  },
  {
    "id": 110708,
    "province_id": 11,
    "regency_id": 1107,
    "district_id": 110708,
    "value": "Manyang (Mayang)",
    "postal_code": "24182"
  },
  {
    "id": 110708,
    "province_id": 11,
    "regency_id": 1107,
    "district_id": 110708,
    "value": "Matang Kuli",
    "postal_code": "24182"
  },
  {
    "id": 110708,
    "province_id": 11,
    "regency_id": 1107,
    "district_id": 110708,
    "value": "Meunasah Baro",
    "postal_code": "24182"
  },
  {
    "id": 110708,
    "province_id": 11,
    "regency_id": 1107,
    "district_id": 110708,
    "value": "Meunasah Gantung",
    "postal_code": "24182"
  },
  {
    "id": 110708,
    "province_id": 11,
    "regency_id": 1107,
    "district_id": 110708,
    "value": "Meunasah Krueng",
    "postal_code": "24182"
  },
  {
    "id": 110708,
    "province_id": 11,
    "regency_id": 1107,
    "district_id": 110708,
    "value": "Meunasah Mee",
    "postal_code": "24182"
  },
  {
    "id": 110708,
    "province_id": 11,
    "regency_id": 1107,
    "district_id": 110708,
    "value": "Meunasah Mesjid",
    "postal_code": "24182"
  },
  {
    "id": 110708,
    "province_id": 11,
    "regency_id": 1107,
    "district_id": 110708,
    "value": "Meunasah Teungoh",
    "postal_code": "24182"
  },
  {
    "id": 110708,
    "province_id": 11,
    "regency_id": 1107,
    "district_id": 110708,
    "value": "Meuraksa",
    "postal_code": "24182"
  },
  {
    "id": 110708,
    "province_id": 11,
    "regency_id": 1107,
    "district_id": 110708,
    "value": "Pasi ie Leubeue",
    "postal_code": "24182"
  },
  {
    "id": 110708,
    "province_id": 11,
    "regency_id": 1107,
    "district_id": 110708,
    "value": "Pasi Lhok",
    "postal_code": "24182"
  },
  {
    "id": 110708,
    "province_id": 11,
    "regency_id": 1107,
    "district_id": 110708,
    "value": "Pusong",
    "postal_code": "24182"
  },
  {
    "id": 110708,
    "province_id": 11,
    "regency_id": 1107,
    "district_id": 110708,
    "value": "Puuk",
    "postal_code": "24182"
  },
  {
    "id": 110708,
    "province_id": 11,
    "regency_id": 1107,
    "district_id": 110708,
    "value": "Rheung Rheung",
    "postal_code": "24182"
  },
  {
    "id": 110708,
    "province_id": 11,
    "regency_id": 1107,
    "district_id": 110708,
    "value": "Sukon",
    "postal_code": "24182"
  },
  {
    "id": 110708,
    "province_id": 11,
    "regency_id": 1107,
    "district_id": 110708,
    "value": "Tanjong",
    "postal_code": "24182"
  },
  {
    "id": 110708,
    "province_id": 11,
    "regency_id": 1107,
    "district_id": 110708,
    "value": "Tanjong Krueng",
    "postal_code": "24182"
  },
  {
    "id": 110708,
    "province_id": 11,
    "regency_id": 1107,
    "district_id": 110708,
    "value": "Teumpeun (Tumpeun)",
    "postal_code": "24182"
  }
]