[
  {
    "id": 332113,
    "province_id": 33,
    "regency_id": 3321,
    "district_id": 332113,
    "value": "Babalan",
    "postal_code": "59554"
  },
  {
    "id": 332113,
    "province_id": 33,
    "regency_id": 3321,
    "district_id": 332113,
    "value": "Berahan Kulon",
    "postal_code": "59554"
  },
  {
    "id": 332113,
    "province_id": 33,
    "regency_id": 3321,
    "district_id": 332113,
    "value": "Berahan Wetan",
    "postal_code": "59554"
  },
  {
    "id": 332113,
    "province_id": 33,
    "regency_id": 3321,
    "district_id": 332113,
    "value": "Buko",
    "postal_code": "59554"
  },
  {
    "id": 332113,
    "province_id": 33,
    "regency_id": 3321,
    "district_id": 332113,
    "value": "Bungo",
    "postal_code": "59554"
  },
  {
    "id": 332113,
    "province_id": 33,
    "regency_id": 3321,
    "district_id": 332113,
    "value": "Jetak",
    "postal_code": "59554"
  },
  {
    "id": 332113,
    "province_id": 33,
    "regency_id": 3321,
    "district_id": 332113,
    "value": "Jungpasir",
    "postal_code": "59554"
  },
  {
    "id": 332113,
    "province_id": 33,
    "regency_id": 3321,
    "district_id": 332113,
    "value": "Jungsemi",
    "postal_code": "59554"
  },
  {
    "id": 332113,
    "province_id": 33,
    "regency_id": 3321,
    "district_id": 332113,
    "value": "Kedungkarang",
    "postal_code": "59554"
  },
  {
    "id": 332113,
    "province_id": 33,
    "regency_id": 3321,
    "district_id": 332113,
    "value": "Kedungmutih",
    "postal_code": "59554"
  },
  {
    "id": 332113,
    "province_id": 33,
    "regency_id": 3321,
    "district_id": 332113,
    "value": "Kendalasem",
    "postal_code": "59554"
  },
  {
    "id": 332113,
    "province_id": 33,
    "regency_id": 3321,
    "district_id": 332113,
    "value": "Kenduren",
    "postal_code": "59554"
  },
  {
    "id": 332113,
    "province_id": 33,
    "regency_id": 3321,
    "district_id": 332113,
    "value": "Mandung",
    "postal_code": "59554"
  },
  {
    "id": 332113,
    "province_id": 33,
    "regency_id": 3321,
    "district_id": 332113,
    "value": "Mutihkulon (Mutih Kulon)",
    "postal_code": "59554"
  },
  {
    "id": 332113,
    "province_id": 33,
    "regency_id": 3321,
    "district_id": 332113,
    "value": "Mutihwetan (Mutih Wetan)",
    "postal_code": "59554"
  },
  {
    "id": 332113,
    "province_id": 33,
    "regency_id": 3321,
    "district_id": 332113,
    "value": "Ngawen",
    "postal_code": "59554"
  },
  {
    "id": 332113,
    "province_id": 33,
    "regency_id": 3321,
    "district_id": 332113,
    "value": "Ruwit",
    "postal_code": "59554"
  },
  {
    "id": 332113,
    "province_id": 33,
    "regency_id": 3321,
    "district_id": 332113,
    "value": "Tedunan",
    "postal_code": "59554"
  },
  {
    "id": 332113,
    "province_id": 33,
    "regency_id": 3321,
    "district_id": 332113,
    "value": "Tempel",
    "postal_code": "59554"
  },
  {
    "id": 332113,
    "province_id": 33,
    "regency_id": 3321,
    "district_id": 332113,
    "value": "Wedung",
    "postal_code": "59554"
  }
]