[
  {
    "id": 170712,
    "province_id": 17,
    "regency_id": 1707,
    "district_id": 170712,
    "value": "Air Kopras",
    "postal_code": "39269"
  },
  {
    "id": 170712,
    "province_id": 17,
    "regency_id": 1707,
    "district_id": 170712,
    "value": "Bioa Putiak",
    "postal_code": "39269"
  },
  {
    "id": 170712,
    "province_id": 17,
    "regency_id": 1707,
    "district_id": 170712,
    "value": "Ketenong I",
    "postal_code": "39269"
  },
  {
    "id": 170712,
    "province_id": 17,
    "regency_id": 1707,
    "district_id": 170712,
    "value": "Ketenong II",
    "postal_code": "39269"
  },
  {
    "id": 170712,
    "province_id": 17,
    "regency_id": 1707,
    "district_id": 170712,
    "value": "Ketenong Jaya",
    "postal_code": "39269"
  },
  {
    "id": 170712,
    "province_id": 17,
    "regency_id": 1707,
    "district_id": 170712,
    "value": "Sebelat",
    "postal_code": "39269"
  },
  {
    "id": 170712,
    "province_id": 17,
    "regency_id": 1707,
    "district_id": 170712,
    "value": "Sungai Lisai",
    "postal_code": "39269"
  },
  {
    "id": 170712,
    "province_id": 17,
    "regency_id": 1707,
    "district_id": 170712,
    "value": "Tambang Saweak (Tambang Sawah)",
    "postal_code": "39269"
  }
]