[
  {
    "id": 331501,
    "province_id": 33,
    "regency_id": 3315,
    "district_id": 331501,
    "value": "Deras",
    "postal_code": "58167"
  },
  {
    "id": 331501,
    "province_id": 33,
    "regency_id": 3315,
    "district_id": 331501,
    "value": "Jumo",
    "postal_code": "58167"
  },
  {
    "id": 331501,
    "province_id": 33,
    "regency_id": 3315,
    "district_id": 331501,
    "value": "Kalimaro",
    "postal_code": "58167"
  },
  {
    "id": 331501,
    "province_id": 33,
    "regency_id": 3315,
    "district_id": 331501,
    "value": "Karanglangu",
    "postal_code": "58167"
  },
  {
    "id": 331501,
    "province_id": 33,
    "regency_id": 3315,
    "district_id": 331501,
    "value": "Kedungjati",
    "postal_code": "58167"
  },
  {
    "id": 331501,
    "province_id": 33,
    "regency_id": 3315,
    "district_id": 331501,
    "value": "Kentengsari",
    "postal_code": "58167"
  },
  {
    "id": 331501,
    "province_id": 33,
    "regency_id": 3315,
    "district_id": 331501,
    "value": "Klitikan",
    "postal_code": "58167"
  },
  {
    "id": 331501,
    "province_id": 33,
    "regency_id": 3315,
    "district_id": 331501,
    "value": "Ngombak",
    "postal_code": "58167"
  },
  {
    "id": 331501,
    "province_id": 33,
    "regency_id": 3315,
    "district_id": 331501,
    "value": "Padas",
    "postal_code": "58167"
  },
  {
    "id": 331501,
    "province_id": 33,
    "regency_id": 3315,
    "district_id": 331501,
    "value": "Panimbo",
    "postal_code": "58167"
  },
  {
    "id": 331501,
    "province_id": 33,
    "regency_id": 3315,
    "district_id": 331501,
    "value": "Prigi",
    "postal_code": "58167"
  },
  {
    "id": 331501,
    "province_id": 33,
    "regency_id": 3315,
    "district_id": 331501,
    "value": "Wates",
    "postal_code": "58167"
  }
]