[
  {
    "id": 3201382009,
    "province_id": 32,
    "regency_id": 3201,
    "district_id": 320138,
    "value": "Ciadeg",
    "postal_code": "16110"
  },
  {
    "id": 3201382008,
    "province_id": 32,
    "regency_id": 3201,
    "district_id": 320138,
    "value": "Ciburayut",
    "postal_code": "16110"
  },
  {
    "id": 3201382003,
    "province_id": 32,
    "regency_id": 3201,
    "district_id": 320138,
    "value": "Ciburuy",
    "postal_code": "16110"
  },
  {
    "id": 3201382001,
    "province_id": 32,
    "regency_id": 3201,
    "district_id": 320138,
    "value": "Cigombong",
    "postal_code": "16110"
  },
  {
    "id": 3201382005,
    "province_id": 32,
    "regency_id": 3201,
    "district_id": 320138,
    "value": "Cisalada",
    "postal_code": "16110"
  },
  {
    "id": 3201382007,
    "province_id": 32,
    "regency_id": 3201,
    "district_id": 320138,
    "value": "Pasirjaya (Pasir Jaya)",
    "postal_code": "16110"
  },
  {
    "id": 3201382004,
    "province_id": 32,
    "regency_id": 3201,
    "district_id": 320138,
    "value": "Srogol",
    "postal_code": "16110"
  },
  {
    "id": 3201382006,
    "province_id": 32,
    "regency_id": 3201,
    "district_id": 320138,
    "value": "Tugujaya",
    "postal_code": "16110"
  },
  {
    "id": 3201382002,
    "province_id": 32,
    "regency_id": 3201,
    "district_id": 320138,
    "value": "Watesjaya",
    "postal_code": "16110"
  }
]