[
  {
    "id": 321510,
    "province_id": 32,
    "regency_id": 3215,
    "district_id": 321510,
    "value": "Dongkal",
    "postal_code": "41353"
  },
  {
    "id": 321510,
    "province_id": 32,
    "regency_id": 3215,
    "district_id": 321510,
    "value": "Jatimulya",
    "postal_code": "41353"
  },
  {
    "id": 321510,
    "province_id": 32,
    "regency_id": 3215,
    "district_id": 321510,
    "value": "Karangjaya",
    "postal_code": "41353"
  },
  {
    "id": 321510,
    "province_id": 32,
    "regency_id": 3215,
    "district_id": 321510,
    "value": "Kendaljaya (Kedaljaya)",
    "postal_code": "41353"
  },
  {
    "id": 321510,
    "province_id": 32,
    "regency_id": 3215,
    "district_id": 321510,
    "value": "Kertamulya",
    "postal_code": "41353"
  },
  {
    "id": 321510,
    "province_id": 32,
    "regency_id": 3215,
    "district_id": 321510,
    "value": "Kertaraharja",
    "postal_code": "41353"
  },
  {
    "id": 321510,
    "province_id": 32,
    "regency_id": 3215,
    "district_id": 321510,
    "value": "Labanjaya",
    "postal_code": "41353"
  },
  {
    "id": 321510,
    "province_id": 32,
    "regency_id": 3215,
    "district_id": 321510,
    "value": "Malangsari",
    "postal_code": "41353"
  },
  {
    "id": 321510,
    "province_id": 32,
    "regency_id": 3215,
    "district_id": 321510,
    "value": "Payungsari",
    "postal_code": "41353"
  },
  {
    "id": 321510,
    "province_id": 32,
    "regency_id": 3215,
    "district_id": 321510,
    "value": "Puspasari",
    "postal_code": "41353"
  },
  {
    "id": 321510,
    "province_id": 32,
    "regency_id": 3215,
    "district_id": 321510,
    "value": "Rangdumulya (Randumulya)",
    "postal_code": "41353"
  },
  {
    "id": 321510,
    "province_id": 32,
    "regency_id": 3215,
    "district_id": 321510,
    "value": "Sungaibuntu",
    "postal_code": "41353"
  }
]