[
  {
    "id": 360206,
    "province_id": 36,
    "regency_id": 3602,
    "district_id": 360206,
    "value": "Bojongmenteng (Bojong Menteng)",
    "postal_code": "42362"
  },
  {
    "id": 360206,
    "province_id": 36,
    "regency_id": 3602,
    "district_id": 360206,
    "value": "Cibungur",
    "postal_code": "42362"
  },
  {
    "id": 360206,
    "province_id": 36,
    "regency_id": 3602,
    "district_id": 360206,
    "value": "Cisimeut",
    "postal_code": "42362"
  },
  {
    "id": 360206,
    "province_id": 36,
    "regency_id": 3602,
    "district_id": 360206,
    "value": "Cisimeut Raya",
    "postal_code": "42362"
  },
  {
    "id": 360206,
    "province_id": 36,
    "regency_id": 3602,
    "district_id": 360206,
    "value": "Jalupangmulya (Jalupang Mulya)",
    "postal_code": "42362"
  },
  {
    "id": 360206,
    "province_id": 36,
    "regency_id": 3602,
    "district_id": 360206,
    "value": "Kanekes",
    "postal_code": "42362"
  },
  {
    "id": 360206,
    "province_id": 36,
    "regency_id": 3602,
    "district_id": 360206,
    "value": "Lebakparahiang (Lebak Parahiang)",
    "postal_code": "42362"
  },
  {
    "id": 360206,
    "province_id": 36,
    "regency_id": 3602,
    "district_id": 360206,
    "value": "Leuwidamar",
    "postal_code": "42362"
  },
  {
    "id": 360206,
    "province_id": 36,
    "regency_id": 3602,
    "district_id": 360206,
    "value": "Margawangi",
    "postal_code": "42362"
  },
  {
    "id": 360206,
    "province_id": 36,
    "regency_id": 3602,
    "district_id": 360206,
    "value": "Nayagati",
    "postal_code": "42362"
  },
  {
    "id": 360206,
    "province_id": 36,
    "regency_id": 3602,
    "district_id": 360206,
    "value": "Sangkanwangi",
    "postal_code": "42362"
  },
  {
    "id": 360206,
    "province_id": 36,
    "regency_id": 3602,
    "district_id": 360206,
    "value": "Wantisari",
    "postal_code": "42362"
  }
]