[
  {
    "id": 760407,
    "province_id": 76,
    "regency_id": 7604,
    "district_id": 760407,
    "value": "Banato Rejo",
    "postal_code": "91341"
  },
  {
    "id": 760407,
    "province_id": 76,
    "regency_id": 7604,
    "district_id": 760407,
    "value": "Batu",
    "postal_code": "91341"
  },
  {
    "id": 760407,
    "province_id": 76,
    "regency_id": 7604,
    "district_id": 760407,
    "value": "Bussu",
    "postal_code": "91341"
  },
  {
    "id": 760407,
    "province_id": 76,
    "regency_id": 7604,
    "district_id": 760407,
    "value": "Dakka",
    "postal_code": "91341"
  },
  {
    "id": 760407,
    "province_id": 76,
    "regency_id": 7604,
    "district_id": 760407,
    "value": "Jambu Malea",
    "postal_code": "91341"
  },
  {
    "id": 760407,
    "province_id": 76,
    "regency_id": 7604,
    "district_id": 760407,
    "value": "Kalimbua",
    "postal_code": "91341"
  },
  {
    "id": 760407,
    "province_id": 76,
    "regency_id": 7604,
    "district_id": 760407,
    "value": "Kurrak",
    "postal_code": "91341"
  },
  {
    "id": 760407,
    "province_id": 76,
    "regency_id": 7604,
    "district_id": 760407,
    "value": "Palatta",
    "postal_code": "91341"
  },
  {
    "id": 760407,
    "province_id": 76,
    "regency_id": 7604,
    "district_id": 760407,
    "value": "Pelitakan",
    "postal_code": "91341"
  },
  {
    "id": 760407,
    "province_id": 76,
    "regency_id": 7604,
    "district_id": 760407,
    "value": "Rappang",
    "postal_code": "91341"
  },
  {
    "id": 760407,
    "province_id": 76,
    "regency_id": 7604,
    "district_id": 760407,
    "value": "Riso",
    "postal_code": "91341"
  },
  {
    "id": 760407,
    "province_id": 76,
    "regency_id": 7604,
    "district_id": 760407,
    "value": "Tapango",
    "postal_code": "91341"
  },
  {
    "id": 760407,
    "province_id": 76,
    "regency_id": 7604,
    "district_id": 760407,
    "value": "Tapango Barat",
    "postal_code": "91341"
  },
  {
    "id": 760407,
    "province_id": 76,
    "regency_id": 7604,
    "district_id": 760407,
    "value": "Tuttula",
    "postal_code": "91341"
  }
]