[
  {
    "id": 350108,
    "province_id": 35,
    "regency_id": 3501,
    "district_id": 350108,
    "value": "Bandar",
    "postal_code": "63583"
  },
  {
    "id": 350108,
    "province_id": 35,
    "regency_id": 3501,
    "district_id": 350108,
    "value": "Bangunsari",
    "postal_code": "63583"
  },
  {
    "id": 350108,
    "province_id": 35,
    "regency_id": 3501,
    "district_id": 350108,
    "value": "Jeruk",
    "postal_code": "63583"
  },
  {
    "id": 350108,
    "province_id": 35,
    "regency_id": 3501,
    "district_id": 350108,
    "value": "Kledung",
    "postal_code": "63583"
  },
  {
    "id": 350108,
    "province_id": 35,
    "regency_id": 3501,
    "district_id": 350108,
    "value": "Ngunut",
    "postal_code": "63583"
  },
  {
    "id": 350108,
    "province_id": 35,
    "regency_id": 3501,
    "district_id": 350108,
    "value": "Petungsinarang",
    "postal_code": "63583"
  },
  {
    "id": 350108,
    "province_id": 35,
    "regency_id": 3501,
    "district_id": 350108,
    "value": "Tumpuk",
    "postal_code": "63583"
  },
  {
    "id": 350108,
    "province_id": 35,
    "regency_id": 3501,
    "district_id": 350108,
    "value": "Watupatok",
    "postal_code": "63583"
  }
]