[
  {
    "id": 120803,
    "province_id": 12,
    "regency_id": 1208,
    "district_id": 120803,
    "value": "Bandar Malela",
    "postal_code": "21176"
  },
  {
    "id": 120803,
    "province_id": 12,
    "regency_id": 1208,
    "district_id": 120803,
    "value": "Ganjing (Gajing)",
    "postal_code": "21176"
  },
  {
    "id": 120803,
    "province_id": 12,
    "regency_id": 1208,
    "district_id": 120803,
    "value": "Hutadipar",
    "postal_code": "21176"
  },
  {
    "id": 120803,
    "province_id": 12,
    "regency_id": 1208,
    "district_id": 120803,
    "value": "Karang Anyer",
    "postal_code": "21176"
  },
  {
    "id": 120803,
    "province_id": 12,
    "regency_id": 1208,
    "district_id": 120803,
    "value": "Karang Rejo",
    "postal_code": "21176"
  },
  {
    "id": 120803,
    "province_id": 12,
    "regency_id": 1208,
    "district_id": 120803,
    "value": "Karang Sari",
    "postal_code": "21176"
  },
  {
    "id": 120803,
    "province_id": 12,
    "regency_id": 1208,
    "district_id": 120803,
    "value": "Rabuhit",
    "postal_code": "21176"
  },
  {
    "id": 120803,
    "province_id": 12,
    "regency_id": 1208,
    "district_id": 120803,
    "value": "Silau Bayu",
    "postal_code": "21176"
  },
  {
    "id": 120803,
    "province_id": 12,
    "regency_id": 1208,
    "district_id": 120803,
    "value": "Tumorang",
    "postal_code": "21176"
  }
]