[
  {
    "id": 332817,
    "province_id": 33,
    "regency_id": 3328,
    "district_id": 332817,
    "value": "Banjaragung (Banjar Agung)",
    "postal_code": "52183"
  },
  {
    "id": 332817,
    "province_id": 33,
    "regency_id": 3328,
    "district_id": 332817,
    "value": "Banjarturi",
    "postal_code": "52183"
  },
  {
    "id": 332817,
    "province_id": 33,
    "regency_id": 3328,
    "district_id": 332817,
    "value": "Demangharjo",
    "postal_code": "52183"
  },
  {
    "id": 332817,
    "province_id": 33,
    "regency_id": 3328,
    "district_id": 332817,
    "value": "Kedungjati",
    "postal_code": "52183"
  },
  {
    "id": 332817,
    "province_id": 33,
    "regency_id": 3328,
    "district_id": 332817,
    "value": "Kedungkelor",
    "postal_code": "52183"
  },
  {
    "id": 332817,
    "province_id": 33,
    "regency_id": 3328,
    "district_id": 332817,
    "value": "Kendayakan",
    "postal_code": "52183"
  },
  {
    "id": 332817,
    "province_id": 33,
    "regency_id": 3328,
    "district_id": 332817,
    "value": "Kreman",
    "postal_code": "52183"
  },
  {
    "id": 332817,
    "province_id": 33,
    "regency_id": 3328,
    "district_id": 332817,
    "value": "Rangi Mulya (Rangimulya)",
    "postal_code": "52183"
  },
  {
    "id": 332817,
    "province_id": 33,
    "regency_id": 3328,
    "district_id": 332817,
    "value": "Sidamulya (Sidomulyo)",
    "postal_code": "52183"
  },
  {
    "id": 332817,
    "province_id": 33,
    "regency_id": 3328,
    "district_id": 332817,
    "value": "Sigentong",
    "postal_code": "52183"
  },
  {
    "id": 332817,
    "province_id": 33,
    "regency_id": 3328,
    "district_id": 332817,
    "value": "Sukareja",
    "postal_code": "52183"
  },
  {
    "id": 332817,
    "province_id": 33,
    "regency_id": 3328,
    "district_id": 332817,
    "value": "Warureja",
    "postal_code": "52183"
  }
]