[
  {
    "id": 6371021006,
    "province_id": 63,
    "regency_id": 6371,
    "district_id": 637102,
    "value": "Banua Anyar (Benua Anyar)",
    "postal_code": "70239"
  },
  {
    "id": 6371021003,
    "province_id": 63,
    "regency_id": 6371,
    "district_id": 637102,
    "value": "Karang Mekar",
    "postal_code": "70234"
  },
  {
    "id": 6371021002,
    "province_id": 63,
    "regency_id": 6371,
    "district_id": 637102,
    "value": "Kebun Bunga",
    "postal_code": "70235"
  },
  {
    "id": 6371021001,
    "province_id": 63,
    "regency_id": 6371,
    "district_id": 637102,
    "value": "Kuripan",
    "postal_code": "70236"
  },
  {
    "id": 6371021008,
    "province_id": 63,
    "regency_id": 6371,
    "district_id": 637102,
    "value": "Pekapuran Raya",
    "postal_code": "70234"
  },
  {
    "id": 6371021009,
    "province_id": 63,
    "regency_id": 6371,
    "district_id": 637102,
    "value": "Pemurus Luar",
    "postal_code": "70236"
  },
  {
    "id": 6371021007,
    "province_id": 63,
    "regency_id": 6371,
    "district_id": 637102,
    "value": "Pengambangan",
    "postal_code": "70237"
  },
  {
    "id": 6371021004,
    "province_id": 63,
    "regency_id": 6371,
    "district_id": 637102,
    "value": "Sei/Sungai Bilu",
    "postal_code": "70236"
  },
  {
    "id": 6371021005,
    "province_id": 63,
    "regency_id": 6371,
    "district_id": 637102,
    "value": "Sei/Sungai Lulut",
    "postal_code": "70238"
  }
]