[
  {
    "id": 620404,
    "province_id": 62,
    "regency_id": 6204,
    "district_id": 620404,
    "value": "Bantai Bambure",
    "postal_code": "73752"
  },
  {
    "id": 620404,
    "province_id": 62,
    "regency_id": 6204,
    "district_id": 620404,
    "value": "Bundar",
    "postal_code": "73752"
  },
  {
    "id": 620404,
    "province_id": 62,
    "regency_id": 6204,
    "district_id": 620404,
    "value": "Danau Bambure",
    "postal_code": "73752"
  },
  {
    "id": 620404,
    "province_id": 62,
    "regency_id": 6204,
    "district_id": 620404,
    "value": "Gunung Rantau",
    "postal_code": "73752"
  },
  {
    "id": 620404,
    "province_id": 62,
    "regency_id": 6204,
    "district_id": 620404,
    "value": "Hingan",
    "postal_code": "73752"
  },
  {
    "id": 620404,
    "province_id": 62,
    "regency_id": 6204,
    "district_id": 620404,
    "value": "Hulu Tampang",
    "postal_code": "73752"
  },
  {
    "id": 620404,
    "province_id": 62,
    "regency_id": 6204,
    "district_id": 620404,
    "value": "Majundre",
    "postal_code": "73752"
  },
  {
    "id": 620404,
    "province_id": 62,
    "regency_id": 6204,
    "district_id": 620404,
    "value": "Marawan Baru",
    "postal_code": "73752"
  },
  {
    "id": 620404,
    "province_id": 62,
    "regency_id": 6204,
    "district_id": 620404,
    "value": "Marawan Lama",
    "postal_code": "73752"
  },
  {
    "id": 620404,
    "province_id": 62,
    "regency_id": 6204,
    "district_id": 620404,
    "value": "Maruga",
    "postal_code": "73752"
  },
  {
    "id": 620404,
    "province_id": 62,
    "regency_id": 6204,
    "district_id": 620404,
    "value": "Panarukan",
    "postal_code": "73752"
  },
  {
    "id": 620404,
    "province_id": 62,
    "regency_id": 6204,
    "district_id": 620404,
    "value": "Pendang",
    "postal_code": "73752"
  },
  {
    "id": 620404,
    "province_id": 62,
    "regency_id": 6204,
    "district_id": 620404,
    "value": "Rampa Mea",
    "postal_code": "73752"
  },
  {
    "id": 620404,
    "province_id": 62,
    "regency_id": 6204,
    "district_id": 620404,
    "value": "Reong",
    "postal_code": "73752"
  },
  {
    "id": 620404,
    "province_id": 62,
    "regency_id": 6204,
    "district_id": 620404,
    "value": "Sei/Sungai Telang",
    "postal_code": "73752"
  },
  {
    "id": 620404,
    "province_id": 62,
    "regency_id": 6204,
    "district_id": 620404,
    "value": "Tamparak",
    "postal_code": "73752"
  },
  {
    "id": 620404,
    "province_id": 62,
    "regency_id": 6204,
    "district_id": 620404,
    "value": "Tamparak Layung",
    "postal_code": "73752"
  },
  {
    "id": 620404,
    "province_id": 62,
    "regency_id": 6204,
    "district_id": 620404,
    "value": "Tarusan",
    "postal_code": "73752"
  },
  {
    "id": 620404,
    "province_id": 62,
    "regency_id": 6204,
    "district_id": 620404,
    "value": "Telekoi (Talekoi)",
    "postal_code": "73752"
  }
]