[
  {
    "id": 331307,
    "province_id": 33,
    "regency_id": 3313,
    "district_id": 331307,
    "value": "Berjo",
    "postal_code": "57793"
  },
  {
    "id": 331307,
    "province_id": 33,
    "regency_id": 3313,
    "district_id": 331307,
    "value": "Dukuh",
    "postal_code": "57731"
  },
  {
    "id": 331307,
    "province_id": 33,
    "regency_id": 3313,
    "district_id": 331307,
    "value": "Girimulyo",
    "postal_code": "57793"
  },
  {
    "id": 331307,
    "province_id": 33,
    "regency_id": 3313,
    "district_id": 331307,
    "value": "Jatirejo",
    "postal_code": "57793"
  },
  {
    "id": 331307,
    "province_id": 33,
    "regency_id": 3313,
    "district_id": 331307,
    "value": "Kemuning",
    "postal_code": "57793"
  },
  {
    "id": 331307,
    "province_id": 33,
    "regency_id": 3313,
    "district_id": 331307,
    "value": "Ngargoyoso",
    "postal_code": "57793"
  },
  {
    "id": 331307,
    "province_id": 33,
    "regency_id": 3313,
    "district_id": 331307,
    "value": "Nglegok",
    "postal_code": "57793"
  },
  {
    "id": 331307,
    "province_id": 33,
    "regency_id": 3313,
    "district_id": 331307,
    "value": "Puntukrejo",
    "postal_code": "57793"
  },
  {
    "id": 331307,
    "province_id": 33,
    "regency_id": 3313,
    "district_id": 331307,
    "value": "Segorogunung",
    "postal_code": "57793"
  }
]