[
  {
    "id": 531803,
    "province_id": 53,
    "regency_id": 5318,
    "district_id": 531803,
    "value": "Dangga Mangu",
    "postal_code": "87250"
  },
  {
    "id": 531803,
    "province_id": 53,
    "regency_id": 5318,
    "district_id": 531803,
    "value": "Dede Pada",
    "postal_code": "87250"
  },
  {
    "id": 531803,
    "province_id": 53,
    "regency_id": 5318,
    "district_id": 531803,
    "value": "Dikira",
    "postal_code": "87250"
  },
  {
    "id": 531803,
    "province_id": 53,
    "regency_id": 5318,
    "district_id": 531803,
    "value": "Kadi Wano",
    "postal_code": "87250"
  },
  {
    "id": 531803,
    "province_id": 53,
    "regency_id": 5318,
    "district_id": 531803,
    "value": "Kadi Wone",
    "postal_code": "87250"
  },
  {
    "id": 531803,
    "province_id": 53,
    "regency_id": 5318,
    "district_id": 531803,
    "value": "Kalembu Ndara Mane",
    "postal_code": "87250"
  },
  {
    "id": 531803,
    "province_id": 53,
    "regency_id": 5318,
    "district_id": 531803,
    "value": "Lele Maya",
    "postal_code": "87250"
  },
  {
    "id": 531803,
    "province_id": 53,
    "regency_id": 5318,
    "district_id": 531803,
    "value": "Lete Kamouna (Lete Komouna)",
    "postal_code": "87250"
  },
  {
    "id": 531803,
    "province_id": 53,
    "regency_id": 5318,
    "district_id": 531803,
    "value": "Mainda Ole",
    "postal_code": "87250"
  },
  {
    "id": 531803,
    "province_id": 53,
    "regency_id": 5318,
    "district_id": 531803,
    "value": "Maliti Dari",
    "postal_code": "87250"
  },
  {
    "id": 531803,
    "province_id": 53,
    "regency_id": 5318,
    "district_id": 531803,
    "value": "Mareda Kalada",
    "postal_code": "87250"
  },
  {
    "id": 531803,
    "province_id": 53,
    "regency_id": 5318,
    "district_id": 531803,
    "value": "Mata Pyawu",
    "postal_code": "87250"
  },
  {
    "id": 531803,
    "province_id": 53,
    "regency_id": 5318,
    "district_id": 531803,
    "value": "Mata Wee Lima",
    "postal_code": "87250"
  },
  {
    "id": 531803,
    "province_id": 53,
    "regency_id": 5318,
    "district_id": 531803,
    "value": "Mawo Dana",
    "postal_code": "87250"
  },
  {
    "id": 531803,
    "province_id": 53,
    "regency_id": 5318,
    "district_id": 531803,
    "value": "Nyura Lele",
    "postal_code": "87250"
  },
  {
    "id": 531803,
    "province_id": 53,
    "regency_id": 5318,
    "district_id": 531803,
    "value": "Pada Eweta",
    "postal_code": "87250"
  },
  {
    "id": 531803,
    "province_id": 53,
    "regency_id": 5318,
    "district_id": 531803,
    "value": "Tema Tana",
    "postal_code": "87250"
  },
  {
    "id": 531803,
    "province_id": 53,
    "regency_id": 5318,
    "district_id": 531803,
    "value": "Wee Lima",
    "postal_code": "87250"
  },
  {
    "id": 531803,
    "province_id": 53,
    "regency_id": 5318,
    "district_id": 531803,
    "value": "Wee Limbu",
    "postal_code": "87250"
  }
]