[
  {
    "id": 1108082002,
    "province_id": 11,
    "regency_id": 1108,
    "district_id": 110808,
    "value": "Asan (Meunasah Asan)",
    "postal_code": "24374"
  },
  {
    "id": 1108082014,
    "province_id": 11,
    "regency_id": 1108,
    "district_id": 110808,
    "value": "Beuringen",
    "postal_code": "24374"
  },
  {
    "id": 1108082004,
    "province_id": 11,
    "regency_id": 1108,
    "district_id": 110808,
    "value": "Blang Kabu",
    "postal_code": "24374"
  },
  {
    "id": 1108082031,
    "province_id": 11,
    "regency_id": 1108,
    "district_id": 110808,
    "value": "Blang Nibong",
    "postal_code": "24374"
  },
  {
    "id": 1108082007,
    "province_id": 11,
    "regency_id": 1108,
    "district_id": 110808,
    "value": "Blang Peuria",
    "postal_code": "24374"
  },
  {
    "id": 1108082013,
    "province_id": 11,
    "regency_id": 1108,
    "district_id": 110808,
    "value": "Gampong Baro",
    "postal_code": "24374"
  },
  {
    "id": 1108082022,
    "province_id": 11,
    "regency_id": 1108,
    "district_id": 110808,
    "value": "Keude Blangmee Pulokat",
    "postal_code": "24374"
  },
  {
    "id": 1108082006,
    "province_id": 11,
    "regency_id": 1108,
    "district_id": 110808,
    "value": "Keude Geudong",
    "postal_code": "24374"
  },
  {
    "id": 1108082039,
    "province_id": 11,
    "regency_id": 1108,
    "district_id": 110808,
    "value": "Kitou",
    "postal_code": "24374"
  },
  {
    "id": 1108082018,
    "province_id": 11,
    "regency_id": 1108,
    "district_id": 110808,
    "value": "Krueng Baro Blang Mee (Krueng Baro Blang Me)",
    "postal_code": "24374"
  },
  {
    "id": 1108082010,
    "province_id": 11,
    "regency_id": 1108,
    "district_id": 110808,
    "value": "Krueng Baro Langgahan",
    "postal_code": "24374"
  },
  {
    "id": 1108082040,
    "province_id": 11,
    "regency_id": 1108,
    "district_id": 110808,
    "value": "Krueng Matee (Krueng Mate)",
    "postal_code": "24374"
  },
  {
    "id": 1108082016,
    "province_id": 11,
    "regency_id": 1108,
    "district_id": 110808,
    "value": "Kuta Glumpang",
    "postal_code": "24374"
  },
  {
    "id": 1108082015,
    "province_id": 11,
    "regency_id": 1108,
    "district_id": 110808,
    "value": "Kuta Krueng",
    "postal_code": "24374"
  },
  {
    "id": 1108082027,
    "province_id": 11,
    "regency_id": 1108,
    "district_id": 110808,
    "value": "Laga Baro",
    "postal_code": "24374"
  },
  {
    "id": 1108082024,
    "province_id": 11,
    "regency_id": 1108,
    "district_id": 110808,
    "value": "Lancang",
    "postal_code": "24374"
  },
  {
    "id": 1108082037,
    "province_id": 11,
    "regency_id": 1108,
    "district_id": 110808,
    "value": "Madan",
    "postal_code": "24374"
  },
  {
    "id": 1108082005,
    "province_id": 11,
    "regency_id": 1108,
    "district_id": 110808,
    "value": "Mancang",
    "postal_code": "24374"
  },
  {
    "id": 1108082030,
    "province_id": 11,
    "regency_id": 1108,
    "district_id": 110808,
    "value": "Matang Puntong",
    "postal_code": "24374"
  },
  {
    "id": 1108082029,
    "province_id": 11,
    "regency_id": 1108,
    "district_id": 110808,
    "value": "Matang Tunong",
    "postal_code": "24374"
  },
  {
    "id": 1108082025,
    "province_id": 11,
    "regency_id": 1108,
    "district_id": 110808,
    "value": "Matang Ulim",
    "postal_code": "24374"
  },
  {
    "id": 1108082020,
    "province_id": 11,
    "regency_id": 1108,
    "district_id": 110808,
    "value": "Mesjid (Gampong Mesjid)",
    "postal_code": "24374"
  },
  {
    "id": 1108082017,
    "province_id": 11,
    "regency_id": 1108,
    "district_id": 110808,
    "value": "Meucat",
    "postal_code": "24374"
  },
  {
    "id": 1108082003,
    "province_id": 11,
    "regency_id": 1108,
    "district_id": 110808,
    "value": "Murong",
    "postal_code": "24374"
  },
  {
    "id": 1108082036,
    "province_id": 11,
    "regency_id": 1108,
    "district_id": 110808,
    "value": "Paya Terbang",
    "postal_code": "24374"
  },
  {
    "id": 1108082001,
    "province_id": 11,
    "regency_id": 1108,
    "district_id": 110808,
    "value": "Pie (Gampong Pie)",
    "postal_code": "24374"
  },
  {
    "id": 1108082028,
    "province_id": 11,
    "regency_id": 1108,
    "district_id": 110808,
    "value": "Pulo",
    "postal_code": "24374"
  },
  {
    "id": 1108082011,
    "province_id": 11,
    "regency_id": 1108,
    "district_id": 110808,
    "value": "Pusong",
    "postal_code": "24374"
  },
  {
    "id": 1108082023,
    "province_id": 11,
    "regency_id": 1108,
    "district_id": 110808,
    "value": "Puuk",
    "postal_code": "24374"
  },
  {
    "id": 1108082026,
    "province_id": 11,
    "regency_id": 1108,
    "district_id": 110808,
    "value": "Sawang",
    "postal_code": "24374"
  },
  {
    "id": 1108082038,
    "province_id": 11,
    "regency_id": 1108,
    "district_id": 110808,
    "value": "Tanjong Awe (Gampong Tanjong Awe)",
    "postal_code": "24374"
  },
  {
    "id": 1108082032,
    "province_id": 11,
    "regency_id": 1108,
    "district_id": 110808,
    "value": "Tanjong Baroh (Gampong Tanjung Baroh)",
    "postal_code": "24374"
  },
  {
    "id": 1108082012,
    "province_id": 11,
    "regency_id": 1108,
    "district_id": 110808,
    "value": "Tanjong Kleng",
    "postal_code": "24374"
  },
  {
    "id": 1108082034,
    "province_id": 11,
    "regency_id": 1108,
    "district_id": 110808,
    "value": "Tanjong Reungkam (Tanjong Rengkam)",
    "postal_code": "24374"
  },
  {
    "id": 1108082033,
    "province_id": 11,
    "regency_id": 1108,
    "district_id": 110808,
    "value": "Tanjung/Tanjong Hagu",
    "postal_code": "24374"
  },
  {
    "id": 1108082035,
    "province_id": 11,
    "regency_id": 1108,
    "district_id": 110808,
    "value": "Tanjung/Tanjong Mesjid",
    "postal_code": "24374"
  },
  {
    "id": 1108082021,
    "province_id": 11,
    "regency_id": 1108,
    "district_id": 110808,
    "value": "Teungoh (Gampong Teungoh)",
    "postal_code": "24374"
  },
  {
    "id": 1108082008,
    "province_id": 11,
    "regency_id": 1108,
    "district_id": 110808,
    "value": "Teupin Ara",
    "postal_code": "24374"
  },
  {
    "id": 1108082009,
    "province_id": 11,
    "regency_id": 1108,
    "district_id": 110808,
    "value": "Teupin Beulangan",
    "postal_code": "24374"
  },
  {
    "id": 1108082019,
    "province_id": 11,
    "regency_id": 1108,
    "district_id": 110808,
    "value": "Ujong",
    "postal_code": "24374"
  }
]