[
  {
    "id": 140611,
    "province_id": 14,
    "regency_id": 1406,
    "district_id": 140611,
    "value": "Bona Tapung (Bono Tapung)",
    "postal_code": "28552"
  },
  {
    "id": 140611,
    "province_id": 14,
    "regency_id": 1406,
    "district_id": 140611,
    "value": "Dayo",
    "postal_code": "28552"
  },
  {
    "id": 140611,
    "province_id": 14,
    "regency_id": 1406,
    "district_id": 140611,
    "value": "Koto Tandun",
    "postal_code": "28552"
  },
  {
    "id": 140611,
    "province_id": 14,
    "regency_id": 1406,
    "district_id": 140611,
    "value": "Kumain",
    "postal_code": "28552"
  },
  {
    "id": 140611,
    "province_id": 14,
    "regency_id": 1406,
    "district_id": 140611,
    "value": "Puo Raya",
    "postal_code": "28552"
  },
  {
    "id": 140611,
    "province_id": 14,
    "regency_id": 1406,
    "district_id": 140611,
    "value": "Sei/Sungai Kuning",
    "postal_code": "28552"
  },
  {
    "id": 140611,
    "province_id": 14,
    "regency_id": 1406,
    "district_id": 140611,
    "value": "Tandun",
    "postal_code": "28552"
  },
  {
    "id": 140611,
    "province_id": 14,
    "regency_id": 1406,
    "district_id": 140611,
    "value": "Tandun Barat",
    "postal_code": "28552"
  },
  {
    "id": 140611,
    "province_id": 14,
    "regency_id": 1406,
    "district_id": 140611,
    "value": "Tapung Jaya",
    "postal_code": "28552"
  }
]