[
  {
    "id": 9508162011,
    "province_id": 95,
    "regency_id": 9508,
    "district_id": 950816,
    "value": "Betbere",
    "postal_code": "99942"
  },
  {
    "id": 9508162020,
    "province_id": 95,
    "regency_id": 9508,
    "district_id": 950816,
    "value": "Biledumu",
    "postal_code": "99942"
  },
  {
    "id": 9508162009,
    "province_id": 95,
    "regency_id": 9508,
    "district_id": 950816,
    "value": "Dangenpem",
    "postal_code": "99942"
  },
  {
    "id": 9508162014,
    "province_id": 95,
    "regency_id": 9508,
    "district_id": 950816,
    "value": "Dengpa",
    "postal_code": "99942"
  },
  {
    "id": 9508162008,
    "province_id": 95,
    "regency_id": 9508,
    "district_id": 950816,
    "value": "Diringgama",
    "postal_code": "99942"
  },
  {
    "id": 9508162003,
    "province_id": 95,
    "regency_id": 9508,
    "district_id": 950816,
    "value": "Gimi",
    "postal_code": "99942"
  },
  {
    "id": 9508162015,
    "province_id": 95,
    "regency_id": 9508,
    "district_id": 950816,
    "value": "Girimnak",
    "postal_code": "99942"
  },
  {
    "id": 9508162019,
    "province_id": 95,
    "regency_id": 9508,
    "district_id": 950816,
    "value": "Gularem",
    "postal_code": "99942"
  },
  {
    "id": 9508162016,
    "province_id": 95,
    "regency_id": 9508,
    "district_id": 950816,
    "value": "Lambule",
    "postal_code": "99942"
  },
  {
    "id": 9508162004,
    "province_id": 95,
    "regency_id": 9508,
    "district_id": 950816,
    "value": "Mugiarem",
    "postal_code": "99942"
  },
  {
    "id": 9508162012,
    "province_id": 95,
    "regency_id": 9508,
    "district_id": 950816,
    "value": "Muruldumu",
    "postal_code": "99942"
  },
  {
    "id": 9508162005,
    "province_id": 95,
    "regency_id": 9508,
    "district_id": 950816,
    "value": "Palpam",
    "postal_code": "99942"
  },
  {
    "id": 9508162006,
    "province_id": 95,
    "regency_id": 9508,
    "district_id": 950816,
    "value": "Samba",
    "postal_code": "99942"
  },
  {
    "id": 9508162007,
    "province_id": 95,
    "regency_id": 9508,
    "district_id": 950816,
    "value": "Sitdobo",
    "postal_code": "99942"
  },
  {
    "id": 9508162018,
    "province_id": 95,
    "regency_id": 9508,
    "district_id": 950816,
    "value": "Suelama",
    "postal_code": "99942"
  },
  {
    "id": 9508162017,
    "province_id": 95,
    "regency_id": 9508,
    "district_id": 950816,
    "value": "Sujomdobo",
    "postal_code": "99942"
  },
  {
    "id": 9508162010,
    "province_id": 95,
    "regency_id": 9508,
    "district_id": 950816,
    "value": "Undo",
    "postal_code": "99942"
  },
  {
    "id": 9508162013,
    "province_id": 95,
    "regency_id": 9508,
    "district_id": 950816,
    "value": "Yaba",
    "postal_code": "99942"
  },
  {
    "id": 9508162001,
    "province_id": 95,
    "regency_id": 9508,
    "district_id": 950816,
    "value": "Yal",
    "postal_code": "99942"
  },
  {
    "id": 9508162002,
    "province_id": 95,
    "regency_id": 9508,
    "district_id": 950816,
    "value": "Yimogi",
    "postal_code": "99942"
  }
]