[
  {
    "id": 120733,
    "province_id": 12,
    "regency_id": 1207,
    "district_id": 120733,
    "value": "Aras Kabu",
    "postal_code": "20552"
  },
  {
    "id": 120733,
    "province_id": 12,
    "regency_id": 1207,
    "district_id": 120733,
    "value": "Beringin",
    "postal_code": "20552"
  },
  {
    "id": 120733,
    "province_id": 12,
    "regency_id": 1207,
    "district_id": 120733,
    "value": "Eplasmen Kuala Namu (Emplasmen Kuala Namu)",
    "postal_code": "20552"
  },
  {
    "id": 120733,
    "province_id": 12,
    "regency_id": 1207,
    "district_id": 120733,
    "value": "Karang Anyar",
    "postal_code": "20552"
  },
  {
    "id": 120733,
    "province_id": 12,
    "regency_id": 1207,
    "district_id": 120733,
    "value": "Pasar V Kebun Kelapa (Pasar Lima Kebun Kelapa)",
    "postal_code": "20552"
  },
  {
    "id": 120733,
    "province_id": 12,
    "regency_id": 1207,
    "district_id": 120733,
    "value": "Pasar VI Kuala Namu (Pasar Enam Kuala Namu)",
    "postal_code": "20552"
  },
  {
    "id": 120733,
    "province_id": 12,
    "regency_id": 1207,
    "district_id": 120733,
    "value": "Serdang",
    "postal_code": "20552"
  },
  {
    "id": 120733,
    "province_id": 12,
    "regency_id": 1207,
    "district_id": 120733,
    "value": "Sidoarjo II Ramunia (Sidoarjo Dua Ramunia)",
    "postal_code": "20552"
  },
  {
    "id": 120733,
    "province_id": 12,
    "regency_id": 1207,
    "district_id": 120733,
    "value": "Sidodadi Ramonia (Ramunia)",
    "postal_code": "20552"
  },
  {
    "id": 120733,
    "province_id": 12,
    "regency_id": 1207,
    "district_id": 120733,
    "value": "Sidourip",
    "postal_code": "20552"
  },
  {
    "id": 120733,
    "province_id": 12,
    "regency_id": 1207,
    "district_id": 120733,
    "value": "Tumpatan",
    "postal_code": "20552"
  }
]