[
  {
    "id": 1611102007,
    "province_id": 16,
    "regency_id": 1611,
    "district_id": 161110,
    "value": "Air Kandis",
    "postal_code": "31599"
  },
  {
    "id": 1611102004,
    "province_id": 16,
    "regency_id": 1611,
    "district_id": 161110,
    "value": "Karang Caya",
    "postal_code": "31599"
  },
  {
    "id": 1611102010,
    "province_id": 16,
    "regency_id": 1611,
    "district_id": 161110,
    "value": "Kungkilan (Nungkilan)",
    "postal_code": "31599"
  },
  {
    "id": 1611102008,
    "province_id": 16,
    "regency_id": 1611,
    "district_id": 161110,
    "value": "Lingge",
    "postal_code": "31599"
  },
  {
    "id": 1611102002,
    "province_id": 16,
    "regency_id": 1611,
    "district_id": 161110,
    "value": "Muaralintang Baru (Muara Lintang Baru)",
    "postal_code": "31599"
  },
  {
    "id": 1611102001,
    "province_id": 16,
    "regency_id": 1611,
    "district_id": 161110,
    "value": "Muaralintang Lama (Muara Lintang Lama)",
    "postal_code": "31599"
  },
  {
    "id": 1611102006,
    "province_id": 16,
    "regency_id": 1611,
    "district_id": 161110,
    "value": "Padang Bindu",
    "postal_code": "31599"
  },
  {
    "id": 1611102009,
    "province_id": 16,
    "regency_id": 1611,
    "district_id": 161110,
    "value": "Rantau Dodor",
    "postal_code": "31599"
  },
  {
    "id": 1611102005,
    "province_id": 16,
    "regency_id": 1611,
    "district_id": 161110,
    "value": "Tanjungraya (Tanjung Raya)",
    "postal_code": "31599"
  },
  {
    "id": 1611102003,
    "province_id": 16,
    "regency_id": 1611,
    "district_id": 161110,
    "value": "Tebat Payang",
    "postal_code": "31599"
  }
]