[
  {
    "id": 8204142007,
    "province_id": 82,
    "regency_id": 8204,
    "district_id": 820414,
    "value": "Geti Baru",
    "postal_code": "97791"
  },
  {
    "id": 8204142006,
    "province_id": 82,
    "regency_id": 8204,
    "district_id": 820414,
    "value": "Geti Lama",
    "postal_code": "97791"
  },
  {
    "id": 8204142008,
    "province_id": 82,
    "regency_id": 8204,
    "district_id": 820414,
    "value": "Gilalang",
    "postal_code": "97791"
  },
  {
    "id": 8204142004,
    "province_id": 82,
    "regency_id": 8204,
    "district_id": 820414,
    "value": "Jojame",
    "postal_code": "97791"
  },
  {
    "id": 8204142002,
    "province_id": 82,
    "regency_id": 8204,
    "district_id": 820414,
    "value": "Lolarogurua (Gorua Lolaro / Lolorogurua)",
    "postal_code": "97791"
  },
  {
    "id": 8204142003,
    "province_id": 82,
    "regency_id": 8204,
    "district_id": 820414,
    "value": "Nusa Babullah (Nusa Babi)",
    "postal_code": "97791"
  },
  {
    "id": 8204142001,
    "province_id": 82,
    "regency_id": 8204,
    "district_id": 820414,
    "value": "Sidopo",
    "postal_code": "97791"
  },
  {
    "id": 8204142005,
    "province_id": 82,
    "regency_id": 8204,
    "district_id": 820414,
    "value": "Yaba",
    "postal_code": "97791"
  }
]