[
  {
    "id": 630220,
    "province_id": 63,
    "regency_id": 6302,
    "district_id": 630220,
    "value": "Kerayaan Utara",
    "postal_code": "72154"
  },
  {
    "id": 630220,
    "province_id": 63,
    "regency_id": 6302,
    "district_id": 630220,
    "value": "Oka-Oka",
    "postal_code": "72154"
  },
  {
    "id": 630220,
    "province_id": 63,
    "regency_id": 6302,
    "district_id": 630220,
    "value": "Pulau Kerasian",
    "postal_code": "72154"
  },
  {
    "id": 630220,
    "province_id": 63,
    "regency_id": 6302,
    "district_id": 630220,
    "value": "Pulau Kerayaan",
    "postal_code": "72154"
  },
  {
    "id": 630220,
    "province_id": 63,
    "regency_id": 6302,
    "district_id": 630220,
    "value": "Pulau Kerumputan",
    "postal_code": "72154"
  },
  {
    "id": 630220,
    "province_id": 63,
    "regency_id": 6302,
    "district_id": 630220,
    "value": "Tanjung Lalak Selatan",
    "postal_code": "72154"
  },
  {
    "id": 630220,
    "province_id": 63,
    "regency_id": 6302,
    "district_id": 630220,
    "value": "Tanjung Lalak Utara",
    "postal_code": "72154"
  },
  {
    "id": 630220,
    "province_id": 63,
    "regency_id": 6302,
    "district_id": 630220,
    "value": "Teluk Aru",
    "postal_code": "72154"
  },
  {
    "id": 630220,
    "province_id": 63,
    "regency_id": 6302,
    "district_id": 630220,
    "value": "Teluk Kemuning",
    "postal_code": "72154"
  }
]