[
  {
    "id": 120612,
    "province_id": 12,
    "regency_id": 1206,
    "district_id": 120612,
    "value": "Beganding",
    "postal_code": "22150"
  },
  {
    "id": 120612,
    "province_id": 12,
    "regency_id": 1206,
    "district_id": 120612,
    "value": "Berastepu",
    "postal_code": "22150"
  },
  {
    "id": 120612,
    "province_id": 12,
    "regency_id": 1206,
    "district_id": 120612,
    "value": "Bulanbaru (Bulan Baru)",
    "postal_code": "22150"
  },
  {
    "id": 120612,
    "province_id": 12,
    "regency_id": 1206,
    "district_id": 120612,
    "value": "Gajah",
    "postal_code": "22150"
  },
  {
    "id": 120612,
    "province_id": 12,
    "regency_id": 1206,
    "district_id": 120612,
    "value": "Gamber",
    "postal_code": "22150"
  },
  {
    "id": 120612,
    "province_id": 12,
    "regency_id": 1206,
    "district_id": 120612,
    "value": "Jeraya",
    "postal_code": "22150"
  },
  {
    "id": 120612,
    "province_id": 12,
    "regency_id": 1206,
    "district_id": 120612,
    "value": "Kutatengah (Kuta Tengah)",
    "postal_code": "22150"
  },
  {
    "id": 120612,
    "province_id": 12,
    "regency_id": 1206,
    "district_id": 120612,
    "value": "Lingga",
    "postal_code": "22150"
  },
  {
    "id": 120612,
    "province_id": 12,
    "regency_id": 1206,
    "district_id": 120612,
    "value": "Linggajulu (Lingga Julu)",
    "postal_code": "22150"
  },
  {
    "id": 120612,
    "province_id": 12,
    "regency_id": 1206,
    "district_id": 120612,
    "value": "Nangbelawan (Nang Belawan)",
    "postal_code": "22150"
  },
  {
    "id": 120612,
    "province_id": 12,
    "regency_id": 1206,
    "district_id": 120612,
    "value": "Ndokumsiroga (Ndokum Siroga)",
    "postal_code": "22150"
  },
  {
    "id": 120612,
    "province_id": 12,
    "regency_id": 1206,
    "district_id": 120612,
    "value": "Perteguhen",
    "postal_code": "22150"
  },
  {
    "id": 120612,
    "province_id": 12,
    "regency_id": 1206,
    "district_id": 120612,
    "value": "Pintumbesi (Pintu Besi)",
    "postal_code": "22150"
  },
  {
    "id": 120612,
    "province_id": 12,
    "regency_id": 1206,
    "district_id": 120612,
    "value": "Sirumbia (Serumbia)",
    "postal_code": "22150"
  },
  {
    "id": 120612,
    "province_id": 12,
    "regency_id": 1206,
    "district_id": 120612,
    "value": "Surbakti",
    "postal_code": "22150"
  },
  {
    "id": 120612,
    "province_id": 12,
    "regency_id": 1206,
    "district_id": 120612,
    "value": "Tigapancur (Tiga Pancur)",
    "postal_code": "22150"
  },
  {
    "id": 120612,
    "province_id": 12,
    "regency_id": 1206,
    "district_id": 120612,
    "value": "Torong",
    "postal_code": "22150"
  }
]