[
  {
    "id": 3601292008,
    "province_id": 36,
    "regency_id": 3601,
    "district_id": 360129,
    "value": "Cibungur",
    "postal_code": "42267"
  },
  {
    "id": 3601292010,
    "province_id": 36,
    "regency_id": 3601,
    "district_id": 360129,
    "value": "Cikuya",
    "postal_code": "42267"
  },
  {
    "id": 3601292002,
    "province_id": 36,
    "regency_id": 3601,
    "district_id": 360129,
    "value": "Karyasari",
    "postal_code": "42267"
  },
  {
    "id": 3601292006,
    "province_id": 36,
    "regency_id": 3601,
    "district_id": 360129,
    "value": "Kubangkampil",
    "postal_code": "42267"
  },
  {
    "id": 3601292005,
    "province_id": 36,
    "regency_id": 3601,
    "district_id": 360129,
    "value": "Pasirkadu",
    "postal_code": "42267"
  },
  {
    "id": 3601292003,
    "province_id": 36,
    "regency_id": 3601,
    "district_id": 360129,
    "value": "Perdana",
    "postal_code": "42267"
  },
  {
    "id": 3601292001,
    "province_id": 36,
    "regency_id": 3601,
    "district_id": 360129,
    "value": "Seuseupan",
    "postal_code": "42267"
  },
  {
    "id": 3601292007,
    "province_id": 36,
    "regency_id": 3601,
    "district_id": 360129,
    "value": "Sidamukti",
    "postal_code": "42267"
  },
  {
    "id": 3601292004,
    "province_id": 36,
    "regency_id": 3601,
    "district_id": 360129,
    "value": "Sukaresmi",
    "postal_code": "42267"
  },
  {
    "id": 3601292009,
    "province_id": 36,
    "regency_id": 3601,
    "district_id": 360129,
    "value": "Weru",
    "postal_code": "42267"
  }
]