[
  {
    "id": 810214,
    "province_id": 81,
    "regency_id": 8102,
    "district_id": 810214,
    "value": "Matwair (Madwaer)",
    "postal_code": "97624"
  },
  {
    "id": 810214,
    "province_id": 81,
    "regency_id": 8102,
    "district_id": 810214,
    "value": "Ohoidertom",
    "postal_code": "97624"
  },
  {
    "id": 810214,
    "province_id": 81,
    "regency_id": 8102,
    "district_id": 810214,
    "value": "Ohoidertutu",
    "postal_code": "97624"
  },
  {
    "id": 810214,
    "province_id": 81,
    "regency_id": 8102,
    "district_id": 810214,
    "value": "Ohoira",
    "postal_code": "97624"
  },
  {
    "id": 810214,
    "province_id": 81,
    "regency_id": 8102,
    "district_id": 810214,
    "value": "Ohoiren",
    "postal_code": "97624"
  },
  {
    "id": 810214,
    "province_id": 81,
    "regency_id": 8102,
    "district_id": 810214,
    "value": "Somlain",
    "postal_code": "97624"
  },
  {
    "id": 810214,
    "province_id": 81,
    "regency_id": 8102,
    "district_id": 810214,
    "value": "Tanimbar Kei",
    "postal_code": "97624"
  },
  {
    "id": 810214,
    "province_id": 81,
    "regency_id": 8102,
    "district_id": 810214,
    "value": "Ur Pulau",
    "postal_code": "97624"
  },
  {
    "id": 810214,
    "province_id": 81,
    "regency_id": 8102,
    "district_id": 810214,
    "value": "Warbal",
    "postal_code": "97624"
  },
  {
    "id": 810214,
    "province_id": 81,
    "regency_id": 8102,
    "district_id": 810214,
    "value": "Yatwav",
    "postal_code": "97624"
  }
]