[
  {
    "id": 940215,
    "province_id": 94,
    "regency_id": 9402,
    "district_id": 940215,
    "value": "Gilibe",
    "postal_code": "98944"
  },
  {
    "id": 940215,
    "province_id": 94,
    "regency_id": 9402,
    "district_id": 940215,
    "value": "Gililome",
    "postal_code": "98944"
  },
  {
    "id": 940215,
    "province_id": 94,
    "regency_id": 9402,
    "district_id": 940215,
    "value": "Kililumo",
    "postal_code": "98944"
  },
  {
    "id": 940215,
    "province_id": 94,
    "regency_id": 9402,
    "district_id": 940215,
    "value": "Lumo",
    "postal_code": "98944"
  },
  {
    "id": 940215,
    "province_id": 94,
    "regency_id": 9402,
    "district_id": 940215,
    "value": "Ninggineri",
    "postal_code": "98944"
  },
  {
    "id": 940215,
    "province_id": 94,
    "regency_id": 9402,
    "district_id": 940215,
    "value": "Tigir",
    "postal_code": "98944"
  },
  {
    "id": 940215,
    "province_id": 94,
    "regency_id": 9402,
    "district_id": 940215,
    "value": "Wuluma",
    "postal_code": "98944"
  },
  {
    "id": 940215,
    "province_id": 94,
    "regency_id": 9402,
    "district_id": 940215,
    "value": "Wurabak",
    "postal_code": "98944"
  },
  {
    "id": 940215,
    "province_id": 94,
    "regency_id": 9402,
    "district_id": 940215,
    "value": "Wuramburu",
    "postal_code": "98944"
  }
]