[
  {
    "id": 921023,
    "province_id": 92,
    "regency_id": 9210,
    "district_id": 921023,
    "value": "Faithowes",
    "postal_code": "98263"
  },
  {
    "id": 921023,
    "province_id": 92,
    "regency_id": 9210,
    "district_id": 921023,
    "value": "Ikuf",
    "postal_code": "98263"
  },
  {
    "id": 921023,
    "province_id": 92,
    "regency_id": 9210,
    "district_id": 921023,
    "value": "Ikuf Utara",
    "postal_code": "98263"
  },
  {
    "id": 921023,
    "province_id": 92,
    "regency_id": 9210,
    "district_id": 921023,
    "value": "Isir",
    "postal_code": "98263"
  },
  {
    "id": 921023,
    "province_id": 92,
    "regency_id": 9210,
    "district_id": 921023,
    "value": "Jitmau",
    "postal_code": "98263"
  },
  {
    "id": 921023,
    "province_id": 92,
    "regency_id": 9210,
    "district_id": 921023,
    "value": "Jitmau Timur",
    "postal_code": "98263"
  },
  {
    "id": 921023,
    "province_id": 92,
    "regency_id": 9210,
    "district_id": 921023,
    "value": "Kambusabo",
    "postal_code": "98263"
  },
  {
    "id": 921023,
    "province_id": 92,
    "regency_id": 9210,
    "district_id": 921023,
    "value": "Sarimo",
    "postal_code": "98263"
  },
  {
    "id": 921023,
    "province_id": 92,
    "regency_id": 9210,
    "district_id": 921023,
    "value": "Srirtabam",
    "postal_code": "98263"
  },
  {
    "id": 921023,
    "province_id": 92,
    "regency_id": 9210,
    "district_id": 921023,
    "value": "Yumame",
    "postal_code": "98263"
  }
]