[
  {
    "id": 621307,
    "province_id": 62,
    "regency_id": 6213,
    "district_id": 621307,
    "value": "Balawa",
    "postal_code": "73617"
  },
  {
    "id": 621307,
    "province_id": 62,
    "regency_id": 6213,
    "district_id": 621307,
    "value": "Juru Banu",
    "postal_code": "73617"
  },
  {
    "id": 621307,
    "province_id": 62,
    "regency_id": 6213,
    "district_id": 621307,
    "value": "Kali Napu",
    "postal_code": "73617"
  },
  {
    "id": 621307,
    "province_id": 62,
    "regency_id": 6213,
    "district_id": 621307,
    "value": "Maipe",
    "postal_code": "73617"
  },
  {
    "id": 621307,
    "province_id": 62,
    "regency_id": 6213,
    "district_id": 621307,
    "value": "Murutuwu",
    "postal_code": "73617"
  },
  {
    "id": 621307,
    "province_id": 62,
    "regency_id": 6213,
    "district_id": 621307,
    "value": "Siong",
    "postal_code": "73617"
  },
  {
    "id": 621307,
    "province_id": 62,
    "regency_id": 6213,
    "district_id": 621307,
    "value": "Tampulangit",
    "postal_code": "73617"
  },
  {
    "id": 621307,
    "province_id": 62,
    "regency_id": 6213,
    "district_id": 621307,
    "value": "Telang (Telang Siong)",
    "postal_code": "73617"
  },
  {
    "id": 621307,
    "province_id": 62,
    "regency_id": 6213,
    "district_id": 621307,
    "value": "Telang Baru",
    "postal_code": "73617"
  }
]