[
  {
    "id": 7505032025,
    "province_id": 75,
    "regency_id": 7505,
    "district_id": 750503,
    "value": "Datahu",
    "postal_code": "96525"
  },
  {
    "id": 7505032008,
    "province_id": 75,
    "regency_id": 7505,
    "district_id": 750503,
    "value": "Dudepo",
    "postal_code": "96525"
  },
  {
    "id": 7505032024,
    "province_id": 75,
    "regency_id": 7505,
    "district_id": 750503,
    "value": "Heluma (Helumo)",
    "postal_code": "96525"
  },
  {
    "id": 7505032013,
    "province_id": 75,
    "regency_id": 7505,
    "district_id": 750503,
    "value": "Hiyalooile",
    "postal_code": "96525"
  },
  {
    "id": 7505032014,
    "province_id": 75,
    "regency_id": 7505,
    "district_id": 750503,
    "value": "Ibarat",
    "postal_code": "96525"
  },
  {
    "id": 7505032001,
    "province_id": 75,
    "regency_id": 7505,
    "district_id": 750503,
    "value": "Ilangata",
    "postal_code": "96525"
  },
  {
    "id": 7505032021,
    "province_id": 75,
    "regency_id": 7505,
    "district_id": 750503,
    "value": "Ilodulunga",
    "postal_code": "96525"
  },
  {
    "id": 7505032017,
    "province_id": 75,
    "regency_id": 7505,
    "district_id": 750503,
    "value": "Iloheluma",
    "postal_code": "96525"
  },
  {
    "id": 7505032011,
    "province_id": 75,
    "regency_id": 7505,
    "district_id": 750503,
    "value": "Langge",
    "postal_code": "96525"
  },
  {
    "id": 7505032009,
    "province_id": 75,
    "regency_id": 7505,
    "district_id": 750503,
    "value": "Mootilango",
    "postal_code": "96525"
  },
  {
    "id": 7505032007,
    "province_id": 75,
    "regency_id": 7505,
    "district_id": 750503,
    "value": "Popalo",
    "postal_code": "96525"
  },
  {
    "id": 7505032023,
    "province_id": 75,
    "regency_id": 7505,
    "district_id": 750503,
    "value": "Putiana",
    "postal_code": "96525"
  },
  {
    "id": 7505032006,
    "province_id": 75,
    "regency_id": 7505,
    "district_id": 750503,
    "value": "Tolango",
    "postal_code": "96525"
  },
  {
    "id": 7505032002,
    "province_id": 75,
    "regency_id": 7505,
    "district_id": 750503,
    "value": "Tolongio",
    "postal_code": "96525"
  },
  {
    "id": 7505032012,
    "province_id": 75,
    "regency_id": 7505,
    "district_id": 750503,
    "value": "Tutuwoto",
    "postal_code": "96525"
  }
]