[
  {
    "id": 537105,
    "province_id": 53,
    "regency_id": 5371,
    "district_id": 537105,
    "value": "Airnona (Air Nona)",
    "postal_code": "85119"
  },
  {
    "id": 537105,
    "province_id": 53,
    "regency_id": 5371,
    "district_id": 537105,
    "value": "Bakunase",
    "postal_code": "85116"
  },
  {
    "id": 537105,
    "province_id": 53,
    "regency_id": 5371,
    "district_id": 537105,
    "value": "Bakunase Dua",
    "postal_code": "85116"
  },
  {
    "id": 537105,
    "province_id": 53,
    "regency_id": 5371,
    "district_id": 537105,
    "value": "Fontein",
    "postal_code": "85112"
  },
  {
    "id": 537105,
    "province_id": 53,
    "regency_id": 5371,
    "district_id": 537105,
    "value": "Kuanino",
    "postal_code": "85119"
  },
  {
    "id": 537105,
    "province_id": 53,
    "regency_id": 5371,
    "district_id": 537105,
    "value": "Naikoten I (Satu)",
    "postal_code": "85118"
  },
  {
    "id": 537105,
    "province_id": 53,
    "regency_id": 5371,
    "district_id": 537105,
    "value": "Naikoten II (Dua)",
    "postal_code": "85118"
  },
  {
    "id": 537105,
    "province_id": 53,
    "regency_id": 5371,
    "district_id": 537105,
    "value": "Nunleu",
    "postal_code": "85119"
  }
]