[
  {
    "id": 720105,
    "province_id": 72,
    "regency_id": 7201,
    "district_id": 720105,
    "value": "Bahari Makmur",
    "postal_code": "94771"
  },
  {
    "id": 720105,
    "province_id": 72,
    "regency_id": 7201,
    "district_id": 720105,
    "value": "Baruga",
    "postal_code": "94771"
  },
  {
    "id": 720105,
    "province_id": 72,
    "regency_id": 7201,
    "district_id": 720105,
    "value": "Bonebobakal",
    "postal_code": "94771"
  },
  {
    "id": 720105,
    "province_id": 72,
    "regency_id": 7201,
    "district_id": 720105,
    "value": "Kagitakan",
    "postal_code": "94771"
  },
  {
    "id": 720105,
    "province_id": 72,
    "regency_id": 7201,
    "district_id": 720105,
    "value": "Kota Raya",
    "postal_code": "94771"
  },
  {
    "id": 720105,
    "province_id": 72,
    "regency_id": 7201,
    "district_id": 720105,
    "value": "Kotabaru",
    "postal_code": "94771"
  },
  {
    "id": 720105,
    "province_id": 72,
    "regency_id": 7201,
    "district_id": 720105,
    "value": "Labotan",
    "postal_code": "94771"
  },
  {
    "id": 720105,
    "province_id": 72,
    "regency_id": 7201,
    "district_id": 720105,
    "value": "Lomba",
    "postal_code": "94771"
  },
  {
    "id": 720105,
    "province_id": 72,
    "regency_id": 7201,
    "district_id": 720105,
    "value": "Nipa",
    "postal_code": "94771"
  },
  {
    "id": 720105,
    "province_id": 72,
    "regency_id": 7201,
    "district_id": 720105,
    "value": "Poroan",
    "postal_code": "94771"
  },
  {
    "id": 720105,
    "province_id": 72,
    "regency_id": 7201,
    "district_id": 720105,
    "value": "Sirom (Sirong)",
    "postal_code": "94771"
  },
  {
    "id": 720105,
    "province_id": 72,
    "regency_id": 7201,
    "district_id": 720105,
    "value": "Tinonda",
    "postal_code": "94771"
  }
]