[
  {
    "id": 320203,
    "province_id": 32,
    "regency_id": 3202,
    "district_id": 320203,
    "value": "Cikakak",
    "postal_code": "43365"
  },
  {
    "id": 320203,
    "province_id": 32,
    "regency_id": 3202,
    "district_id": 320203,
    "value": "Cileungsing",
    "postal_code": "43365"
  },
  {
    "id": 320203,
    "province_id": 32,
    "regency_id": 3202,
    "district_id": 320203,
    "value": "Cimaja",
    "postal_code": "43365"
  },
  {
    "id": 320203,
    "province_id": 32,
    "regency_id": 3202,
    "district_id": 320203,
    "value": "Cirendang",
    "postal_code": "43365"
  },
  {
    "id": 320203,
    "province_id": 32,
    "regency_id": 3202,
    "district_id": 320203,
    "value": "Gandasoli",
    "postal_code": "43365"
  },
  {
    "id": 320203,
    "province_id": 32,
    "regency_id": 3202,
    "district_id": 320203,
    "value": "Margalaksana",
    "postal_code": "43365"
  },
  {
    "id": 320203,
    "province_id": 32,
    "regency_id": 3202,
    "district_id": 320203,
    "value": "Ridogalih",
    "postal_code": "43365"
  },
  {
    "id": 320203,
    "province_id": 32,
    "regency_id": 3202,
    "district_id": 320203,
    "value": "Sirnarasa",
    "postal_code": "43365"
  },
  {
    "id": 320203,
    "province_id": 32,
    "regency_id": 3202,
    "district_id": 320203,
    "value": "Sukamaju",
    "postal_code": "43365"
  }
]