[
  {
    "id": 157206,
    "province_id": 15,
    "regency_id": 1572,
    "district_id": 157206,
    "value": "Aur Duri",
    "postal_code": "37111"
  },
  {
    "id": 157206,
    "province_id": 15,
    "regency_id": 1572,
    "district_id": 157206,
    "value": "Karya Bakti",
    "postal_code": "37111"
  },
  {
    "id": 157206,
    "province_id": 15,
    "regency_id": 1572,
    "district_id": 157206,
    "value": "Koto Lembu/Lebu",
    "postal_code": "37111"
  },
  {
    "id": 157206,
    "province_id": 15,
    "regency_id": 1572,
    "district_id": 157206,
    "value": "Lawang Agung",
    "postal_code": "37111"
  },
  {
    "id": 157206,
    "province_id": 15,
    "regency_id": 1572,
    "district_id": 157206,
    "value": "Permanti",
    "postal_code": "37111"
  },
  {
    "id": 157206,
    "province_id": 15,
    "regency_id": 1572,
    "district_id": 157206,
    "value": "Pondok Agung",
    "postal_code": "37111"
  },
  {
    "id": 157206,
    "province_id": 15,
    "regency_id": 1572,
    "district_id": 157206,
    "value": "Pondok Tinggi",
    "postal_code": "37114"
  },
  {
    "id": 157206,
    "province_id": 15,
    "regency_id": 1572,
    "district_id": 157206,
    "value": "Sungai Jernih",
    "postal_code": "37111"
  }
]