[
  {
    "id": 9105032024,
    "province_id": 91,
    "regency_id": 9105,
    "district_id": 910503,
    "value": "Awunawai",
    "postal_code": "98644"
  },
  {
    "id": 9105032005,
    "province_id": 91,
    "regency_id": 9105,
    "district_id": 910503,
    "value": "Dawai",
    "postal_code": "98644"
  },
  {
    "id": 9105032036,
    "province_id": 91,
    "regency_id": 9105,
    "district_id": 910503,
    "value": "Duai",
    "postal_code": "98644"
  },
  {
    "id": 9105032004,
    "province_id": 91,
    "regency_id": 9105,
    "district_id": 910503,
    "value": "Korombobi (Karombobi)",
    "postal_code": "98644"
  },
  {
    "id": 9105032025,
    "province_id": 91,
    "regency_id": 9105,
    "district_id": 910503,
    "value": "Mareruni (Mereruni / Maseruni)",
    "postal_code": "98644"
  },
  {
    "id": 9105032014,
    "province_id": 91,
    "regency_id": 9105,
    "district_id": 910503,
    "value": "Nunsembai (Hunsembai)",
    "postal_code": "98644"
  },
  {
    "id": 9105032015,
    "province_id": 91,
    "regency_id": 9105,
    "district_id": 910503,
    "value": "Nunsiari",
    "postal_code": "98644"
  },
  {
    "id": 9105032037,
    "province_id": 91,
    "regency_id": 9105,
    "district_id": 910503,
    "value": "Sere Sere",
    "postal_code": "98644"
  },
  {
    "id": 9105032010,
    "province_id": 91,
    "regency_id": 9105,
    "district_id": 910503,
    "value": "Wabo",
    "postal_code": "98644"
  },
  {
    "id": 9105032031,
    "province_id": 91,
    "regency_id": 9105,
    "district_id": 910503,
    "value": "Wabompi",
    "postal_code": "98644"
  },
  {
    "id": 9105032023,
    "province_id": 91,
    "regency_id": 9105,
    "district_id": 910503,
    "value": "Woinsupi (Waisopi)",
    "postal_code": "98644"
  }
]