[
  {
    "id": 731307,
    "province_id": 73,
    "regency_id": 7313,
    "district_id": 731307,
    "value": "Belawa",
    "postal_code": "90953"
  },
  {
    "id": 731307,
    "province_id": 73,
    "regency_id": 7313,
    "district_id": 731307,
    "value": "Lautang",
    "postal_code": "90953"
  },
  {
    "id": 731307,
    "province_id": 73,
    "regency_id": 7313,
    "district_id": 731307,
    "value": "Lepangeng (Leppangeng)",
    "postal_code": "90913"
  },
  {
    "id": 731307,
    "province_id": 73,
    "regency_id": 7313,
    "district_id": 731307,
    "value": "Limporilau (Limpo Rilau)",
    "postal_code": "90953"
  },
  {
    "id": 731307,
    "province_id": 73,
    "regency_id": 7313,
    "district_id": 731307,
    "value": "Macero",
    "postal_code": "90953"
  },
  {
    "id": 731307,
    "province_id": 73,
    "regency_id": 7313,
    "district_id": 731307,
    "value": "Malangke (Malakke)",
    "postal_code": "90953"
  },
  {
    "id": 731307,
    "province_id": 73,
    "regency_id": 7313,
    "district_id": 731307,
    "value": "Ongkoe",
    "postal_code": "90953"
  },
  {
    "id": 731307,
    "province_id": 73,
    "regency_id": 7313,
    "district_id": 731307,
    "value": "Sappa",
    "postal_code": "90953"
  },
  {
    "id": 731307,
    "province_id": 73,
    "regency_id": 7313,
    "district_id": 731307,
    "value": "Wele",
    "postal_code": "90953"
  }
]