[
  {
    "id": 950105,
    "province_id": 95,
    "regency_id": 9501,
    "district_id": 950105,
    "value": "Bandua",
    "postal_code": "99541"
  },
  {
    "id": 950105,
    "province_id": 95,
    "regency_id": 9501,
    "district_id": 950105,
    "value": "Bimu",
    "postal_code": "99541"
  },
  {
    "id": 950105,
    "province_id": 95,
    "regency_id": 9501,
    "district_id": 950105,
    "value": "Bolakme",
    "postal_code": "99541"
  },
  {
    "id": 950105,
    "province_id": 95,
    "regency_id": 9501,
    "district_id": 950105,
    "value": "Kugitero",
    "postal_code": "99541"
  },
  {
    "id": 950105,
    "province_id": 95,
    "regency_id": 9501,
    "district_id": 950105,
    "value": "Lani Timur",
    "postal_code": "99541"
  },
  {
    "id": 950105,
    "province_id": 95,
    "regency_id": 9501,
    "district_id": 950105,
    "value": "Munak",
    "postal_code": "99541"
  },
  {
    "id": 950105,
    "province_id": 95,
    "regency_id": 9501,
    "district_id": 950105,
    "value": "Nunggarugum",
    "postal_code": "99541"
  },
  {
    "id": 950105,
    "province_id": 95,
    "regency_id": 9501,
    "district_id": 950105,
    "value": "Owagambak",
    "postal_code": "99541"
  },
  {
    "id": 950105,
    "province_id": 95,
    "regency_id": 9501,
    "district_id": 950105,
    "value": "Poitmos",
    "postal_code": "99541"
  },
  {
    "id": 950105,
    "province_id": 95,
    "regency_id": 9501,
    "district_id": 950105,
    "value": "Tekani",
    "postal_code": "99541"
  },
  {
    "id": 950105,
    "province_id": 95,
    "regency_id": 9501,
    "district_id": 950105,
    "value": "Tononggame (Tenonggame)",
    "postal_code": "99541"
  },
  {
    "id": 950105,
    "province_id": 95,
    "regency_id": 9501,
    "district_id": 950105,
    "value": "Wenamela",
    "postal_code": "99541"
  }
]