[
  {
    "id": 1301112008,
    "province_id": 13,
    "regency_id": 1301,
    "district_id": 130111,
    "value": "Ampang Tulak Tapan",
    "postal_code": "25672"
  },
  {
    "id": 1301112007,
    "province_id": 13,
    "regency_id": 1301,
    "district_id": 130111,
    "value": "Batang Arah Tapan",
    "postal_code": "25672"
  },
  {
    "id": 1301112010,
    "province_id": 13,
    "regency_id": 1301,
    "district_id": 130111,
    "value": "Batang Betung Tapan",
    "postal_code": "25672"
  },
  {
    "id": 1301112016,
    "province_id": 13,
    "regency_id": 1301,
    "district_id": 130111,
    "value": "Bukit Buai Tapan (Bukitbuai Tapan)",
    "postal_code": "25672"
  },
  {
    "id": 1301112019,
    "province_id": 13,
    "regency_id": 1301,
    "district_id": 130111,
    "value": "Dusun Baru Tapan",
    "postal_code": "25672"
  },
  {
    "id": 1301112018,
    "province_id": 13,
    "regency_id": 1301,
    "district_id": 130111,
    "value": "Koto Anau Tapan",
    "postal_code": "25672"
  },
  {
    "id": 1301112002,
    "province_id": 13,
    "regency_id": 1301,
    "district_id": 130111,
    "value": "Pasar Tapan",
    "postal_code": "25672"
  },
  {
    "id": 1301112017,
    "province_id": 13,
    "regency_id": 1301,
    "district_id": 130111,
    "value": "Riak Danau Tapan (Riakdanau Tapan)",
    "postal_code": "25672"
  },
  {
    "id": 1301112009,
    "province_id": 13,
    "regency_id": 1301,
    "district_id": 130111,
    "value": "Tanjung Pondok Tapan (Tanjungpondok Tapan)",
    "postal_code": "25672"
  },
  {
    "id": 1301112001,
    "province_id": 13,
    "regency_id": 1301,
    "district_id": 130111,
    "value": "Tapan",
    "postal_code": "25672"
  }
]