[
  {
    "id": 121407,
    "province_id": 12,
    "regency_id": 1214,
    "district_id": 121407,
    "value": "Amandraya",
    "postal_code": "22866"
  },
  {
    "id": 121407,
    "province_id": 12,
    "regency_id": 1214,
    "district_id": 121407,
    "value": "Boholu",
    "postal_code": "22866"
  },
  {
    "id": 121407,
    "province_id": 12,
    "regency_id": 1214,
    "district_id": 121407,
    "value": "Hilifadolo",
    "postal_code": "22866"
  },
  {
    "id": 121407,
    "province_id": 12,
    "regency_id": 1214,
    "district_id": 121407,
    "value": "Hilihoru",
    "postal_code": "22866"
  },
  {
    "id": 121407,
    "province_id": 12,
    "regency_id": 1214,
    "district_id": 121407,
    "value": "Hilimaera",
    "postal_code": "22866"
  },
  {
    "id": 121407,
    "province_id": 12,
    "regency_id": 1214,
    "district_id": 121407,
    "value": "Hilimbowo",
    "postal_code": "22866"
  },
  {
    "id": 121407,
    "province_id": 12,
    "regency_id": 1214,
    "district_id": 121407,
    "value": "Hilimbulawa",
    "postal_code": "22866"
  },
  {
    "id": 121407,
    "province_id": 12,
    "regency_id": 1214,
    "district_id": 121407,
    "value": "Hilindraso",
    "postal_code": "22866"
  },
  {
    "id": 121407,
    "province_id": 12,
    "regency_id": 1214,
    "district_id": 121407,
    "value": "Hilisalo'o",
    "postal_code": "22866"
  },
  {
    "id": 121407,
    "province_id": 12,
    "regency_id": 1214,
    "district_id": 121407,
    "value": "Loloabolo",
    "postal_code": "22866"
  },
  {
    "id": 121407,
    "province_id": 12,
    "regency_id": 1214,
    "district_id": 121407,
    "value": "Lolomoyo",
    "postal_code": "22866"
  },
  {
    "id": 121407,
    "province_id": 12,
    "regency_id": 1214,
    "district_id": 121407,
    "value": "Lolozaria",
    "postal_code": "22866"
  },
  {
    "id": 121407,
    "province_id": 12,
    "regency_id": 1214,
    "district_id": 121407,
    "value": "Mohili",
    "postal_code": "22866"
  },
  {
    "id": 121407,
    "province_id": 12,
    "regency_id": 1214,
    "district_id": 121407,
    "value": "Orahili Eho",
    "postal_code": "22866"
  },
  {
    "id": 121407,
    "province_id": 12,
    "regency_id": 1214,
    "district_id": 121407,
    "value": "Sifaoroasi (Sifaoro'asi)",
    "postal_code": "22866"
  },
  {
    "id": 121407,
    "province_id": 12,
    "regency_id": 1214,
    "district_id": 121407,
    "value": "Sinar Ino'o",
    "postal_code": "22866"
  },
  {
    "id": 121407,
    "province_id": 12,
    "regency_id": 1214,
    "district_id": 121407,
    "value": "Sirofi",
    "postal_code": "22866"
  },
  {
    "id": 121407,
    "province_id": 12,
    "regency_id": 1214,
    "district_id": 121407,
    "value": "Sisobahili",
    "postal_code": "22866"
  },
  {
    "id": 121407,
    "province_id": 12,
    "regency_id": 1214,
    "district_id": 121407,
    "value": "Tuhemberua Amandraya",
    "postal_code": "22866"
  },
  {
    "id": 121407,
    "province_id": 12,
    "regency_id": 1214,
    "district_id": 121407,
    "value": "Tuindrao",
    "postal_code": "22866"
  },
  {
    "id": 121407,
    "province_id": 12,
    "regency_id": 1214,
    "district_id": 121407,
    "value": "Tuindrao I (Tuindrao Satu)",
    "postal_code": "22866"
  }
]