[
  {
    "id": 5314062015,
    "province_id": 53,
    "regency_id": 5314,
    "district_id": 531406,
    "value": "Batefalu",
    "postal_code": "85975"
  },
  {
    "id": 5314062002,
    "province_id": 53,
    "regency_id": 5314,
    "district_id": 531406,
    "value": "Faifua",
    "postal_code": "85975"
  },
  {
    "id": 5314062003,
    "province_id": 53,
    "regency_id": 5314,
    "district_id": 531406,
    "value": "Hundihopo (Hundi Hopo)",
    "postal_code": "85975"
  },
  {
    "id": 5314062006,
    "province_id": 53,
    "regency_id": 5314,
    "district_id": 531406,
    "value": "Lakamola",
    "postal_code": "85975"
  },
  {
    "id": 5314061004,
    "province_id": 53,
    "regency_id": 5314,
    "district_id": 531406,
    "value": "Londalusi",
    "postal_code": "85975"
  },
  {
    "id": 5314062017,
    "province_id": 53,
    "regency_id": 5314,
    "district_id": 531406,
    "value": "Matanae",
    "postal_code": "85975"
  },
  {
    "id": 5314062007,
    "province_id": 53,
    "regency_id": 5314,
    "district_id": 531406,
    "value": "Matasio",
    "postal_code": "85975"
  },
  {
    "id": 5314062001,
    "province_id": 53,
    "regency_id": 5314,
    "district_id": 531406,
    "value": "Mukekuku",
    "postal_code": "85975"
  },
  {
    "id": 5314062016,
    "province_id": 53,
    "regency_id": 5314,
    "district_id": 531406,
    "value": "Papela",
    "postal_code": "85975"
  },
  {
    "id": 5314062014,
    "province_id": 53,
    "regency_id": 5314,
    "district_id": 531406,
    "value": "Pengodua",
    "postal_code": "85975"
  },
  {
    "id": 5314062005,
    "province_id": 53,
    "regency_id": 5314,
    "district_id": 531406,
    "value": "Serubeba",
    "postal_code": "85975"
  }
]