[
  {
    "id": 3321142007,
    "province_id": 33,
    "regency_id": 3321,
    "district_id": 332114,
    "value": "Babat (Babad)",
    "postal_code": "59583"
  },
  {
    "id": 3321142002,
    "province_id": 33,
    "regency_id": 3321,
    "district_id": 332114,
    "value": "Kebonagung",
    "postal_code": "59583"
  },
  {
    "id": 3321142003,
    "province_id": 33,
    "regency_id": 3321,
    "district_id": 332114,
    "value": "Klampok Lor",
    "postal_code": "59583"
  },
  {
    "id": 3321142008,
    "province_id": 33,
    "regency_id": 3321,
    "district_id": 332114,
    "value": "Mangunanlor (Mangunan Lor)",
    "postal_code": "59583"
  },
  {
    "id": 3321142006,
    "province_id": 33,
    "regency_id": 3321,
    "district_id": 332114,
    "value": "Mangunrejo",
    "postal_code": "59583"
  },
  {
    "id": 3321142014,
    "province_id": 33,
    "regency_id": 3321,
    "district_id": 332114,
    "value": "Megonten",
    "postal_code": "59583"
  },
  {
    "id": 3321142004,
    "province_id": 33,
    "regency_id": 3321,
    "district_id": 332114,
    "value": "Mijen",
    "postal_code": "59583"
  },
  {
    "id": 3321142001,
    "province_id": 33,
    "regency_id": 3321,
    "district_id": 332114,
    "value": "Pilangwetan",
    "postal_code": "59583"
  },
  {
    "id": 3321142010,
    "province_id": 33,
    "regency_id": 3321,
    "district_id": 332114,
    "value": "Prigi",
    "postal_code": "59583"
  },
  {
    "id": 3321142011,
    "province_id": 33,
    "regency_id": 3321,
    "district_id": 332114,
    "value": "Sarimulyo",
    "postal_code": "59583"
  },
  {
    "id": 3321142013,
    "province_id": 33,
    "regency_id": 3321,
    "district_id": 332114,
    "value": "Sokokidul (Soko Kidul)",
    "postal_code": "59583"
  },
  {
    "id": 3321142012,
    "province_id": 33,
    "regency_id": 3321,
    "district_id": 332114,
    "value": "Solowire",
    "postal_code": "59583"
  },
  {
    "id": 3321142009,
    "province_id": 33,
    "regency_id": 3321,
    "district_id": 332114,
    "value": "Tlogosih",
    "postal_code": "59583"
  },
  {
    "id": 3321142005,
    "province_id": 33,
    "regency_id": 3321,
    "district_id": 332114,
    "value": "Werdoyo",
    "postal_code": "59583"
  }
]