[
  {
    "id": 7326062008,
    "province_id": 73,
    "regency_id": 7326,
    "district_id": 732606,
    "value": "Sa'dan Andulan (Sa' Dan Andulan)",
    "postal_code": "91843"
  },
  {
    "id": 7326062003,
    "province_id": 73,
    "regency_id": 7326,
    "district_id": 732606,
    "value": "Sa'dan Balong Pasange'",
    "postal_code": "91843"
  },
  {
    "id": 7326062010,
    "province_id": 73,
    "regency_id": 7326,
    "district_id": 732606,
    "value": "Sa'dan Luku Lambe'na (Liku Lambe)",
    "postal_code": "91843"
  },
  {
    "id": 7326061002,
    "province_id": 73,
    "regency_id": 7326,
    "district_id": 732606,
    "value": "Sa'dan Malimbong (Sa' Dan Malimbong)",
    "postal_code": "91843"
  },
  {
    "id": 7326061004,
    "province_id": 73,
    "regency_id": 7326,
    "district_id": 732606,
    "value": "Sa'dan Matalo (Sa' Dan Matallo)",
    "postal_code": "91843"
  },
  {
    "id": 7326062005,
    "province_id": 73,
    "regency_id": 7326,
    "district_id": 732606,
    "value": "Sa'dan Pebulian (Sa' Dan Pebulian)",
    "postal_code": "91843"
  },
  {
    "id": 7326062009,
    "province_id": 73,
    "regency_id": 7326,
    "district_id": 732606,
    "value": "Sa'dan Pesondongan (Sa' Dan)",
    "postal_code": "91843"
  },
  {
    "id": 7326062007,
    "province_id": 73,
    "regency_id": 7326,
    "district_id": 732606,
    "value": "Sa'dan Tiroallo",
    "postal_code": "91843"
  },
  {
    "id": 7326062001,
    "province_id": 73,
    "regency_id": 7326,
    "district_id": 732606,
    "value": "Sa'dan Ulusalu (Sa' Dan Ulusalu)",
    "postal_code": "91843"
  },
  {
    "id": 7326062006,
    "province_id": 73,
    "regency_id": 7326,
    "district_id": 732606,
    "value": "Sangkaropi' (Sa' Dan Sangkaropi)",
    "postal_code": "91843"
  }
]