[
  {
    "id": 620215,
    "province_id": 62,
    "regency_id": 6202,
    "district_id": 620215,
    "value": "Lunuk Bagantung",
    "postal_code": "74356"
  },
  {
    "id": 620215,
    "province_id": 62,
    "regency_id": 6202,
    "district_id": 620215,
    "value": "Tanah Haluan",
    "postal_code": "74356"
  },
  {
    "id": 620215,
    "province_id": 62,
    "regency_id": 6202,
    "district_id": 620215,
    "value": "Tewai Hara (Tewei Hara)",
    "postal_code": "74356"
  },
  {
    "id": 620215,
    "province_id": 62,
    "regency_id": 6202,
    "district_id": 620215,
    "value": "Tumbang Batu",
    "postal_code": "74356"
  },
  {
    "id": 620215,
    "province_id": 62,
    "regency_id": 6202,
    "district_id": 620215,
    "value": "Tumbang Getas",
    "postal_code": "74356"
  },
  {
    "id": 620215,
    "province_id": 62,
    "regency_id": 6202,
    "district_id": 620215,
    "value": "Tumbang Kamining/Kaminting",
    "postal_code": "74356"
  },
  {
    "id": 620215,
    "province_id": 62,
    "regency_id": 6202,
    "district_id": 620215,
    "value": "Tumbang Kania",
    "postal_code": "74356"
  },
  {
    "id": 620215,
    "province_id": 62,
    "regency_id": 6202,
    "district_id": 620215,
    "value": "Tumbang Payang",
    "postal_code": "74356"
  },
  {
    "id": 620215,
    "province_id": 62,
    "regency_id": 6202,
    "district_id": 620215,
    "value": "Tumbang Penyahuan",
    "postal_code": "74356"
  },
  {
    "id": 620215,
    "province_id": 62,
    "regency_id": 6202,
    "district_id": 620215,
    "value": "Tumbang Saluang",
    "postal_code": "74356"
  },
  {
    "id": 620215,
    "province_id": 62,
    "regency_id": 6202,
    "district_id": 620215,
    "value": "Tumbang Sapia",
    "postal_code": "74356"
  },
  {
    "id": 620215,
    "province_id": 62,
    "regency_id": 6202,
    "district_id": 620215,
    "value": "Tumbang Tawan",
    "postal_code": "74356"
  },
  {
    "id": 620215,
    "province_id": 62,
    "regency_id": 6202,
    "district_id": 620215,
    "value": "Tumbang Tilap",
    "postal_code": "74356"
  },
  {
    "id": 620215,
    "province_id": 62,
    "regency_id": 6202,
    "district_id": 620215,
    "value": "Tumbang Torung/Turung",
    "postal_code": "74356"
  }
]