[
  {
    "id": 710903,
    "province_id": 71,
    "regency_id": 7109,
    "district_id": 710903,
    "value": "Apengsala",
    "postal_code": "95863"
  },
  {
    "id": 710903,
    "province_id": 71,
    "regency_id": 7109,
    "district_id": 710903,
    "value": "Bahoi",
    "postal_code": "95863"
  },
  {
    "id": 710903,
    "province_id": 71,
    "regency_id": 7109,
    "district_id": 710903,
    "value": "Balehumara",
    "postal_code": "95863"
  },
  {
    "id": 710903,
    "province_id": 71,
    "regency_id": 7109,
    "district_id": 710903,
    "value": "Barangka Pehe",
    "postal_code": "95863"
  },
  {
    "id": 710903,
    "province_id": 71,
    "regency_id": 7109,
    "district_id": 710903,
    "value": "Boto",
    "postal_code": "95863"
  },
  {
    "id": 710903,
    "province_id": 71,
    "regency_id": 7109,
    "district_id": 710903,
    "value": "Haasi",
    "postal_code": "95863"
  },
  {
    "id": 710903,
    "province_id": 71,
    "regency_id": 7109,
    "district_id": 710903,
    "value": "Laingpatehi",
    "postal_code": "95863"
  },
  {
    "id": 710903,
    "province_id": 71,
    "regency_id": 7109,
    "district_id": 710903,
    "value": "Lesah",
    "postal_code": "95863"
  },
  {
    "id": 710903,
    "province_id": 71,
    "regency_id": 7109,
    "district_id": 710903,
    "value": "Lesah Rende",
    "postal_code": "95863"
  },
  {
    "id": 710903,
    "province_id": 71,
    "regency_id": 7109,
    "district_id": 710903,
    "value": "Mahangiang",
    "postal_code": "95863"
  },
  {
    "id": 710903,
    "province_id": 71,
    "regency_id": 7109,
    "district_id": 710903,
    "value": "Mohongsawang (Mohonsawang)",
    "postal_code": "95863"
  },
  {
    "id": 710903,
    "province_id": 71,
    "regency_id": 7109,
    "district_id": 710903,
    "value": "Mulengan (Mulengen)",
    "postal_code": "95863"
  },
  {
    "id": 710903,
    "province_id": 71,
    "regency_id": 7109,
    "district_id": 710903,
    "value": "Pahiama",
    "postal_code": "95863"
  },
  {
    "id": 710903,
    "province_id": 71,
    "regency_id": 7109,
    "district_id": 710903,
    "value": "Pumpente",
    "postal_code": "95863"
  },
  {
    "id": 710903,
    "province_id": 71,
    "regency_id": 7109,
    "district_id": 710903,
    "value": "Tulusang (Tulusan)",
    "postal_code": "95863"
  }
]