[
  {
    "id": 731408,
    "province_id": 73,
    "regency_id": 7314,
    "district_id": 731408,
    "value": "Aka-Akae",
    "postal_code": "91613"
  },
  {
    "id": 731408,
    "province_id": 73,
    "regency_id": 7314,
    "district_id": 731408,
    "value": "Damai",
    "postal_code": "91616"
  },
  {
    "id": 731408,
    "province_id": 73,
    "regency_id": 7314,
    "district_id": 731408,
    "value": "Empagae",
    "postal_code": "91613"
  },
  {
    "id": 731408,
    "province_id": 73,
    "regency_id": 7314,
    "district_id": 731408,
    "value": "Kanyuara",
    "postal_code": "91613"
  },
  {
    "id": 731408,
    "province_id": 73,
    "regency_id": 7314,
    "district_id": 731408,
    "value": "Mojong",
    "postal_code": "91614"
  },
  {
    "id": 731408,
    "province_id": 73,
    "regency_id": 7314,
    "district_id": 731408,
    "value": "Sidenreng (Watang Sidenreng)",
    "postal_code": "91682"
  },
  {
    "id": 731408,
    "province_id": 73,
    "regency_id": 7314,
    "district_id": 731408,
    "value": "Talawe",
    "postal_code": "91613"
  },
  {
    "id": 731408,
    "province_id": 73,
    "regency_id": 7314,
    "district_id": 731408,
    "value": "Talumae",
    "postal_code": "91613"
  }
]