[
  {
    "id": 531108,
    "province_id": 53,
    "regency_id": 5311,
    "district_id": 531108,
    "value": "Lairuru",
    "postal_code": "87180"
  },
  {
    "id": 531108,
    "province_id": 53,
    "regency_id": 5311,
    "district_id": 531108,
    "value": "Lumbukore",
    "postal_code": "87180"
  },
  {
    "id": 531108,
    "province_id": 53,
    "regency_id": 5311,
    "district_id": 531108,
    "value": "Matawai Atu",
    "postal_code": "87180"
  },
  {
    "id": 531108,
    "province_id": 53,
    "regency_id": 5311,
    "district_id": 531108,
    "value": "Mutunggeding",
    "postal_code": "87180"
  },
  {
    "id": 531108,
    "province_id": 53,
    "regency_id": 5311,
    "district_id": 531108,
    "value": "Ngaru Kanoru",
    "postal_code": "87180"
  },
  {
    "id": 531108,
    "province_id": 53,
    "regency_id": 5311,
    "district_id": 531108,
    "value": "Patawang",
    "postal_code": "87180"
  },
  {
    "id": 531108,
    "province_id": 53,
    "regency_id": 5311,
    "district_id": 531108,
    "value": "Umalulu",
    "postal_code": "87180"
  },
  {
    "id": 531108,
    "province_id": 53,
    "regency_id": 5311,
    "district_id": 531108,
    "value": "Wanga",
    "postal_code": "87180"
  },
  {
    "id": 531108,
    "province_id": 53,
    "regency_id": 5311,
    "district_id": 531108,
    "value": "Watuhadang (Watu Hadang)",
    "postal_code": "87180"
  },
  {
    "id": 531108,
    "province_id": 53,
    "regency_id": 5311,
    "district_id": 531108,
    "value": "Watupuda (Watukuda / Watu Puda)",
    "postal_code": "87180"
  }
]