[
  {
    "id": 740503,
    "province_id": 74,
    "regency_id": 7405,
    "district_id": 740503,
    "value": "Alangga",
    "postal_code": "93811"
  },
  {
    "id": 740503,
    "province_id": 74,
    "regency_id": 7405,
    "district_id": 740503,
    "value": "Alengge Agung",
    "postal_code": "93811"
  },
  {
    "id": 740503,
    "province_id": 74,
    "regency_id": 7405,
    "district_id": 740503,
    "value": "Andoolo",
    "postal_code": "93810"
  },
  {
    "id": 740503,
    "province_id": 74,
    "regency_id": 7405,
    "district_id": 740503,
    "value": "Ataku",
    "postal_code": "93819"
  },
  {
    "id": 740503,
    "province_id": 74,
    "regency_id": 7405,
    "district_id": 740503,
    "value": "Bumi Raya",
    "postal_code": "93819"
  },
  {
    "id": 740503,
    "province_id": 74,
    "regency_id": 7405,
    "district_id": 740503,
    "value": "Lalobao",
    "postal_code": "93819"
  },
  {
    "id": 740503,
    "province_id": 74,
    "regency_id": 7405,
    "district_id": 740503,
    "value": "Lalonggombu",
    "postal_code": "93813"
  },
  {
    "id": 740503,
    "province_id": 74,
    "regency_id": 7405,
    "district_id": 740503,
    "value": "Potoro",
    "postal_code": "93811"
  },
  {
    "id": 740503,
    "province_id": 74,
    "regency_id": 7405,
    "district_id": 740503,
    "value": "Punggapu",
    "postal_code": "93819"
  },
  {
    "id": 740503,
    "province_id": 74,
    "regency_id": 7405,
    "district_id": 740503,
    "value": "Wunduwatu",
    "postal_code": "93819"
  }
]