[
  {
    "id": 351301,
    "province_id": 35,
    "regency_id": 3513,
    "district_id": 351301,
    "value": "Jetak",
    "postal_code": "67254"
  },
  {
    "id": 351301,
    "province_id": 35,
    "regency_id": 3513,
    "district_id": 351301,
    "value": "Kedasih",
    "postal_code": "67254"
  },
  {
    "id": 351301,
    "province_id": 35,
    "regency_id": 3513,
    "district_id": 351301,
    "value": "Ngadas",
    "postal_code": "67254"
  },
  {
    "id": 351301,
    "province_id": 35,
    "regency_id": 3513,
    "district_id": 351301,
    "value": "Ngadirejo",
    "postal_code": "67254"
  },
  {
    "id": 351301,
    "province_id": 35,
    "regency_id": 3513,
    "district_id": 351301,
    "value": "Ngadisari",
    "postal_code": "67254"
  },
  {
    "id": 351301,
    "province_id": 35,
    "regency_id": 3513,
    "district_id": 351301,
    "value": "Ngepung",
    "postal_code": "67254"
  },
  {
    "id": 351301,
    "province_id": 35,
    "regency_id": 3513,
    "district_id": 351301,
    "value": "Pakel",
    "postal_code": "67254"
  },
  {
    "id": 351301,
    "province_id": 35,
    "regency_id": 3513,
    "district_id": 351301,
    "value": "Sapikerep",
    "postal_code": "67254"
  },
  {
    "id": 351301,
    "province_id": 35,
    "regency_id": 3513,
    "district_id": 351301,
    "value": "Sariwani",
    "postal_code": "67254"
  },
  {
    "id": 351301,
    "province_id": 35,
    "regency_id": 3513,
    "district_id": 351301,
    "value": "Sukapura",
    "postal_code": "67254"
  },
  {
    "id": 351301,
    "province_id": 35,
    "regency_id": 3513,
    "district_id": 351301,
    "value": "Wonokerto",
    "postal_code": "67254"
  },
  {
    "id": 351301,
    "province_id": 35,
    "regency_id": 3513,
    "district_id": 351301,
    "value": "Wonotoro",
    "postal_code": "67254"
  }
]