[
  {
    "id": 531601,
    "province_id": 53,
    "regency_id": 5316,
    "district_id": 531601,
    "value": "Aerama (Aeramo)",
    "postal_code": "86472"
  },
  {
    "id": 531601,
    "province_id": 53,
    "regency_id": 5316,
    "district_id": 531601,
    "value": "Danga",
    "postal_code": "86472"
  },
  {
    "id": 531601,
    "province_id": 53,
    "regency_id": 5316,
    "district_id": 531601,
    "value": "Dhawe",
    "postal_code": "86472"
  },
  {
    "id": 531601,
    "province_id": 53,
    "regency_id": 5316,
    "district_id": 531601,
    "value": "Labolewa",
    "postal_code": "86472"
  },
  {
    "id": 531601,
    "province_id": 53,
    "regency_id": 5316,
    "district_id": 531601,
    "value": "Lape",
    "postal_code": "86472"
  },
  {
    "id": 531601,
    "province_id": 53,
    "regency_id": 5316,
    "district_id": 531601,
    "value": "Marapokot",
    "postal_code": "86472"
  },
  {
    "id": 531601,
    "province_id": 53,
    "regency_id": 5316,
    "district_id": 531601,
    "value": "Mbay I",
    "postal_code": "86472"
  },
  {
    "id": 531601,
    "province_id": 53,
    "regency_id": 5316,
    "district_id": 531601,
    "value": "Mbay II",
    "postal_code": "86472"
  },
  {
    "id": 531601,
    "province_id": 53,
    "regency_id": 5316,
    "district_id": 531601,
    "value": "Nangadhero",
    "postal_code": "86472"
  },
  {
    "id": 531601,
    "province_id": 53,
    "regency_id": 5316,
    "district_id": 531601,
    "value": "Ngegedhawe",
    "postal_code": "86472"
  },
  {
    "id": 531601,
    "province_id": 53,
    "regency_id": 5316,
    "district_id": 531601,
    "value": "Nggolombay (Nggolo Mbay)",
    "postal_code": "86472"
  },
  {
    "id": 531601,
    "province_id": 53,
    "regency_id": 5316,
    "district_id": 531601,
    "value": "Nggolonio",
    "postal_code": "86472"
  },
  {
    "id": 531601,
    "province_id": 53,
    "regency_id": 5316,
    "district_id": 531601,
    "value": "Olaia",
    "postal_code": "86472"
  },
  {
    "id": 531601,
    "province_id": 53,
    "regency_id": 5316,
    "district_id": 531601,
    "value": "Tadakisa (Tedakisa)",
    "postal_code": "86472"
  },
  {
    "id": 531601,
    "province_id": 53,
    "regency_id": 5316,
    "district_id": 531601,
    "value": "Tedamude",
    "postal_code": "86472"
  },
  {
    "id": 531601,
    "province_id": 53,
    "regency_id": 5316,
    "district_id": 531601,
    "value": "Tonggurambang (Tonggu Rambang)",
    "postal_code": "86472"
  },
  {
    "id": 531601,
    "province_id": 53,
    "regency_id": 5316,
    "district_id": 531601,
    "value": "Towak",
    "postal_code": "86472"
  },
  {
    "id": 531601,
    "province_id": 53,
    "regency_id": 5316,
    "district_id": 531601,
    "value": "Waekokak",
    "postal_code": "86472"
  }
]