[
  {
    "id": 610805,
    "province_id": 61,
    "regency_id": 6108,
    "district_id": 610805,
    "value": "Bentiang Madomang",
    "postal_code": "79365"
  },
  {
    "id": 610805,
    "province_id": 61,
    "regency_id": 6108,
    "district_id": 610805,
    "value": "Dange Aji",
    "postal_code": "79365"
  },
  {
    "id": 610805,
    "province_id": 61,
    "regency_id": 6108,
    "district_id": 610805,
    "value": "Engkadik/Enkadik Pade",
    "postal_code": "79365"
  },
  {
    "id": 610805,
    "province_id": 61,
    "regency_id": 6108,
    "district_id": 610805,
    "value": "Engkangin",
    "postal_code": "79365"
  },
  {
    "id": 610805,
    "province_id": 61,
    "regency_id": 6108,
    "district_id": 610805,
    "value": "Jambu Tembawang",
    "postal_code": "79365"
  },
  {
    "id": 610805,
    "province_id": 61,
    "regency_id": 6108,
    "district_id": 610805,
    "value": "Merayuh",
    "postal_code": "79365"
  },
  {
    "id": 610805,
    "province_id": 61,
    "regency_id": 6108,
    "district_id": 610805,
    "value": "Nyari",
    "postal_code": "79365"
  },
  {
    "id": 610805,
    "province_id": 61,
    "regency_id": 6108,
    "district_id": 610805,
    "value": "Parek (Pare/Sutipadang)",
    "postal_code": "79365"
  },
  {
    "id": 610805,
    "province_id": 61,
    "regency_id": 6108,
    "district_id": 610805,
    "value": "Sekendal",
    "postal_code": "79365"
  },
  {
    "id": 610805,
    "province_id": 61,
    "regency_id": 6108,
    "district_id": 610805,
    "value": "Sempatung Lawek",
    "postal_code": "79365"
  },
  {
    "id": 610805,
    "province_id": 61,
    "regency_id": 6108,
    "district_id": 610805,
    "value": "Semuntik",
    "postal_code": "79365"
  },
  {
    "id": 610805,
    "province_id": 61,
    "regency_id": 6108,
    "district_id": 610805,
    "value": "Sepangah",
    "postal_code": "79365"
  },
  {
    "id": 610805,
    "province_id": 61,
    "regency_id": 6108,
    "district_id": 610805,
    "value": "Serimbu",
    "postal_code": "79365"
  },
  {
    "id": 610805,
    "province_id": 61,
    "regency_id": 6108,
    "district_id": 610805,
    "value": "Temoyok",
    "postal_code": "79365"
  },
  {
    "id": 610805,
    "province_id": 61,
    "regency_id": 6108,
    "district_id": 610805,
    "value": "Tengon (Tengon Pelaik)",
    "postal_code": "79365"
  },
  {
    "id": 610805,
    "province_id": 61,
    "regency_id": 6108,
    "district_id": 610805,
    "value": "Tenguwe",
    "postal_code": "79365"
  }
]