[
  {
    "id": 740316,
    "province_id": 74,
    "regency_id": 7403,
    "district_id": 740316,
    "value": "Butung-Butung",
    "postal_code": "93611"
  },
  {
    "id": 740316,
    "province_id": 74,
    "regency_id": 7403,
    "district_id": 740316,
    "value": "Foo Kuni (Mangga Kuning)",
    "postal_code": "93616"
  },
  {
    "id": 740316,
    "province_id": 74,
    "regency_id": 7403,
    "district_id": 740316,
    "value": "Laende",
    "postal_code": "93611"
  },
  {
    "id": 740316,
    "province_id": 74,
    "regency_id": 7403,
    "district_id": 740316,
    "value": "Raha I",
    "postal_code": "93611"
  },
  {
    "id": 740316,
    "province_id": 74,
    "regency_id": 7403,
    "district_id": 740316,
    "value": "Raha II",
    "postal_code": "93612"
  },
  {
    "id": 740316,
    "province_id": 74,
    "regency_id": 7403,
    "district_id": 740316,
    "value": "Raha III",
    "postal_code": "93613"
  },
  {
    "id": 740316,
    "province_id": 74,
    "regency_id": 7403,
    "district_id": 740316,
    "value": "Wamponiki",
    "postal_code": "93611"
  },
  {
    "id": 740316,
    "province_id": 74,
    "regency_id": 7403,
    "district_id": 740316,
    "value": "Watonea",
    "postal_code": "93615"
  }
]