[
  {
    "id": 3201112007,
    "province_id": 32,
    "regency_id": 3201,
    "district_id": 320111,
    "value": "Cibadung",
    "postal_code": "16340"
  },
  {
    "id": 3201112008,
    "province_id": 32,
    "regency_id": 3201,
    "district_id": 320111,
    "value": "Cibinong",
    "postal_code": "16340"
  },
  {
    "id": 3201112001,
    "province_id": 32,
    "regency_id": 3201,
    "district_id": 320111,
    "value": "Cidokom",
    "postal_code": "16340"
  },
  {
    "id": 3201112004,
    "province_id": 32,
    "regency_id": 3201,
    "district_id": 320111,
    "value": "Curug",
    "postal_code": "16340"
  },
  {
    "id": 3201112005,
    "province_id": 32,
    "regency_id": 3201,
    "district_id": 320111,
    "value": "Gunungsindur (Gunung Sindur)",
    "postal_code": "16340"
  },
  {
    "id": 3201112006,
    "province_id": 32,
    "regency_id": 3201,
    "district_id": 320111,
    "value": "Jampang",
    "postal_code": "16340"
  },
  {
    "id": 3201112010,
    "province_id": 32,
    "regency_id": 3201,
    "district_id": 320111,
    "value": "Pabuaran",
    "postal_code": "16340"
  },
  {
    "id": 3201112002,
    "province_id": 32,
    "regency_id": 3201,
    "district_id": 320111,
    "value": "Padurenan",
    "postal_code": "16340"
  },
  {
    "id": 3201112003,
    "province_id": 32,
    "regency_id": 3201,
    "district_id": 320111,
    "value": "Pengasinan",
    "postal_code": "16340"
  },
  {
    "id": 3201112009,
    "province_id": 32,
    "regency_id": 3201,
    "district_id": 320111,
    "value": "Rawakalong",
    "postal_code": "16340"
  }
]