[
  {
    "id": 3202282001,
    "province_id": 32,
    "regency_id": 3202,
    "district_id": 320228,
    "value": "Cicantayan",
    "postal_code": "43155"
  },
  {
    "id": 3202282003,
    "province_id": 32,
    "regency_id": 3202,
    "district_id": 320228,
    "value": "Cijalingan",
    "postal_code": "43155"
  },
  {
    "id": 3202282005,
    "province_id": 32,
    "regency_id": 3202,
    "district_id": 320228,
    "value": "Cimahi",
    "postal_code": "43155"
  },
  {
    "id": 3202282008,
    "province_id": 32,
    "regency_id": 3202,
    "district_id": 320228,
    "value": "Cimanggis",
    "postal_code": "43155"
  },
  {
    "id": 3202282004,
    "province_id": 32,
    "regency_id": 3202,
    "district_id": 320228,
    "value": "Cisande",
    "postal_code": "43155"
  },
  {
    "id": 3202282006,
    "province_id": 32,
    "regency_id": 3202,
    "district_id": 320228,
    "value": "Hegarmanah",
    "postal_code": "43155"
  },
  {
    "id": 3202282002,
    "province_id": 32,
    "regency_id": 3202,
    "district_id": 320228,
    "value": "Lembursawah",
    "postal_code": "43155"
  },
  {
    "id": 3202282007,
    "province_id": 32,
    "regency_id": 3202,
    "district_id": 320228,
    "value": "Sikadamai (Sukadamai)",
    "postal_code": "43155"
  }
]