[
  {
    "id": 820609,
    "province_id": 82,
    "regency_id": 8206,
    "district_id": 820609,
    "value": "Doromoi",
    "postal_code": "97864"
  },
  {
    "id": 820609,
    "province_id": 82,
    "regency_id": 8206,
    "district_id": 820609,
    "value": "Dorosago (Dorosagu)",
    "postal_code": "97864"
  },
  {
    "id": 820609,
    "province_id": 82,
    "regency_id": 8206,
    "district_id": 820609,
    "value": "Jara-jara (Jarajara)",
    "postal_code": "97864"
  },
  {
    "id": 820609,
    "province_id": 82,
    "regency_id": 8206,
    "district_id": 820609,
    "value": "Lili",
    "postal_code": "97864"
  },
  {
    "id": 820609,
    "province_id": 82,
    "regency_id": 8206,
    "district_id": 820609,
    "value": "Lolasita",
    "postal_code": "97864"
  },
  {
    "id": 820609,
    "province_id": 82,
    "regency_id": 8206,
    "district_id": 820609,
    "value": "Patlean",
    "postal_code": "97864"
  },
  {
    "id": 820609,
    "province_id": 82,
    "regency_id": 8206,
    "district_id": 820609,
    "value": "Patlean Jaya",
    "postal_code": "97864"
  },
  {
    "id": 820609,
    "province_id": 82,
    "regency_id": 8206,
    "district_id": 820609,
    "value": "Pumlanga",
    "postal_code": "97864"
  },
  {
    "id": 820609,
    "province_id": 82,
    "regency_id": 8206,
    "district_id": 820609,
    "value": "Sosolat",
    "postal_code": "97864"
  },
  {
    "id": 820609,
    "province_id": 82,
    "regency_id": 8206,
    "district_id": 820609,
    "value": "Wasileo",
    "postal_code": "97864"
  }
]