[
  {
    "id": 351802,
    "province_id": 35,
    "regency_id": 3518,
    "district_id": 351802,
    "value": "Blongko",
    "postal_code": "64474"
  },
  {
    "id": 351802,
    "province_id": 35,
    "regency_id": 3518,
    "district_id": 351802,
    "value": "Kepel",
    "postal_code": "64474"
  },
  {
    "id": 351802,
    "province_id": 35,
    "regency_id": 3518,
    "district_id": 351802,
    "value": "Klodan",
    "postal_code": "64474"
  },
  {
    "id": 351802,
    "province_id": 35,
    "regency_id": 3518,
    "district_id": 351802,
    "value": "Kuncir",
    "postal_code": "64474"
  },
  {
    "id": 351802,
    "province_id": 35,
    "regency_id": 3518,
    "district_id": 351802,
    "value": "Kweden",
    "postal_code": "64474"
  },
  {
    "id": 351802,
    "province_id": 35,
    "regency_id": 3518,
    "district_id": 351802,
    "value": "Mojoduwur",
    "postal_code": "64474"
  },
  {
    "id": 351802,
    "province_id": 35,
    "regency_id": 3518,
    "district_id": 351802,
    "value": "Ngetos",
    "postal_code": "64474"
  },
  {
    "id": 351802,
    "province_id": 35,
    "regency_id": 3518,
    "district_id": 351802,
    "value": "Oro-Oro Ombo",
    "postal_code": "64474"
  },
  {
    "id": 351802,
    "province_id": 35,
    "regency_id": 3518,
    "district_id": 351802,
    "value": "Suru",
    "postal_code": "64474"
  }
]