[
  {
    "id": 920312,
    "province_id": 92,
    "regency_id": 9203,
    "district_id": 920312,
    "value": "Kalamanuk",
    "postal_code": "98031"
  },
  {
    "id": 920312,
    "province_id": 92,
    "regency_id": 9203,
    "district_id": 920312,
    "value": "Kotam",
    "postal_code": "98031"
  },
  {
    "id": 920312,
    "province_id": 92,
    "regency_id": 9203,
    "district_id": 920312,
    "value": "Krabelang",
    "postal_code": "98031"
  },
  {
    "id": 920312,
    "province_id": 92,
    "regency_id": 9203,
    "district_id": 920312,
    "value": "Kwama",
    "postal_code": "98031"
  },
  {
    "id": 920312,
    "province_id": 92,
    "regency_id": 9203,
    "district_id": 920312,
    "value": "Wambar",
    "postal_code": "98031"
  },
  {
    "id": 920312,
    "province_id": 92,
    "regency_id": 9203,
    "district_id": 920312,
    "value": "Wambar Timur",
    "postal_code": "98031"
  },
  {
    "id": 920312,
    "province_id": 92,
    "regency_id": 9203,
    "district_id": 920312,
    "value": "Waserat",
    "postal_code": "98031"
  },
  {
    "id": 920312,
    "province_id": 92,
    "regency_id": 9203,
    "district_id": 920312,
    "value": "Wayati",
    "postal_code": "98031"
  },
  {
    "id": 920312,
    "province_id": 92,
    "regency_id": 9203,
    "district_id": 920312,
    "value": "Wayati Barat",
    "postal_code": "98031"
  },
  {
    "id": 920312,
    "province_id": 92,
    "regency_id": 9203,
    "district_id": 920312,
    "value": "Wayati Timur",
    "postal_code": "98031"
  }
]