[
  {
    "id": 332417,
    "province_id": 33,
    "regency_id": 3324,
    "district_id": 332417,
    "value": "Gembonganomwetan (Gebanganom Wetan)",
    "postal_code": "51353"
  },
  {
    "id": 332417,
    "province_id": 33,
    "regency_id": 3324,
    "district_id": 332417,
    "value": "Jungsemi",
    "postal_code": "51353"
  },
  {
    "id": 332417,
    "province_id": 33,
    "regency_id": 3324,
    "district_id": 332417,
    "value": "Kadilangu",
    "postal_code": "51353"
  },
  {
    "id": 332417,
    "province_id": 33,
    "regency_id": 3324,
    "district_id": 332417,
    "value": "Kalirejo",
    "postal_code": "51353"
  },
  {
    "id": 332417,
    "province_id": 33,
    "regency_id": 3324,
    "district_id": 332417,
    "value": "Kaliyoso",
    "postal_code": "51353"
  },
  {
    "id": 332417,
    "province_id": 33,
    "regency_id": 3324,
    "district_id": 332417,
    "value": "Kangkung",
    "postal_code": "51353"
  },
  {
    "id": 332417,
    "province_id": 33,
    "regency_id": 3324,
    "district_id": 332417,
    "value": "Karangmalangwetan (Karangmalang Wetan)",
    "postal_code": "51353"
  },
  {
    "id": 332417,
    "province_id": 33,
    "regency_id": 3324,
    "district_id": 332417,
    "value": "Laban",
    "postal_code": "51353"
  },
  {
    "id": 332417,
    "province_id": 33,
    "regency_id": 3324,
    "district_id": 332417,
    "value": "Lebosari",
    "postal_code": "51353"
  },
  {
    "id": 332417,
    "province_id": 33,
    "regency_id": 3324,
    "district_id": 332417,
    "value": "Rejosari",
    "postal_code": "51353"
  },
  {
    "id": 332417,
    "province_id": 33,
    "regency_id": 3324,
    "district_id": 332417,
    "value": "Sendangdawung",
    "postal_code": "51353"
  },
  {
    "id": 332417,
    "province_id": 33,
    "regency_id": 3324,
    "district_id": 332417,
    "value": "Sendangkulon",
    "postal_code": "51353"
  },
  {
    "id": 332417,
    "province_id": 33,
    "regency_id": 3324,
    "district_id": 332417,
    "value": "Sukodadi",
    "postal_code": "51353"
  },
  {
    "id": 332417,
    "province_id": 33,
    "regency_id": 3324,
    "district_id": 332417,
    "value": "Tanjungmojo",
    "postal_code": "51353"
  },
  {
    "id": 332417,
    "province_id": 33,
    "regency_id": 3324,
    "district_id": 332417,
    "value": "Truko",
    "postal_code": "51353"
  }
]