[
  {
    "id": 910303,
    "province_id": 91,
    "regency_id": 9103,
    "district_id": 910303,
    "value": "Doromena",
    "postal_code": "99353"
  },
  {
    "id": 910303,
    "province_id": 91,
    "regency_id": 9103,
    "district_id": 910303,
    "value": "Entiyebo",
    "postal_code": "99353"
  },
  {
    "id": 910303,
    "province_id": 91,
    "regency_id": 9103,
    "district_id": 910303,
    "value": "Kendate",
    "postal_code": "99353"
  },
  {
    "id": 910303,
    "province_id": 91,
    "regency_id": 9103,
    "district_id": 910303,
    "value": "Tablasupa",
    "postal_code": "99353"
  },
  {
    "id": 910303,
    "province_id": 91,
    "regency_id": 9103,
    "district_id": 910303,
    "value": "Waiya",
    "postal_code": "99353"
  },
  {
    "id": 910303,
    "province_id": 91,
    "regency_id": 9103,
    "district_id": 910303,
    "value": "Wambena",
    "postal_code": "99353"
  },
  {
    "id": 910303,
    "province_id": 91,
    "regency_id": 9103,
    "district_id": 910303,
    "value": "Yefase (Yepase)",
    "postal_code": "99353"
  },
  {
    "id": 910303,
    "province_id": 91,
    "regency_id": 9103,
    "district_id": 910303,
    "value": "Yewena",
    "postal_code": "99353"
  }
]