[
  {
    "id": 351423,
    "province_id": 35,
    "regency_id": 3514,
    "district_id": 351423,
    "value": "Arjosari",
    "postal_code": "67181"
  },
  {
    "id": 351423,
    "province_id": 35,
    "regency_id": 3514,
    "district_id": 351423,
    "value": "Jarangan",
    "postal_code": "67181"
  },
  {
    "id": 351423,
    "province_id": 35,
    "regency_id": 3514,
    "district_id": 351423,
    "value": "Karangpandan (Karang Pandan)",
    "postal_code": "67181"
  },
  {
    "id": 351423,
    "province_id": 35,
    "regency_id": 3514,
    "district_id": 351423,
    "value": "Kawisrejo (Kawis Rejo)",
    "postal_code": "67181"
  },
  {
    "id": 351423,
    "province_id": 35,
    "regency_id": 3514,
    "district_id": 351423,
    "value": "Kedungbako (Kedung Bako)",
    "postal_code": "67181"
  },
  {
    "id": 351423,
    "province_id": 35,
    "regency_id": 3514,
    "district_id": 351423,
    "value": "Kemantren Rejo",
    "postal_code": "67181"
  },
  {
    "id": 351423,
    "province_id": 35,
    "regency_id": 3514,
    "district_id": 351423,
    "value": "Ketegan",
    "postal_code": "67181"
  },
  {
    "id": 351423,
    "province_id": 35,
    "regency_id": 3514,
    "district_id": 351423,
    "value": "Manikrejo (Manik Rejo)",
    "postal_code": "67181"
  },
  {
    "id": 351423,
    "province_id": 35,
    "regency_id": 3514,
    "district_id": 351423,
    "value": "Pandanrejo (Pandan Rejo)",
    "postal_code": "67181"
  },
  {
    "id": 351423,
    "province_id": 35,
    "regency_id": 3514,
    "district_id": 351423,
    "value": "Patuguhan (Patuguran)",
    "postal_code": "67181"
  },
  {
    "id": 351423,
    "province_id": 35,
    "regency_id": 3514,
    "district_id": 351423,
    "value": "Rejoso Kidul",
    "postal_code": "67181"
  },
  {
    "id": 351423,
    "province_id": 35,
    "regency_id": 3514,
    "district_id": 351423,
    "value": "Rejoso Lor (Rejosolor)",
    "postal_code": "67181"
  },
  {
    "id": 351423,
    "province_id": 35,
    "regency_id": 3514,
    "district_id": 351423,
    "value": "Sadengrejo (Sadeng Rejo)",
    "postal_code": "67181"
  },
  {
    "id": 351423,
    "province_id": 35,
    "regency_id": 3514,
    "district_id": 351423,
    "value": "Sambirejo",
    "postal_code": "67181"
  },
  {
    "id": 351423,
    "province_id": 35,
    "regency_id": 3514,
    "district_id": 351423,
    "value": "Segoropuro (Segoro Puro)",
    "postal_code": "67181"
  },
  {
    "id": 351423,
    "province_id": 35,
    "regency_id": 3514,
    "district_id": 351423,
    "value": "Toyaning",
    "postal_code": "67181"
  }
]