[
  {
    "id": 111401,
    "province_id": 11,
    "regency_id": 1114,
    "district_id": 111401,
    "value": "Alue Ambang",
    "postal_code": "23653"
  },
  {
    "id": 111401,
    "province_id": 11,
    "regency_id": 1114,
    "district_id": 111401,
    "value": "Alue Meuraksa / Meurasa",
    "postal_code": "23653"
  },
  {
    "id": 111401,
    "province_id": 11,
    "regency_id": 1114,
    "district_id": 111401,
    "value": "Batee-Roo",
    "postal_code": "23653"
  },
  {
    "id": 111401,
    "province_id": 11,
    "regency_id": 1114,
    "district_id": 111401,
    "value": "Blang Baro",
    "postal_code": "23653"
  },
  {
    "id": 111401,
    "province_id": 11,
    "regency_id": 1114,
    "district_id": 111401,
    "value": "Cot Trap",
    "postal_code": "23653"
  },
  {
    "id": 111401,
    "province_id": 11,
    "regency_id": 1114,
    "district_id": 111401,
    "value": "Gampong Baro",
    "postal_code": "23653"
  },
  {
    "id": 111401,
    "province_id": 11,
    "regency_id": 1114,
    "district_id": 111401,
    "value": "Keude Teunom",
    "postal_code": "23653"
  },
  {
    "id": 111401,
    "province_id": 11,
    "regency_id": 1114,
    "district_id": 111401,
    "value": "Kubu",
    "postal_code": "23653"
  },
  {
    "id": 111401,
    "province_id": 11,
    "regency_id": 1114,
    "district_id": 111401,
    "value": "Leung Gayo (Lueng Gayo)",
    "postal_code": "23653"
  },
  {
    "id": 111401,
    "province_id": 11,
    "regency_id": 1114,
    "district_id": 111401,
    "value": "Padang Kleng",
    "postal_code": "23653"
  },
  {
    "id": 111401,
    "province_id": 11,
    "regency_id": 1114,
    "district_id": 111401,
    "value": "Panton",
    "postal_code": "23653"
  },
  {
    "id": 111401,
    "province_id": 11,
    "regency_id": 1114,
    "district_id": 111401,
    "value": "Pasi Geulima",
    "postal_code": "23653"
  },
  {
    "id": 111401,
    "province_id": 11,
    "regency_id": 1114,
    "district_id": 111401,
    "value": "Pasi Pawang",
    "postal_code": "23653"
  },
  {
    "id": 111401,
    "province_id": 11,
    "regency_id": 1114,
    "district_id": 111401,
    "value": "Pasi Timon",
    "postal_code": "23653"
  },
  {
    "id": 111401,
    "province_id": 11,
    "regency_id": 1114,
    "district_id": 111401,
    "value": "Pasi Tulak Bala",
    "postal_code": "23653"
  },
  {
    "id": 111401,
    "province_id": 11,
    "regency_id": 1114,
    "district_id": 111401,
    "value": "Paya Baro",
    "postal_code": "23653"
  },
  {
    "id": 111401,
    "province_id": 11,
    "regency_id": 1114,
    "district_id": 111401,
    "value": "Rambong Payong",
    "postal_code": "23653"
  },
  {
    "id": 111401,
    "province_id": 11,
    "regency_id": 1114,
    "district_id": 111401,
    "value": "Seumira",
    "postal_code": "23653"
  },
  {
    "id": 111401,
    "province_id": 11,
    "regency_id": 1114,
    "district_id": 111401,
    "value": "Seuneubok Padang",
    "postal_code": "23653"
  },
  {
    "id": 111401,
    "province_id": 11,
    "regency_id": 1114,
    "district_id": 111401,
    "value": "Tanoh Anou / Anoe",
    "postal_code": "23653"
  },
  {
    "id": 111401,
    "province_id": 11,
    "regency_id": 1114,
    "district_id": 111401,
    "value": "Tanoh Manyang",
    "postal_code": "23653"
  },
  {
    "id": 111401,
    "province_id": 11,
    "regency_id": 1114,
    "district_id": 111401,
    "value": "Teupin Ara",
    "postal_code": "23653"
  }
]