[
  {
    "id": 930107,
    "province_id": 93,
    "regency_id": 9301,
    "district_id": 930107,
    "value": "Angger Permegi",
    "postal_code": "99645"
  },
  {
    "id": 930107,
    "province_id": 93,
    "regency_id": 9301,
    "district_id": 930107,
    "value": "Blandin Kakayo (Blandin Kakayu)",
    "postal_code": "99645"
  },
  {
    "id": 930107,
    "province_id": 93,
    "regency_id": 9301,
    "district_id": 930107,
    "value": "Gurinda Jaya",
    "postal_code": "99645"
  },
  {
    "id": 930107,
    "province_id": 93,
    "regency_id": 9301,
    "district_id": 930107,
    "value": "Jagebob Raya",
    "postal_code": "99645"
  },
  {
    "id": 930107,
    "province_id": 93,
    "regency_id": 9301,
    "district_id": 930107,
    "value": "Kamno Sari",
    "postal_code": "99645"
  },
  {
    "id": 930107,
    "province_id": 93,
    "regency_id": 9301,
    "district_id": 930107,
    "value": "Kartini",
    "postal_code": "99645"
  },
  {
    "id": 930107,
    "province_id": 93,
    "regency_id": 9301,
    "district_id": 930107,
    "value": "Makarti Jaya",
    "postal_code": "99645"
  },
  {
    "id": 930107,
    "province_id": 93,
    "regency_id": 9301,
    "district_id": 930107,
    "value": "Melin Megikar",
    "postal_code": "99645"
  },
  {
    "id": 930107,
    "province_id": 93,
    "regency_id": 9301,
    "district_id": 930107,
    "value": "Mimi Baru",
    "postal_code": "99645"
  },
  {
    "id": 930107,
    "province_id": 93,
    "regency_id": 9301,
    "district_id": 930107,
    "value": "Nalkin",
    "postal_code": "99645"
  },
  {
    "id": 930107,
    "province_id": 93,
    "regency_id": 9301,
    "district_id": 930107,
    "value": "Obaat Throw",
    "postal_code": "99645"
  },
  {
    "id": 930107,
    "province_id": 93,
    "regency_id": 9301,
    "district_id": 930107,
    "value": "Poo",
    "postal_code": "99645"
  },
  {
    "id": 930107,
    "province_id": 93,
    "regency_id": 9301,
    "district_id": 930107,
    "value": "Wenda Asri",
    "postal_code": "99645"
  },
  {
    "id": 930107,
    "province_id": 93,
    "regency_id": 9301,
    "district_id": 930107,
    "value": "Yemunain Jaya",
    "postal_code": "99645"
  }
]