[
  {
    "id": 331511,
    "province_id": 33,
    "regency_id": 3315,
    "district_id": 331511,
    "value": "Godan",
    "postal_code": "58191"
  },
  {
    "id": 331511,
    "province_id": 33,
    "regency_id": 3315,
    "district_id": 331511,
    "value": "Jono",
    "postal_code": "58191"
  },
  {
    "id": 331511,
    "province_id": 33,
    "regency_id": 3315,
    "district_id": 331511,
    "value": "Kemadahbatur (Kemaduhbatur)",
    "postal_code": "58191"
  },
  {
    "id": 331511,
    "province_id": 33,
    "regency_id": 3315,
    "district_id": 331511,
    "value": "Mayahan",
    "postal_code": "58191"
  },
  {
    "id": 331511,
    "province_id": 33,
    "regency_id": 3315,
    "district_id": 331511,
    "value": "Plosorejo",
    "postal_code": "58191"
  },
  {
    "id": 331511,
    "province_id": 33,
    "regency_id": 3315,
    "district_id": 331511,
    "value": "Pojok",
    "postal_code": "58191"
  },
  {
    "id": 331511,
    "province_id": 33,
    "regency_id": 3315,
    "district_id": 331511,
    "value": "Pulongrambe",
    "postal_code": "58191"
  },
  {
    "id": 331511,
    "province_id": 33,
    "regency_id": 3315,
    "district_id": 331511,
    "value": "Selo",
    "postal_code": "58191"
  },
  {
    "id": 331511,
    "province_id": 33,
    "regency_id": 3315,
    "district_id": 331511,
    "value": "Tarub",
    "postal_code": "58191"
  },
  {
    "id": 331511,
    "province_id": 33,
    "regency_id": 3315,
    "district_id": 331511,
    "value": "Tawangharjo",
    "postal_code": "58191"
  }
]