[
  {
    "id": 3314072008,
    "province_id": 33,
    "regency_id": 3314,
    "district_id": 331407,
    "value": "Banaran",
    "postal_code": "57253"
  },
  {
    "id": 3314072006,
    "province_id": 33,
    "regency_id": 3314,
    "district_id": 331407,
    "value": "Banyurip (Banyuurip)",
    "postal_code": "57253"
  },
  {
    "id": 3314072004,
    "province_id": 33,
    "regency_id": 3314,
    "district_id": 331407,
    "value": "Bedoro",
    "postal_code": "57253"
  },
  {
    "id": 3314072003,
    "province_id": 33,
    "regency_id": 3314,
    "district_id": 331407,
    "value": "Cemeng",
    "postal_code": "57253"
  },
  {
    "id": 3314072007,
    "province_id": 33,
    "regency_id": 3314,
    "district_id": 331407,
    "value": "Gringging",
    "postal_code": "57253"
  },
  {
    "id": 3314072002,
    "province_id": 33,
    "regency_id": 3314,
    "district_id": 331407,
    "value": "Karanganyar",
    "postal_code": "57253"
  },
  {
    "id": 3314072001,
    "province_id": 33,
    "regency_id": 3314,
    "district_id": 331407,
    "value": "Plumbon",
    "postal_code": "57253"
  },
  {
    "id": 3314072009,
    "province_id": 33,
    "regency_id": 3314,
    "district_id": 331407,
    "value": "Sambungmacan",
    "postal_code": "57253"
  },
  {
    "id": 3314072005,
    "province_id": 33,
    "regency_id": 3314,
    "district_id": 331407,
    "value": "Toyogo",
    "postal_code": "57253"
  }
]