[
  {
    "id": 351107,
    "province_id": 35,
    "regency_id": 3511,
    "district_id": 351107,
    "value": "Curahdami",
    "postal_code": "68250"
  },
  {
    "id": 351107,
    "province_id": 35,
    "regency_id": 3511,
    "district_id": 351107,
    "value": "Curahpoh",
    "postal_code": "68250"
  },
  {
    "id": 351107,
    "province_id": 35,
    "regency_id": 3511,
    "district_id": 351107,
    "value": "Jetis",
    "postal_code": "68250"
  },
  {
    "id": 351107,
    "province_id": 35,
    "regency_id": 3511,
    "district_id": 351107,
    "value": "Kupang",
    "postal_code": "68250"
  },
  {
    "id": 351107,
    "province_id": 35,
    "regency_id": 3511,
    "district_id": 351107,
    "value": "Locare",
    "postal_code": "68250"
  },
  {
    "id": 351107,
    "province_id": 35,
    "regency_id": 3511,
    "district_id": 351107,
    "value": "Pakuwesi",
    "postal_code": "68250"
  },
  {
    "id": 351107,
    "province_id": 35,
    "regency_id": 3511,
    "district_id": 351107,
    "value": "Panambangan (Penambangan)",
    "postal_code": "68250"
  },
  {
    "id": 351107,
    "province_id": 35,
    "regency_id": 3511,
    "district_id": 351107,
    "value": "Petung",
    "postal_code": "68250"
  },
  {
    "id": 351107,
    "province_id": 35,
    "regency_id": 3511,
    "district_id": 351107,
    "value": "Poncogati",
    "postal_code": "68250"
  },
  {
    "id": 351107,
    "province_id": 35,
    "regency_id": 3511,
    "district_id": 351107,
    "value": "Selolembu (Silolembu)",
    "postal_code": "68250"
  },
  {
    "id": 351107,
    "province_id": 35,
    "regency_id": 3511,
    "district_id": 351107,
    "value": "Sumber Salak",
    "postal_code": "68250"
  },
  {
    "id": 351107,
    "province_id": 35,
    "regency_id": 3511,
    "district_id": 351107,
    "value": "Sumber Suko (Sumbersuko)",
    "postal_code": "68250"
  }
]