[
  {
    "id": 9501022009,
    "province_id": 95,
    "regency_id": 9501,
    "district_id": 950102,
    "value": "Abusa",
    "postal_code": "99521"
  },
  {
    "id": 9501022011,
    "province_id": 95,
    "regency_id": 9501,
    "district_id": 950102,
    "value": "Eragama (Erema)",
    "postal_code": "99521"
  },
  {
    "id": 9501022021,
    "province_id": 95,
    "regency_id": 9501,
    "district_id": 950102,
    "value": "Hopama",
    "postal_code": "99521"
  },
  {
    "id": 9501022019,
    "province_id": 95,
    "regency_id": 9501,
    "district_id": 950102,
    "value": "Iyantik",
    "postal_code": "99521"
  },
  {
    "id": 9501022017,
    "province_id": 95,
    "regency_id": 9501,
    "district_id": 950102,
    "value": "Kumima (Kimina)",
    "postal_code": "99521"
  },
  {
    "id": 9501022018,
    "province_id": 95,
    "regency_id": 9501,
    "district_id": 950102,
    "value": "Mebagaima",
    "postal_code": "99521"
  },
  {
    "id": 9501022006,
    "province_id": 95,
    "regency_id": 9501,
    "district_id": 950102,
    "value": "Mulima",
    "postal_code": "99521"
  },
  {
    "id": 9501022033,
    "province_id": 95,
    "regency_id": 9501,
    "district_id": 950102,
    "value": "Obya",
    "postal_code": "99521"
  },
  {
    "id": 9501022020,
    "province_id": 95,
    "regency_id": 9501,
    "district_id": 950102,
    "value": "Umpagalo",
    "postal_code": "99521"
  },
  {
    "id": 9501022043,
    "province_id": 95,
    "regency_id": 9501,
    "district_id": 950102,
    "value": "Utkolo Satu",
    "postal_code": "99521"
  },
  {
    "id": 9501022007,
    "province_id": 95,
    "regency_id": 9501,
    "district_id": 950102,
    "value": "Waga Waga",
    "postal_code": "99521"
  },
  {
    "id": 9501022001,
    "province_id": 95,
    "regency_id": 9501,
    "district_id": 950102,
    "value": "Yiwika (Jiwika)",
    "postal_code": "99521"
  }
]