[
  {
    "id": 720718,
    "province_id": 72,
    "regency_id": 7207,
    "district_id": 720718,
    "value": "Apal",
    "postal_code": "94880"
  },
  {
    "id": 720718,
    "province_id": 72,
    "regency_id": 7207,
    "district_id": 720718,
    "value": "Buko",
    "postal_code": "94880"
  },
  {
    "id": 720718,
    "province_id": 72,
    "regency_id": 7207,
    "district_id": 720718,
    "value": "Kambani",
    "postal_code": "94880"
  },
  {
    "id": 720718,
    "province_id": 72,
    "regency_id": 7207,
    "district_id": 720718,
    "value": "Labangun",
    "postal_code": "94880"
  },
  {
    "id": 720718,
    "province_id": 72,
    "regency_id": 7207,
    "district_id": 720718,
    "value": "Landonan Bebeau",
    "postal_code": "94880"
  },
  {
    "id": 720718,
    "province_id": 72,
    "regency_id": 7207,
    "district_id": 720718,
    "value": "Lelang Matamaling",
    "postal_code": "94880"
  },
  {
    "id": 720718,
    "province_id": 72,
    "regency_id": 7207,
    "district_id": 720718,
    "value": "Lumbi-Lumbia",
    "postal_code": "94880"
  },
  {
    "id": 720718,
    "province_id": 72,
    "regency_id": 7207,
    "district_id": 720718,
    "value": "Palapat",
    "postal_code": "94880"
  },
  {
    "id": 720718,
    "province_id": 72,
    "regency_id": 7207,
    "district_id": 720718,
    "value": "Sapelang",
    "postal_code": "94880"
  },
  {
    "id": 720718,
    "province_id": 72,
    "regency_id": 7207,
    "district_id": 720718,
    "value": "Seano",
    "postal_code": "94880"
  },
  {
    "id": 720718,
    "province_id": 72,
    "regency_id": 7207,
    "district_id": 720718,
    "value": "Tatabau",
    "postal_code": "94880"
  }
]