[
  {
    "id": 352305,
    "province_id": 35,
    "regency_id": 3523,
    "district_id": 352305,
    "value": "Banyuurip",
    "postal_code": "62365"
  },
  {
    "id": 352305,
    "province_id": 35,
    "regency_id": 3523,
    "district_id": 352305,
    "value": "Jatisari",
    "postal_code": "62365"
  },
  {
    "id": 352305,
    "province_id": 35,
    "regency_id": 3523,
    "district_id": 352305,
    "value": "Kaligede",
    "postal_code": "62365"
  },
  {
    "id": 352305,
    "province_id": 35,
    "regency_id": 3523,
    "district_id": 352305,
    "value": "Katerban",
    "postal_code": "62365"
  },
  {
    "id": 352305,
    "province_id": 35,
    "regency_id": 3523,
    "district_id": 352305,
    "value": "Leran",
    "postal_code": "62365"
  },
  {
    "id": 352305,
    "province_id": 35,
    "regency_id": 3523,
    "district_id": 352305,
    "value": "Medalem",
    "postal_code": "62365"
  },
  {
    "id": 352305,
    "province_id": 35,
    "regency_id": 3523,
    "district_id": 352305,
    "value": "Rayung",
    "postal_code": "62365"
  },
  {
    "id": 352305,
    "province_id": 35,
    "regency_id": 3523,
    "district_id": 352305,
    "value": "Sendang",
    "postal_code": "62365"
  },
  {
    "id": 352305,
    "province_id": 35,
    "regency_id": 3523,
    "district_id": 352305,
    "value": "Sidoharjo",
    "postal_code": "62365"
  },
  {
    "id": 352305,
    "province_id": 35,
    "regency_id": 3523,
    "district_id": 352305,
    "value": "Wanglukulon (Wanglu Kulon)",
    "postal_code": "62365"
  },
  {
    "id": 352305,
    "province_id": 35,
    "regency_id": 3523,
    "district_id": 352305,
    "value": "Wangluwetan (Wanglu Wetan)",
    "postal_code": "62365"
  },
  {
    "id": 352305,
    "province_id": 35,
    "regency_id": 3523,
    "district_id": 352305,
    "value": "Wonosari",
    "postal_code": "62365"
  }
]