[
  {
    "id": 122409,
    "province_id": 12,
    "regency_id": 1224,
    "district_id": 122409,
    "value": "Afulu",
    "postal_code": "22857"
  },
  {
    "id": 122409,
    "province_id": 12,
    "regency_id": 1224,
    "district_id": 122409,
    "value": "Faekhuna'a (Faekhunaa)",
    "postal_code": "22857"
  },
  {
    "id": 122409,
    "province_id": 12,
    "regency_id": 1224,
    "district_id": 122409,
    "value": "Harewakhe",
    "postal_code": "22857"
  },
  {
    "id": 122409,
    "province_id": 12,
    "regency_id": 1224,
    "district_id": 122409,
    "value": "Lauru Fadoro",
    "postal_code": "22857"
  },
  {
    "id": 122409,
    "province_id": 12,
    "regency_id": 1224,
    "district_id": 122409,
    "value": "Lauru I (Lauru I Afulu)",
    "postal_code": "22857"
  },
  {
    "id": 122409,
    "province_id": 12,
    "regency_id": 1224,
    "district_id": 122409,
    "value": "Lauru Lahewa",
    "postal_code": "22857"
  },
  {
    "id": 122409,
    "province_id": 12,
    "regency_id": 1224,
    "district_id": 122409,
    "value": "Ombolata Afulu",
    "postal_code": "22857"
  },
  {
    "id": 122409,
    "province_id": 12,
    "regency_id": 1224,
    "district_id": 122409,
    "value": "Sifaoro'asi (Sifaoroasi)",
    "postal_code": "22857"
  },
  {
    "id": 122409,
    "province_id": 12,
    "regency_id": 1224,
    "district_id": 122409,
    "value": "Sisobahili",
    "postal_code": "22857"
  }
]