[
  {
    "id": 117301,
    "province_id": 11,
    "regency_id": 1173,
    "district_id": 117301,
    "value": "Alue Awe",
    "postal_code": "24351"
  },
  {
    "id": 117301,
    "province_id": 11,
    "regency_id": 1173,
    "district_id": 117301,
    "value": "Blang Crum",
    "postal_code": "24351"
  },
  {
    "id": 117301,
    "province_id": 11,
    "regency_id": 1173,
    "district_id": 117301,
    "value": "Blang Poroh (Blang Pohroh)",
    "postal_code": "24351"
  },
  {
    "id": 117301,
    "province_id": 11,
    "regency_id": 1173,
    "district_id": 117301,
    "value": "Cot Girek Kandang",
    "postal_code": "24351"
  },
  {
    "id": 117301,
    "province_id": 11,
    "regency_id": 1173,
    "district_id": 117301,
    "value": "Cut Mamplam",
    "postal_code": "24351"
  },
  {
    "id": 117301,
    "province_id": 11,
    "regency_id": 1173,
    "district_id": 117301,
    "value": "Keude Cunda",
    "postal_code": "24351"
  },
  {
    "id": 117301,
    "province_id": 11,
    "regency_id": 1173,
    "district_id": 117301,
    "value": "Lhok Mon Puteh",
    "postal_code": "24351"
  },
  {
    "id": 117301,
    "province_id": 11,
    "regency_id": 1173,
    "district_id": 117301,
    "value": "Meunasah Alue",
    "postal_code": "24351"
  },
  {
    "id": 117301,
    "province_id": 11,
    "regency_id": 1173,
    "district_id": 117301,
    "value": "Meunasah Blang /Blt",
    "postal_code": "24351"
  },
  {
    "id": 117301,
    "province_id": 11,
    "regency_id": 1173,
    "district_id": 117301,
    "value": "Meunasah Manyang",
    "postal_code": "24351"
  },
  {
    "id": 117301,
    "province_id": 11,
    "regency_id": 1173,
    "district_id": 117301,
    "value": "Meunasah Mee",
    "postal_code": "24351"
  },
  {
    "id": 117301,
    "province_id": 11,
    "regency_id": 1173,
    "district_id": 117301,
    "value": "Meunasah Mesjid",
    "postal_code": "24351"
  },
  {
    "id": 117301,
    "province_id": 11,
    "regency_id": 1173,
    "district_id": 117301,
    "value": "Mns. Panggoi (Panggoi)",
    "postal_code": "24351"
  },
  {
    "id": 117301,
    "province_id": 11,
    "regency_id": 1173,
    "district_id": 117301,
    "value": "Paloh Batee",
    "postal_code": "24351"
  },
  {
    "id": 117301,
    "province_id": 11,
    "regency_id": 1173,
    "district_id": 117301,
    "value": "Paya Bili",
    "postal_code": "24351"
  },
  {
    "id": 117301,
    "province_id": 11,
    "regency_id": 1173,
    "district_id": 117301,
    "value": "Paya Punteut (Punteuet)",
    "postal_code": "24351"
  },
  {
    "id": 117301,
    "province_id": 11,
    "regency_id": 1173,
    "district_id": 117301,
    "value": "Uteunkot (Uteun Kot)",
    "postal_code": "24351"
  }
]