[
  {
    "id": 7204012009,
    "province_id": 72,
    "regency_id": 7204,
    "district_id": 720401,
    "value": "Abbajareng",
    "postal_code": "94554"
  },
  {
    "id": 7204012004,
    "province_id": 72,
    "regency_id": 7204,
    "district_id": 720401,
    "value": "Bangkir",
    "postal_code": "94554"
  },
  {
    "id": 7204012005,
    "province_id": 72,
    "regency_id": 7204,
    "district_id": 720401,
    "value": "Dongko",
    "postal_code": "94554"
  },
  {
    "id": 7204012001,
    "province_id": 72,
    "regency_id": 7204,
    "district_id": 720401,
    "value": "Kombo",
    "postal_code": "94554"
  },
  {
    "id": 7204012013,
    "province_id": 72,
    "regency_id": 7204,
    "district_id": 720401,
    "value": "Lemba Harapan",
    "postal_code": "94554"
  },
  {
    "id": 7204012007,
    "province_id": 72,
    "regency_id": 7204,
    "district_id": 720401,
    "value": "Lempe",
    "postal_code": "94554"
  },
  {
    "id": 7204012006,
    "province_id": 72,
    "regency_id": 7204,
    "district_id": 720401,
    "value": "Mimbala",
    "postal_code": "94554"
  },
  {
    "id": 7204012008,
    "province_id": 72,
    "regency_id": 7204,
    "district_id": 720401,
    "value": "Paddumpu",
    "postal_code": "94554"
  },
  {
    "id": 7204012011,
    "province_id": 72,
    "regency_id": 7204,
    "district_id": 720401,
    "value": "Pallakawe",
    "postal_code": "94554"
  },
  {
    "id": 7204012010,
    "province_id": 72,
    "regency_id": 7204,
    "district_id": 720401,
    "value": "Puse",
    "postal_code": "94554"
  },
  {
    "id": 7204012012,
    "province_id": 72,
    "regency_id": 7204,
    "district_id": 720401,
    "value": "Simuntu",
    "postal_code": "94554"
  },
  {
    "id": 7204012003,
    "province_id": 72,
    "regency_id": 7204,
    "district_id": 720401,
    "value": "Soni",
    "postal_code": "94554"
  },
  {
    "id": 7204012002,
    "province_id": 72,
    "regency_id": 7204,
    "district_id": 720401,
    "value": "Tampiala",
    "postal_code": "94554"
  }
]