[
  {
    "id": 740242,
    "province_id": 74,
    "regency_id": 7402,
    "district_id": 740242,
    "value": "Ambopi",
    "postal_code": "93460"
  },
  {
    "id": 740242,
    "province_id": 74,
    "regency_id": 7402,
    "district_id": 740242,
    "value": "Andalambe",
    "postal_code": "93460"
  },
  {
    "id": 740242,
    "province_id": 74,
    "regency_id": 7402,
    "district_id": 740242,
    "value": "Anggohu",
    "postal_code": "93460"
  },
  {
    "id": 740242,
    "province_id": 74,
    "regency_id": 7402,
    "district_id": 740242,
    "value": "Barowila",
    "postal_code": "93460"
  },
  {
    "id": 740242,
    "province_id": 74,
    "regency_id": 7402,
    "district_id": 740242,
    "value": "Nambeaboru",
    "postal_code": "93460"
  },
  {
    "id": 740242,
    "province_id": 74,
    "regency_id": 7402,
    "district_id": 740242,
    "value": "Olo Onua",
    "postal_code": "93460"
  },
  {
    "id": 740242,
    "province_id": 74,
    "regency_id": 7402,
    "district_id": 740242,
    "value": "Puundombi (Puundopi)",
    "postal_code": "93460"
  },
  {
    "id": 740242,
    "province_id": 74,
    "regency_id": 7402,
    "district_id": 740242,
    "value": "Sanuanggamo",
    "postal_code": "93460"
  },
  {
    "id": 740242,
    "province_id": 74,
    "regency_id": 7402,
    "district_id": 740242,
    "value": "Uluao",
    "postal_code": "93460"
  },
  {
    "id": 740242,
    "province_id": 74,
    "regency_id": 7402,
    "district_id": 740242,
    "value": "Waworoda Jaya",
    "postal_code": "93460"
  }
]