[
  {
    "id": 520802,
    "province_id": 52,
    "regency_id": 5208,
    "district_id": 520802,
    "value": "Bentek",
    "postal_code": "83353"
  },
  {
    "id": 520802,
    "province_id": 52,
    "regency_id": 5208,
    "district_id": 520802,
    "value": "Genggelang",
    "postal_code": "83353"
  },
  {
    "id": 520802,
    "province_id": 52,
    "regency_id": 5208,
    "district_id": 520802,
    "value": "Gondang",
    "postal_code": "83353"
  },
  {
    "id": 520802,
    "province_id": 52,
    "regency_id": 5208,
    "district_id": 520802,
    "value": "Rempek",
    "postal_code": "83353"
  },
  {
    "id": 520802,
    "province_id": 52,
    "regency_id": 5208,
    "district_id": 520802,
    "value": "Rempek Darussalam",
    "postal_code": "83353"
  },
  {
    "id": 520802,
    "province_id": 52,
    "regency_id": 5208,
    "district_id": 520802,
    "value": "Sambik Bangkol",
    "postal_code": "83353"
  },
  {
    "id": 520802,
    "province_id": 52,
    "regency_id": 5208,
    "district_id": 520802,
    "value": "Segara Katon",
    "postal_code": "83353"
  },
  {
    "id": 520802,
    "province_id": 52,
    "regency_id": 5208,
    "district_id": 520802,
    "value": "Selelos",
    "postal_code": "83353"
  }
]