[
  {
    "id": 331709,
    "province_id": 33,
    "regency_id": 3317,
    "district_id": 331709,
    "value": "Babadan",
    "postal_code": "59252"
  },
  {
    "id": 331709,
    "province_id": 33,
    "regency_id": 3317,
    "district_id": 331709,
    "value": "Banggi",
    "postal_code": "59252"
  },
  {
    "id": 331709,
    "province_id": 33,
    "regency_id": 3317,
    "district_id": 331709,
    "value": "Banyudono",
    "postal_code": "59252"
  },
  {
    "id": 331709,
    "province_id": 33,
    "regency_id": 3317,
    "district_id": 331709,
    "value": "Bogoharjo",
    "postal_code": "59252"
  },
  {
    "id": 331709,
    "province_id": 33,
    "regency_id": 3317,
    "district_id": 331709,
    "value": "Dresikulon (Dresi Kulon)",
    "postal_code": "59252"
  },
  {
    "id": 331709,
    "province_id": 33,
    "regency_id": 3317,
    "district_id": 331709,
    "value": "Dresiwetan (Dresi Wetan)",
    "postal_code": "59252"
  },
  {
    "id": 331709,
    "province_id": 33,
    "regency_id": 3317,
    "district_id": 331709,
    "value": "Gunungsari",
    "postal_code": "59252"
  },
  {
    "id": 331709,
    "province_id": 33,
    "regency_id": 3317,
    "district_id": 331709,
    "value": "Karangsekar",
    "postal_code": "59252"
  },
  {
    "id": 331709,
    "province_id": 33,
    "regency_id": 3317,
    "district_id": 331709,
    "value": "Kuangsan",
    "postal_code": "59252"
  },
  {
    "id": 331709,
    "province_id": 33,
    "regency_id": 3317,
    "district_id": 331709,
    "value": "Maguan",
    "postal_code": "59252"
  },
  {
    "id": 331709,
    "province_id": 33,
    "regency_id": 3317,
    "district_id": 331709,
    "value": "Meteseh",
    "postal_code": "59252"
  },
  {
    "id": 331709,
    "province_id": 33,
    "regency_id": 3317,
    "district_id": 331709,
    "value": "Mojorembun",
    "postal_code": "59252"
  },
  {
    "id": 331709,
    "province_id": 33,
    "regency_id": 3317,
    "district_id": 331709,
    "value": "Mojowarno",
    "postal_code": "59252"
  },
  {
    "id": 331709,
    "province_id": 33,
    "regency_id": 3317,
    "district_id": 331709,
    "value": "Pantiharjo",
    "postal_code": "59252"
  },
  {
    "id": 331709,
    "province_id": 33,
    "regency_id": 3317,
    "district_id": 331709,
    "value": "Pengkol",
    "postal_code": "59252"
  },
  {
    "id": 331709,
    "province_id": 33,
    "regency_id": 3317,
    "district_id": 331709,
    "value": "Purworejo",
    "postal_code": "59252"
  },
  {
    "id": 331709,
    "province_id": 33,
    "regency_id": 3317,
    "district_id": 331709,
    "value": "Sambiyan",
    "postal_code": "59252"
  },
  {
    "id": 331709,
    "province_id": 33,
    "regency_id": 3317,
    "district_id": 331709,
    "value": "Sendangagung",
    "postal_code": "59252"
  },
  {
    "id": 331709,
    "province_id": 33,
    "regency_id": 3317,
    "district_id": 331709,
    "value": "Sidomulyo",
    "postal_code": "59252"
  },
  {
    "id": 331709,
    "province_id": 33,
    "regency_id": 3317,
    "district_id": 331709,
    "value": "Tambakagung",
    "postal_code": "59252"
  },
  {
    "id": 331709,
    "province_id": 33,
    "regency_id": 3317,
    "district_id": 331709,
    "value": "Tasikharjo",
    "postal_code": "59252"
  },
  {
    "id": 331709,
    "province_id": 33,
    "regency_id": 3317,
    "district_id": 331709,
    "value": "Tunggulsari",
    "postal_code": "59252"
  },
  {
    "id": 331709,
    "province_id": 33,
    "regency_id": 3317,
    "district_id": 331709,
    "value": "Wiroto",
    "postal_code": "59252"
  }
]