[
  {
    "id": 7208232010,
    "province_id": 72,
    "regency_id": 7208,
    "district_id": 720823,
    "value": "Bainaa Selatan",
    "postal_code": "94475"
  },
  {
    "id": 7208232003,
    "province_id": 72,
    "regency_id": 7208,
    "district_id": 720823,
    "value": "Bondoyong",
    "postal_code": "94475"
  },
  {
    "id": 7208232001,
    "province_id": 72,
    "regency_id": 7208,
    "district_id": 720823,
    "value": "Lado",
    "postal_code": "94475"
  },
  {
    "id": 7208232009,
    "province_id": 72,
    "regency_id": 7208,
    "district_id": 720823,
    "value": "Muara Jaya",
    "postal_code": "94475"
  },
  {
    "id": 7208232008,
    "province_id": 72,
    "regency_id": 7208,
    "district_id": 720823,
    "value": "Ogobagis",
    "postal_code": "94475"
  },
  {
    "id": 7208232006,
    "province_id": 72,
    "regency_id": 7208,
    "district_id": 720823,
    "value": "Sidoan",
    "postal_code": "94475"
  },
  {
    "id": 7208232007,
    "province_id": 72,
    "regency_id": 7208,
    "district_id": 720823,
    "value": "Sidoan Barat",
    "postal_code": "94475"
  },
  {
    "id": 7208232004,
    "province_id": 72,
    "regency_id": 7208,
    "district_id": 720823,
    "value": "Sidoan Selatan",
    "postal_code": "94475"
  },
  {
    "id": 7208232005,
    "province_id": 72,
    "regency_id": 7208,
    "district_id": 720823,
    "value": "Sidoan Timur",
    "postal_code": "94475"
  },
  {
    "id": 7208232011,
    "province_id": 72,
    "regency_id": 7208,
    "district_id": 720823,
    "value": "Sintuwu Raya",
    "postal_code": "94475"
  },
  {
    "id": 7208232002,
    "province_id": 72,
    "regency_id": 7208,
    "district_id": 720823,
    "value": "Sipayo",
    "postal_code": "94475"
  }
]