[
  {
    "id": 537101,
    "province_id": 53,
    "regency_id": 5371,
    "district_id": 537101,
    "value": "Alak",
    "postal_code": "85231"
  },
  {
    "id": 537101,
    "province_id": 53,
    "regency_id": 5371,
    "district_id": 537101,
    "value": "Batu Plat (Batuplat)",
    "postal_code": "85237"
  },
  {
    "id": 537101,
    "province_id": 53,
    "regency_id": 5371,
    "district_id": 537101,
    "value": "Fatufeto",
    "postal_code": "85234"
  },
  {
    "id": 537101,
    "province_id": 53,
    "regency_id": 5371,
    "district_id": 537101,
    "value": "Mantasi",
    "postal_code": "85235"
  },
  {
    "id": 537101,
    "province_id": 53,
    "regency_id": 5371,
    "district_id": 537101,
    "value": "Manulai II",
    "postal_code": "85238"
  },
  {
    "id": 537101,
    "province_id": 53,
    "regency_id": 5371,
    "district_id": 537101,
    "value": "Manutapen",
    "postal_code": "85236"
  },
  {
    "id": 537101,
    "province_id": 53,
    "regency_id": 5371,
    "district_id": 537101,
    "value": "Naioni",
    "postal_code": "85239"
  },
  {
    "id": 537101,
    "province_id": 53,
    "regency_id": 5371,
    "district_id": 537101,
    "value": "Namosain",
    "postal_code": "85232"
  },
  {
    "id": 537101,
    "province_id": 53,
    "regency_id": 5371,
    "district_id": 537101,
    "value": "Nunbaun Delha",
    "postal_code": "85233"
  },
  {
    "id": 537101,
    "province_id": 53,
    "regency_id": 5371,
    "district_id": 537101,
    "value": "Nunbaun Sabu",
    "postal_code": "85233"
  },
  {
    "id": 537101,
    "province_id": 53,
    "regency_id": 5371,
    "district_id": 537101,
    "value": "Nunhila",
    "postal_code": "85234"
  },
  {
    "id": 537101,
    "province_id": 53,
    "regency_id": 5371,
    "district_id": 537101,
    "value": "Penkase Oeleta",
    "postal_code": "85231"
  }
]