[
  {
    "id": 150510,
    "province_id": 15,
    "regency_id": 1505,
    "district_id": 150510,
    "value": "Adipura Kencana",
    "postal_code": "36366"
  },
  {
    "id": 150510,
    "province_id": 15,
    "regency_id": 1505,
    "district_id": 150510,
    "value": "Bukit Jaya",
    "postal_code": "36366"
  },
  {
    "id": 150510,
    "province_id": 15,
    "regency_id": 1505,
    "district_id": 150510,
    "value": "Bukit Subur",
    "postal_code": "36366"
  },
  {
    "id": 150510,
    "province_id": 15,
    "regency_id": 1505,
    "district_id": 150510,
    "value": "Mekar Jaya",
    "postal_code": "36366"
  },
  {
    "id": 150510,
    "province_id": 15,
    "regency_id": 1505,
    "district_id": 150510,
    "value": "Tanjung Baru",
    "postal_code": "36366"
  },
  {
    "id": 150510,
    "province_id": 15,
    "regency_id": 1505,
    "district_id": 150510,
    "value": "Tanjung Lebar",
    "postal_code": "36366"
  },
  {
    "id": 150510,
    "province_id": 15,
    "regency_id": 1505,
    "district_id": 150510,
    "value": "Tanjung Mulia (Tanjungmulya)",
    "postal_code": "36366"
  },
  {
    "id": 150510,
    "province_id": 15,
    "regency_id": 1505,
    "district_id": 150510,
    "value": "Tanjung Sari",
    "postal_code": "36366"
  },
  {
    "id": 150510,
    "province_id": 15,
    "regency_id": 1505,
    "district_id": 150510,
    "value": "Tri Jaya (Trijaya)",
    "postal_code": "36366"
  },
  {
    "id": 150510,
    "province_id": 15,
    "regency_id": 1505,
    "district_id": 150510,
    "value": "Ujung Tanjung",
    "postal_code": "36366"
  }
]