[
  {
    "id": 3502102004,
    "province_id": 35,
    "regency_id": 3502,
    "district_id": 350210,
    "value": "Beton",
    "postal_code": "63471"
  },
  {
    "id": 3502102006,
    "province_id": 35,
    "regency_id": 3502,
    "district_id": 350210,
    "value": "Brahu",
    "postal_code": "63471"
  },
  {
    "id": 3502102001,
    "province_id": 35,
    "regency_id": 3502,
    "district_id": 350210,
    "value": "Demangan",
    "postal_code": "63471"
  },
  {
    "id": 3502102009,
    "province_id": 35,
    "regency_id": 3502,
    "district_id": 350210,
    "value": "Jarak",
    "postal_code": "63471"
  },
  {
    "id": 3502102007,
    "province_id": 35,
    "regency_id": 3502,
    "district_id": 350210,
    "value": "Kepuhrubuh (Kepuh Rubuh)",
    "postal_code": "63471"
  },
  {
    "id": 3502102003,
    "province_id": 35,
    "regency_id": 3502,
    "district_id": 350210,
    "value": "Madusari",
    "postal_code": "63471"
  },
  {
    "id": 3502101018,
    "province_id": 35,
    "regency_id": 3502,
    "district_id": 350210,
    "value": "Mangunsuman (Ngamunsuman)",
    "postal_code": "63471"
  },
  {
    "id": 3502102012,
    "province_id": 35,
    "regency_id": 3502,
    "district_id": 350210,
    "value": "Manuk",
    "postal_code": "63471"
  },
  {
    "id": 3502102002,
    "province_id": 35,
    "regency_id": 3502,
    "district_id": 350210,
    "value": "Ngabar",
    "postal_code": "63471"
  },
  {
    "id": 3502102014,
    "province_id": 35,
    "regency_id": 3502,
    "district_id": 350210,
    "value": "Patihan Kidul",
    "postal_code": "63471"
  },
  {
    "id": 3502102011,
    "province_id": 35,
    "regency_id": 3502,
    "district_id": 350210,
    "value": "Pijeran",
    "postal_code": "63471"
  },
  {
    "id": 3502102015,
    "province_id": 35,
    "regency_id": 3502,
    "district_id": 350210,
    "value": "Ronosentanan",
    "postal_code": "63471"
  },
  {
    "id": 3502101017,
    "province_id": 35,
    "regency_id": 3502,
    "district_id": 350210,
    "value": "Ronowijayan",
    "postal_code": "63471"
  },
  {
    "id": 3502102008,
    "province_id": 35,
    "regency_id": 3502,
    "district_id": 350210,
    "value": "Sawuh",
    "postal_code": "63471"
  },
  {
    "id": 3502102005,
    "province_id": 35,
    "regency_id": 3502,
    "district_id": 350210,
    "value": "Sekaran (Sakaran)",
    "postal_code": "63471"
  },
  {
    "id": 3502102013,
    "province_id": 35,
    "regency_id": 3502,
    "district_id": 350210,
    "value": "Siman",
    "postal_code": "63471"
  },
  {
    "id": 3502102016,
    "province_id": 35,
    "regency_id": 3502,
    "district_id": 350210,
    "value": "Tajug",
    "postal_code": "63471"
  },
  {
    "id": 3502102010,
    "province_id": 35,
    "regency_id": 3502,
    "district_id": 350210,
    "value": "Tranjang",
    "postal_code": "63471"
  }
]