[
  {
    "id": 720711,
    "province_id": 72,
    "regency_id": 7207,
    "district_id": 720711,
    "value": "Bobu",
    "postal_code": "94885"
  },
  {
    "id": 720711,
    "province_id": 72,
    "regency_id": 7207,
    "district_id": 720711,
    "value": "Gansal",
    "postal_code": "94885"
  },
  {
    "id": 720711,
    "province_id": 72,
    "regency_id": 7207,
    "district_id": 720711,
    "value": "Kampung Baru",
    "postal_code": "94714"
  },
  {
    "id": 720711,
    "province_id": 72,
    "regency_id": 7207,
    "district_id": 720711,
    "value": "Mansamat A",
    "postal_code": "94885"
  },
  {
    "id": 720711,
    "province_id": 72,
    "regency_id": 7207,
    "district_id": 720711,
    "value": "Mansamat B",
    "postal_code": "94885"
  },
  {
    "id": 720711,
    "province_id": 72,
    "regency_id": 7207,
    "district_id": 720711,
    "value": "Paisumusoni (Paisumosoni)",
    "postal_code": "94885"
  },
  {
    "id": 720711,
    "province_id": 72,
    "regency_id": 7207,
    "district_id": 720711,
    "value": "Tinangkung",
    "postal_code": "94885"
  },
  {
    "id": 720711,
    "province_id": 72,
    "regency_id": 7207,
    "district_id": 720711,
    "value": "Tobing",
    "postal_code": "94885"
  },
  {
    "id": 720711,
    "province_id": 72,
    "regency_id": 7207,
    "district_id": 720711,
    "value": "Tobungin",
    "postal_code": "94885"
  }
]