[
  {
    "id": 3517132015,
    "province_id": 35,
    "regency_id": 3517,
    "district_id": 351713,
    "value": "Bedahlawak (Bedah Lawak)",
    "postal_code": "61452"
  },
  {
    "id": 3517132009,
    "province_id": 35,
    "regency_id": 3517,
    "district_id": 351713,
    "value": "Gabusbanaran",
    "postal_code": "61452"
  },
  {
    "id": 3517132012,
    "province_id": 35,
    "regency_id": 3517,
    "district_id": 351713,
    "value": "Jatiwates (Jati Wates)",
    "postal_code": "61452"
  },
  {
    "id": 3517132004,
    "province_id": 35,
    "regency_id": 3517,
    "district_id": 351713,
    "value": "Kalikejambon (Kali Kejambon)",
    "postal_code": "61452"
  },
  {
    "id": 3517132005,
    "province_id": 35,
    "regency_id": 3517,
    "district_id": 351713,
    "value": "Kedunglosari (Kedung Losari)",
    "postal_code": "61452"
  },
  {
    "id": 3517132006,
    "province_id": 35,
    "regency_id": 3517,
    "district_id": 351713,
    "value": "Kedungotok (Kedung Otok)",
    "postal_code": "61452"
  },
  {
    "id": 3517132013,
    "province_id": 35,
    "regency_id": 3517,
    "district_id": 351713,
    "value": "Kepuhdoko (Kepuh Doko)",
    "postal_code": "61452"
  },
  {
    "id": 3517132001,
    "province_id": 35,
    "regency_id": 3517,
    "district_id": 351713,
    "value": "Mojokrapak",
    "postal_code": "61452"
  },
  {
    "id": 3517132002,
    "province_id": 35,
    "regency_id": 3517,
    "district_id": 351713,
    "value": "Pesantren",
    "postal_code": "61452"
  },
  {
    "id": 3517132014,
    "province_id": 35,
    "regency_id": 3517,
    "district_id": 351713,
    "value": "Pulogedang (Pulo Gedang)",
    "postal_code": "61452"
  },
  {
    "id": 3517132010,
    "province_id": 35,
    "regency_id": 3517,
    "district_id": 351713,
    "value": "Pulorejo",
    "postal_code": "61452"
  },
  {
    "id": 3517132011,
    "province_id": 35,
    "regency_id": 3517,
    "district_id": 351713,
    "value": "Rejosopinggir (Rejoso Pinggir)",
    "postal_code": "61452"
  },
  {
    "id": 3517132008,
    "province_id": 35,
    "regency_id": 3517,
    "district_id": 351713,
    "value": "Sentul",
    "postal_code": "61452"
  },
  {
    "id": 3517132003,
    "province_id": 35,
    "regency_id": 3517,
    "district_id": 351713,
    "value": "Tampingmojo (Tamping Mojo)",
    "postal_code": "61452"
  },
  {
    "id": 3517132007,
    "province_id": 35,
    "regency_id": 3517,
    "district_id": 351713,
    "value": "Tembelang",
    "postal_code": "61452"
  }
]