[
  {
    "id": 6110012007,
    "province_id": 61,
    "regency_id": 6110,
    "district_id": 611001,
    "value": "Balai Lagas (Balai Agas)",
    "postal_code": "79671"
  },
  {
    "id": 6110012003,
    "province_id": 61,
    "regency_id": 6110,
    "district_id": 611001,
    "value": "Batu Ampar",
    "postal_code": "79671"
  },
  {
    "id": 6110012010,
    "province_id": 61,
    "regency_id": 6110,
    "district_id": 611001,
    "value": "Batu Buil",
    "postal_code": "79671"
  },
  {
    "id": 6110012013,
    "province_id": 61,
    "regency_id": 6110,
    "district_id": 611001,
    "value": "Batu Nanta",
    "postal_code": "79671"
  },
  {
    "id": 6110012014,
    "province_id": 61,
    "regency_id": 6110,
    "district_id": 611001,
    "value": "Belonsat",
    "postal_code": "79671"
  },
  {
    "id": 6110012011,
    "province_id": 61,
    "regency_id": 6110,
    "district_id": 611001,
    "value": "Guhung",
    "postal_code": "79671"
  },
  {
    "id": 6110012019,
    "province_id": 61,
    "regency_id": 6110,
    "district_id": 611001,
    "value": "Labang",
    "postal_code": "79671"
  },
  {
    "id": 6110012016,
    "province_id": 61,
    "regency_id": 6110,
    "district_id": 611001,
    "value": "Laman Bukit",
    "postal_code": "79671"
  },
  {
    "id": 6110012009,
    "province_id": 61,
    "regency_id": 6110,
    "district_id": 611001,
    "value": "Langan",
    "postal_code": "79671"
  },
  {
    "id": 6110012021,
    "province_id": 61,
    "regency_id": 6110,
    "district_id": 611001,
    "value": "Nanga Entebah (Entebah)",
    "postal_code": "79671"
  },
  {
    "id": 6110012023,
    "province_id": 61,
    "regency_id": 6110,
    "district_id": 611001,
    "value": "Nanga Menunuk",
    "postal_code": "79671"
  },
  {
    "id": 6110012020,
    "province_id": 61,
    "regency_id": 6110,
    "district_id": 611001,
    "value": "Nanga Pau",
    "postal_code": "79671"
  },
  {
    "id": 6110012002,
    "province_id": 61,
    "regency_id": 6110,
    "district_id": 611001,
    "value": "Nusa Kenyikap",
    "postal_code": "79671"
  },
  {
    "id": 6110012001,
    "province_id": 61,
    "regency_id": 6110,
    "district_id": 611001,
    "value": "Pemuar",
    "postal_code": "79671"
  },
  {
    "id": 6110012024,
    "province_id": 61,
    "regency_id": 6110,
    "district_id": 611001,
    "value": "Sepan Tonak",
    "postal_code": "79671"
  },
  {
    "id": 6110012017,
    "province_id": 61,
    "regency_id": 6110,
    "district_id": 611001,
    "value": "Tekaban",
    "postal_code": "79671"
  },
  {
    "id": 6110012008,
    "province_id": 61,
    "regency_id": 6110,
    "district_id": 611001,
    "value": "Upit (Upet)",
    "postal_code": "79671"
  }
]