[
  {
    "id": 1117072001,
    "province_id": 11,
    "regency_id": 1117,
    "district_id": 111707,
    "value": "Bandar Lampahan",
    "postal_code": "24555"
  },
  {
    "id": 1117072002,
    "province_id": 11,
    "regency_id": 1117,
    "district_id": 111707,
    "value": "Blang Rongka",
    "postal_code": "24555"
  },
  {
    "id": 1117072035,
    "province_id": 11,
    "regency_id": 1117,
    "district_id": 111707,
    "value": "Bukit Mulie",
    "postal_code": "24555"
  },
  {
    "id": 1117072031,
    "province_id": 11,
    "regency_id": 1117,
    "district_id": 111707,
    "value": "Bukit Tunyang",
    "postal_code": "24555"
  },
  {
    "id": 1117072003,
    "province_id": 11,
    "regency_id": 1117,
    "district_id": 111707,
    "value": "Cekal Baru",
    "postal_code": "24555"
  },
  {
    "id": 1117072019,
    "province_id": 11,
    "regency_id": 1117,
    "district_id": 111707,
    "value": "Damaran Baru",
    "postal_code": "24555"
  },
  {
    "id": 1117072016,
    "province_id": 11,
    "regency_id": 1117,
    "district_id": 111707,
    "value": "Datu Beru Tunyang",
    "postal_code": "24555"
  },
  {
    "id": 1117072020,
    "province_id": 11,
    "regency_id": 1117,
    "district_id": 111707,
    "value": "Fajar Harapan",
    "postal_code": "24555"
  },
  {
    "id": 1117072004,
    "province_id": 11,
    "regency_id": 1117,
    "district_id": 111707,
    "value": "Gegur Sepakat",
    "postal_code": "24555"
  },
  {
    "id": 1117072030,
    "province_id": 11,
    "regency_id": 1117,
    "district_id": 111707,
    "value": "Gunung Tunyang",
    "postal_code": "24555"
  },
  {
    "id": 1117072022,
    "province_id": 11,
    "regency_id": 1117,
    "district_id": 111707,
    "value": "Kampung Baru 76 (Kampung Baru)",
    "postal_code": "24555"
  },
  {
    "id": 1117072005,
    "province_id": 11,
    "regency_id": 1117,
    "district_id": 111707,
    "value": "Karang Jadi",
    "postal_code": "24555"
  },
  {
    "id": 1117072017,
    "province_id": 11,
    "regency_id": 1117,
    "district_id": 111707,
    "value": "Kenine",
    "postal_code": "24555"
  },
  {
    "id": 1117072025,
    "province_id": 11,
    "regency_id": 1117,
    "district_id": 111707,
    "value": "Kulem Para Kanis (Kolam Para Kanis)",
    "postal_code": "24555"
  },
  {
    "id": 1117072006,
    "province_id": 11,
    "regency_id": 1117,
    "district_id": 111707,
    "value": "Lampahan",
    "postal_code": "24555"
  },
  {
    "id": 1117072027,
    "province_id": 11,
    "regency_id": 1117,
    "district_id": 111707,
    "value": "Lampahan Barat",
    "postal_code": "24555"
  },
  {
    "id": 1117072028,
    "province_id": 11,
    "regency_id": 1117,
    "district_id": 111707,
    "value": "Lampahan Timur",
    "postal_code": "24555"
  },
  {
    "id": 1117072032,
    "province_id": 11,
    "regency_id": 1117,
    "district_id": 111707,
    "value": "Linung Bale",
    "postal_code": "24555"
  },
  {
    "id": 1117072026,
    "province_id": 11,
    "regency_id": 1117,
    "district_id": 111707,
    "value": "Mekar Ayu",
    "postal_code": "24555"
  },
  {
    "id": 1117072021,
    "province_id": 11,
    "regency_id": 1117,
    "district_id": 111707,
    "value": "Mude Benara",
    "postal_code": "24555"
  },
  {
    "id": 1117072033,
    "province_id": 11,
    "regency_id": 1117,
    "district_id": 111707,
    "value": "Pantan Kemuning",
    "postal_code": "24555"
  },
  {
    "id": 1117072023,
    "province_id": 11,
    "regency_id": 1117,
    "district_id": 111707,
    "value": "Pantan Pediangan (Pantan Pediangen)",
    "postal_code": "24555"
  },
  {
    "id": 1117072018,
    "province_id": 11,
    "regency_id": 1117,
    "district_id": 111707,
    "value": "Rembune",
    "postal_code": "24555"
  },
  {
    "id": 1117072010,
    "province_id": 11,
    "regency_id": 1117,
    "district_id": 111707,
    "value": "Setie",
    "postal_code": "24555"
  },
  {
    "id": 1117072024,
    "province_id": 11,
    "regency_id": 1117,
    "district_id": 111707,
    "value": "Simpang Bumi Ayu (Bumi ayu)",
    "postal_code": "24555"
  },
  {
    "id": 1117072011,
    "province_id": 11,
    "regency_id": 1117,
    "district_id": 111707,
    "value": "Simpang Layang",
    "postal_code": "24555"
  },
  {
    "id": 1117072012,
    "province_id": 11,
    "regency_id": 1117,
    "district_id": 111707,
    "value": "Suka Damai",
    "postal_code": "24555"
  },
  {
    "id": 1117072034,
    "province_id": 11,
    "regency_id": 1117,
    "district_id": 111707,
    "value": "Sumber Jaya",
    "postal_code": "24555"
  },
  {
    "id": 1117072029,
    "province_id": 11,
    "regency_id": 1117,
    "district_id": 111707,
    "value": "Timang Rasa",
    "postal_code": "24555"
  },
  {
    "id": 1117072014,
    "province_id": 11,
    "regency_id": 1117,
    "district_id": 111707,
    "value": "Tunyang",
    "postal_code": "24555"
  }
]