[
  {
    "id": 3524202011,
    "province_id": 35,
    "regency_id": 3524,
    "district_id": 352420,
    "value": "Blajo",
    "postal_code": "62255"
  },
  {
    "id": 3524202015,
    "province_id": 35,
    "regency_id": 3524,
    "district_id": 352420,
    "value": "Bojoasri",
    "postal_code": "62255"
  },
  {
    "id": 3524202008,
    "province_id": 35,
    "regency_id": 3524,
    "district_id": 352420,
    "value": "Butungan",
    "postal_code": "62255"
  },
  {
    "id": 3524202018,
    "province_id": 35,
    "regency_id": 3524,
    "district_id": 352420,
    "value": "Canditunggal",
    "postal_code": "62255"
  },
  {
    "id": 3524202014,
    "province_id": 35,
    "regency_id": 3524,
    "district_id": 352420,
    "value": "Cluring",
    "postal_code": "62255"
  },
  {
    "id": 3524202007,
    "province_id": 35,
    "regency_id": 3524,
    "district_id": 352420,
    "value": "Dibee (Dibe)",
    "postal_code": "62255"
  },
  {
    "id": 3524202013,
    "province_id": 35,
    "regency_id": 3524,
    "district_id": 352420,
    "value": "Gambuhan",
    "postal_code": "62255"
  },
  {
    "id": 3524202004,
    "province_id": 35,
    "regency_id": 3524,
    "district_id": 352420,
    "value": "Jelakcatur",
    "postal_code": "62255"
  },
  {
    "id": 3524202012,
    "province_id": 35,
    "regency_id": 3524,
    "district_id": 352420,
    "value": "Kalitengah",
    "postal_code": "62255"
  },
  {
    "id": 3524202016,
    "province_id": 35,
    "regency_id": 3524,
    "district_id": 352420,
    "value": "Kediren",
    "postal_code": "62255"
  },
  {
    "id": 3524202017,
    "province_id": 35,
    "regency_id": 3524,
    "district_id": 352420,
    "value": "Kuluran",
    "postal_code": "62255"
  },
  {
    "id": 3524202009,
    "province_id": 35,
    "regency_id": 3524,
    "district_id": 352420,
    "value": "Lukrejo",
    "postal_code": "62255"
  },
  {
    "id": 3524202005,
    "province_id": 35,
    "regency_id": 3524,
    "district_id": 352420,
    "value": "Mungli",
    "postal_code": "62255"
  },
  {
    "id": 3524202006,
    "province_id": 35,
    "regency_id": 3524,
    "district_id": 352420,
    "value": "Pengangsalan",
    "postal_code": "62255"
  },
  {
    "id": 3524202001,
    "province_id": 35,
    "regency_id": 3524,
    "district_id": 352420,
    "value": "Pucangro",
    "postal_code": "62255"
  },
  {
    "id": 3524202002,
    "province_id": 35,
    "regency_id": 3524,
    "district_id": 352420,
    "value": "Pucangtelu",
    "postal_code": "62255"
  },
  {
    "id": 3524202003,
    "province_id": 35,
    "regency_id": 3524,
    "district_id": 352420,
    "value": "Somosari",
    "postal_code": "62255"
  },
  {
    "id": 3524202019,
    "province_id": 35,
    "regency_id": 3524,
    "district_id": 352420,
    "value": "Sugihwaras",
    "postal_code": "62255"
  },
  {
    "id": 3524202010,
    "province_id": 35,
    "regency_id": 3524,
    "district_id": 352420,
    "value": "Tiwet",
    "postal_code": "62255"
  },
  {
    "id": 3524202020,
    "province_id": 35,
    "regency_id": 3524,
    "district_id": 352420,
    "value": "Tunjungmekar",
    "postal_code": "62255"
  }
]