[
  {
    "id": 7412032010,
    "province_id": 74,
    "regency_id": 7412,
    "district_id": 741203,
    "value": "Baho Bubu",
    "postal_code": "93397"
  },
  {
    "id": 7412032001,
    "province_id": 74,
    "regency_id": 7412,
    "district_id": 741203,
    "value": "Bangun Mekar",
    "postal_code": "93397"
  },
  {
    "id": 7412032005,
    "province_id": 74,
    "regency_id": 7412,
    "district_id": 741203,
    "value": "Dimba",
    "postal_code": "93397"
  },
  {
    "id": 7412031004,
    "province_id": 74,
    "regency_id": 7412,
    "district_id": 741203,
    "value": "Ladianta",
    "postal_code": "93397"
  },
  {
    "id": 7412032006,
    "province_id": 74,
    "regency_id": 7412,
    "district_id": 741203,
    "value": "Mata Dimba",
    "postal_code": "93397"
  },
  {
    "id": 7412032002,
    "province_id": 74,
    "regency_id": 7412,
    "district_id": 741203,
    "value": "Noko",
    "postal_code": "93397"
  },
  {
    "id": 7412032009,
    "province_id": 74,
    "regency_id": 7412,
    "district_id": 741203,
    "value": "Patande",
    "postal_code": "93397"
  },
  {
    "id": 7412032007,
    "province_id": 74,
    "regency_id": 7412,
    "district_id": 741203,
    "value": "Puurau",
    "postal_code": "93397"
  },
  {
    "id": 7412032003,
    "province_id": 74,
    "regency_id": 7412,
    "district_id": 741203,
    "value": "Tangkombuno",
    "postal_code": "93397"
  },
  {
    "id": 7412032008,
    "province_id": 74,
    "regency_id": 7412,
    "district_id": 741203,
    "value": "Watuondo (Watu Ondo)",
    "postal_code": "93397"
  }
]