[
  {
    "id": 327315,
    "province_id": 32,
    "regency_id": 3273,
    "district_id": 327315,
    "value": "Caringin",
    "postal_code": "40212"
  },
  {
    "id": 327315,
    "province_id": 32,
    "regency_id": 3273,
    "district_id": 327315,
    "value": "Cibuntu",
    "postal_code": "40212"
  },
  {
    "id": 327315,
    "province_id": 32,
    "regency_id": 3273,
    "district_id": 327315,
    "value": "Cigondewah Kaler",
    "postal_code": "40214"
  },
  {
    "id": 327315,
    "province_id": 32,
    "regency_id": 3273,
    "district_id": 327315,
    "value": "Cigondewah Kidul",
    "postal_code": "40214"
  },
  {
    "id": 327315,
    "province_id": 32,
    "regency_id": 3273,
    "district_id": 327315,
    "value": "Cigondewah Rahayu",
    "postal_code": "40215"
  },
  {
    "id": 327315,
    "province_id": 32,
    "regency_id": 3273,
    "district_id": 327315,
    "value": "Cijerah",
    "postal_code": "40213"
  },
  {
    "id": 327315,
    "province_id": 32,
    "regency_id": 3273,
    "district_id": 327315,
    "value": "Gempolsari",
    "postal_code": "40215"
  },
  {
    "id": 327315,
    "province_id": 32,
    "regency_id": 3273,
    "district_id": 327315,
    "value": "Warung Muncang",
    "postal_code": "40211"
  }
]