[
  {
    "id": 170508,
    "province_id": 17,
    "regency_id": 1705,
    "district_id": 170508,
    "value": "Air Latak",
    "postal_code": "38883"
  },
  {
    "id": 170508,
    "province_id": 17,
    "regency_id": 1705,
    "district_id": 170508,
    "value": "Lubuk Lagan",
    "postal_code": "38883"
  },
  {
    "id": 170508,
    "province_id": 17,
    "regency_id": 1705,
    "district_id": 170508,
    "value": "Lunjuk",
    "postal_code": "38883"
  },
  {
    "id": 170508,
    "province_id": 17,
    "regency_id": 1705,
    "district_id": 170508,
    "value": "Pagar Agung",
    "postal_code": "38883"
  },
  {
    "id": 170508,
    "province_id": 17,
    "regency_id": 1705,
    "district_id": 170508,
    "value": "Purbosari",
    "postal_code": "38883"
  },
  {
    "id": 170508,
    "province_id": 17,
    "regency_id": 1705,
    "district_id": 170508,
    "value": "Sengkuang Jaya",
    "postal_code": "38883"
  },
  {
    "id": 170508,
    "province_id": 17,
    "regency_id": 1705,
    "district_id": 170508,
    "value": "Talang Perapat",
    "postal_code": "38883"
  },
  {
    "id": 170508,
    "province_id": 17,
    "regency_id": 1705,
    "district_id": 170508,
    "value": "Talang Tinggi",
    "postal_code": "38883"
  },
  {
    "id": 170508,
    "province_id": 17,
    "regency_id": 1705,
    "district_id": 170508,
    "value": "Tanjung Agung",
    "postal_code": "38883"
  }
]