[
  {
    "id": 720408,
    "province_id": 72,
    "regency_id": 7204,
    "district_id": 720408,
    "value": "Aung",
    "postal_code": "94561"
  },
  {
    "id": 720408,
    "province_id": 72,
    "regency_id": 7204,
    "district_id": 720408,
    "value": "Bajugan",
    "postal_code": "94561"
  },
  {
    "id": 720408,
    "province_id": 72,
    "regency_id": 7204,
    "district_id": 720408,
    "value": "Ginunggung",
    "postal_code": "94561"
  },
  {
    "id": 720408,
    "province_id": 72,
    "regency_id": 7204,
    "district_id": 720408,
    "value": "Kalangkangan",
    "postal_code": "94561"
  },
  {
    "id": 720408,
    "province_id": 72,
    "regency_id": 7204,
    "district_id": 720408,
    "value": "Kinopasan",
    "postal_code": "94561"
  },
  {
    "id": 720408,
    "province_id": 72,
    "regency_id": 7204,
    "district_id": 720408,
    "value": "Lakatan",
    "postal_code": "94561"
  },
  {
    "id": 720408,
    "province_id": 72,
    "regency_id": 7204,
    "district_id": 720408,
    "value": "Lalos",
    "postal_code": "94561"
  },
  {
    "id": 720408,
    "province_id": 72,
    "regency_id": 7204,
    "district_id": 720408,
    "value": "Lantapan",
    "postal_code": "94561"
  },
  {
    "id": 720408,
    "province_id": 72,
    "regency_id": 7204,
    "district_id": 720408,
    "value": "Malangga",
    "postal_code": "94561"
  },
  {
    "id": 720408,
    "province_id": 72,
    "regency_id": 7204,
    "district_id": 720408,
    "value": "Ogomoli",
    "postal_code": "94561"
  },
  {
    "id": 720408,
    "province_id": 72,
    "regency_id": 7204,
    "district_id": 720408,
    "value": "Sabang",
    "postal_code": "94561"
  },
  {
    "id": 720408,
    "province_id": 72,
    "regency_id": 7204,
    "district_id": 720408,
    "value": "Sandana",
    "postal_code": "94561"
  },
  {
    "id": 720408,
    "province_id": 72,
    "regency_id": 7204,
    "district_id": 720408,
    "value": "Tende",
    "postal_code": "94561"
  },
  {
    "id": 720408,
    "province_id": 72,
    "regency_id": 7204,
    "district_id": 720408,
    "value": "Tinigi",
    "postal_code": "94561"
  }
]