[
  {
    "id": 5307202006,
    "province_id": 53,
    "regency_id": 5307,
    "district_id": 530720,
    "value": "Kloangpopot",
    "postal_code": "86170"
  },
  {
    "id": 5307202008,
    "province_id": 53,
    "regency_id": 5307,
    "district_id": 530720,
    "value": "Mahe Tanah",
    "postal_code": "86170"
  },
  {
    "id": 5307202002,
    "province_id": 53,
    "regency_id": 5307,
    "district_id": 530720,
    "value": "Nenbura",
    "postal_code": "86170"
  },
  {
    "id": 5307202009,
    "province_id": 53,
    "regency_id": 5307,
    "district_id": 530720,
    "value": "Pelibaler",
    "postal_code": "86170"
  },
  {
    "id": 5307202001,
    "province_id": 53,
    "regency_id": 5307,
    "district_id": 530720,
    "value": "Waihawa",
    "postal_code": "86170"
  },
  {
    "id": 5307202004,
    "province_id": 53,
    "regency_id": 5307,
    "district_id": 530720,
    "value": "Watumerak",
    "postal_code": "86170"
  },
  {
    "id": 5307202003,
    "province_id": 53,
    "regency_id": 5307,
    "district_id": 530720,
    "value": "Wogalirit",
    "postal_code": "86170"
  },
  {
    "id": 5307202007,
    "province_id": 53,
    "regency_id": 5307,
    "district_id": 530720,
    "value": "Wolomotong",
    "postal_code": "86170"
  },
  {
    "id": 5307202005,
    "province_id": 53,
    "regency_id": 5307,
    "district_id": 530720,
    "value": "Wolonterang",
    "postal_code": "86170"
  }
]