[
  {
    "id": 930314,
    "province_id": 93,
    "regency_id": 9303,
    "district_id": 930314,
    "value": "Bifo",
    "postal_code": "99877"
  },
  {
    "id": 930314,
    "province_id": 93,
    "regency_id": 9303,
    "district_id": 930314,
    "value": "Busiri",
    "postal_code": "99877"
  },
  {
    "id": 930314,
    "province_id": 93,
    "regency_id": 9303,
    "district_id": 930314,
    "value": "Haku",
    "postal_code": "99877"
  },
  {
    "id": 930314,
    "province_id": 93,
    "regency_id": 9303,
    "district_id": 930314,
    "value": "Honya",
    "postal_code": "99877"
  },
  {
    "id": 930314,
    "province_id": 93,
    "regency_id": 9303,
    "district_id": 930314,
    "value": "Keta",
    "postal_code": "99877"
  },
  {
    "id": 930314,
    "province_id": 93,
    "regency_id": 9303,
    "district_id": 930314,
    "value": "Samurukie",
    "postal_code": "99877"
  },
  {
    "id": 930314,
    "province_id": 93,
    "regency_id": 9303,
    "district_id": 930314,
    "value": "Veta",
    "postal_code": "99877"
  },
  {
    "id": 930314,
    "province_id": 93,
    "regency_id": 9303,
    "district_id": 930314,
    "value": "Wonggi",
    "postal_code": "99877"
  }
]