[
  {
    "id": 510104,
    "province_id": 51,
    "regency_id": 5101,
    "district_id": 510104,
    "value": "Blimbingsari (Belimbingsari)",
    "postal_code": "82252"
  },
  {
    "id": 510104,
    "province_id": 51,
    "regency_id": 5101,
    "district_id": 510104,
    "value": "Candikusuma",
    "postal_code": "82252"
  },
  {
    "id": 510104,
    "province_id": 51,
    "regency_id": 5101,
    "district_id": 510104,
    "value": "Ekasari",
    "postal_code": "82252"
  },
  {
    "id": 510104,
    "province_id": 51,
    "regency_id": 5101,
    "district_id": 510104,
    "value": "Gilimanuk",
    "postal_code": "82252"
  },
  {
    "id": 510104,
    "province_id": 51,
    "regency_id": 5101,
    "district_id": 510104,
    "value": "Manistutu",
    "postal_code": "82252"
  },
  {
    "id": 510104,
    "province_id": 51,
    "regency_id": 5101,
    "district_id": 510104,
    "value": "Melaya",
    "postal_code": "82252"
  },
  {
    "id": 510104,
    "province_id": 51,
    "regency_id": 5101,
    "district_id": 510104,
    "value": "Nusasari (Nusa Sari)",
    "postal_code": "82252"
  },
  {
    "id": 510104,
    "province_id": 51,
    "regency_id": 5101,
    "district_id": 510104,
    "value": "Tukadaya",
    "postal_code": "82252"
  },
  {
    "id": 510104,
    "province_id": 51,
    "regency_id": 5101,
    "district_id": 510104,
    "value": "Tuwed",
    "postal_code": "82252"
  },
  {
    "id": 510104,
    "province_id": 51,
    "regency_id": 5101,
    "district_id": 510104,
    "value": "Warnasari",
    "postal_code": "82252"
  }
]