[
  {
    "id": 7102152011,
    "province_id": 71,
    "regency_id": 7102,
    "district_id": 710215,
    "value": "Borgo",
    "postal_code": "95651"
  },
  {
    "id": 7102152001,
    "province_id": 71,
    "regency_id": 7102,
    "district_id": 710215,
    "value": "Kumu",
    "postal_code": "95651"
  },
  {
    "id": 7102152009,
    "province_id": 71,
    "regency_id": 7102,
    "district_id": 710215,
    "value": "Mokupa",
    "postal_code": "95651"
  },
  {
    "id": 7102152007,
    "province_id": 71,
    "regency_id": 7102,
    "district_id": 710215,
    "value": "Pinasungkulan",
    "postal_code": "95651"
  },
  {
    "id": 7102152003,
    "province_id": 71,
    "regency_id": 7102,
    "district_id": 710215,
    "value": "Poopoh",
    "postal_code": "95651"
  },
  {
    "id": 7102152004,
    "province_id": 71,
    "regency_id": 7102,
    "district_id": 710215,
    "value": "Ranowangko",
    "postal_code": "95651"
  },
  {
    "id": 7102152010,
    "province_id": 71,
    "regency_id": 7102,
    "district_id": 710215,
    "value": "Sarani Matani",
    "postal_code": "95651"
  },
  {
    "id": 7102152005,
    "province_id": 71,
    "regency_id": 7102,
    "district_id": 710215,
    "value": "Senduk",
    "postal_code": "95651"
  },
  {
    "id": 7102152012,
    "province_id": 71,
    "regency_id": 7102,
    "district_id": 710215,
    "value": "Tambala",
    "postal_code": "95651"
  },
  {
    "id": 7102152002,
    "province_id": 71,
    "regency_id": 7102,
    "district_id": 710215,
    "value": "Teling",
    "postal_code": "95651"
  }
]