[
  {
    "id": 170313,
    "province_id": 17,
    "regency_id": 1703,
    "district_id": 170313,
    "value": "Air Tenang",
    "postal_code": "38363"
  },
  {
    "id": 170313,
    "province_id": 17,
    "regency_id": 1703,
    "district_id": 170313,
    "value": "Gembung Raya",
    "postal_code": "38363"
  },
  {
    "id": 170313,
    "province_id": 17,
    "regency_id": 1703,
    "district_id": 170313,
    "value": "Jabi (Dusun Jabi)",
    "postal_code": "38363"
  },
  {
    "id": 170313,
    "province_id": 17,
    "regency_id": 1703,
    "district_id": 170313,
    "value": "Kinal Jaya",
    "postal_code": "38363"
  },
  {
    "id": 170313,
    "province_id": 17,
    "regency_id": 1703,
    "district_id": 170313,
    "value": "Lebong Tandai",
    "postal_code": "38363"
  },
  {
    "id": 170313,
    "province_id": 17,
    "regency_id": 1703,
    "district_id": 170313,
    "value": "Muara Santan",
    "postal_code": "38363"
  },
  {
    "id": 170313,
    "province_id": 17,
    "regency_id": 1703,
    "district_id": 170313,
    "value": "Napal Putih",
    "postal_code": "38363"
  },
  {
    "id": 170313,
    "province_id": 17,
    "regency_id": 1703,
    "district_id": 170313,
    "value": "Tanjung Alai",
    "postal_code": "38363"
  },
  {
    "id": 170313,
    "province_id": 17,
    "regency_id": 1703,
    "district_id": 170313,
    "value": "Tanjung Kemayan (Kemenyan)",
    "postal_code": "38363"
  },
  {
    "id": 170313,
    "province_id": 17,
    "regency_id": 1703,
    "district_id": 170313,
    "value": "Teluk Anggung",
    "postal_code": "38363"
  }
]