[
  {
    "id": 9504362001,
    "province_id": 95,
    "regency_id": 9504,
    "district_id": 950436,
    "value": "Anawi",
    "postal_code": "99022"
  },
  {
    "id": 9504362007,
    "province_id": 95,
    "regency_id": 9504,
    "district_id": 950436,
    "value": "Aridunda",
    "postal_code": "99022"
  },
  {
    "id": 9504362004,
    "province_id": 95,
    "regency_id": 9504,
    "district_id": 950436,
    "value": "Bieleme",
    "postal_code": "99022"
  },
  {
    "id": 9504362010,
    "province_id": 95,
    "regency_id": 9504,
    "district_id": 950436,
    "value": "Gineri",
    "postal_code": "99022"
  },
  {
    "id": 9504362009,
    "province_id": 95,
    "regency_id": 9504,
    "district_id": 950436,
    "value": "Imurik",
    "postal_code": "99022"
  },
  {
    "id": 9504362003,
    "province_id": 95,
    "regency_id": 9504,
    "district_id": 950436,
    "value": "Kotori",
    "postal_code": "99022"
  },
  {
    "id": 9504362006,
    "province_id": 95,
    "regency_id": 9504,
    "district_id": 950436,
    "value": "Linggira",
    "postal_code": "99022"
  },
  {
    "id": 9504362008,
    "province_id": 95,
    "regency_id": 9504,
    "district_id": 950436,
    "value": "Loguk",
    "postal_code": "99022"
  },
  {
    "id": 9504362002,
    "province_id": 95,
    "regency_id": 9504,
    "district_id": 950436,
    "value": "Yalipura",
    "postal_code": "99022"
  },
  {
    "id": 9504362005,
    "province_id": 95,
    "regency_id": 9504,
    "district_id": 950436,
    "value": "Yalokobak",
    "postal_code": "99022"
  }
]