[
  {
    "id": 1102142007,
    "province_id": 11,
    "regency_id": 1102,
    "district_id": 110214,
    "value": "Berandang",
    "postal_code": "24670"
  },
  {
    "id": 1102142009,
    "province_id": 11,
    "regency_id": 1102,
    "district_id": 110214,
    "value": "Buah Pala",
    "postal_code": "24670"
  },
  {
    "id": 1102142002,
    "province_id": 11,
    "regency_id": 1102,
    "district_id": 110214,
    "value": "Kisam Gabungan (Kisam)",
    "postal_code": "24670"
  },
  {
    "id": 1102142003,
    "province_id": 11,
    "regency_id": 1102,
    "district_id": 110214,
    "value": "Kisam Kute Pasir",
    "postal_code": "24670"
  },
  {
    "id": 1102142014,
    "province_id": 11,
    "regency_id": 1102,
    "district_id": 110214,
    "value": "Kisam Kute Rambe",
    "postal_code": "24670"
  },
  {
    "id": 1102142013,
    "province_id": 11,
    "regency_id": 1102,
    "district_id": 110214,
    "value": "Kisam Lestari",
    "postal_code": "24670"
  },
  {
    "id": 1102142008,
    "province_id": 11,
    "regency_id": 1102,
    "district_id": 110214,
    "value": "Kute Bunin",
    "postal_code": "24670"
  },
  {
    "id": 1102142006,
    "province_id": 11,
    "regency_id": 1102,
    "district_id": 110214,
    "value": "Kute Lesung",
    "postal_code": "24670"
  },
  {
    "id": 1102142015,
    "province_id": 11,
    "regency_id": 1102,
    "district_id": 110214,
    "value": "Lawe Polak",
    "postal_code": "24670"
  },
  {
    "id": 1102142004,
    "province_id": 11,
    "regency_id": 1102,
    "district_id": 110214,
    "value": "Lawe Sumur",
    "postal_code": "24670"
  },
  {
    "id": 1102142005,
    "province_id": 11,
    "regency_id": 1102,
    "district_id": 110214,
    "value": "Lawe Sumur Baru",
    "postal_code": "24670"
  },
  {
    "id": 1102142016,
    "province_id": 11,
    "regency_id": 1102,
    "district_id": 110214,
    "value": "Lawes Sumur Sepakat (Lawe Sumur Sepakat)",
    "postal_code": "24670"
  },
  {
    "id": 1102142010,
    "province_id": 11,
    "regency_id": 1102,
    "district_id": 110214,
    "value": "Panosan (Penosan)",
    "postal_code": "24670"
  },
  {
    "id": 1102142017,
    "province_id": 11,
    "regency_id": 1102,
    "district_id": 110214,
    "value": "Setia Baru",
    "postal_code": "24670"
  },
  {
    "id": 1102142018,
    "province_id": 11,
    "regency_id": 1102,
    "district_id": 110214,
    "value": "Teger Miko",
    "postal_code": "24670"
  },
  {
    "id": 1102142011,
    "province_id": 11,
    "regency_id": 1102,
    "district_id": 110214,
    "value": "Tengku Mbelin (Lawe Pasaran Tengku Mbelin)",
    "postal_code": "24670"
  },
  {
    "id": 1102142012,
    "province_id": 11,
    "regency_id": 1102,
    "district_id": 110214,
    "value": "Terutung Megahke MBakhu (Terutung Megakhe Bakhu)",
    "postal_code": "24670"
  },
  {
    "id": 1102142001,
    "province_id": 11,
    "regency_id": 1102,
    "district_id": 110214,
    "value": "Terutung Megara Lawe Pasaran",
    "postal_code": "24670"
  }
]