[
  {
    "id": 3517042010,
    "province_id": 35,
    "regency_id": 3517,
    "district_id": 351704,
    "value": "Banjaragung",
    "postal_code": "61474"
  },
  {
    "id": 3517042007,
    "province_id": 35,
    "regency_id": 3517,
    "district_id": 351704,
    "value": "Bareng",
    "postal_code": "61474"
  },
  {
    "id": 3517042006,
    "province_id": 35,
    "regency_id": 3517,
    "district_id": 351704,
    "value": "Jenisgelaran",
    "postal_code": "61474"
  },
  {
    "id": 3517042004,
    "province_id": 35,
    "regency_id": 3517,
    "district_id": 351704,
    "value": "Karangan",
    "postal_code": "61474"
  },
  {
    "id": 3517042001,
    "province_id": 35,
    "regency_id": 3517,
    "district_id": 351704,
    "value": "Kebondalem",
    "postal_code": "61474"
  },
  {
    "id": 3517042009,
    "province_id": 35,
    "regency_id": 3517,
    "district_id": 351704,
    "value": "Mojotengah",
    "postal_code": "61474"
  },
  {
    "id": 3517042002,
    "province_id": 35,
    "regency_id": 3517,
    "district_id": 351704,
    "value": "Mundusewu",
    "postal_code": "61474"
  },
  {
    "id": 3517042005,
    "province_id": 35,
    "regency_id": 3517,
    "district_id": 351704,
    "value": "Ngampungan",
    "postal_code": "61474"
  },
  {
    "id": 3517042011,
    "province_id": 35,
    "regency_id": 3517,
    "district_id": 351704,
    "value": "Nglebak",
    "postal_code": "61474"
  },
  {
    "id": 3517042012,
    "province_id": 35,
    "regency_id": 3517,
    "district_id": 351704,
    "value": "Ngrimbi",
    "postal_code": "61474"
  },
  {
    "id": 3517042003,
    "province_id": 35,
    "regency_id": 3517,
    "district_id": 351704,
    "value": "Pakel",
    "postal_code": "61474"
  },
  {
    "id": 3517042013,
    "province_id": 35,
    "regency_id": 3517,
    "district_id": 351704,
    "value": "Pulosari",
    "postal_code": "61474"
  },
  {
    "id": 3517042008,
    "province_id": 35,
    "regency_id": 3517,
    "district_id": 351704,
    "value": "Tebel",
    "postal_code": "61474"
  }
]