[
  {
    "id": 150608,
    "province_id": 15,
    "regency_id": 1506,
    "district_id": 150608,
    "value": "Bukitbakar (Bukit Bakar)",
    "postal_code": "36559"
  },
  {
    "id": 150608,
    "province_id": 15,
    "regency_id": 1506,
    "district_id": 150608,
    "value": "Cinta Damai",
    "postal_code": "36559"
  },
  {
    "id": 150608,
    "province_id": 15,
    "regency_id": 1506,
    "district_id": 150608,
    "value": "Lampisi",
    "postal_code": "36559"
  },
  {
    "id": 150608,
    "province_id": 15,
    "regency_id": 1506,
    "district_id": 150608,
    "value": "Lubuk Kambing",
    "postal_code": "36559"
  },
  {
    "id": 150608,
    "province_id": 15,
    "regency_id": 1506,
    "district_id": 150608,
    "value": "Muaradanau (Muara Danau)",
    "postal_code": "36559"
  },
  {
    "id": 150608,
    "province_id": 15,
    "regency_id": 1506,
    "district_id": 150608,
    "value": "Pulaupauh (Pulau Pauh)",
    "postal_code": "36559"
  },
  {
    "id": 150608,
    "province_id": 15,
    "regency_id": 1506,
    "district_id": 150608,
    "value": "Rantau Benar",
    "postal_code": "36559"
  },
  {
    "id": 150608,
    "province_id": 15,
    "regency_id": 1506,
    "district_id": 150608,
    "value": "Sungaipaur (Sungai Pau)",
    "postal_code": "36559"
  },
  {
    "id": 150608,
    "province_id": 15,
    "regency_id": 1506,
    "district_id": 150608,
    "value": "Sungairotan (Sei / Sungai Rotan)",
    "postal_code": "36559"
  },
  {
    "id": 150608,
    "province_id": 15,
    "regency_id": 1506,
    "district_id": 150608,
    "value": "Tanahtumbuh (Tanah Tumbuh)",
    "postal_code": "36559"
  }
]