[
  {
    "id": 9201172003,
    "province_id": 92,
    "regency_id": 9201,
    "district_id": 920117,
    "value": "Indiwi",
    "postal_code": "98436"
  },
  {
    "id": 9201172010,
    "province_id": 92,
    "regency_id": 9201,
    "district_id": 920117,
    "value": "Kanolo",
    "postal_code": "98436"
  },
  {
    "id": 9201172004,
    "province_id": 92,
    "regency_id": 9201,
    "district_id": 920117,
    "value": "Klabot",
    "postal_code": "98436"
  },
  {
    "id": 9201172009,
    "province_id": 92,
    "regency_id": 9201,
    "district_id": 920117,
    "value": "Mlasfa",
    "postal_code": "98436"
  },
  {
    "id": 9201172005,
    "province_id": 92,
    "regency_id": 9201,
    "district_id": 920117,
    "value": "Mlat",
    "postal_code": "98436"
  },
  {
    "id": 9201172008,
    "province_id": 92,
    "regency_id": 9201,
    "district_id": 920117,
    "value": "Mlawes",
    "postal_code": "98436"
  },
  {
    "id": 9201172014,
    "province_id": 92,
    "regency_id": 9201,
    "district_id": 920117,
    "value": "Somir",
    "postal_code": "98436"
  },
  {
    "id": 9201172015,
    "province_id": 92,
    "regency_id": 9201,
    "district_id": 920117,
    "value": "Warkti",
    "postal_code": "98436"
  }
]