[
  {
    "id": 950346,
    "province_id": 95,
    "regency_id": 9503,
    "district_id": 950346,
    "value": "Enggelasue",
    "postal_code": "99737"
  },
  {
    "id": 950346,
    "province_id": 95,
    "regency_id": 9503,
    "district_id": 950346,
    "value": "Husmo",
    "postal_code": "99737"
  },
  {
    "id": 950346,
    "province_id": 95,
    "regency_id": 9503,
    "district_id": 950346,
    "value": "Karelma",
    "postal_code": "99737"
  },
  {
    "id": 950346,
    "province_id": 95,
    "regency_id": 9503,
    "district_id": 950346,
    "value": "Kenkeni",
    "postal_code": "99737"
  },
  {
    "id": 950346,
    "province_id": 95,
    "regency_id": 9503,
    "district_id": 950346,
    "value": "Momenggama",
    "postal_code": "99737"
  },
  {
    "id": 950346,
    "province_id": 95,
    "regency_id": 9503,
    "district_id": 950346,
    "value": "Monin",
    "postal_code": "99737"
  },
  {
    "id": 950346,
    "province_id": 95,
    "regency_id": 9503,
    "district_id": 950346,
    "value": "Oakbisik",
    "postal_code": "99737"
  },
  {
    "id": 950346,
    "province_id": 95,
    "regency_id": 9503,
    "district_id": 950346,
    "value": "Silakma",
    "postal_code": "99737"
  },
  {
    "id": 950346,
    "province_id": 95,
    "regency_id": 9503,
    "district_id": 950346,
    "value": "Soamarin (Soamrin)",
    "postal_code": "99737"
  },
  {
    "id": 950346,
    "province_id": 95,
    "regency_id": 9503,
    "district_id": 950346,
    "value": "Usabini",
    "postal_code": "99737"
  }
]