[
  {
    "id": 9503042005,
    "province_id": 95,
    "regency_id": 9503,
    "district_id": 950304,
    "value": "Asia",
    "postal_code": "99712"
  },
  {
    "id": 9503042003,
    "province_id": 95,
    "regency_id": 9503,
    "district_id": 950304,
    "value": "Eksa",
    "postal_code": "99712"
  },
  {
    "id": 9503042011,
    "province_id": 95,
    "regency_id": 9503,
    "district_id": 950304,
    "value": "Eremnahom",
    "postal_code": "99712"
  },
  {
    "id": 9503042015,
    "province_id": 95,
    "regency_id": 9503,
    "district_id": 950304,
    "value": "Fabe",
    "postal_code": "99712"
  },
  {
    "id": 9503042018,
    "province_id": 95,
    "regency_id": 9503,
    "district_id": 950304,
    "value": "Hwesalemo",
    "postal_code": "99712"
  },
  {
    "id": 9503042001,
    "province_id": 95,
    "regency_id": 9503,
    "district_id": 950304,
    "value": "Momnowok (Momnowak)",
    "postal_code": "99712"
  },
  {
    "id": 9503042013,
    "province_id": 95,
    "regency_id": 9503,
    "district_id": 950304,
    "value": "Nekilei",
    "postal_code": "99712"
  },
  {
    "id": 9503042017,
    "province_id": 95,
    "regency_id": 9503,
    "district_id": 950304,
    "value": "Pinda",
    "postal_code": "99712"
  },
  {
    "id": 9503042009,
    "province_id": 95,
    "regency_id": 9503,
    "district_id": 950304,
    "value": "Sagaduk",
    "postal_code": "99712"
  },
  {
    "id": 9503042019,
    "province_id": 95,
    "regency_id": 9503,
    "district_id": 950304,
    "value": "Sebin",
    "postal_code": "99712"
  },
  {
    "id": 9503042010,
    "province_id": 95,
    "regency_id": 9503,
    "district_id": 950304,
    "value": "Sianele",
    "postal_code": "99712"
  },
  {
    "id": 9503042002,
    "province_id": 95,
    "regency_id": 9503,
    "district_id": 950304,
    "value": "Silimo",
    "postal_code": "99712"
  },
  {
    "id": 9503042004,
    "province_id": 95,
    "regency_id": 9503,
    "district_id": 950304,
    "value": "Siloma",
    "postal_code": "99712"
  },
  {
    "id": 9503042012,
    "province_id": 95,
    "regency_id": 9503,
    "district_id": 950304,
    "value": "Silon",
    "postal_code": "99712"
  },
  {
    "id": 9503042008,
    "province_id": 95,
    "regency_id": 9503,
    "district_id": 950304,
    "value": "Sodule",
    "postal_code": "99712"
  },
  {
    "id": 9503042006,
    "province_id": 95,
    "regency_id": 9503,
    "district_id": 950304,
    "value": "Suet",
    "postal_code": "99712"
  },
  {
    "id": 9503042014,
    "province_id": 95,
    "regency_id": 9503,
    "district_id": 950304,
    "value": "Suok",
    "postal_code": "99712"
  },
  {
    "id": 9503042007,
    "province_id": 95,
    "regency_id": 9503,
    "district_id": 950304,
    "value": "Walkruk",
    "postal_code": "99712"
  },
  {
    "id": 9503042016,
    "province_id": 95,
    "regency_id": 9503,
    "district_id": 950304,
    "value": "Weakma",
    "postal_code": "99712"
  },
  {
    "id": 9503042020,
    "province_id": 95,
    "regency_id": 9503,
    "district_id": 950304,
    "value": "Wubialo",
    "postal_code": "99712"
  }
]