[
  {
    "id": 160702,
    "province_id": 16,
    "regency_id": 1607,
    "district_id": 160702,
    "value": "Marga Sungsang",
    "postal_code": "30971"
  },
  {
    "id": 160702,
    "province_id": 16,
    "regency_id": 1607,
    "district_id": 160702,
    "value": "Muara Sungsang",
    "postal_code": "30971"
  },
  {
    "id": 160702,
    "province_id": 16,
    "regency_id": 1607,
    "district_id": 160702,
    "value": "Perajen Jaya",
    "postal_code": "30971"
  },
  {
    "id": 160702,
    "province_id": 16,
    "regency_id": 1607,
    "district_id": 160702,
    "value": "Rimau Sungsang",
    "postal_code": "30971"
  },
  {
    "id": 160702,
    "province_id": 16,
    "regency_id": 1607,
    "district_id": 160702,
    "value": "Sungsang I",
    "postal_code": "30971"
  },
  {
    "id": 160702,
    "province_id": 16,
    "regency_id": 1607,
    "district_id": 160702,
    "value": "Sungsang II",
    "postal_code": "30971"
  },
  {
    "id": 160702,
    "province_id": 16,
    "regency_id": 1607,
    "district_id": 160702,
    "value": "Sungsang III",
    "postal_code": "30971"
  },
  {
    "id": 160702,
    "province_id": 16,
    "regency_id": 1607,
    "district_id": 160702,
    "value": "Sungsang IV",
    "postal_code": "30971"
  },
  {
    "id": 160702,
    "province_id": 16,
    "regency_id": 1607,
    "district_id": 160702,
    "value": "Tanah Pilih",
    "postal_code": "30971"
  },
  {
    "id": 160702,
    "province_id": 16,
    "regency_id": 1607,
    "district_id": 160702,
    "value": "Telukpayo (Teluk Payo)",
    "postal_code": "30971"
  }
]