[
  {
    "id": 921024,
    "province_id": 92,
    "regency_id": 9210,
    "district_id": 921024,
    "value": "Fase",
    "postal_code": "98252"
  },
  {
    "id": 921024,
    "province_id": 92,
    "regency_id": 9210,
    "district_id": 921024,
    "value": "Kuraso",
    "postal_code": "98252"
  },
  {
    "id": 921024,
    "province_id": 92,
    "regency_id": 9210,
    "district_id": 921024,
    "value": "Osom",
    "postal_code": "98252"
  },
  {
    "id": 921024,
    "province_id": 92,
    "regency_id": 9210,
    "district_id": 921024,
    "value": "Renis",
    "postal_code": "98252"
  },
  {
    "id": 921024,
    "province_id": 92,
    "regency_id": 9210,
    "district_id": 921024,
    "value": "Sabes",
    "postal_code": "98252"
  },
  {
    "id": 921024,
    "province_id": 92,
    "regency_id": 9210,
    "district_id": 921024,
    "value": "Seni",
    "postal_code": "98252"
  },
  {
    "id": 921024,
    "province_id": 92,
    "regency_id": 9210,
    "district_id": 921024,
    "value": "Sidi",
    "postal_code": "98252"
  },
  {
    "id": 921024,
    "province_id": 92,
    "regency_id": 9210,
    "district_id": 921024,
    "value": "Sire",
    "postal_code": "98252"
  },
  {
    "id": 921024,
    "province_id": 92,
    "regency_id": 9210,
    "district_id": 921024,
    "value": "Sire Timur",
    "postal_code": "98252"
  }
]