[
  {
    "id": 710707,
    "province_id": 71,
    "regency_id": 7107,
    "district_id": 710707,
    "value": "Banga",
    "postal_code": "95982"
  },
  {
    "id": 710707,
    "province_id": 71,
    "regency_id": 7107,
    "district_id": 710707,
    "value": "Bunag",
    "postal_code": "95982"
  },
  {
    "id": 710707,
    "province_id": 71,
    "regency_id": 7107,
    "district_id": 710707,
    "value": "Kalait",
    "postal_code": "95982"
  },
  {
    "id": 710707,
    "province_id": 71,
    "regency_id": 7107,
    "district_id": 710707,
    "value": "Kalait Dua",
    "postal_code": "95982"
  },
  {
    "id": 710707,
    "province_id": 71,
    "regency_id": 7107,
    "district_id": 710707,
    "value": "Kalait Satu",
    "postal_code": "95982"
  },
  {
    "id": 710707,
    "province_id": 71,
    "regency_id": 7107,
    "district_id": 710707,
    "value": "Kalait Tiga",
    "postal_code": "95982"
  },
  {
    "id": 710707,
    "province_id": 71,
    "regency_id": 7107,
    "district_id": 710707,
    "value": "Lowatag (Lowatak / Lowantag)",
    "postal_code": "95982"
  },
  {
    "id": 710707,
    "province_id": 71,
    "regency_id": 7107,
    "district_id": 710707,
    "value": "Ranoako",
    "postal_code": "95982"
  },
  {
    "id": 710707,
    "province_id": 71,
    "regency_id": 7107,
    "district_id": 710707,
    "value": "Suhuyon",
    "postal_code": "95982"
  },
  {
    "id": 710707,
    "province_id": 71,
    "regency_id": 7107,
    "district_id": 710707,
    "value": "Tambelang",
    "postal_code": "95982"
  }
]