[
  {
    "id": 330616,
    "province_id": 33,
    "regency_id": 3306,
    "district_id": 330616,
    "value": "Bener",
    "postal_code": "54183"
  },
  {
    "id": 330616,
    "province_id": 33,
    "regency_id": 3306,
    "district_id": 330616,
    "value": "Benowo",
    "postal_code": "54183"
  },
  {
    "id": 330616,
    "province_id": 33,
    "regency_id": 3306,
    "district_id": 330616,
    "value": "Bleber",
    "postal_code": "54183"
  },
  {
    "id": 330616,
    "province_id": 33,
    "regency_id": 3306,
    "district_id": 330616,
    "value": "Cacaban Kidul",
    "postal_code": "54183"
  },
  {
    "id": 330616,
    "province_id": 33,
    "regency_id": 3306,
    "district_id": 330616,
    "value": "Cacaban Lor",
    "postal_code": "54183"
  },
  {
    "id": 330616,
    "province_id": 33,
    "regency_id": 3306,
    "district_id": 330616,
    "value": "Guntur",
    "postal_code": "54183"
  },
  {
    "id": 330616,
    "province_id": 33,
    "regency_id": 3306,
    "district_id": 330616,
    "value": "Jati",
    "postal_code": "54183"
  },
  {
    "id": 330616,
    "province_id": 33,
    "regency_id": 3306,
    "district_id": 330616,
    "value": "Kaliboto",
    "postal_code": "54183"
  },
  {
    "id": 330616,
    "province_id": 33,
    "regency_id": 3306,
    "district_id": 330616,
    "value": "Kalijambe",
    "postal_code": "54183"
  },
  {
    "id": 330616,
    "province_id": 33,
    "regency_id": 3306,
    "district_id": 330616,
    "value": "Kalitapas",
    "postal_code": "54183"
  },
  {
    "id": 330616,
    "province_id": 33,
    "regency_id": 3306,
    "district_id": 330616,
    "value": "Kaliurip (Kali Urip)",
    "postal_code": "54183"
  },
  {
    "id": 330616,
    "province_id": 33,
    "regency_id": 3306,
    "district_id": 330616,
    "value": "Kaliwader",
    "postal_code": "54183"
  },
  {
    "id": 330616,
    "province_id": 33,
    "regency_id": 3306,
    "district_id": 330616,
    "value": "Kamijoro",
    "postal_code": "54183"
  },
  {
    "id": 330616,
    "province_id": 33,
    "regency_id": 3306,
    "district_id": 330616,
    "value": "Karangsari (Karang Sari)",
    "postal_code": "54183"
  },
  {
    "id": 330616,
    "province_id": 33,
    "regency_id": 3306,
    "district_id": 330616,
    "value": "Kedungloteng (Kedung Loteng)",
    "postal_code": "54183"
  },
  {
    "id": 330616,
    "province_id": 33,
    "regency_id": 3306,
    "district_id": 330616,
    "value": "Kedungpucang (Kedung Pucang)",
    "postal_code": "54183"
  },
  {
    "id": 330616,
    "province_id": 33,
    "regency_id": 3306,
    "district_id": 330616,
    "value": "Ketosari",
    "postal_code": "54183"
  },
  {
    "id": 330616,
    "province_id": 33,
    "regency_id": 3306,
    "district_id": 330616,
    "value": "Legetan",
    "postal_code": "54183"
  },
  {
    "id": 330616,
    "province_id": 33,
    "regency_id": 3306,
    "district_id": 330616,
    "value": "Limbangan",
    "postal_code": "54183"
  },
  {
    "id": 330616,
    "province_id": 33,
    "regency_id": 3306,
    "district_id": 330616,
    "value": "Mayungsari (Mayung Sari)",
    "postal_code": "54183"
  },
  {
    "id": 330616,
    "province_id": 33,
    "regency_id": 3306,
    "district_id": 330616,
    "value": "Medono",
    "postal_code": "54183"
  },
  {
    "id": 330616,
    "province_id": 33,
    "regency_id": 3306,
    "district_id": 330616,
    "value": "Ngasinan",
    "postal_code": "54183"
  },
  {
    "id": 330616,
    "province_id": 33,
    "regency_id": 3306,
    "district_id": 330616,
    "value": "Nglaris",
    "postal_code": "54183"
  },
  {
    "id": 330616,
    "province_id": 33,
    "regency_id": 3306,
    "district_id": 330616,
    "value": "Pekacangan",
    "postal_code": "54183"
  },
  {
    "id": 330616,
    "province_id": 33,
    "regency_id": 3306,
    "district_id": 330616,
    "value": "Sendangsari",
    "postal_code": "54183"
  },
  {
    "id": 330616,
    "province_id": 33,
    "regency_id": 3306,
    "district_id": 330616,
    "value": "Sidomukti",
    "postal_code": "54183"
  },
  {
    "id": 330616,
    "province_id": 33,
    "regency_id": 3306,
    "district_id": 330616,
    "value": "Sukowuwuh",
    "postal_code": "54183"
  },
  {
    "id": 330616,
    "province_id": 33,
    "regency_id": 3306,
    "district_id": 330616,
    "value": "Wadas",
    "postal_code": "54183"
  }
]