[
  {
    "id": 720119,
    "province_id": 72,
    "regency_id": 7201,
    "district_id": 720119,
    "value": "Batu Mandi",
    "postal_code": "94775"
  },
  {
    "id": 720119,
    "province_id": 72,
    "regency_id": 7201,
    "district_id": 720119,
    "value": "Batu Simpang",
    "postal_code": "94775"
  },
  {
    "id": 720119,
    "province_id": 72,
    "regency_id": 7201,
    "district_id": 720119,
    "value": "Kampangar",
    "postal_code": "94775"
  },
  {
    "id": 720119,
    "province_id": 72,
    "regency_id": 7201,
    "district_id": 720119,
    "value": "Kuntang",
    "postal_code": "94775"
  },
  {
    "id": 720119,
    "province_id": 72,
    "regency_id": 7201,
    "district_id": 720119,
    "value": "Ondoliang",
    "postal_code": "94775"
  },
  {
    "id": 720119,
    "province_id": 72,
    "regency_id": 7201,
    "district_id": 720119,
    "value": "Pangkalaseang",
    "postal_code": "94775"
  },
  {
    "id": 720119,
    "province_id": 72,
    "regency_id": 7201,
    "district_id": 720119,
    "value": "Pangkalaseang Baru",
    "postal_code": "94775"
  },
  {
    "id": 720119,
    "province_id": 72,
    "regency_id": 7201,
    "district_id": 720119,
    "value": "Pulau Dua",
    "postal_code": "94775"
  },
  {
    "id": 720119,
    "province_id": 72,
    "regency_id": 7201,
    "district_id": 720119,
    "value": "Teku",
    "postal_code": "94775"
  },
  {
    "id": 720119,
    "province_id": 72,
    "regency_id": 7201,
    "district_id": 720119,
    "value": "Toweer",
    "postal_code": "94775"
  }
]