[
  {
    "id": 7318312005,
    "province_id": 73,
    "regency_id": 7318,
    "district_id": 731831,
    "value": "Belau",
    "postal_code": "91894"
  },
  {
    "id": 7318312006,
    "province_id": 73,
    "regency_id": 7318,
    "district_id": 731831,
    "value": "Belau Utara",
    "postal_code": "91894"
  },
  {
    "id": 7318312003,
    "province_id": 73,
    "regency_id": 7318,
    "district_id": 731831,
    "value": "Kadundung (Kadungdung)",
    "postal_code": "91894"
  },
  {
    "id": 7318312007,
    "province_id": 73,
    "regency_id": 7318,
    "district_id": 731831,
    "value": "Paku",
    "postal_code": "91894"
  },
  {
    "id": 7318312002,
    "province_id": 73,
    "regency_id": 7318,
    "district_id": 731831,
    "value": "Paliorong",
    "postal_code": "91894"
  },
  {
    "id": 7318312004,
    "province_id": 73,
    "regency_id": 7318,
    "district_id": 731831,
    "value": "Pondingao' (Pondingao)",
    "postal_code": "91894"
  },
  {
    "id": 7318312001,
    "province_id": 73,
    "regency_id": 7318,
    "district_id": 731831,
    "value": "Ratte",
    "postal_code": "91894"
  },
  {
    "id": 7318312008,
    "province_id": 73,
    "regency_id": 7318,
    "district_id": 731831,
    "value": "Sesesalu (Sese Salu / Sese'alu)",
    "postal_code": "91894"
  }
]