[
  {
    "id": 180720,
    "province_id": 18,
    "regency_id": 1807,
    "district_id": 180720,
    "value": "Jembrana",
    "postal_code": "34376"
  },
  {
    "id": 180720,
    "province_id": 18,
    "regency_id": 1807,
    "district_id": 180720,
    "value": "Karang Anom",
    "postal_code": "34376"
  },
  {
    "id": 180720,
    "province_id": 18,
    "regency_id": 1807,
    "district_id": 180720,
    "value": "Karya Basuki",
    "postal_code": "34376"
  },
  {
    "id": 180720,
    "province_id": 18,
    "regency_id": 1807,
    "district_id": 180720,
    "value": "Marga Batin",
    "postal_code": "34376"
  },
  {
    "id": 180720,
    "province_id": 18,
    "regency_id": 1807,
    "district_id": 180720,
    "value": "Mekar Karya",
    "postal_code": "34376"
  },
  {
    "id": 180720,
    "province_id": 18,
    "regency_id": 1807,
    "district_id": 180720,
    "value": "Ngesti Karya",
    "postal_code": "34376"
  },
  {
    "id": 180720,
    "province_id": 18,
    "regency_id": 1807,
    "district_id": 180720,
    "value": "Sidorahayu (Sido Rahayu)",
    "postal_code": "34376"
  },
  {
    "id": 180720,
    "province_id": 18,
    "regency_id": 1807,
    "district_id": 180720,
    "value": "Sumber Jaya",
    "postal_code": "34376"
  },
  {
    "id": 180720,
    "province_id": 18,
    "regency_id": 1807,
    "district_id": 180720,
    "value": "Sumberejo (Sumber Rejo)",
    "postal_code": "34376"
  },
  {
    "id": 180720,
    "province_id": 18,
    "regency_id": 1807,
    "district_id": 180720,
    "value": "Tanjung Wangi",
    "postal_code": "34376"
  },
  {
    "id": 180720,
    "province_id": 18,
    "regency_id": 1807,
    "district_id": 180720,
    "value": "Tri Tunggal",
    "postal_code": "34376"
  }
]