[
  {
    "id": 351309,
    "province_id": 35,
    "regency_id": 3513,
    "district_id": 351309,
    "value": "Batur",
    "postal_code": "67292"
  },
  {
    "id": 351309,
    "province_id": 35,
    "regency_id": 3513,
    "district_id": 351309,
    "value": "Betek Taman (Batektaman / Betektaman)",
    "postal_code": "67292"
  },
  {
    "id": 351309,
    "province_id": 35,
    "regency_id": 3513,
    "district_id": 351309,
    "value": "Bulupadak (Bulupandak)",
    "postal_code": "67292"
  },
  {
    "id": 351309,
    "province_id": 35,
    "regency_id": 3513,
    "district_id": 351309,
    "value": "Condong",
    "postal_code": "67292"
  },
  {
    "id": 351309,
    "province_id": 35,
    "regency_id": 3513,
    "district_id": 351309,
    "value": "Dandang",
    "postal_code": "67292"
  },
  {
    "id": 351309,
    "province_id": 35,
    "regency_id": 3513,
    "district_id": 351309,
    "value": "Duren",
    "postal_code": "67292"
  },
  {
    "id": 351309,
    "province_id": 35,
    "regency_id": 3513,
    "district_id": 351309,
    "value": "Gadingwetan (Gading Wetan)",
    "postal_code": "67292"
  },
  {
    "id": 351309,
    "province_id": 35,
    "regency_id": 3513,
    "district_id": 351309,
    "value": "Jurangjero",
    "postal_code": "67292"
  },
  {
    "id": 351309,
    "province_id": 35,
    "regency_id": 3513,
    "district_id": 351309,
    "value": "Kaliancar (Kaliacar)",
    "postal_code": "67292"
  },
  {
    "id": 351309,
    "province_id": 35,
    "regency_id": 3513,
    "district_id": 351309,
    "value": "Keben",
    "postal_code": "67292"
  },
  {
    "id": 351309,
    "province_id": 35,
    "regency_id": 3513,
    "district_id": 351309,
    "value": "Kertosono",
    "postal_code": "67292"
  },
  {
    "id": 351309,
    "province_id": 35,
    "regency_id": 3513,
    "district_id": 351309,
    "value": "Mojolegi",
    "postal_code": "67292"
  },
  {
    "id": 351309,
    "province_id": 35,
    "regency_id": 3513,
    "district_id": 351309,
    "value": "Nogosaren",
    "postal_code": "67292"
  },
  {
    "id": 351309,
    "province_id": 35,
    "regency_id": 3513,
    "district_id": 351309,
    "value": "Prasi",
    "postal_code": "67292"
  },
  {
    "id": 351309,
    "province_id": 35,
    "regency_id": 3513,
    "district_id": 351309,
    "value": "Ranuwurung",
    "postal_code": "67292"
  },
  {
    "id": 351309,
    "province_id": 35,
    "regency_id": 3513,
    "district_id": 351309,
    "value": "Renteng",
    "postal_code": "67292"
  },
  {
    "id": 351309,
    "province_id": 35,
    "regency_id": 3513,
    "district_id": 351309,
    "value": "Sentul",
    "postal_code": "67292"
  },
  {
    "id": 351309,
    "province_id": 35,
    "regency_id": 3513,
    "district_id": 351309,
    "value": "Sumbersecang",
    "postal_code": "67292"
  },
  {
    "id": 351309,
    "province_id": 35,
    "regency_id": 3513,
    "district_id": 351309,
    "value": "Wangkal",
    "postal_code": "67292"
  }
]