[
  {
    "id": 340212,
    "province_id": 34,
    "regency_id": 3402,
    "district_id": 340212,
    "value": "Banguntapan",
    "postal_code": "55198"
  },
  {
    "id": 340212,
    "province_id": 34,
    "regency_id": 3402,
    "district_id": 340212,
    "value": "Baturetno",
    "postal_code": "55197"
  },
  {
    "id": 340212,
    "province_id": 34,
    "regency_id": 3402,
    "district_id": 340212,
    "value": "Jagalan",
    "postal_code": "55192"
  },
  {
    "id": 340212,
    "province_id": 34,
    "regency_id": 3402,
    "district_id": 340212,
    "value": "Jambidan",
    "postal_code": "55195"
  },
  {
    "id": 340212,
    "province_id": 34,
    "regency_id": 3402,
    "district_id": 340212,
    "value": "Potorono",
    "postal_code": "55196"
  },
  {
    "id": 340212,
    "province_id": 34,
    "regency_id": 3402,
    "district_id": 340212,
    "value": "Singosaren",
    "postal_code": "55193"
  },
  {
    "id": 340212,
    "province_id": 34,
    "regency_id": 3402,
    "district_id": 340212,
    "value": "Tamanan",
    "postal_code": "55191"
  },
  {
    "id": 340212,
    "province_id": 34,
    "regency_id": 3402,
    "district_id": 340212,
    "value": "Wirokerten",
    "postal_code": "55194"
  }
]