[
  {
    "id": 3202262002,
    "province_id": 32,
    "regency_id": 3202,
    "district_id": 320226,
    "value": "Cikangkung",
    "postal_code": "43176"
  },
  {
    "id": 3202262001,
    "province_id": 32,
    "regency_id": 3202,
    "district_id": 320226,
    "value": "Ciracap",
    "postal_code": "43176"
  },
  {
    "id": 3202262003,
    "province_id": 32,
    "regency_id": 3202,
    "district_id": 320226,
    "value": "Gunungbatu",
    "postal_code": "43176"
  },
  {
    "id": 3202262006,
    "province_id": 32,
    "regency_id": 3202,
    "district_id": 320226,
    "value": "Mekarsari",
    "postal_code": "43176"
  },
  {
    "id": 3202262008,
    "province_id": 32,
    "regency_id": 3202,
    "district_id": 320226,
    "value": "Pangumbahan",
    "postal_code": "43176"
  },
  {
    "id": 3202262005,
    "province_id": 32,
    "regency_id": 3202,
    "district_id": 320226,
    "value": "Pasirpanjang",
    "postal_code": "43176"
  },
  {
    "id": 3202262004,
    "province_id": 32,
    "regency_id": 3202,
    "district_id": 320226,
    "value": "Purwasedar",
    "postal_code": "43176"
  },
  {
    "id": 3202262007,
    "province_id": 32,
    "regency_id": 3202,
    "district_id": 320226,
    "value": "Ujung Genteng (Ujunggenteng)",
    "postal_code": "43176"
  }
]