[
  {
    "id": 650303,
    "province_id": 65,
    "regency_id": 6503,
    "district_id": 650303,
    "value": "Atap",
    "postal_code": "77453"
  },
  {
    "id": 650303,
    "province_id": 65,
    "regency_id": 6503,
    "district_id": 650303,
    "value": "Butas Bagu",
    "postal_code": "77453"
  },
  {
    "id": 650303,
    "province_id": 65,
    "regency_id": 6503,
    "district_id": 650303,
    "value": "Labuk",
    "postal_code": "77453"
  },
  {
    "id": 650303,
    "province_id": 65,
    "regency_id": 6503,
    "district_id": 650303,
    "value": "Lubakan",
    "postal_code": "77453"
  },
  {
    "id": 650303,
    "province_id": 65,
    "regency_id": 6503,
    "district_id": 650303,
    "value": "Manuk Bungkul",
    "postal_code": "77453"
  },
  {
    "id": 650303,
    "province_id": 65,
    "regency_id": 6503,
    "district_id": 650303,
    "value": "Pagar",
    "postal_code": "77453"
  },
  {
    "id": 650303,
    "province_id": 65,
    "regency_id": 6503,
    "district_id": 650303,
    "value": "Pelaju",
    "postal_code": "77453"
  },
  {
    "id": 650303,
    "province_id": 65,
    "regency_id": 6503,
    "district_id": 650303,
    "value": "Tagul",
    "postal_code": "77453"
  },
  {
    "id": 650303,
    "province_id": 65,
    "regency_id": 6503,
    "district_id": 650303,
    "value": "Tepian",
    "postal_code": "77453"
  },
  {
    "id": 650303,
    "province_id": 65,
    "regency_id": 6503,
    "district_id": 650303,
    "value": "Tujung",
    "postal_code": "77453"
  }
]