[
  {
    "id": 121314,
    "province_id": 12,
    "regency_id": 1213,
    "district_id": 121314,
    "value": "Aek Garingging (Aek Garinggin)",
    "postal_code": "22982"
  },
  {
    "id": 121314,
    "province_id": 12,
    "regency_id": 1213,
    "district_id": 121314,
    "value": "Aek Manyuruk",
    "postal_code": "22982"
  },
  {
    "id": 121314,
    "province_id": 12,
    "regency_id": 1213,
    "district_id": 121314,
    "value": "Bandar Limabung",
    "postal_code": "22982"
  },
  {
    "id": 121314,
    "province_id": 12,
    "regency_id": 1213,
    "district_id": 121314,
    "value": "Bonca Bayuon",
    "postal_code": "22982"
  },
  {
    "id": 121314,
    "province_id": 12,
    "regency_id": 1213,
    "district_id": 121314,
    "value": "Dalan Lidang",
    "postal_code": "22982"
  },
  {
    "id": 121314,
    "province_id": 12,
    "regency_id": 1213,
    "district_id": 121314,
    "value": "Kampung Baru",
    "postal_code": "22982"
  },
  {
    "id": 121314,
    "province_id": 12,
    "regency_id": 1213,
    "district_id": 121314,
    "value": "Lancat",
    "postal_code": "22982"
  },
  {
    "id": 121314,
    "province_id": 12,
    "regency_id": 1213,
    "district_id": 121314,
    "value": "Lobung",
    "postal_code": "22982"
  },
  {
    "id": 121314,
    "province_id": 12,
    "regency_id": 1213,
    "district_id": 121314,
    "value": "Pangkalan",
    "postal_code": "22982"
  },
  {
    "id": 121314,
    "province_id": 12,
    "regency_id": 1213,
    "district_id": 121314,
    "value": "Perbatasan",
    "postal_code": "22982"
  },
  {
    "id": 121314,
    "province_id": 12,
    "regency_id": 1213,
    "district_id": 121314,
    "value": "Perk. Simpang (Perk. Simpang Gambir)",
    "postal_code": "22982"
  },
  {
    "id": 121314,
    "province_id": 12,
    "regency_id": 1213,
    "district_id": 121314,
    "value": "Sikumbu",
    "postal_code": "22982"
  },
  {
    "id": 121314,
    "province_id": 12,
    "regency_id": 1213,
    "district_id": 121314,
    "value": "Simpang Bajole",
    "postal_code": "22982"
  },
  {
    "id": 121314,
    "province_id": 12,
    "regency_id": 1213,
    "district_id": 121314,
    "value": "Simpang Duku",
    "postal_code": "22982"
  },
  {
    "id": 121314,
    "province_id": 12,
    "regency_id": 1213,
    "district_id": 121314,
    "value": "Simpang Durian",
    "postal_code": "22982"
  },
  {
    "id": 121314,
    "province_id": 12,
    "regency_id": 1213,
    "district_id": 121314,
    "value": "Simpang Gambir",
    "postal_code": "22982"
  },
  {
    "id": 121314,
    "province_id": 12,
    "regency_id": 1213,
    "district_id": 121314,
    "value": "Simpang Koje",
    "postal_code": "22982"
  },
  {
    "id": 121314,
    "province_id": 12,
    "regency_id": 1213,
    "district_id": 121314,
    "value": "Tangsi Atas",
    "postal_code": "22982"
  },
  {
    "id": 121314,
    "province_id": 12,
    "regency_id": 1213,
    "district_id": 121314,
    "value": "Tapus",
    "postal_code": "22982"
  }
]