[
  {
    "id": 332816,
    "province_id": 33,
    "regency_id": 3328,
    "district_id": 332816,
    "value": "Bojongsana",
    "postal_code": "52182"
  },
  {
    "id": 332816,
    "province_id": 33,
    "regency_id": 3328,
    "district_id": 332816,
    "value": "Gembongdadi",
    "postal_code": "52182"
  },
  {
    "id": 332816,
    "province_id": 33,
    "regency_id": 3328,
    "district_id": 332816,
    "value": "Harjasari",
    "postal_code": "52182"
  },
  {
    "id": 332816,
    "province_id": 33,
    "regency_id": 3328,
    "district_id": 332816,
    "value": "Jatibogor",
    "postal_code": "52182"
  },
  {
    "id": 332816,
    "province_id": 33,
    "regency_id": 3328,
    "district_id": 332816,
    "value": "Jatimulya",
    "postal_code": "52182"
  },
  {
    "id": 332816,
    "province_id": 33,
    "regency_id": 3328,
    "district_id": 332816,
    "value": "Karangmulya",
    "postal_code": "52182"
  },
  {
    "id": 332816,
    "province_id": 33,
    "regency_id": 3328,
    "district_id": 332816,
    "value": "Karangwuluh",
    "postal_code": "52182"
  },
  {
    "id": 332816,
    "province_id": 33,
    "regency_id": 3328,
    "district_id": 332816,
    "value": "Kertasari",
    "postal_code": "52182"
  },
  {
    "id": 332816,
    "province_id": 33,
    "regency_id": 3328,
    "district_id": 332816,
    "value": "Purwahamba",
    "postal_code": "52182"
  },
  {
    "id": 332816,
    "province_id": 33,
    "regency_id": 3328,
    "district_id": 332816,
    "value": "Sidaharja (Sidoharjo)",
    "postal_code": "52182"
  },
  {
    "id": 332816,
    "province_id": 33,
    "regency_id": 3328,
    "district_id": 332816,
    "value": "Suradadi",
    "postal_code": "52182"
  }
]