[
  {
    "id": 160429,
    "province_id": 16,
    "regency_id": 1604,
    "district_id": 160429,
    "value": "Gunung Liwat",
    "postal_code": "31350"
  },
  {
    "id": 160429,
    "province_id": 16,
    "regency_id": 1604,
    "district_id": 160429,
    "value": "Guru Agung",
    "postal_code": "31350"
  },
  {
    "id": 160429,
    "province_id": 16,
    "regency_id": 1604,
    "district_id": 160429,
    "value": "Kapitan",
    "postal_code": "31350"
  },
  {
    "id": 160429,
    "province_id": 16,
    "regency_id": 1604,
    "district_id": 160429,
    "value": "Karang Caya",
    "postal_code": "31350"
  },
  {
    "id": 160429,
    "province_id": 16,
    "regency_id": 1604,
    "district_id": 160429,
    "value": "Pagar Kaya",
    "postal_code": "31350"
  },
  {
    "id": 160429,
    "province_id": 16,
    "regency_id": 1604,
    "district_id": 160429,
    "value": "Rambai Kaca",
    "postal_code": "31350"
  },
  {
    "id": 160429,
    "province_id": 16,
    "regency_id": 1604,
    "district_id": 160429,
    "value": "Sukamerindu",
    "postal_code": "31350"
  },
  {
    "id": 160429,
    "province_id": 16,
    "regency_id": 1604,
    "district_id": 160429,
    "value": "Sukaraja",
    "postal_code": "31350"
  },
  {
    "id": 160429,
    "province_id": 16,
    "regency_id": 1604,
    "district_id": 160429,
    "value": "Tanjung Agung",
    "postal_code": "31350"
  },
  {
    "id": 160429,
    "province_id": 16,
    "regency_id": 1604,
    "district_id": 160429,
    "value": "Tanjung Raya",
    "postal_code": "31350"
  }
]