[
  {
    "id": 950446,
    "province_id": 95,
    "regency_id": 9504,
    "district_id": 950446,
    "value": "Ambirik",
    "postal_code": "99064"
  },
  {
    "id": 950446,
    "province_id": 95,
    "regency_id": 9504,
    "district_id": 950446,
    "value": "Giko",
    "postal_code": "99064"
  },
  {
    "id": 950446,
    "province_id": 95,
    "regency_id": 9504,
    "district_id": 950446,
    "value": "Gwak Dugunik",
    "postal_code": "99064"
  },
  {
    "id": 950446,
    "province_id": 95,
    "regency_id": 9504,
    "district_id": 950446,
    "value": "Karu",
    "postal_code": "99064"
  },
  {
    "id": 950446,
    "province_id": 95,
    "regency_id": 9504,
    "district_id": 950446,
    "value": "Kotorambur",
    "postal_code": "99064"
  },
  {
    "id": 950446,
    "province_id": 95,
    "regency_id": 9504,
    "district_id": 950446,
    "value": "Kungge",
    "postal_code": "99064"
  },
  {
    "id": 950446,
    "province_id": 95,
    "regency_id": 9504,
    "district_id": 950446,
    "value": "Minegimen",
    "postal_code": "99064"
  },
  {
    "id": 950446,
    "province_id": 95,
    "regency_id": 9504,
    "district_id": 950446,
    "value": "Miyanagame",
    "postal_code": "99064"
  },
  {
    "id": 950446,
    "province_id": 95,
    "regency_id": 9504,
    "district_id": 950446,
    "value": "Pekaleme",
    "postal_code": "99064"
  },
  {
    "id": 950446,
    "province_id": 95,
    "regency_id": 9504,
    "district_id": 950446,
    "value": "Tabuh",
    "postal_code": "99064"
  },
  {
    "id": 950446,
    "province_id": 95,
    "regency_id": 9504,
    "district_id": 950446,
    "value": "Teleme",
    "postal_code": "99064"
  }
]