[
  {
    "id": 940211,
    "province_id": 94,
    "regency_id": 9402,
    "district_id": 940211,
    "value": "Anggutari",
    "postal_code": "98913"
  },
  {
    "id": 940211,
    "province_id": 94,
    "regency_id": 9402,
    "district_id": 940211,
    "value": "Dondo",
    "postal_code": "98913"
  },
  {
    "id": 940211,
    "province_id": 94,
    "regency_id": 9402,
    "district_id": 940211,
    "value": "Jiginikime",
    "postal_code": "98913"
  },
  {
    "id": 940211,
    "province_id": 94,
    "regency_id": 9402,
    "district_id": 940211,
    "value": "Niruwi",
    "postal_code": "98913"
  },
  {
    "id": 940211,
    "province_id": 94,
    "regency_id": 9402,
    "district_id": 940211,
    "value": "Puncak Senyum",
    "postal_code": "98913"
  },
  {
    "id": 940211,
    "province_id": 94,
    "regency_id": 9402,
    "district_id": 940211,
    "value": "Tanoba",
    "postal_code": "98913"
  },
  {
    "id": 940211,
    "province_id": 94,
    "regency_id": 9402,
    "district_id": 940211,
    "value": "Wondenggobak",
    "postal_code": "98913"
  },
  {
    "id": 940211,
    "province_id": 94,
    "regency_id": 9402,
    "district_id": 940211,
    "value": "Wunagelo",
    "postal_code": "98913"
  },
  {
    "id": 940211,
    "province_id": 94,
    "regency_id": 9402,
    "district_id": 940211,
    "value": "Yalikambi",
    "postal_code": "98913"
  }
]