[
  {
    "id": 190303,
    "province_id": 19,
    "regency_id": 1903,
    "district_id": 190303,
    "value": "Airbara (Air Bara)",
    "postal_code": "33782"
  },
  {
    "id": 190303,
    "province_id": 19,
    "regency_id": 1903,
    "district_id": 190303,
    "value": "Airgegas (Air Gegas)",
    "postal_code": "33782"
  },
  {
    "id": 190303,
    "province_id": 19,
    "regency_id": 1903,
    "district_id": 190303,
    "value": "Bencah",
    "postal_code": "33782"
  },
  {
    "id": 190303,
    "province_id": 19,
    "regency_id": 1903,
    "district_id": 190303,
    "value": "Delas",
    "postal_code": "33782"
  },
  {
    "id": 190303,
    "province_id": 19,
    "regency_id": 1903,
    "district_id": 190303,
    "value": "Nangka",
    "postal_code": "33782"
  },
  {
    "id": 190303,
    "province_id": 19,
    "regency_id": 1903,
    "district_id": 190303,
    "value": "Nyelanding",
    "postal_code": "33782"
  },
  {
    "id": 190303,
    "province_id": 19,
    "regency_id": 1903,
    "district_id": 190303,
    "value": "Pergam",
    "postal_code": "33782"
  },
  {
    "id": 190303,
    "province_id": 19,
    "regency_id": 1903,
    "district_id": 190303,
    "value": "Ranggas",
    "postal_code": "33782"
  },
  {
    "id": 190303,
    "province_id": 19,
    "regency_id": 1903,
    "district_id": 190303,
    "value": "Sidoharjo",
    "postal_code": "33782"
  },
  {
    "id": 190303,
    "province_id": 19,
    "regency_id": 1903,
    "district_id": 190303,
    "value": "Tepus",
    "postal_code": "33782"
  }
]