[
  {
    "id": 750509,
    "province_id": 75,
    "regency_id": 7505,
    "district_id": 750509,
    "value": "Dunu",
    "postal_code": "96526"
  },
  {
    "id": 750509,
    "province_id": 75,
    "regency_id": 7505,
    "district_id": 750509,
    "value": "Garapia",
    "postal_code": "96526"
  },
  {
    "id": 750509,
    "province_id": 75,
    "regency_id": 7505,
    "district_id": 750509,
    "value": "Mokonowu",
    "postal_code": "96526"
  },
  {
    "id": 750509,
    "province_id": 75,
    "regency_id": 7505,
    "district_id": 750509,
    "value": "Monano",
    "postal_code": "96526"
  },
  {
    "id": 750509,
    "province_id": 75,
    "regency_id": 7505,
    "district_id": 750509,
    "value": "Monas",
    "postal_code": "96526"
  },
  {
    "id": 750509,
    "province_id": 75,
    "regency_id": 7505,
    "district_id": 750509,
    "value": "Pilohulata",
    "postal_code": "96526"
  },
  {
    "id": 750509,
    "province_id": 75,
    "regency_id": 7505,
    "district_id": 750509,
    "value": "Sogu",
    "postal_code": "96526"
  },
  {
    "id": 750509,
    "province_id": 75,
    "regency_id": 7505,
    "district_id": 750509,
    "value": "Tolitehuyu",
    "postal_code": "96526"
  },
  {
    "id": 750509,
    "province_id": 75,
    "regency_id": 7505,
    "district_id": 750509,
    "value": "Tudi",
    "postal_code": "96526"
  },
  {
    "id": 750509,
    "province_id": 75,
    "regency_id": 7505,
    "district_id": 750509,
    "value": "Zuriyati",
    "postal_code": "96526"
  }
]