[
  {
    "id": 621309,
    "province_id": 62,
    "regency_id": 6213,
    "district_id": 621309,
    "value": "Bantai Napu",
    "postal_code": "73654"
  },
  {
    "id": 621309,
    "province_id": 62,
    "regency_id": 6213,
    "district_id": 621309,
    "value": "Gandrung",
    "postal_code": "73654"
  },
  {
    "id": 621309,
    "province_id": 62,
    "regency_id": 6213,
    "district_id": 621309,
    "value": "Kalamus",
    "postal_code": "73654"
  },
  {
    "id": 621309,
    "province_id": 62,
    "regency_id": 6213,
    "district_id": 621309,
    "value": "Kupang Baru",
    "postal_code": "73654"
  },
  {
    "id": 621309,
    "province_id": 62,
    "regency_id": 6213,
    "district_id": 621309,
    "value": "Luau Jawuk",
    "postal_code": "73654"
  },
  {
    "id": 621309,
    "province_id": 62,
    "regency_id": 6213,
    "district_id": 621309,
    "value": "Paku Beto",
    "postal_code": "73654"
  },
  {
    "id": 621309,
    "province_id": 62,
    "regency_id": 6213,
    "district_id": 621309,
    "value": "Pangkan",
    "postal_code": "73654"
  },
  {
    "id": 621309,
    "province_id": 62,
    "regency_id": 6213,
    "district_id": 621309,
    "value": "Patung",
    "postal_code": "73654"
  },
  {
    "id": 621309,
    "province_id": 62,
    "regency_id": 6213,
    "district_id": 621309,
    "value": "Runggu Raya",
    "postal_code": "73654"
  },
  {
    "id": 621309,
    "province_id": 62,
    "regency_id": 6213,
    "district_id": 621309,
    "value": "Simpang Bingkuang",
    "postal_code": "73654"
  },
  {
    "id": 621309,
    "province_id": 62,
    "regency_id": 6213,
    "district_id": 621309,
    "value": "Tampa",
    "postal_code": "73654"
  },
  {
    "id": 621309,
    "province_id": 62,
    "regency_id": 6213,
    "district_id": 621309,
    "value": "Tarinsing (Taringsing)",
    "postal_code": "73654"
  }
]