[
  {
    "id": 140805,
    "province_id": 14,
    "regency_id": 1408,
    "district_id": 140805,
    "value": "Bencah Umbai",
    "postal_code": "28674"
  },
  {
    "id": 140805,
    "province_id": 14,
    "regency_id": 1408,
    "district_id": 140805,
    "value": "Lubuk Jering",
    "postal_code": "28674"
  },
  {
    "id": 140805,
    "province_id": 14,
    "regency_id": 1408,
    "district_id": 140805,
    "value": "Lubuk Umbut",
    "postal_code": "28674"
  },
  {
    "id": 140805,
    "province_id": 14,
    "regency_id": 1408,
    "district_id": 140805,
    "value": "Muara Bungkal",
    "postal_code": "28674"
  },
  {
    "id": 140805,
    "province_id": 14,
    "regency_id": 1408,
    "district_id": 140805,
    "value": "Muara Kelantan",
    "postal_code": "28674"
  },
  {
    "id": 140805,
    "province_id": 14,
    "regency_id": 1408,
    "district_id": 140805,
    "value": "Olak",
    "postal_code": "28674"
  },
  {
    "id": 140805,
    "province_id": 14,
    "regency_id": 1408,
    "district_id": 140805,
    "value": "Sungai Selodang (Sungai Lodang)",
    "postal_code": "28674"
  },
  {
    "id": 140805,
    "province_id": 14,
    "regency_id": 1408,
    "district_id": 140805,
    "value": "Tasik Betung",
    "postal_code": "28674"
  },
  {
    "id": 140805,
    "province_id": 14,
    "regency_id": 1408,
    "district_id": 140805,
    "value": "Teluk Lancang",
    "postal_code": "28674"
  }
]