[
  {
    "id": 9115132018,
    "province_id": 91,
    "regency_id": 9115,
    "district_id": 911513,
    "value": "Aiwa",
    "postal_code": "98672"
  },
  {
    "id": 9115132003,
    "province_id": 91,
    "regency_id": 9115,
    "district_id": 911513,
    "value": "Aniboi",
    "postal_code": "98672"
  },
  {
    "id": 9115132019,
    "province_id": 91,
    "regency_id": 9115,
    "district_id": 911513,
    "value": "Biati",
    "postal_code": "98672"
  },
  {
    "id": 9115132008,
    "province_id": 91,
    "regency_id": 9115,
    "district_id": 911513,
    "value": "Demba",
    "postal_code": "98672"
  },
  {
    "id": 9115132009,
    "province_id": 91,
    "regency_id": 9115,
    "district_id": 911513,
    "value": "Fafai",
    "postal_code": "98672"
  },
  {
    "id": 9115132002,
    "province_id": 91,
    "regency_id": 9115,
    "district_id": 911513,
    "value": "Mayaghaido",
    "postal_code": "98672"
  },
  {
    "id": 9115132020,
    "province_id": 91,
    "regency_id": 9115,
    "district_id": 911513,
    "value": "Ronarai",
    "postal_code": "98672"
  },
  {
    "id": 9115132007,
    "province_id": 91,
    "regency_id": 9115,
    "district_id": 911513,
    "value": "Tetui",
    "postal_code": "98672"
  },
  {
    "id": 9115132001,
    "province_id": 91,
    "regency_id": 9115,
    "district_id": 911513,
    "value": "Urato",
    "postal_code": "98672"
  },
  {
    "id": 9115132017,
    "province_id": 91,
    "regency_id": 9115,
    "district_id": 911513,
    "value": "Wudokuri",
    "postal_code": "98672"
  }
]