[
  {
    "id": 1405051001,
    "province_id": 14,
    "regency_id": 1405,
    "district_id": 140505,
    "value": "Langgam",
    "postal_code": "28380"
  },
  {
    "id": 1405052007,
    "province_id": 14,
    "regency_id": 1405,
    "district_id": 140505,
    "value": "Langkan",
    "postal_code": "28380"
  },
  {
    "id": 1405052008,
    "province_id": 14,
    "regency_id": 1405,
    "district_id": 140505,
    "value": "Padang Luas",
    "postal_code": "28380"
  },
  {
    "id": 1405052006,
    "province_id": 14,
    "regency_id": 1405,
    "district_id": 140505,
    "value": "Pangkalan Gondai",
    "postal_code": "28380"
  },
  {
    "id": 1405052003,
    "province_id": 14,
    "regency_id": 1405,
    "district_id": 140505,
    "value": "Penarikan",
    "postal_code": "28380"
  },
  {
    "id": 1405052004,
    "province_id": 14,
    "regency_id": 1405,
    "district_id": 140505,
    "value": "Segati",
    "postal_code": "28380"
  },
  {
    "id": 1405052005,
    "province_id": 14,
    "regency_id": 1405,
    "district_id": 140505,
    "value": "Sotol",
    "postal_code": "28380"
  },
  {
    "id": 1405052002,
    "province_id": 14,
    "regency_id": 1405,
    "district_id": 140505,
    "value": "Tambak",
    "postal_code": "28380"
  }
]