[
  {
    "id": 351308,
    "province_id": 35,
    "regency_id": 3513,
    "district_id": 351308,
    "value": "Bermi (Bremi)",
    "postal_code": "67288"
  },
  {
    "id": 351308,
    "province_id": 35,
    "regency_id": 3513,
    "district_id": 351308,
    "value": "Betek",
    "postal_code": "67288"
  },
  {
    "id": 351308,
    "province_id": 35,
    "regency_id": 3513,
    "district_id": 351308,
    "value": "Guyangan",
    "postal_code": "67288"
  },
  {
    "id": 351308,
    "province_id": 35,
    "regency_id": 3513,
    "district_id": 351308,
    "value": "Kalianan",
    "postal_code": "67288"
  },
  {
    "id": 351308,
    "province_id": 35,
    "regency_id": 3513,
    "district_id": 351308,
    "value": "Kertosuko",
    "postal_code": "67288"
  },
  {
    "id": 351308,
    "province_id": 35,
    "regency_id": 3513,
    "district_id": 351308,
    "value": "Krobongan (Krobungan)",
    "postal_code": "67288"
  },
  {
    "id": 351308,
    "province_id": 35,
    "regency_id": 3513,
    "district_id": 351308,
    "value": "Krucil",
    "postal_code": "67288"
  },
  {
    "id": 351308,
    "province_id": 35,
    "regency_id": 3513,
    "district_id": 351308,
    "value": "Pandanaras (Pandanlaras)",
    "postal_code": "67288"
  },
  {
    "id": 351308,
    "province_id": 35,
    "regency_id": 3513,
    "district_id": 351308,
    "value": "Plaosan",
    "postal_code": "67288"
  },
  {
    "id": 351308,
    "province_id": 35,
    "regency_id": 3513,
    "district_id": 351308,
    "value": "Roto",
    "postal_code": "67288"
  },
  {
    "id": 351308,
    "province_id": 35,
    "regency_id": 3513,
    "district_id": 351308,
    "value": "Seneng",
    "postal_code": "67288"
  },
  {
    "id": 351308,
    "province_id": 35,
    "regency_id": 3513,
    "district_id": 351308,
    "value": "Sumberduren (Sumber Duren)",
    "postal_code": "67288"
  },
  {
    "id": 351308,
    "province_id": 35,
    "regency_id": 3513,
    "district_id": 351308,
    "value": "Tambelang",
    "postal_code": "67288"
  },
  {
    "id": 351308,
    "province_id": 35,
    "regency_id": 3513,
    "district_id": 351308,
    "value": "Watupanjang",
    "postal_code": "67288"
  }
]