[
  {
    "id": 930406,
    "province_id": 93,
    "regency_id": 9304,
    "district_id": 930406,
    "value": "Bawor",
    "postal_code": "99773"
  },
  {
    "id": 930406,
    "province_id": 93,
    "regency_id": 9304,
    "district_id": 930406,
    "value": "Hainam",
    "postal_code": "99773"
  },
  {
    "id": 930406,
    "province_id": 93,
    "regency_id": 9304,
    "district_id": 930406,
    "value": "Kamur",
    "postal_code": "99773"
  },
  {
    "id": 930406,
    "province_id": 93,
    "regency_id": 9304,
    "district_id": 930406,
    "value": "Sanapai",
    "postal_code": "99773"
  },
  {
    "id": 930406,
    "province_id": 93,
    "regency_id": 9304,
    "district_id": 930406,
    "value": "Sanep",
    "postal_code": "99773"
  },
  {
    "id": 930406,
    "province_id": 93,
    "regency_id": 9304,
    "district_id": 930406,
    "value": "Saramit",
    "postal_code": "99773"
  },
  {
    "id": 930406,
    "province_id": 93,
    "regency_id": 9304,
    "district_id": 930406,
    "value": "Sarmafo",
    "postal_code": "99773"
  },
  {
    "id": 930406,
    "province_id": 93,
    "regency_id": 9304,
    "district_id": 930406,
    "value": "Yagamit",
    "postal_code": "99773"
  },
  {
    "id": 930406,
    "province_id": 93,
    "regency_id": 9304,
    "district_id": 930406,
    "value": "Yahoi",
    "postal_code": "99773"
  }
]