[
  {
    "id": 3323202008,
    "province_id": 33,
    "regency_id": 3323,
    "district_id": 332320,
    "value": "Banaran",
    "postal_code": "56283"
  },
  {
    "id": 3323202001,
    "province_id": 33,
    "regency_id": 3323,
    "district_id": 332320,
    "value": "Gemawang",
    "postal_code": "56283"
  },
  {
    "id": 3323202010,
    "province_id": 33,
    "regency_id": 3323,
    "district_id": 332320,
    "value": "Jambon",
    "postal_code": "56283"
  },
  {
    "id": 3323202009,
    "province_id": 33,
    "regency_id": 3323,
    "district_id": 332320,
    "value": "Kalibanger",
    "postal_code": "56283"
  },
  {
    "id": 3323202007,
    "province_id": 33,
    "regency_id": 3323,
    "district_id": 332320,
    "value": "Karangseneng",
    "postal_code": "56283"
  },
  {
    "id": 3323202003,
    "province_id": 33,
    "regency_id": 3323,
    "district_id": 332320,
    "value": "Kemiriombo",
    "postal_code": "56283"
  },
  {
    "id": 3323202005,
    "province_id": 33,
    "regency_id": 3323,
    "district_id": 332320,
    "value": "Krempong",
    "postal_code": "56283"
  },
  {
    "id": 3323202002,
    "province_id": 33,
    "regency_id": 3323,
    "district_id": 332320,
    "value": "Muncar",
    "postal_code": "56283"
  },
  {
    "id": 3323202004,
    "province_id": 33,
    "regency_id": 3323,
    "district_id": 332320,
    "value": "Ngadisepi",
    "postal_code": "56283"
  },
  {
    "id": 3323202006,
    "province_id": 33,
    "regency_id": 3323,
    "district_id": 332320,
    "value": "Sucen",
    "postal_code": "56283"
  }
]