[
  {
    "id": 940405,
    "province_id": 94,
    "regency_id": 9404,
    "district_id": 940405,
    "value": "Bulumen",
    "postal_code": "99965"
  },
  {
    "id": 940405,
    "province_id": 94,
    "regency_id": 9404,
    "district_id": 940405,
    "value": "Jaitak",
    "postal_code": "99965"
  },
  {
    "id": 940405,
    "province_id": 94,
    "regency_id": 9404,
    "district_id": 940405,
    "value": "Kanmapiri",
    "postal_code": "99965"
  },
  {
    "id": 940405,
    "province_id": 94,
    "regency_id": 9404,
    "district_id": 940405,
    "value": "Noema",
    "postal_code": "99965"
  },
  {
    "id": 940405,
    "province_id": 94,
    "regency_id": 9404,
    "district_id": 940405,
    "value": "Sempan Timur",
    "postal_code": "99965"
  },
  {
    "id": 940405,
    "province_id": 94,
    "regency_id": 9404,
    "district_id": 940405,
    "value": "Sumapro",
    "postal_code": "99965"
  },
  {
    "id": 940405,
    "province_id": 94,
    "regency_id": 9404,
    "district_id": 940405,
    "value": "Wacakam",
    "postal_code": "99965"
  },
  {
    "id": 940405,
    "province_id": 94,
    "regency_id": 9404,
    "district_id": 940405,
    "value": "Waituku",
    "postal_code": "99965"
  },
  {
    "id": 940405,
    "province_id": 94,
    "regency_id": 9404,
    "district_id": 940405,
    "value": "Wapu",
    "postal_code": "99965"
  },
  {
    "id": 940405,
    "province_id": 94,
    "regency_id": 9404,
    "district_id": 940405,
    "value": "Wenin",
    "postal_code": "99965"
  }
]