[
  {
    "id": 320819,
    "province_id": 32,
    "regency_id": 3208,
    "district_id": 320819,
    "value": "Cibuntu",
    "postal_code": "45559"
  },
  {
    "id": 320819,
    "province_id": 32,
    "regency_id": 3208,
    "district_id": 320819,
    "value": "Cidahu",
    "postal_code": "45559"
  },
  {
    "id": 320819,
    "province_id": 32,
    "regency_id": 3208,
    "district_id": 320819,
    "value": "Cimara",
    "postal_code": "45559"
  },
  {
    "id": 320819,
    "province_id": 32,
    "regency_id": 3208,
    "district_id": 320819,
    "value": "Ciwiru",
    "postal_code": "45559"
  },
  {
    "id": 320819,
    "province_id": 32,
    "regency_id": 3208,
    "district_id": 320819,
    "value": "Kaduela",
    "postal_code": "45559"
  },
  {
    "id": 320819,
    "province_id": 32,
    "regency_id": 3208,
    "district_id": 320819,
    "value": "Padabeunghar",
    "postal_code": "45559"
  },
  {
    "id": 320819,
    "province_id": 32,
    "regency_id": 3208,
    "district_id": 320819,
    "value": "Padamatang",
    "postal_code": "45559"
  },
  {
    "id": 320819,
    "province_id": 32,
    "regency_id": 3208,
    "district_id": 320819,
    "value": "Paniis",
    "postal_code": "45559"
  },
  {
    "id": 320819,
    "province_id": 32,
    "regency_id": 3208,
    "district_id": 320819,
    "value": "Pasawahan",
    "postal_code": "45559"
  },
  {
    "id": 320819,
    "province_id": 32,
    "regency_id": 3208,
    "district_id": 320819,
    "value": "Singkup",
    "postal_code": "45559"
  }
]