[
  {
    "id": 7207072009,
    "province_id": 72,
    "regency_id": 7207,
    "district_id": 720707,
    "value": "Batangono",
    "postal_code": "94881"
  },
  {
    "id": 7207072012,
    "province_id": 72,
    "regency_id": 7207,
    "district_id": 720707,
    "value": "Labasiano",
    "postal_code": "94881"
  },
  {
    "id": 7207072010,
    "province_id": 72,
    "regency_id": 7207,
    "district_id": 720707,
    "value": "Lalengan",
    "postal_code": "94881"
  },
  {
    "id": 7207072015,
    "province_id": 72,
    "regency_id": 7207,
    "district_id": 720707,
    "value": "Leme-Leme Bungin",
    "postal_code": "94881"
  },
  {
    "id": 7207072016,
    "province_id": 72,
    "regency_id": 7207,
    "district_id": 720707,
    "value": "Leme-Leme Darat",
    "postal_code": "94881"
  },
  {
    "id": 7207072014,
    "province_id": 72,
    "regency_id": 7207,
    "district_id": 720707,
    "value": "Malanggong",
    "postal_code": "94881"
  },
  {
    "id": 7207072018,
    "province_id": 72,
    "regency_id": 7207,
    "district_id": 720707,
    "value": "Okulo Potil",
    "postal_code": "94881"
  },
  {
    "id": 7207072020,
    "province_id": 72,
    "regency_id": 7207,
    "district_id": 720707,
    "value": "Olusi",
    "postal_code": "94881"
  },
  {
    "id": 7207072008,
    "province_id": 72,
    "regency_id": 7207,
    "district_id": 720707,
    "value": "Paisubatu",
    "postal_code": "94881"
  },
  {
    "id": 7207072011,
    "province_id": 72,
    "regency_id": 7207,
    "district_id": 720707,
    "value": "Peling Lalomo",
    "postal_code": "94881"
  },
  {
    "id": 7207072017,
    "province_id": 72,
    "regency_id": 7207,
    "district_id": 720707,
    "value": "Talas-talas",
    "postal_code": "94881"
  },
  {
    "id": 7207072013,
    "province_id": 72,
    "regency_id": 7207,
    "district_id": 720707,
    "value": "Tataba",
    "postal_code": "94881"
  },
  {
    "id": 7207072019,
    "province_id": 72,
    "regency_id": 7207,
    "district_id": 720707,
    "value": "Tatendeng",
    "postal_code": "94881"
  }
]