[
  {
    "id": 330216,
    "province_id": 33,
    "regency_id": 3302,
    "district_id": 330216,
    "value": "Banjaranyar",
    "postal_code": "53164"
  },
  {
    "id": 330216,
    "province_id": 33,
    "regency_id": 3302,
    "district_id": 330216,
    "value": "Candinegara",
    "postal_code": "53164"
  },
  {
    "id": 330216,
    "province_id": 33,
    "regency_id": 3302,
    "district_id": 330216,
    "value": "Cibangkong",
    "postal_code": "53164"
  },
  {
    "id": 330216,
    "province_id": 33,
    "regency_id": 3302,
    "district_id": 330216,
    "value": "Cikawung",
    "postal_code": "53164"
  },
  {
    "id": 330216,
    "province_id": 33,
    "regency_id": 3302,
    "district_id": 330216,
    "value": "Cikembulan",
    "postal_code": "53164"
  },
  {
    "id": 330216,
    "province_id": 33,
    "regency_id": 3302,
    "district_id": 330216,
    "value": "Glempang",
    "postal_code": "53164"
  },
  {
    "id": 330216,
    "province_id": 33,
    "regency_id": 3302,
    "district_id": 330216,
    "value": "Karangkemiri",
    "postal_code": "53164"
  },
  {
    "id": 330216,
    "province_id": 33,
    "regency_id": 3302,
    "district_id": 330216,
    "value": "Karangklesem",
    "postal_code": "53164"
  },
  {
    "id": 330216,
    "province_id": 33,
    "regency_id": 3302,
    "district_id": 330216,
    "value": "Krajan",
    "postal_code": "53164"
  },
  {
    "id": 330216,
    "province_id": 33,
    "regency_id": 3302,
    "district_id": 330216,
    "value": "Kranggan",
    "postal_code": "53164"
  },
  {
    "id": 330216,
    "province_id": 33,
    "regency_id": 3302,
    "district_id": 330216,
    "value": "Pasiraman Kidul",
    "postal_code": "53164"
  },
  {
    "id": 330216,
    "province_id": 33,
    "regency_id": 3302,
    "district_id": 330216,
    "value": "Pasiraman Lor",
    "postal_code": "53164"
  },
  {
    "id": 330216,
    "province_id": 33,
    "regency_id": 3302,
    "district_id": 330216,
    "value": "Pekuncen",
    "postal_code": "53164"
  },
  {
    "id": 330216,
    "province_id": 33,
    "regency_id": 3302,
    "district_id": 330216,
    "value": "Petahunan",
    "postal_code": "53164"
  },
  {
    "id": 330216,
    "province_id": 33,
    "regency_id": 3302,
    "district_id": 330216,
    "value": "Semedo",
    "postal_code": "53164"
  },
  {
    "id": 330216,
    "province_id": 33,
    "regency_id": 3302,
    "district_id": 330216,
    "value": "Tumiyang",
    "postal_code": "53164"
  }
]