[
  {
    "id": 130212,
    "province_id": 13,
    "regency_id": 1302,
    "district_id": 130212,
    "value": "Bukit Kanduang",
    "postal_code": "27355"
  },
  {
    "id": 130212,
    "province_id": 13,
    "regency_id": 1302,
    "district_id": 130212,
    "value": "Katialo",
    "postal_code": "27355"
  },
  {
    "id": 130212,
    "province_id": 13,
    "regency_id": 1302,
    "district_id": 130212,
    "value": "Kuncir",
    "postal_code": "27355"
  },
  {
    "id": 130212,
    "province_id": 13,
    "regency_id": 1302,
    "district_id": 130212,
    "value": "Labuh Panjang",
    "postal_code": "27355"
  },
  {
    "id": 130212,
    "province_id": 13,
    "regency_id": 1302,
    "district_id": 130212,
    "value": "Paninjauan",
    "postal_code": "27355"
  },
  {
    "id": 130212,
    "province_id": 13,
    "regency_id": 1302,
    "district_id": 130212,
    "value": "Pasilihan",
    "postal_code": "27355"
  },
  {
    "id": 130212,
    "province_id": 13,
    "regency_id": 1302,
    "district_id": 130212,
    "value": "Sibarambang",
    "postal_code": "27355"
  },
  {
    "id": 130212,
    "province_id": 13,
    "regency_id": 1302,
    "district_id": 130212,
    "value": "Sulit Air",
    "postal_code": "27355"
  },
  {
    "id": 130212,
    "province_id": 13,
    "regency_id": 1302,
    "district_id": 130212,
    "value": "Tanjung Balik",
    "postal_code": "27355"
  }
]