[
  {
    "id": 7412042009,
    "province_id": 74,
    "regency_id": 7412,
    "district_id": 741204,
    "value": "Butuea",
    "postal_code": "93396"
  },
  {
    "id": 7412042006,
    "province_id": 74,
    "regency_id": 7412,
    "district_id": 741204,
    "value": "Lapulu",
    "postal_code": "93396"
  },
  {
    "id": 7412042007,
    "province_id": 74,
    "regency_id": 7412,
    "district_id": 741204,
    "value": "Laywo Jaya (Laywo)",
    "postal_code": "93396"
  },
  {
    "id": 7412042002,
    "province_id": 74,
    "regency_id": 7412,
    "district_id": 741204,
    "value": "Lebo",
    "postal_code": "93396"
  },
  {
    "id": 7412042010,
    "province_id": 74,
    "regency_id": 7412,
    "district_id": 741204,
    "value": "Lembono",
    "postal_code": "93396"
  },
  {
    "id": 7412041001,
    "province_id": 74,
    "regency_id": 7412,
    "district_id": 741204,
    "value": "Munse",
    "postal_code": "93396"
  },
  {
    "id": 7412042005,
    "province_id": 74,
    "regency_id": 7412,
    "district_id": 741204,
    "value": "Munse Indah",
    "postal_code": "93396"
  },
  {
    "id": 7412042008,
    "province_id": 74,
    "regency_id": 7412,
    "district_id": 741204,
    "value": "Nanga",
    "postal_code": "93396"
  },
  {
    "id": 7412042011,
    "province_id": 74,
    "regency_id": 7412,
    "district_id": 741204,
    "value": "Saburano",
    "postal_code": "93396"
  },
  {
    "id": 7412042003,
    "province_id": 74,
    "regency_id": 7412,
    "district_id": 741204,
    "value": "Tekonea",
    "postal_code": "93396"
  },
  {
    "id": 7412042004,
    "province_id": 74,
    "regency_id": 7412,
    "district_id": 741204,
    "value": "Wakadawu",
    "postal_code": "93396"
  }
]