[
  {
    "id": 731706,
    "province_id": 73,
    "regency_id": 7317,
    "district_id": 731706,
    "value": "Barammamase (Bara Mamase)",
    "postal_code": "91950"
  },
  {
    "id": 731706,
    "province_id": 73,
    "regency_id": 7317,
    "district_id": 731706,
    "value": "Batusitanduk",
    "postal_code": "91950"
  },
  {
    "id": 731706,
    "province_id": 73,
    "regency_id": 7317,
    "district_id": 731706,
    "value": "Bulo",
    "postal_code": "91950"
  },
  {
    "id": 731706,
    "province_id": 73,
    "regency_id": 7317,
    "district_id": 731706,
    "value": "Harapan",
    "postal_code": "91950"
  },
  {
    "id": 731706,
    "province_id": 73,
    "regency_id": 7317,
    "district_id": 731706,
    "value": "Kalibamamase",
    "postal_code": "91950"
  },
  {
    "id": 731706,
    "province_id": 73,
    "regency_id": 7317,
    "district_id": 731706,
    "value": "Lalong",
    "postal_code": "91950"
  },
  {
    "id": 731706,
    "province_id": 73,
    "regency_id": 7317,
    "district_id": 731706,
    "value": "Saragi",
    "postal_code": "91950"
  },
  {
    "id": 731706,
    "province_id": 73,
    "regency_id": 7317,
    "district_id": 731706,
    "value": "Tombang",
    "postal_code": "91950"
  },
  {
    "id": 731706,
    "province_id": 73,
    "regency_id": 7317,
    "district_id": 731706,
    "value": "Walenrang",
    "postal_code": "91950"
  }
]