[
  {
    "id": 940506,
    "province_id": 94,
    "regency_id": 9405,
    "district_id": 940506,
    "value": "Gigobak",
    "postal_code": "98977"
  },
  {
    "id": 940506,
    "province_id": 94,
    "regency_id": 9405,
    "district_id": 940506,
    "value": "Gigobak II",
    "postal_code": "98977"
  },
  {
    "id": 940506,
    "province_id": 94,
    "regency_id": 9405,
    "district_id": 940506,
    "value": "Gingga Baru",
    "postal_code": "98977"
  },
  {
    "id": 940506,
    "province_id": 94,
    "regency_id": 9405,
    "district_id": 940506,
    "value": "Gulabut",
    "postal_code": "98977"
  },
  {
    "id": 940506,
    "province_id": 94,
    "regency_id": 9405,
    "district_id": 940506,
    "value": "Kalibuk",
    "postal_code": "98977"
  },
  {
    "id": 940506,
    "province_id": 94,
    "regency_id": 9405,
    "district_id": 940506,
    "value": "Kelemame",
    "postal_code": "98977"
  },
  {
    "id": 940506,
    "province_id": 94,
    "regency_id": 9405,
    "district_id": 940506,
    "value": "Kolaribanak",
    "postal_code": "98977"
  },
  {
    "id": 940506,
    "province_id": 94,
    "regency_id": 9405,
    "district_id": 940506,
    "value": "Mogulu",
    "postal_code": "98977"
  },
  {
    "id": 940506,
    "province_id": 94,
    "regency_id": 9405,
    "district_id": 940506,
    "value": "Pasir Putih",
    "postal_code": "98977"
  },
  {
    "id": 940506,
    "province_id": 94,
    "regency_id": 9405,
    "district_id": 940506,
    "value": "Tenonggame",
    "postal_code": "98977"
  },
  {
    "id": 940506,
    "province_id": 94,
    "regency_id": 9405,
    "district_id": 940506,
    "value": "Yauria",
    "postal_code": "98977"
  }
]