[
  {
    "id": 120435,
    "province_id": 12,
    "regency_id": 1204,
    "district_id": 120435,
    "value": "Baruzo",
    "postal_code": "22871"
  },
  {
    "id": 120435,
    "province_id": 12,
    "regency_id": 1204,
    "district_id": 120435,
    "value": "Hilibadalu",
    "postal_code": "22871"
  },
  {
    "id": 120435,
    "province_id": 12,
    "regency_id": 1204,
    "district_id": 120435,
    "value": "Hilimbana",
    "postal_code": "22871"
  },
  {
    "id": 120435,
    "province_id": 12,
    "regency_id": 1204,
    "district_id": 120435,
    "value": "La'uri (Lauri)",
    "postal_code": "22871"
  },
  {
    "id": 120435,
    "province_id": 12,
    "regency_id": 1204,
    "district_id": 120435,
    "value": "Saitagaramba (Saetagaramba)",
    "postal_code": "22871"
  },
  {
    "id": 120435,
    "province_id": 12,
    "regency_id": 1204,
    "district_id": 120435,
    "value": "Sihare'o Sogae'adu (Sihareo Sogaeadu)",
    "postal_code": "22871"
  },
  {
    "id": 120435,
    "province_id": 12,
    "regency_id": 1204,
    "district_id": 120435,
    "value": "Sisarahili Sogae'adu (Sisarahili Sogeadu)",
    "postal_code": "22871"
  },
  {
    "id": 120435,
    "province_id": 12,
    "regency_id": 1204,
    "district_id": 120435,
    "value": "Sogae'adu (Sogaeadu)",
    "postal_code": "22871"
  },
  {
    "id": 120435,
    "province_id": 12,
    "regency_id": 1204,
    "district_id": 120435,
    "value": "Tuhembuasi",
    "postal_code": "22871"
  },
  {
    "id": 120435,
    "province_id": 12,
    "regency_id": 1204,
    "district_id": 120435,
    "value": "Tulumbaho",
    "postal_code": "22871"
  },
  {
    "id": 120435,
    "province_id": 12,
    "regency_id": 1204,
    "district_id": 120435,
    "value": "We'a-we'a (Wea-Wea)",
    "postal_code": "22871"
  }
]