[
  {
    "id": 717301,
    "province_id": 71,
    "regency_id": 7173,
    "district_id": 717301,
    "value": "Kampung Jawa",
    "postal_code": "95433"
  },
  {
    "id": 717301,
    "province_id": 71,
    "regency_id": 7173,
    "district_id": 717301,
    "value": "Lahendong",
    "postal_code": "95435"
  },
  {
    "id": 717301,
    "province_id": 71,
    "regency_id": 7173,
    "district_id": 717301,
    "value": "Lansot",
    "postal_code": "95431"
  },
  {
    "id": 717301,
    "province_id": 71,
    "regency_id": 7173,
    "district_id": 717301,
    "value": "Pangolombian",
    "postal_code": "95437"
  },
  {
    "id": 717301,
    "province_id": 71,
    "regency_id": 7173,
    "district_id": 717301,
    "value": "Pinaras",
    "postal_code": "95434"
  },
  {
    "id": 717301,
    "province_id": 71,
    "regency_id": 7173,
    "district_id": 717301,
    "value": "Tondangow",
    "postal_code": "95436"
  },
  {
    "id": 717301,
    "province_id": 71,
    "regency_id": 7173,
    "district_id": 717301,
    "value": "Tumatangtang",
    "postal_code": "95432"
  },
  {
    "id": 717301,
    "province_id": 71,
    "regency_id": 7173,
    "district_id": 717301,
    "value": "Tumatangtang Satu",
    "postal_code": "95439"
  },
  {
    "id": 717301,
    "province_id": 71,
    "regency_id": 7173,
    "district_id": 717301,
    "value": "Uluindano",
    "postal_code": "95438"
  },
  {
    "id": 717301,
    "province_id": 71,
    "regency_id": 7173,
    "district_id": 717301,
    "value": "Walian",
    "postal_code": "95439"
  },
  {
    "id": 717301,
    "province_id": 71,
    "regency_id": 7173,
    "district_id": 717301,
    "value": "Walian Dua",
    "postal_code": "95439"
  },
  {
    "id": 717301,
    "province_id": 71,
    "regency_id": 7173,
    "district_id": 717301,
    "value": "Walian Satu",
    "postal_code": "95439"
  }
]