[
  {
    "id": 6102012013,
    "province_id": 61,
    "regency_id": 6102,
    "district_id": 610201,
    "value": "Kuala Secapah",
    "postal_code": "78914"
  },
  {
    "id": 6102012015,
    "province_id": 61,
    "regency_id": 6102,
    "district_id": 610201,
    "value": "Malikian",
    "postal_code": "78919"
  },
  {
    "id": 6102012003,
    "province_id": 61,
    "regency_id": 6102,
    "district_id": 610201,
    "value": "Pasir",
    "postal_code": "78919"
  },
  {
    "id": 6102012002,
    "province_id": 61,
    "regency_id": 6102,
    "district_id": 610201,
    "value": "Penibung (Penibungan)",
    "postal_code": "78919"
  },
  {
    "id": 6102012001,
    "province_id": 61,
    "regency_id": 6102,
    "district_id": 610201,
    "value": "Sengkubang",
    "postal_code": "78919"
  },
  {
    "id": 6102011006,
    "province_id": 61,
    "regency_id": 6102,
    "district_id": 610201,
    "value": "Tanjung",
    "postal_code": "78913"
  },
  {
    "id": 6102011007,
    "province_id": 61,
    "regency_id": 6102,
    "district_id": 610201,
    "value": "Tengah",
    "postal_code": "78911"
  },
  {
    "id": 6102011009,
    "province_id": 61,
    "regency_id": 6102,
    "district_id": 610201,
    "value": "Terusan",
    "postal_code": "78912"
  }
]