[
  {
    "id": 320940,
    "province_id": 32,
    "regency_id": 3209,
    "district_id": 320940,
    "value": "Bakung Kidul",
    "postal_code": "45156"
  },
  {
    "id": 320940,
    "province_id": 32,
    "regency_id": 3209,
    "district_id": 320940,
    "value": "Bakung Lor",
    "postal_code": "45156"
  },
  {
    "id": 320940,
    "province_id": 32,
    "regency_id": 3209,
    "district_id": 320940,
    "value": "Bojong Lor",
    "postal_code": "45156"
  },
  {
    "id": 320940,
    "province_id": 32,
    "regency_id": 3209,
    "district_id": 320940,
    "value": "Bojong Wetan",
    "postal_code": "45156"
  },
  {
    "id": 320940,
    "province_id": 32,
    "regency_id": 3209,
    "district_id": 320940,
    "value": "Jamblang",
    "postal_code": "45156"
  },
  {
    "id": 320940,
    "province_id": 32,
    "regency_id": 3209,
    "district_id": 320940,
    "value": "Orimalang",
    "postal_code": "45156"
  },
  {
    "id": 320940,
    "province_id": 32,
    "regency_id": 3209,
    "district_id": 320940,
    "value": "Sitiwinangun",
    "postal_code": "45156"
  },
  {
    "id": 320940,
    "province_id": 32,
    "regency_id": 3209,
    "district_id": 320940,
    "value": "Wangunharja",
    "postal_code": "45156"
  }
]