[
  {
    "id": 630222,
    "province_id": 63,
    "regency_id": 6302,
    "district_id": 630222,
    "value": "Baharu Selatan",
    "postal_code": "72115"
  },
  {
    "id": 630222,
    "province_id": 63,
    "regency_id": 6302,
    "district_id": 630222,
    "value": "Baharu Utara",
    "postal_code": "72112"
  },
  {
    "id": 630222,
    "province_id": 63,
    "regency_id": 6302,
    "district_id": 630222,
    "value": "Batuah",
    "postal_code": "72112"
  },
  {
    "id": 630222,
    "province_id": 63,
    "regency_id": 6302,
    "district_id": 630222,
    "value": "Gedambaan",
    "postal_code": "72114"
  },
  {
    "id": 630222,
    "province_id": 63,
    "regency_id": 6302,
    "district_id": 630222,
    "value": "Hilir Muara",
    "postal_code": "72111"
  },
  {
    "id": 630222,
    "province_id": 63,
    "regency_id": 6302,
    "district_id": 630222,
    "value": "Kotabaru Hilir",
    "postal_code": "72111"
  },
  {
    "id": 630222,
    "province_id": 63,
    "regency_id": 6302,
    "district_id": 630222,
    "value": "Kotabaru Tengah",
    "postal_code": "72113"
  },
  {
    "id": 630222,
    "province_id": 63,
    "regency_id": 6302,
    "district_id": 630222,
    "value": "Sarang Tiung",
    "postal_code": "72114"
  },
  {
    "id": 630222,
    "province_id": 63,
    "regency_id": 6302,
    "district_id": 630222,
    "value": "Sebatung",
    "postal_code": "72113"
  },
  {
    "id": 630222,
    "province_id": 63,
    "regency_id": 6302,
    "district_id": 630222,
    "value": "Sigam",
    "postal_code": "72112"
  },
  {
    "id": 630222,
    "province_id": 63,
    "regency_id": 6302,
    "district_id": 630222,
    "value": "Tirawan",
    "postal_code": "72112"
  }
]