[
  {
    "id": 360130,
    "province_id": 36,
    "regency_id": 3601,
    "district_id": 360130,
    "value": "Kadubelang",
    "postal_code": "42279"
  },
  {
    "id": 360130,
    "province_id": 36,
    "regency_id": 3601,
    "district_id": 360130,
    "value": "Kadujangkung",
    "postal_code": "42279"
  },
  {
    "id": 360130,
    "province_id": 36,
    "regency_id": 3601,
    "district_id": 360130,
    "value": "Medong",
    "postal_code": "42279"
  },
  {
    "id": 360130,
    "province_id": 36,
    "regency_id": 3601,
    "district_id": 360130,
    "value": "Mekarjaya",
    "postal_code": "42279"
  },
  {
    "id": 360130,
    "province_id": 36,
    "regency_id": 3601,
    "district_id": 360130,
    "value": "Pareang",
    "postal_code": "42279"
  },
  {
    "id": 360130,
    "province_id": 36,
    "regency_id": 3601,
    "district_id": 360130,
    "value": "Rancabugel",
    "postal_code": "42279"
  },
  {
    "id": 360130,
    "province_id": 36,
    "regency_id": 3601,
    "district_id": 360130,
    "value": "Sukamulya",
    "postal_code": "42279"
  },
  {
    "id": 360130,
    "province_id": 36,
    "regency_id": 3601,
    "district_id": 360130,
    "value": "Warasinga (Wirasinga)",
    "postal_code": "42279"
  }
]