[
  {
    "id": 140808,
    "province_id": 14,
    "regency_id": 1408,
    "district_id": 140808,
    "value": "Buatan/Buantan Lestari",
    "postal_code": "28764"
  },
  {
    "id": 140808,
    "province_id": 14,
    "regency_id": 1408,
    "district_id": 140808,
    "value": "Bunga Raya",
    "postal_code": "28764"
  },
  {
    "id": 140808,
    "province_id": 14,
    "regency_id": 1408,
    "district_id": 140808,
    "value": "Dayang Suri (Dayangsuri)",
    "postal_code": "28764"
  },
  {
    "id": 140808,
    "province_id": 14,
    "regency_id": 1408,
    "district_id": 140808,
    "value": "Jati Baru",
    "postal_code": "28764"
  },
  {
    "id": 140808,
    "province_id": 14,
    "regency_id": 1408,
    "district_id": 140808,
    "value": "Jayapura (Jaya Pura)",
    "postal_code": "28764"
  },
  {
    "id": 140808,
    "province_id": 14,
    "regency_id": 1408,
    "district_id": 140808,
    "value": "Kemuning Muda",
    "postal_code": "28764"
  },
  {
    "id": 140808,
    "province_id": 14,
    "regency_id": 1408,
    "district_id": 140808,
    "value": "Langsat Permai",
    "postal_code": "28764"
  },
  {
    "id": 140808,
    "province_id": 14,
    "regency_id": 1408,
    "district_id": 140808,
    "value": "Suak Merambai",
    "postal_code": "28764"
  },
  {
    "id": 140808,
    "province_id": 14,
    "regency_id": 1408,
    "district_id": 140808,
    "value": "Temusai",
    "postal_code": "28764"
  },
  {
    "id": 140808,
    "province_id": 14,
    "regency_id": 1408,
    "district_id": 140808,
    "value": "Tuah Indrapura",
    "postal_code": "28764"
  }
]