[
  {
    "id": 351005,
    "province_id": 35,
    "regency_id": 3510,
    "district_id": 351005,
    "value": "Blambangan",
    "postal_code": "68472"
  },
  {
    "id": 351005,
    "province_id": 35,
    "regency_id": 3510,
    "district_id": 351005,
    "value": "Kedungrejo",
    "postal_code": "68472"
  },
  {
    "id": 351005,
    "province_id": 35,
    "regency_id": 3510,
    "district_id": 351005,
    "value": "Kedungringin",
    "postal_code": "68472"
  },
  {
    "id": 351005,
    "province_id": 35,
    "regency_id": 3510,
    "district_id": 351005,
    "value": "Kumendung",
    "postal_code": "68472"
  },
  {
    "id": 351005,
    "province_id": 35,
    "regency_id": 3510,
    "district_id": 351005,
    "value": "Sumberberas",
    "postal_code": "68472"
  },
  {
    "id": 351005,
    "province_id": 35,
    "regency_id": 3510,
    "district_id": 351005,
    "value": "Sumbersewu",
    "postal_code": "68472"
  },
  {
    "id": 351005,
    "province_id": 35,
    "regency_id": 3510,
    "district_id": 351005,
    "value": "Tambakrejo",
    "postal_code": "68472"
  },
  {
    "id": 351005,
    "province_id": 35,
    "regency_id": 3510,
    "district_id": 351005,
    "value": "Tapanrejo",
    "postal_code": "68472"
  },
  {
    "id": 351005,
    "province_id": 35,
    "regency_id": 3510,
    "district_id": 351005,
    "value": "Tembokrejo",
    "postal_code": "68472"
  },
  {
    "id": 351005,
    "province_id": 35,
    "regency_id": 3510,
    "district_id": 351005,
    "value": "Wringinputih (Wringin Putih)",
    "postal_code": "68472"
  }
]