[
  {
    "id": 1813102020,
    "province_id": 18,
    "regency_id": 1813,
    "district_id": 181310,
    "value": "Bandar Jaya",
    "postal_code": "34888"
  },
  {
    "id": 1813102003,
    "province_id": 18,
    "regency_id": 1813,
    "district_id": 181310,
    "value": "Kota Batu",
    "postal_code": "34888"
  },
  {
    "id": 1813102004,
    "province_id": 18,
    "regency_id": 1813,
    "district_id": 181310,
    "value": "Mulang Maya",
    "postal_code": "34888"
  },
  {
    "id": 1813102001,
    "province_id": 18,
    "regency_id": 1813,
    "district_id": 181310,
    "value": "Negeri Ratu Ngaras",
    "postal_code": "34888"
  },
  {
    "id": 1813102017,
    "province_id": 18,
    "regency_id": 1813,
    "district_id": 181310,
    "value": "Padang Alam",
    "postal_code": "34888"
  },
  {
    "id": 1813102006,
    "province_id": 18,
    "regency_id": 1813,
    "district_id": 181310,
    "value": "Pardasuka",
    "postal_code": "34888"
  },
  {
    "id": 1813102005,
    "province_id": 18,
    "regency_id": 1813,
    "district_id": 181310,
    "value": "Rajabasa",
    "postal_code": "34888"
  },
  {
    "id": 1813102018,
    "province_id": 18,
    "regency_id": 1813,
    "district_id": 181310,
    "value": "Suka Maju",
    "postal_code": "34888"
  },
  {
    "id": 1813102019,
    "province_id": 18,
    "regency_id": 1813,
    "district_id": 181310,
    "value": "Sukarame",
    "postal_code": "34888"
  }
]