[
  {
    "id": 6106212004,
    "province_id": 61,
    "regency_id": 6106,
    "district_id": 610621,
    "value": "Buak Limbang",
    "postal_code": "78759"
  },
  {
    "id": 6106212007,
    "province_id": 61,
    "regency_id": 6106,
    "district_id": 610621,
    "value": "Hulu Pengkadan",
    "postal_code": "78759"
  },
  {
    "id": 6106212001,
    "province_id": 61,
    "regency_id": 6106,
    "district_id": 610621,
    "value": "Kerangan Panjang",
    "postal_code": "78759"
  },
  {
    "id": 6106212003,
    "province_id": 61,
    "regency_id": 6106,
    "district_id": 610621,
    "value": "Marta Dana (Martadana)",
    "postal_code": "78759"
  },
  {
    "id": 6106212002,
    "province_id": 61,
    "regency_id": 6106,
    "district_id": 610621,
    "value": "Mawan",
    "postal_code": "78759"
  },
  {
    "id": 6106212010,
    "province_id": 61,
    "regency_id": 6106,
    "district_id": 610621,
    "value": "Pengkadan Hilir",
    "postal_code": "78759"
  },
  {
    "id": 6106212006,
    "province_id": 61,
    "regency_id": 6106,
    "district_id": 610621,
    "value": "Permata (Permata Perda)",
    "postal_code": "78759"
  },
  {
    "id": 6106212008,
    "province_id": 61,
    "regency_id": 6106,
    "district_id": 610621,
    "value": "Pinang Laka",
    "postal_code": "78759"
  },
  {
    "id": 6106212005,
    "province_id": 61,
    "regency_id": 6106,
    "district_id": 610621,
    "value": "Riam Panjang",
    "postal_code": "78759"
  },
  {
    "id": 6106212009,
    "province_id": 61,
    "regency_id": 6106,
    "district_id": 610621,
    "value": "Sasan",
    "postal_code": "78759"
  },
  {
    "id": 6106212011,
    "province_id": 61,
    "regency_id": 6106,
    "district_id": 610621,
    "value": "Sira Jaya",
    "postal_code": "78759"
  }
]