[
  {
    "id": 351715,
    "province_id": 35,
    "regency_id": 3517,
    "district_id": 351715,
    "value": "Bangsri",
    "postal_code": "61456"
  },
  {
    "id": 351715,
    "province_id": 35,
    "regency_id": 3517,
    "district_id": 351715,
    "value": "Darurejo",
    "postal_code": "61456"
  },
  {
    "id": 351715,
    "province_id": 35,
    "regency_id": 3517,
    "district_id": 351715,
    "value": "Gebangbunder (Gebang Bunder)",
    "postal_code": "61456"
  },
  {
    "id": 351715,
    "province_id": 35,
    "regency_id": 3517,
    "district_id": 351715,
    "value": "Jatimlerek",
    "postal_code": "61456"
  },
  {
    "id": 351715,
    "province_id": 35,
    "regency_id": 3517,
    "district_id": 351715,
    "value": "Jiporapah (Jipurapah)",
    "postal_code": "61456"
  },
  {
    "id": 351715,
    "province_id": 35,
    "regency_id": 3517,
    "district_id": 351715,
    "value": "Kampungbaru",
    "postal_code": "61456"
  },
  {
    "id": 351715,
    "province_id": 35,
    "regency_id": 3517,
    "district_id": 351715,
    "value": "Karangmojo (Karang Mojo)",
    "postal_code": "61456"
  },
  {
    "id": 351715,
    "province_id": 35,
    "regency_id": 3517,
    "district_id": 351715,
    "value": "Klitih",
    "postal_code": "61456"
  },
  {
    "id": 351715,
    "province_id": 35,
    "regency_id": 3517,
    "district_id": 351715,
    "value": "Plabuhan",
    "postal_code": "61456"
  },
  {
    "id": 351715,
    "province_id": 35,
    "regency_id": 3517,
    "district_id": 351715,
    "value": "Plandaan",
    "postal_code": "61456"
  },
  {
    "id": 351715,
    "province_id": 35,
    "regency_id": 3517,
    "district_id": 351715,
    "value": "Purisemanding",
    "postal_code": "61456"
  },
  {
    "id": 351715,
    "province_id": 35,
    "regency_id": 3517,
    "district_id": 351715,
    "value": "Sumberjo",
    "postal_code": "61456"
  },
  {
    "id": 351715,
    "province_id": 35,
    "regency_id": 3517,
    "district_id": 351715,
    "value": "Tondowulan",
    "postal_code": "61456"
  }
]