[
  {
    "id": 7308162013,
    "province_id": 73,
    "regency_id": 7308,
    "district_id": 730816,
    "value": "Abbanuang",
    "postal_code": "92776"
  },
  {
    "id": 7308162015,
    "province_id": 73,
    "regency_id": 7308,
    "district_id": 730816,
    "value": "Awolagading (Awo Lagading)",
    "postal_code": "92776"
  },
  {
    "id": 7308162012,
    "province_id": 73,
    "regency_id": 7308,
    "district_id": 730816,
    "value": "Bulumpare'e (Bulumparee)",
    "postal_code": "92776"
  },
  {
    "id": 7308162017,
    "province_id": 73,
    "regency_id": 7308,
    "district_id": 730816,
    "value": "Cakkebone (Cakke Bone)",
    "postal_code": "92776"
  },
  {
    "id": 7308162002,
    "province_id": 73,
    "regency_id": 7308,
    "district_id": 730816,
    "value": "Carebbu",
    "postal_code": "92776"
  },
  {
    "id": 7308162016,
    "province_id": 73,
    "regency_id": 7308,
    "district_id": 730816,
    "value": "Carigading (Cari Gading)",
    "postal_code": "92776"
  },
  {
    "id": 7308162003,
    "province_id": 73,
    "regency_id": 7308,
    "district_id": 730816,
    "value": "Cumpiga",
    "postal_code": "92776"
  },
  {
    "id": 7308162011,
    "province_id": 73,
    "regency_id": 7308,
    "district_id": 730816,
    "value": "Jaling",
    "postal_code": "92776"
  },
  {
    "id": 7308162008,
    "province_id": 73,
    "regency_id": 7308,
    "district_id": 730816,
    "value": "Kading",
    "postal_code": "92776"
  },
  {
    "id": 7308162010,
    "province_id": 73,
    "regency_id": 7308,
    "district_id": 730816,
    "value": "Kajuara",
    "postal_code": "92776"
  },
  {
    "id": 7308162014,
    "province_id": 73,
    "regency_id": 7308,
    "district_id": 730816,
    "value": "Lappoase (Lappo Ase)",
    "postal_code": "92776"
  },
  {
    "id": 7308162005,
    "province_id": 73,
    "regency_id": 7308,
    "district_id": 730816,
    "value": "Lattekko (Lettekko)",
    "postal_code": "92776"
  },
  {
    "id": 7308161001,
    "province_id": 73,
    "regency_id": 7308,
    "district_id": 730816,
    "value": "Maccope",
    "postal_code": "92776"
  },
  {
    "id": 7308162009,
    "province_id": 73,
    "regency_id": 7308,
    "district_id": 730816,
    "value": "Mallari",
    "postal_code": "92776"
  },
  {
    "id": 7308162018,
    "province_id": 73,
    "regency_id": 7308,
    "district_id": 730816,
    "value": "Mappalo Ulaweng",
    "postal_code": "92776"
  },
  {
    "id": 7308162006,
    "province_id": 73,
    "regency_id": 7308,
    "district_id": 730816,
    "value": "Matuju",
    "postal_code": "92776"
  },
  {
    "id": 7308162004,
    "province_id": 73,
    "regency_id": 7308,
    "district_id": 730816,
    "value": "Paccing",
    "postal_code": "92776"
  },
  {
    "id": 7308162007,
    "province_id": 73,
    "regency_id": 7308,
    "district_id": 730816,
    "value": "Unra",
    "postal_code": "92776"
  }
]