[
  {
    "id": 710501,
    "province_id": 71,
    "regency_id": 7105,
    "district_id": 710501,
    "value": "Kakenturan",
    "postal_code": "95958"
  },
  {
    "id": 710501,
    "province_id": 71,
    "regency_id": 7105,
    "district_id": 710501,
    "value": "Kakenturan Barat",
    "postal_code": "95958"
  },
  {
    "id": 710501,
    "province_id": 71,
    "regency_id": 7105,
    "district_id": 710501,
    "value": "Linelean",
    "postal_code": "95958"
  },
  {
    "id": 710501,
    "province_id": 71,
    "regency_id": 7105,
    "district_id": 710501,
    "value": "Makaaruyen",
    "postal_code": "95958"
  },
  {
    "id": 710501,
    "province_id": 71,
    "regency_id": 7105,
    "district_id": 710501,
    "value": "Mokobang",
    "postal_code": "95958"
  },
  {
    "id": 710501,
    "province_id": 71,
    "regency_id": 7105,
    "district_id": 710501,
    "value": "Palelon",
    "postal_code": "95958"
  },
  {
    "id": 710501,
    "province_id": 71,
    "regency_id": 7105,
    "district_id": 710501,
    "value": "Pinasungkulan",
    "postal_code": "95958"
  },
  {
    "id": 710501,
    "province_id": 71,
    "regency_id": 7105,
    "district_id": 710501,
    "value": "Pinasungkulan Utara",
    "postal_code": "95958"
  },
  {
    "id": 710501,
    "province_id": 71,
    "regency_id": 7105,
    "district_id": 710501,
    "value": "Sinisir",
    "postal_code": "95958"
  },
  {
    "id": 710501,
    "province_id": 71,
    "regency_id": 7105,
    "district_id": 710501,
    "value": "Wulurmaatus",
    "postal_code": "95958"
  }
]