[
  {
    "id": 170224,
    "province_id": 17,
    "regency_id": 1702,
    "district_id": 170224,
    "value": "Air Bening",
    "postal_code": "39151"
  },
  {
    "id": 170224,
    "province_id": 17,
    "regency_id": 1702,
    "district_id": 170224,
    "value": "Babakan Baru",
    "postal_code": "39151"
  },
  {
    "id": 170224,
    "province_id": 17,
    "regency_id": 1702,
    "district_id": 170224,
    "value": "Bandung Marga",
    "postal_code": "39151"
  },
  {
    "id": 170224,
    "province_id": 17,
    "regency_id": 1702,
    "district_id": 170224,
    "value": "Bangun Jaya",
    "postal_code": "39151"
  },
  {
    "id": 170224,
    "province_id": 17,
    "regency_id": 1702,
    "district_id": 170224,
    "value": "Dataran Tapus",
    "postal_code": "39151"
  },
  {
    "id": 170224,
    "province_id": 17,
    "regency_id": 1702,
    "district_id": 170224,
    "value": "Pal Seratus/100",
    "postal_code": "39151"
  },
  {
    "id": 170224,
    "province_id": 17,
    "regency_id": 1702,
    "district_id": 170224,
    "value": "Pal VII/Tujuh",
    "postal_code": "39151"
  },
  {
    "id": 170224,
    "province_id": 17,
    "regency_id": 1702,
    "district_id": 170224,
    "value": "Pal VIII/Delapan",
    "postal_code": "39151"
  },
  {
    "id": 170224,
    "province_id": 17,
    "regency_id": 1702,
    "district_id": 170224,
    "value": "Sumberejo Transad (Sumber Rejo Transad)",
    "postal_code": "39151"
  },
  {
    "id": 170224,
    "province_id": 17,
    "regency_id": 1702,
    "district_id": 170224,
    "value": "Tebat Tenong Luar",
    "postal_code": "39151"
  }
]