[
  {
    "id": 760212,
    "province_id": 76,
    "regency_id": 7602,
    "district_id": 760212,
    "value": "Botteng",
    "postal_code": "91512"
  },
  {
    "id": 760212,
    "province_id": 76,
    "regency_id": 7602,
    "district_id": 760212,
    "value": "Botteng Utara",
    "postal_code": "91512"
  },
  {
    "id": 760212,
    "province_id": 76,
    "regency_id": 7602,
    "district_id": 760212,
    "value": "Pati'di",
    "postal_code": "91512"
  },
  {
    "id": 760212,
    "province_id": 76,
    "regency_id": 7602,
    "district_id": 760212,
    "value": "Rangas",
    "postal_code": "91512"
  },
  {
    "id": 760212,
    "province_id": 76,
    "regency_id": 7602,
    "district_id": 760212,
    "value": "Saletto (Salletto)",
    "postal_code": "91512"
  },
  {
    "id": 760212,
    "province_id": 76,
    "regency_id": 7602,
    "district_id": 760212,
    "value": "Simboro",
    "postal_code": "91512"
  },
  {
    "id": 760212,
    "province_id": 76,
    "regency_id": 7602,
    "district_id": 760212,
    "value": "Sumare",
    "postal_code": "91513"
  },
  {
    "id": 760212,
    "province_id": 76,
    "regency_id": 7602,
    "district_id": 760212,
    "value": "Tapandullu",
    "postal_code": "91512"
  }
]