[
  {
    "id": 321413,
    "province_id": 32,
    "regency_id": 3214,
    "district_id": 321413,
    "value": "Bungursari",
    "postal_code": "41181"
  },
  {
    "id": 321413,
    "province_id": 32,
    "regency_id": 3214,
    "district_id": 321413,
    "value": "Cibening",
    "postal_code": "41181"
  },
  {
    "id": 321413,
    "province_id": 32,
    "regency_id": 3214,
    "district_id": 321413,
    "value": "Cibodas",
    "postal_code": "41181"
  },
  {
    "id": 321413,
    "province_id": 32,
    "regency_id": 3214,
    "district_id": 321413,
    "value": "Cibungur",
    "postal_code": "41181"
  },
  {
    "id": 321413,
    "province_id": 32,
    "regency_id": 3214,
    "district_id": 321413,
    "value": "Cikopo",
    "postal_code": "41181"
  },
  {
    "id": 321413,
    "province_id": 32,
    "regency_id": 3214,
    "district_id": 321413,
    "value": "Cinangka",
    "postal_code": "41181"
  },
  {
    "id": 321413,
    "province_id": 32,
    "regency_id": 3214,
    "district_id": 321413,
    "value": "Ciwangi",
    "postal_code": "41181"
  },
  {
    "id": 321413,
    "province_id": 32,
    "regency_id": 3214,
    "district_id": 321413,
    "value": "Dangdeur",
    "postal_code": "41181"
  },
  {
    "id": 321413,
    "province_id": 32,
    "regency_id": 3214,
    "district_id": 321413,
    "value": "Karangmukti",
    "postal_code": "41181"
  },
  {
    "id": 321413,
    "province_id": 32,
    "regency_id": 3214,
    "district_id": 321413,
    "value": "Wanakerta",
    "postal_code": "41181"
  }
]