[
  {
    "id": 360221,
    "province_id": 36,
    "regency_id": 3602,
    "district_id": 360221,
    "value": "Bejod",
    "postal_code": "42396"
  },
  {
    "id": 360221,
    "province_id": 36,
    "regency_id": 3602,
    "district_id": 360221,
    "value": "Cikeusik",
    "postal_code": "42396"
  },
  {
    "id": 360221,
    "province_id": 36,
    "regency_id": 3602,
    "district_id": 360221,
    "value": "Cilangkap",
    "postal_code": "42396"
  },
  {
    "id": 360221,
    "province_id": 36,
    "regency_id": 3602,
    "district_id": 360221,
    "value": "Cipedang",
    "postal_code": "42396"
  },
  {
    "id": 360221,
    "province_id": 36,
    "regency_id": 3602,
    "district_id": 360221,
    "value": "Cipeucang",
    "postal_code": "42396"
  },
  {
    "id": 360221,
    "province_id": 36,
    "regency_id": 3602,
    "district_id": 360221,
    "value": "Cisarap",
    "postal_code": "42396"
  },
  {
    "id": 360221,
    "province_id": 36,
    "regency_id": 3602,
    "district_id": 360221,
    "value": "Karangpamindangan",
    "postal_code": "42396"
  },
  {
    "id": 360221,
    "province_id": 36,
    "regency_id": 3602,
    "district_id": 360221,
    "value": "Katapang (Ketapang)",
    "postal_code": "42396"
  },
  {
    "id": 360221,
    "province_id": 36,
    "regency_id": 3602,
    "district_id": 360221,
    "value": "Muara",
    "postal_code": "42396"
  },
  {
    "id": 360221,
    "province_id": 36,
    "regency_id": 3602,
    "district_id": 360221,
    "value": "Parungpanjang",
    "postal_code": "42396"
  },
  {
    "id": 360221,
    "province_id": 36,
    "regency_id": 3602,
    "district_id": 360221,
    "value": "Parungsari",
    "postal_code": "42396"
  },
  {
    "id": 360221,
    "province_id": 36,
    "regency_id": 3602,
    "district_id": 360221,
    "value": "Sukatani",
    "postal_code": "42396"
  },
  {
    "id": 360221,
    "province_id": 36,
    "regency_id": 3602,
    "district_id": 360221,
    "value": "Wanasalam",
    "postal_code": "42396"
  }
]