[
  {
    "id": 950409,
    "province_id": 95,
    "regency_id": 9504,
    "district_id": 950409,
    "value": "Eragani",
    "postal_code": "99057"
  },
  {
    "id": 950409,
    "province_id": 95,
    "regency_id": 9504,
    "district_id": 950409,
    "value": "Ibunuh",
    "postal_code": "99057"
  },
  {
    "id": 950409,
    "province_id": 95,
    "regency_id": 9504,
    "district_id": 950409,
    "value": "Kutiom",
    "postal_code": "99057"
  },
  {
    "id": 950409,
    "province_id": 95,
    "regency_id": 9504,
    "district_id": 950409,
    "value": "Paido",
    "postal_code": "99057"
  },
  {
    "id": 950409,
    "province_id": 95,
    "regency_id": 9504,
    "district_id": 950409,
    "value": "Panaga",
    "postal_code": "99057"
  },
  {
    "id": 950409,
    "province_id": 95,
    "regency_id": 9504,
    "district_id": 950409,
    "value": "Pindanggun",
    "postal_code": "99057"
  },
  {
    "id": 950409,
    "province_id": 95,
    "regency_id": 9504,
    "district_id": 950409,
    "value": "Saksi Maler",
    "postal_code": "99057"
  },
  {
    "id": 950409,
    "province_id": 95,
    "regency_id": 9504,
    "district_id": 950409,
    "value": "Siak",
    "postal_code": "99057"
  },
  {
    "id": 950409,
    "province_id": 95,
    "regency_id": 9504,
    "district_id": 950409,
    "value": "Yandono",
    "postal_code": "99057"
  }
]