[
  {
    "id": 160915,
    "province_id": 16,
    "regency_id": 1609,
    "district_id": 160915,
    "value": "Cukoh Nau (Cukuh/Cuko Nau)",
    "postal_code": "32267"
  },
  {
    "id": 160915,
    "province_id": 16,
    "regency_id": 1609,
    "district_id": 160915,
    "value": "Guntung Jaya",
    "postal_code": "32267"
  },
  {
    "id": 160915,
    "province_id": 16,
    "regency_id": 1609,
    "district_id": 160915,
    "value": "Pecah Pinggan",
    "postal_code": "32267"
  },
  {
    "id": 160915,
    "province_id": 16,
    "regency_id": 1609,
    "district_id": 160915,
    "value": "Pulau Kemuning",
    "postal_code": "32267"
  },
  {
    "id": 160915,
    "province_id": 16,
    "regency_id": 1609,
    "district_id": 160915,
    "value": "Sebaja",
    "postal_code": "32267"
  },
  {
    "id": 160915,
    "province_id": 16,
    "regency_id": 1609,
    "district_id": 160915,
    "value": "Sedau Jaya (Sadau Jaya)",
    "postal_code": "32267"
  },
  {
    "id": 160915,
    "province_id": 16,
    "regency_id": 1609,
    "district_id": 160915,
    "value": "Simpang Luas",
    "postal_code": "32267"
  },
  {
    "id": 160915,
    "province_id": 16,
    "regency_id": 1609,
    "district_id": 160915,
    "value": "Tanah Pilih",
    "postal_code": "32267"
  },
  {
    "id": 160915,
    "province_id": 16,
    "regency_id": 1609,
    "district_id": 160915,
    "value": "Ujan Mas",
    "postal_code": "32267"
  }
]