[
  {
    "id": 9404182002,
    "province_id": 94,
    "regency_id": 9404,
    "district_id": 940418,
    "value": "Alama",
    "postal_code": "99966"
  },
  {
    "id": 9404182005,
    "province_id": 94,
    "regency_id": 9404,
    "district_id": 940418,
    "value": "Bemoki",
    "postal_code": "99966"
  },
  {
    "id": 9404182001,
    "province_id": 94,
    "regency_id": 9404,
    "district_id": 940418,
    "value": "Enggin",
    "postal_code": "99966"
  },
  {
    "id": 9404182007,
    "province_id": 94,
    "regency_id": 9404,
    "district_id": 940418,
    "value": "Geselema",
    "postal_code": "99966"
  },
  {
    "id": 9404182009,
    "province_id": 94,
    "regency_id": 9404,
    "district_id": 940418,
    "value": "Jenggelo",
    "postal_code": "99966"
  },
  {
    "id": 9404182011,
    "province_id": 94,
    "regency_id": 9404,
    "district_id": 940418,
    "value": "Kilmit",
    "postal_code": "99966"
  },
  {
    "id": 9404182010,
    "province_id": 94,
    "regency_id": 9404,
    "district_id": 940418,
    "value": "Purua",
    "postal_code": "99966"
  },
  {
    "id": 9404182003,
    "province_id": 94,
    "regency_id": 9404,
    "district_id": 940418,
    "value": "Senawak",
    "postal_code": "99966"
  },
  {
    "id": 9404182006,
    "province_id": 94,
    "regency_id": 9404,
    "district_id": 940418,
    "value": "Tagaralma",
    "postal_code": "99966"
  },
  {
    "id": 9404182004,
    "province_id": 94,
    "regency_id": 9404,
    "district_id": 940418,
    "value": "Unimogom",
    "postal_code": "99966"
  },
  {
    "id": 9404182008,
    "province_id": 94,
    "regency_id": 9404,
    "district_id": 940418,
    "value": "Wuarem",
    "postal_code": "99966"
  }
]