[
  {
    "id": 1407102004,
    "province_id": 14,
    "regency_id": 1407,
    "district_id": 140710,
    "value": "Bangko Bakti",
    "postal_code": "28993"
  },
  {
    "id": 1407102015,
    "province_id": 14,
    "regency_id": 1407,
    "district_id": 140710,
    "value": "Bangko Balam",
    "postal_code": "28993"
  },
  {
    "id": 1407102002,
    "province_id": 14,
    "regency_id": 1407,
    "district_id": 140710,
    "value": "Bangko Jaya",
    "postal_code": "28993"
  },
  {
    "id": 1407101001,
    "province_id": 14,
    "regency_id": 1407,
    "district_id": 140710,
    "value": "Bangko Kanan",
    "postal_code": "28993"
  },
  {
    "id": 1407101006,
    "province_id": 14,
    "regency_id": 1407,
    "district_id": 140710,
    "value": "Bangko Kiri",
    "postal_code": "28993"
  },
  {
    "id": 1407102014,
    "province_id": 14,
    "regency_id": 1407,
    "district_id": 140710,
    "value": "Bangko Lestari",
    "postal_code": "28993"
  },
  {
    "id": 1407102009,
    "province_id": 14,
    "regency_id": 1407,
    "district_id": 140710,
    "value": "Bangko Makmur",
    "postal_code": "28993"
  },
  {
    "id": 1407102016,
    "province_id": 14,
    "regency_id": 1407,
    "district_id": 140710,
    "value": "Bangko Mas Raya",
    "postal_code": "28993"
  },
  {
    "id": 1407102013,
    "province_id": 14,
    "regency_id": 1407,
    "district_id": 140710,
    "value": "Bangko Mukti",
    "postal_code": "28993"
  },
  {
    "id": 1407102012,
    "province_id": 14,
    "regency_id": 1407,
    "district_id": 140710,
    "value": "Bangko Permata",
    "postal_code": "28993"
  },
  {
    "id": 1407102005,
    "province_id": 14,
    "regency_id": 1407,
    "district_id": 140710,
    "value": "Bangko Pusaka (Pusako)",
    "postal_code": "28993"
  },
  {
    "id": 1407102003,
    "province_id": 14,
    "regency_id": 1407,
    "district_id": 140710,
    "value": "Bangko Sempurna",
    "postal_code": "28993"
  },
  {
    "id": 1407102010,
    "province_id": 14,
    "regency_id": 1407,
    "district_id": 140710,
    "value": "Pematang Damar",
    "postal_code": "28993"
  },
  {
    "id": 1407102011,
    "province_id": 14,
    "regency_id": 1407,
    "district_id": 140710,
    "value": "Pematang Ibul",
    "postal_code": "28993"
  },
  {
    "id": 1407102007,
    "province_id": 14,
    "regency_id": 1407,
    "district_id": 140710,
    "value": "Sungai Menasib (Sei Manasib)",
    "postal_code": "28993"
  },
  {
    "id": 1407102008,
    "province_id": 14,
    "regency_id": 1407,
    "district_id": 140710,
    "value": "Teluk Bano I",
    "postal_code": "28993"
  }
]