[
  {
    "id": 167301,
    "province_id": 16,
    "regency_id": 1673,
    "district_id": 167301,
    "value": "Air Kuti",
    "postal_code": "31628"
  },
  {
    "id": 167301,
    "province_id": 16,
    "regency_id": 1673,
    "district_id": 167301,
    "value": "Batu Urip Taba",
    "postal_code": "31628"
  },
  {
    "id": 167301,
    "province_id": 16,
    "regency_id": 1673,
    "district_id": 167301,
    "value": "Majapahit",
    "postal_code": "31628"
  },
  {
    "id": 167301,
    "province_id": 16,
    "regency_id": 1673,
    "district_id": 167301,
    "value": "Nikan Jaya",
    "postal_code": "31628"
  },
  {
    "id": 167301,
    "province_id": 16,
    "regency_id": 1673,
    "district_id": 167301,
    "value": "Taba Jemekeh",
    "postal_code": "31628"
  },
  {
    "id": 167301,
    "province_id": 16,
    "regency_id": 1673,
    "district_id": 167301,
    "value": "Taba Koji",
    "postal_code": "31628"
  },
  {
    "id": 167301,
    "province_id": 16,
    "regency_id": 1673,
    "district_id": 167301,
    "value": "Taba Lestari",
    "postal_code": "31628"
  },
  {
    "id": 167301,
    "province_id": 16,
    "regency_id": 1673,
    "district_id": 167301,
    "value": "Watervang",
    "postal_code": "31628"
  }
]