[
  {
    "id": 110717,
    "province_id": 11,
    "regency_id": 1107,
    "district_id": 110717,
    "value": "B. Kumot Tunong",
    "postal_code": "24164"
  },
  {
    "id": 110717,
    "province_id": 11,
    "regency_id": 1107,
    "district_id": 110717,
    "value": "Balue Kulu",
    "postal_code": "24164"
  },
  {
    "id": 110717,
    "province_id": 11,
    "regency_id": 1107,
    "district_id": 110717,
    "value": "Balue Tanoh",
    "postal_code": "24164"
  },
  {
    "id": 110717,
    "province_id": 11,
    "regency_id": 1107,
    "district_id": 110717,
    "value": "Barieh",
    "postal_code": "24164"
  },
  {
    "id": 110717,
    "province_id": 11,
    "regency_id": 1107,
    "district_id": 110717,
    "value": "Beutong Perlak",
    "postal_code": "24164"
  },
  {
    "id": 110717,
    "province_id": 11,
    "regency_id": 1107,
    "district_id": 110717,
    "value": "Beutong Pocut",
    "postal_code": "24164"
  },
  {
    "id": 110717,
    "province_id": 11,
    "regency_id": 1107,
    "district_id": 110717,
    "value": "Blang Cut",
    "postal_code": "24164"
  },
  {
    "id": 110717,
    "province_id": 11,
    "regency_id": 1107,
    "district_id": 110717,
    "value": "Blang Kumot Baroh",
    "postal_code": "24164"
  },
  {
    "id": 110717,
    "province_id": 11,
    "regency_id": 1107,
    "district_id": 110717,
    "value": "Bucue",
    "postal_code": "24164"
  },
  {
    "id": 110717,
    "province_id": 11,
    "regency_id": 1107,
    "district_id": 110717,
    "value": "Cot Cantek",
    "postal_code": "24164"
  },
  {
    "id": 110717,
    "province_id": 11,
    "regency_id": 1107,
    "district_id": 110717,
    "value": "Cot Sukon",
    "postal_code": "24164"
  },
  {
    "id": 110717,
    "province_id": 11,
    "regency_id": 1107,
    "district_id": 110717,
    "value": "Cumbok Lie",
    "postal_code": "24164"
  },
  {
    "id": 110717,
    "province_id": 11,
    "regency_id": 1107,
    "district_id": 110717,
    "value": "Cumbok Niwa",
    "postal_code": "24164"
  },
  {
    "id": 110717,
    "province_id": 11,
    "regency_id": 1107,
    "district_id": 110717,
    "value": "Gampong Jumpa (Kampong Jeumpa)",
    "postal_code": "24164"
  },
  {
    "id": 110717,
    "province_id": 11,
    "regency_id": 1107,
    "district_id": 110717,
    "value": "Jurong Pante",
    "postal_code": "24164"
  },
  {
    "id": 110717,
    "province_id": 11,
    "regency_id": 1107,
    "district_id": 110717,
    "value": "Kampong Baro",
    "postal_code": "24164"
  },
  {
    "id": 110717,
    "province_id": 11,
    "regency_id": 1107,
    "district_id": 110717,
    "value": "Kampong Cot",
    "postal_code": "24164"
  },
  {
    "id": 110717,
    "province_id": 11,
    "regency_id": 1107,
    "district_id": 110717,
    "value": "Kampong Pisang Bucue",
    "postal_code": "24164"
  },
  {
    "id": 110717,
    "province_id": 11,
    "regency_id": 1107,
    "district_id": 110717,
    "value": "Kandang",
    "postal_code": "24164"
  },
  {
    "id": 110717,
    "province_id": 11,
    "regency_id": 1107,
    "district_id": 110717,
    "value": "Lam Ujong",
    "postal_code": "24164"
  },
  {
    "id": 110717,
    "province_id": 11,
    "regency_id": 1107,
    "district_id": 110717,
    "value": "Lameue Meunasah Baro",
    "postal_code": "24164"
  },
  {
    "id": 110717,
    "province_id": 11,
    "regency_id": 1107,
    "district_id": 110717,
    "value": "Lameue Mns. Lueng (Meunasah Lueng)",
    "postal_code": "24164"
  },
  {
    "id": 110717,
    "province_id": 11,
    "regency_id": 1107,
    "district_id": 110717,
    "value": "Lameue Mns. Raya (Meunasah Raya)",
    "postal_code": "24164"
  },
  {
    "id": 110717,
    "province_id": 11,
    "regency_id": 1107,
    "district_id": 110717,
    "value": "Leupeuem Mesjid (Leupeum Mesjid)",
    "postal_code": "24164"
  },
  {
    "id": 110717,
    "province_id": 11,
    "regency_id": 1107,
    "district_id": 110717,
    "value": "Lhok Mee (Lhok Me)",
    "postal_code": "24164"
  },
  {
    "id": 110717,
    "province_id": 11,
    "regency_id": 1107,
    "district_id": 110717,
    "value": "Lhok Panah",
    "postal_code": "24164"
  },
  {
    "id": 110717,
    "province_id": 11,
    "regency_id": 1107,
    "district_id": 110717,
    "value": "Lingkok",
    "postal_code": "24164"
  },
  {
    "id": 110717,
    "province_id": 11,
    "regency_id": 1107,
    "district_id": 110717,
    "value": "Mali Cot",
    "postal_code": "24164"
  },
  {
    "id": 110717,
    "province_id": 11,
    "regency_id": 1107,
    "district_id": 110717,
    "value": "Mali Guyui",
    "postal_code": "24164"
  },
  {
    "id": 110717,
    "province_id": 11,
    "regency_id": 1107,
    "district_id": 110717,
    "value": "Mali Lamkuta (Lamkuta)",
    "postal_code": "24164"
  },
  {
    "id": 110717,
    "province_id": 11,
    "regency_id": 1107,
    "district_id": 110717,
    "value": "Mali Mesjid",
    "postal_code": "24164"
  },
  {
    "id": 110717,
    "province_id": 11,
    "regency_id": 1107,
    "district_id": 110717,
    "value": "Mali Uke (Meunasah Uke)",
    "postal_code": "24164"
  },
  {
    "id": 110717,
    "province_id": 11,
    "regency_id": 1107,
    "district_id": 110717,
    "value": "Mancang",
    "postal_code": "24164"
  },
  {
    "id": 110717,
    "province_id": 11,
    "regency_id": 1107,
    "district_id": 110717,
    "value": "Meunasah Empeh (Lhok Empeh)",
    "postal_code": "24164"
  },
  {
    "id": 110717,
    "province_id": 11,
    "regency_id": 1107,
    "district_id": 110717,
    "value": "Mns Balee",
    "postal_code": "24164"
  },
  {
    "id": 110717,
    "province_id": 11,
    "regency_id": 1107,
    "district_id": 110717,
    "value": "Mns Blang Sakti",
    "postal_code": "24164"
  },
  {
    "id": 110717,
    "province_id": 11,
    "regency_id": 1107,
    "district_id": 110717,
    "value": "Mns Dayah Tuha",
    "postal_code": "24164"
  },
  {
    "id": 110717,
    "province_id": 11,
    "regency_id": 1107,
    "district_id": 110717,
    "value": "Mns Raya Kp Pisang",
    "postal_code": "24164"
  },
  {
    "id": 110717,
    "province_id": 11,
    "regency_id": 1107,
    "district_id": 110717,
    "value": "Murong Cot",
    "postal_code": "24164"
  },
  {
    "id": 110717,
    "province_id": 11,
    "regency_id": 1107,
    "district_id": 110717,
    "value": "Murong Lhok",
    "postal_code": "24164"
  },
  {
    "id": 110717,
    "province_id": 11,
    "regency_id": 1107,
    "district_id": 110717,
    "value": "Paloh Jeureula",
    "postal_code": "24164"
  },
  {
    "id": 110717,
    "province_id": 11,
    "regency_id": 1107,
    "district_id": 110717,
    "value": "Pantee Krueng (Pante Krueng)",
    "postal_code": "24164"
  },
  {
    "id": 110717,
    "province_id": 11,
    "regency_id": 1107,
    "district_id": 110717,
    "value": "Pasar Kota Bakti",
    "postal_code": "24164"
  },
  {
    "id": 110717,
    "province_id": 11,
    "regency_id": 1107,
    "district_id": 110717,
    "value": "Perlak Asan",
    "postal_code": "24164"
  },
  {
    "id": 110717,
    "province_id": 11,
    "regency_id": 1107,
    "district_id": 110717,
    "value": "Perlak Baroh",
    "postal_code": "24164"
  },
  {
    "id": 110717,
    "province_id": 11,
    "regency_id": 1107,
    "district_id": 110717,
    "value": "Pulo Jeumpa",
    "postal_code": "24164"
  },
  {
    "id": 110717,
    "province_id": 11,
    "regency_id": 1107,
    "district_id": 110717,
    "value": "Pulo Kreumbok (Pulo Kerumbok)",
    "postal_code": "24164"
  },
  {
    "id": 110717,
    "province_id": 11,
    "regency_id": 1107,
    "district_id": 110717,
    "value": "Riweuek (Riweuk)",
    "postal_code": "24164"
  },
  {
    "id": 110717,
    "province_id": 11,
    "regency_id": 1107,
    "district_id": 110717,
    "value": "Tangkueng (Tang Kueng)",
    "postal_code": "24164"
  }
]