[
  {
    "id": 650107,
    "province_id": 65,
    "regency_id": 6501,
    "district_id": 650107,
    "value": "Lepak Aru",
    "postal_code": "77261"
  },
  {
    "id": 650107,
    "province_id": 65,
    "regency_id": 6501,
    "district_id": 650107,
    "value": "Long Bia",
    "postal_code": "77261"
  },
  {
    "id": 650107,
    "province_id": 65,
    "regency_id": 6501,
    "district_id": 650107,
    "value": "Long Buang",
    "postal_code": "77261"
  },
  {
    "id": 650107,
    "province_id": 65,
    "regency_id": 6501,
    "district_id": 650107,
    "value": "Long Lasan",
    "postal_code": "77261"
  },
  {
    "id": 650107,
    "province_id": 65,
    "regency_id": 6501,
    "district_id": 650107,
    "value": "Long Lejuh (Long Leju)",
    "postal_code": "77261"
  },
  {
    "id": 650107,
    "province_id": 65,
    "regency_id": 6501,
    "district_id": 650107,
    "value": "Long Lian",
    "postal_code": "77261"
  },
  {
    "id": 650107,
    "province_id": 65,
    "regency_id": 6501,
    "district_id": 650107,
    "value": "Long Pelban (Long Peleban)",
    "postal_code": "77261"
  },
  {
    "id": 650107,
    "province_id": 65,
    "regency_id": 6501,
    "district_id": 650107,
    "value": "Long Peso",
    "postal_code": "77261"
  },
  {
    "id": 650107,
    "province_id": 65,
    "regency_id": 6501,
    "district_id": 650107,
    "value": "Long Yiin/Pelaah",
    "postal_code": "77261"
  },
  {
    "id": 650107,
    "province_id": 65,
    "regency_id": 6501,
    "district_id": 650107,
    "value": "Muara Pengean",
    "postal_code": "77261"
  }
]