[
  {
    "id": 620502,
    "province_id": 62,
    "regency_id": 6205,
    "district_id": 620502,
    "value": "Baliti",
    "postal_code": "73862"
  },
  {
    "id": 620502,
    "province_id": 62,
    "regency_id": 6205,
    "district_id": 620502,
    "value": "Batu Raya I (Baturaya I)",
    "postal_code": "73862"
  },
  {
    "id": 620502,
    "province_id": 62,
    "regency_id": 6205,
    "district_id": 620502,
    "value": "Batu Raya II (Baturaya II)",
    "postal_code": "73862"
  },
  {
    "id": 620502,
    "province_id": 62,
    "regency_id": 6205,
    "district_id": 620502,
    "value": "Jaman",
    "postal_code": "73862"
  },
  {
    "id": 620502,
    "province_id": 62,
    "regency_id": 6205,
    "district_id": 620502,
    "value": "Kandui",
    "postal_code": "73862"
  },
  {
    "id": 620502,
    "province_id": 62,
    "regency_id": 6205,
    "district_id": 620502,
    "value": "Ketapang",
    "postal_code": "73862"
  },
  {
    "id": 620502,
    "province_id": 62,
    "regency_id": 6205,
    "district_id": 620502,
    "value": "Majangkan",
    "postal_code": "73862"
  },
  {
    "id": 620502,
    "province_id": 62,
    "regency_id": 6205,
    "district_id": 620502,
    "value": "Malungai",
    "postal_code": "73862"
  },
  {
    "id": 620502,
    "province_id": 62,
    "regency_id": 6205,
    "district_id": 620502,
    "value": "Payang Ara",
    "postal_code": "73862"
  },
  {
    "id": 620502,
    "province_id": 62,
    "regency_id": 6205,
    "district_id": 620502,
    "value": "Pelari",
    "postal_code": "73862"
  },
  {
    "id": 620502,
    "province_id": 62,
    "regency_id": 6205,
    "district_id": 620502,
    "value": "Rarawa",
    "postal_code": "73862"
  },
  {
    "id": 620502,
    "province_id": 62,
    "regency_id": 6205,
    "district_id": 620502,
    "value": "Sangkorang (Sangkurang)",
    "postal_code": "73862"
  },
  {
    "id": 620502,
    "province_id": 62,
    "regency_id": 6205,
    "district_id": 620502,
    "value": "Siwau",
    "postal_code": "73862"
  },
  {
    "id": 620502,
    "province_id": 62,
    "regency_id": 6205,
    "district_id": 620502,
    "value": "Tapen Raya",
    "postal_code": "73862"
  },
  {
    "id": 620502,
    "province_id": 62,
    "regency_id": 6205,
    "district_id": 620502,
    "value": "Tongka",
    "postal_code": "73862"
  },
  {
    "id": 620502,
    "province_id": 62,
    "regency_id": 6205,
    "district_id": 620502,
    "value": "Walur",
    "postal_code": "73862"
  }
]