[
  {
    "id": 331613,
    "province_id": 33,
    "regency_id": 3316,
    "district_id": 331613,
    "value": "Bakah",
    "postal_code": "58255"
  },
  {
    "id": 331613,
    "province_id": 33,
    "regency_id": 3316,
    "district_id": 331613,
    "value": "Balong",
    "postal_code": "58255"
  },
  {
    "id": 331613,
    "province_id": 33,
    "regency_id": 3316,
    "district_id": 331613,
    "value": "Bejirejo",
    "postal_code": "58255"
  },
  {
    "id": 331613,
    "province_id": 33,
    "regency_id": 3316,
    "district_id": 331613,
    "value": "Blumbangrejo",
    "postal_code": "58255"
  },
  {
    "id": 331613,
    "province_id": 33,
    "regency_id": 3316,
    "district_id": 331613,
    "value": "Botoreco",
    "postal_code": "58255"
  },
  {
    "id": 331613,
    "province_id": 33,
    "regency_id": 3316,
    "district_id": 331613,
    "value": "Buloh",
    "postal_code": "58255"
  },
  {
    "id": 331613,
    "province_id": 33,
    "regency_id": 3316,
    "district_id": 331613,
    "value": "Cungkup",
    "postal_code": "58255"
  },
  {
    "id": 331613,
    "province_id": 33,
    "regency_id": 3316,
    "district_id": 331613,
    "value": "Gagaan",
    "postal_code": "58255"
  },
  {
    "id": 331613,
    "province_id": 33,
    "regency_id": 3316,
    "district_id": 331613,
    "value": "Jagong",
    "postal_code": "58255"
  },
  {
    "id": 331613,
    "province_id": 33,
    "regency_id": 3316,
    "district_id": 331613,
    "value": "Jetak",
    "postal_code": "58255"
  },
  {
    "id": 331613,
    "province_id": 33,
    "regency_id": 3316,
    "district_id": 331613,
    "value": "Kalangrejo",
    "postal_code": "58255"
  },
  {
    "id": 331613,
    "province_id": 33,
    "regency_id": 3316,
    "district_id": 331613,
    "value": "Karanggeneng",
    "postal_code": "58255"
  },
  {
    "id": 331613,
    "province_id": 33,
    "regency_id": 3316,
    "district_id": 331613,
    "value": "Kedungwaru",
    "postal_code": "58255"
  },
  {
    "id": 331613,
    "province_id": 33,
    "regency_id": 3316,
    "district_id": 331613,
    "value": "Kemiri",
    "postal_code": "58255"
  },
  {
    "id": 331613,
    "province_id": 33,
    "regency_id": 3316,
    "district_id": 331613,
    "value": "Klokah",
    "postal_code": "58255"
  },
  {
    "id": 331613,
    "province_id": 33,
    "regency_id": 3316,
    "district_id": 331613,
    "value": "Kodokan",
    "postal_code": "58255"
  },
  {
    "id": 331613,
    "province_id": 33,
    "regency_id": 3316,
    "district_id": 331613,
    "value": "Kunduran",
    "postal_code": "58255"
  },
  {
    "id": 331613,
    "province_id": 33,
    "regency_id": 3316,
    "district_id": 331613,
    "value": "Muraharjo",
    "postal_code": "58255"
  },
  {
    "id": 331613,
    "province_id": 33,
    "regency_id": 3316,
    "district_id": 331613,
    "value": "Ngawenombo",
    "postal_code": "58255"
  },
  {
    "id": 331613,
    "province_id": 33,
    "regency_id": 3316,
    "district_id": 331613,
    "value": "Ngilen",
    "postal_code": "58255"
  },
  {
    "id": 331613,
    "province_id": 33,
    "regency_id": 3316,
    "district_id": 331613,
    "value": "plosorejo (Ploso Rejo)",
    "postal_code": "58255"
  },
  {
    "id": 331613,
    "province_id": 33,
    "regency_id": 3316,
    "district_id": 331613,
    "value": "Sambiroto",
    "postal_code": "58255"
  },
  {
    "id": 331613,
    "province_id": 33,
    "regency_id": 3316,
    "district_id": 331613,
    "value": "Sempu",
    "postal_code": "58255"
  },
  {
    "id": 331613,
    "province_id": 33,
    "regency_id": 3316,
    "district_id": 331613,
    "value": "Sendangwates",
    "postal_code": "58255"
  },
  {
    "id": 331613,
    "province_id": 33,
    "regency_id": 3316,
    "district_id": 331613,
    "value": "Sonokidul",
    "postal_code": "58255"
  },
  {
    "id": 331613,
    "province_id": 33,
    "regency_id": 3316,
    "district_id": 331613,
    "value": "Tawangrejo",
    "postal_code": "58255"
  }
]