[
  {
    "id": 920118,
    "province_id": 92,
    "regency_id": 9201,
    "district_id": 920118,
    "value": "Betwaf (Betwaft)",
    "postal_code": "98437"
  },
  {
    "id": 920118,
    "province_id": 92,
    "regency_id": 9201,
    "district_id": 920118,
    "value": "Byoklokfle (Byaklokfle)",
    "postal_code": "98437"
  },
  {
    "id": 920118,
    "province_id": 92,
    "regency_id": 9201,
    "district_id": 920118,
    "value": "Cokhif (Cokif)",
    "postal_code": "98437"
  },
  {
    "id": 920118,
    "province_id": 92,
    "regency_id": 9201,
    "district_id": 920118,
    "value": "Klasawon",
    "postal_code": "98437"
  },
  {
    "id": 920118,
    "province_id": 92,
    "regency_id": 9201,
    "district_id": 920118,
    "value": "Kmasen",
    "postal_code": "98437"
  },
  {
    "id": 920118,
    "province_id": 92,
    "regency_id": 9201,
    "district_id": 920118,
    "value": "Mlawen",
    "postal_code": "98437"
  },
  {
    "id": 920118,
    "province_id": 92,
    "regency_id": 9201,
    "district_id": 920118,
    "value": "Samolslo",
    "postal_code": "98437"
  },
  {
    "id": 920118,
    "province_id": 92,
    "regency_id": 9201,
    "district_id": 920118,
    "value": "Sas",
    "postal_code": "98437"
  },
  {
    "id": 920118,
    "province_id": 92,
    "regency_id": 9201,
    "district_id": 920118,
    "value": "Tbotjin (Totjin)",
    "postal_code": "98437"
  },
  {
    "id": 920118,
    "province_id": 92,
    "regency_id": 9201,
    "district_id": 920118,
    "value": "Wilty",
    "postal_code": "98437"
  },
  {
    "id": 920118,
    "province_id": 92,
    "regency_id": 9201,
    "district_id": 920118,
    "value": "Yurkaden",
    "postal_code": "98437"
  }
]