[
  {
    "id": 320903,
    "province_id": 32,
    "regency_id": 3209,
    "district_id": 320903,
    "value": "Ambulu",
    "postal_code": "45192"
  },
  {
    "id": 320903,
    "province_id": 32,
    "regency_id": 3209,
    "district_id": 320903,
    "value": "Astanalanggar",
    "postal_code": "45192"
  },
  {
    "id": 320903,
    "province_id": 32,
    "regency_id": 3209,
    "district_id": 320903,
    "value": "Barisan",
    "postal_code": "45192"
  },
  {
    "id": 320903,
    "province_id": 32,
    "regency_id": 3209,
    "district_id": 320903,
    "value": "Kalirahayu",
    "postal_code": "45192"
  },
  {
    "id": 320903,
    "province_id": 32,
    "regency_id": 3209,
    "district_id": 320903,
    "value": "Kalisari",
    "postal_code": "45192"
  },
  {
    "id": 320903,
    "province_id": 32,
    "regency_id": 3209,
    "district_id": 320903,
    "value": "Losari Kidul",
    "postal_code": "45192"
  },
  {
    "id": 320903,
    "province_id": 32,
    "regency_id": 3209,
    "district_id": 320903,
    "value": "Losari Lor",
    "postal_code": "45192"
  },
  {
    "id": 320903,
    "province_id": 32,
    "regency_id": 3209,
    "district_id": 320903,
    "value": "Mulyasari",
    "postal_code": "45192"
  },
  {
    "id": 320903,
    "province_id": 32,
    "regency_id": 3209,
    "district_id": 320903,
    "value": "Panggangsari",
    "postal_code": "45192"
  },
  {
    "id": 320903,
    "province_id": 32,
    "regency_id": 3209,
    "district_id": 320903,
    "value": "Tawangsari",
    "postal_code": "45192"
  }
]