[
  {
    "id": 321713,
    "province_id": 32,
    "regency_id": 3217,
    "district_id": 321713,
    "value": "Bojong",
    "postal_code": "40566"
  },
  {
    "id": 321713,
    "province_id": 32,
    "regency_id": 3217,
    "district_id": 321713,
    "value": "Bojongsalam",
    "postal_code": "40566"
  },
  {
    "id": 321713,
    "province_id": 32,
    "regency_id": 3217,
    "district_id": 321713,
    "value": "Cibedug",
    "postal_code": "40566"
  },
  {
    "id": 321713,
    "province_id": 32,
    "regency_id": 3217,
    "district_id": 321713,
    "value": "Cibitung",
    "postal_code": "40566"
  },
  {
    "id": 321713,
    "province_id": 32,
    "regency_id": 3217,
    "district_id": 321713,
    "value": "Cicadas",
    "postal_code": "40566"
  },
  {
    "id": 321713,
    "province_id": 32,
    "regency_id": 3217,
    "district_id": 321713,
    "value": "Cinengah",
    "postal_code": "40566"
  },
  {
    "id": 321713,
    "province_id": 32,
    "regency_id": 3217,
    "district_id": 321713,
    "value": "Sukamanah",
    "postal_code": "40566"
  },
  {
    "id": 321713,
    "province_id": 32,
    "regency_id": 3217,
    "district_id": 321713,
    "value": "Sukaresmi",
    "postal_code": "40566"
  }
]