[
  {
    "id": 6407162010,
    "province_id": 64,
    "regency_id": 6407,
    "district_id": 640716,
    "value": "Awai",
    "postal_code": "75776"
  },
  {
    "id": 6407162001,
    "province_id": 64,
    "regency_id": 6407,
    "district_id": 640716,
    "value": "Dempar",
    "postal_code": "75777"
  },
  {
    "id": 6407162005,
    "province_id": 64,
    "regency_id": 6407,
    "district_id": 640716,
    "value": "Intu Lingau",
    "postal_code": "75777"
  },
  {
    "id": 6407162003,
    "province_id": 64,
    "regency_id": 6407,
    "district_id": 640716,
    "value": "Jontai",
    "postal_code": "75777"
  },
  {
    "id": 6407162008,
    "province_id": 64,
    "regency_id": 6407,
    "district_id": 640716,
    "value": "Lakan Bilem",
    "postal_code": "75776"
  },
  {
    "id": 6407162006,
    "province_id": 64,
    "regency_id": 6407,
    "district_id": 640716,
    "value": "Mu'ut",
    "postal_code": "75776"
  },
  {
    "id": 6407162004,
    "province_id": 64,
    "regency_id": 6407,
    "district_id": 640716,
    "value": "Sembuan",
    "postal_code": "75777"
  },
  {
    "id": 6407162009,
    "province_id": 64,
    "regency_id": 6407,
    "district_id": 640716,
    "value": "Sentalar",
    "postal_code": "75776"
  },
  {
    "id": 6407162002,
    "province_id": 64,
    "regency_id": 6407,
    "district_id": 640716,
    "value": "Temula",
    "postal_code": "75777"
  },
  {
    "id": 6407162007,
    "province_id": 64,
    "regency_id": 6407,
    "district_id": 640716,
    "value": "Terajuk",
    "postal_code": "75776"
  }
]