[
  {
    "id": 750309,
    "province_id": 75,
    "regency_id": 7503,
    "district_id": 750309,
    "value": "Bilonlantunga (Bilolantuna)",
    "postal_code": "96571"
  },
  {
    "id": 750309,
    "province_id": 75,
    "regency_id": 7503,
    "district_id": 750309,
    "value": "Cendana Putih",
    "postal_code": "96571"
  },
  {
    "id": 750309,
    "province_id": 75,
    "regency_id": 7503,
    "district_id": 750309,
    "value": "Ilohuuwa",
    "postal_code": "96571"
  },
  {
    "id": 750309,
    "province_id": 75,
    "regency_id": 7503,
    "district_id": 750309,
    "value": "Inogaluma",
    "postal_code": "96571"
  },
  {
    "id": 750309,
    "province_id": 75,
    "regency_id": 7503,
    "district_id": 750309,
    "value": "Masiaga",
    "postal_code": "96571"
  },
  {
    "id": 750309,
    "province_id": 75,
    "regency_id": 7503,
    "district_id": 750309,
    "value": "Molamahu",
    "postal_code": "96571"
  },
  {
    "id": 750309,
    "province_id": 75,
    "regency_id": 7503,
    "district_id": 750309,
    "value": "Monano",
    "postal_code": "96571"
  },
  {
    "id": 750309,
    "province_id": 75,
    "regency_id": 7503,
    "district_id": 750309,
    "value": "Moodulio",
    "postal_code": "96571"
  },
  {
    "id": 750309,
    "province_id": 75,
    "regency_id": 7503,
    "district_id": 750309,
    "value": "Muara Bone",
    "postal_code": "96571"
  },
  {
    "id": 750309,
    "province_id": 75,
    "regency_id": 7503,
    "district_id": 750309,
    "value": "Permata",
    "postal_code": "96571"
  },
  {
    "id": 750309,
    "province_id": 75,
    "regency_id": 7503,
    "district_id": 750309,
    "value": "Sogitia",
    "postal_code": "96571"
  },
  {
    "id": 750309,
    "province_id": 75,
    "regency_id": 7503,
    "district_id": 750309,
    "value": "Taludaa",
    "postal_code": "96571"
  },
  {
    "id": 750309,
    "province_id": 75,
    "regency_id": 7503,
    "district_id": 750309,
    "value": "Tumbuh Mekar",
    "postal_code": "96571"
  },
  {
    "id": 750309,
    "province_id": 75,
    "regency_id": 7503,
    "district_id": 750309,
    "value": "Waluhu",
    "postal_code": "96571"
  }
]