[
  {
    "id": 351602,
    "province_id": 35,
    "regency_id": 3516,
    "district_id": 351602,
    "value": "Bakalan",
    "postal_code": "61372"
  },
  {
    "id": 351602,
    "province_id": 35,
    "regency_id": 3516,
    "district_id": 351602,
    "value": "Begaganlimo",
    "postal_code": "61372"
  },
  {
    "id": 351602,
    "province_id": 35,
    "regency_id": 3516,
    "district_id": 351602,
    "value": "Bening",
    "postal_code": "61372"
  },
  {
    "id": 351602,
    "province_id": 35,
    "regency_id": 3516,
    "district_id": 351602,
    "value": "Centong",
    "postal_code": "61372"
  },
  {
    "id": 351602,
    "province_id": 35,
    "regency_id": 3516,
    "district_id": 351602,
    "value": "Dilem",
    "postal_code": "61372"
  },
  {
    "id": 351602,
    "province_id": 35,
    "regency_id": 3516,
    "district_id": 351602,
    "value": "Gondang",
    "postal_code": "61372"
  },
  {
    "id": 351602,
    "province_id": 35,
    "regency_id": 3516,
    "district_id": 351602,
    "value": "Gumeng",
    "postal_code": "61372"
  },
  {
    "id": 351602,
    "province_id": 35,
    "regency_id": 3516,
    "district_id": 351602,
    "value": "Jatiduku (Jatidukuh)",
    "postal_code": "61372"
  },
  {
    "id": 351602,
    "province_id": 35,
    "regency_id": 3516,
    "district_id": 351602,
    "value": "Kalikatir",
    "postal_code": "61372"
  },
  {
    "id": 351602,
    "province_id": 35,
    "regency_id": 3516,
    "district_id": 351602,
    "value": "Karangkuten",
    "postal_code": "61372"
  },
  {
    "id": 351602,
    "province_id": 35,
    "regency_id": 3516,
    "district_id": 351602,
    "value": "Kebontunggul",
    "postal_code": "61372"
  },
  {
    "id": 351602,
    "province_id": 35,
    "regency_id": 3516,
    "district_id": 351602,
    "value": "Kemasantani",
    "postal_code": "61372"
  },
  {
    "id": 351602,
    "province_id": 35,
    "regency_id": 3516,
    "district_id": 351602,
    "value": "Ngembat",
    "postal_code": "61372"
  },
  {
    "id": 351602,
    "province_id": 35,
    "regency_id": 3516,
    "district_id": 351602,
    "value": "Padi",
    "postal_code": "61372"
  },
  {
    "id": 351602,
    "province_id": 35,
    "regency_id": 3516,
    "district_id": 351602,
    "value": "Pohjejer",
    "postal_code": "61372"
  },
  {
    "id": 351602,
    "province_id": 35,
    "regency_id": 3516,
    "district_id": 351602,
    "value": "Pugeran",
    "postal_code": "61372"
  },
  {
    "id": 351602,
    "province_id": 35,
    "regency_id": 3516,
    "district_id": 351602,
    "value": "Tawar",
    "postal_code": "61372"
  },
  {
    "id": 351602,
    "province_id": 35,
    "regency_id": 3516,
    "district_id": 351602,
    "value": "Wonoploso",
    "postal_code": "61372"
  }
]