[
  {
    "id": 610212,
    "province_id": 61,
    "regency_id": 6102,
    "district_id": 610212,
    "value": "Bukit Batu",
    "postal_code": "78371"
  },
  {
    "id": 610212,
    "province_id": 61,
    "regency_id": 6102,
    "district_id": 610212,
    "value": "Mendalok",
    "postal_code": "78371"
  },
  {
    "id": 610212,
    "province_id": 61,
    "regency_id": 6102,
    "district_id": 610212,
    "value": "Sei/Sungai Bundung Laut",
    "postal_code": "78371"
  },
  {
    "id": 610212,
    "province_id": 61,
    "regency_id": 6102,
    "district_id": 610212,
    "value": "Sei/Sungai Dungun",
    "postal_code": "78371"
  },
  {
    "id": 610212,
    "province_id": 61,
    "regency_id": 6102,
    "district_id": 610212,
    "value": "Sei/Sungai Duri I (Satu)",
    "postal_code": "78371"
  },
  {
    "id": 610212,
    "province_id": 61,
    "regency_id": 6102,
    "district_id": 610212,
    "value": "Sei/Sungai Duri II (Dua)",
    "postal_code": "78371"
  },
  {
    "id": 610212,
    "province_id": 61,
    "regency_id": 6102,
    "district_id": 610212,
    "value": "Sei/Sungai Kunyit Dalam",
    "postal_code": "78371"
  },
  {
    "id": 610212,
    "province_id": 61,
    "regency_id": 6102,
    "district_id": 610212,
    "value": "Sei/Sungai Kunyit Hulu",
    "postal_code": "78371"
  },
  {
    "id": 610212,
    "province_id": 61,
    "regency_id": 6102,
    "district_id": 610212,
    "value": "Sei/Sungai Kunyit Laut",
    "postal_code": "78371"
  },
  {
    "id": 610212,
    "province_id": 61,
    "regency_id": 6102,
    "district_id": 610212,
    "value": "Sei/Sungai Limau",
    "postal_code": "78371"
  },
  {
    "id": 610212,
    "province_id": 61,
    "regency_id": 6102,
    "district_id": 610212,
    "value": "Semparong Parit Raden",
    "postal_code": "78371"
  },
  {
    "id": 610212,
    "province_id": 61,
    "regency_id": 6102,
    "district_id": 610212,
    "value": "Semudun",
    "postal_code": "78371"
  }
]