[
  {
    "id": 1804192004,
    "province_id": 18,
    "regency_id": 1804,
    "district_id": 180419,
    "value": "Gunung Terang",
    "postal_code": "34866"
  },
  {
    "id": 1804192010,
    "province_id": 18,
    "regency_id": 1804,
    "district_id": 180419,
    "value": "Manggarai (Mangarai)",
    "postal_code": "34866"
  },
  {
    "id": 1804192008,
    "province_id": 18,
    "regency_id": 1804,
    "district_id": 180419,
    "value": "Rigis Jaya",
    "postal_code": "34866"
  },
  {
    "id": 1804192002,
    "province_id": 18,
    "regency_id": 1804,
    "district_id": 180419,
    "value": "Semarang Jaya",
    "postal_code": "34866"
  },
  {
    "id": 1804192001,
    "province_id": 18,
    "regency_id": 1804,
    "district_id": 180419,
    "value": "Sidodadi",
    "postal_code": "34866"
  },
  {
    "id": 1804192007,
    "province_id": 18,
    "regency_id": 1804,
    "district_id": 180419,
    "value": "Sinar Jaya",
    "postal_code": "34866"
  },
  {
    "id": 1804192006,
    "province_id": 18,
    "regency_id": 1804,
    "district_id": 180419,
    "value": "Sri Menanti",
    "postal_code": "34866"
  },
  {
    "id": 1804192009,
    "province_id": 18,
    "regency_id": 1804,
    "district_id": 180419,
    "value": "Suka Damai (Sukadamai)",
    "postal_code": "34866"
  },
  {
    "id": 1804192005,
    "province_id": 18,
    "regency_id": 1804,
    "district_id": 180419,
    "value": "Suka Jadi (Sukajadi)",
    "postal_code": "34866"
  },
  {
    "id": 1804192003,
    "province_id": 18,
    "regency_id": 1804,
    "district_id": 180419,
    "value": "Sumber Alam",
    "postal_code": "34866"
  }
]