[
  {
    "id": 9402082072,
    "province_id": 94,
    "regency_id": 9402,
    "district_id": 940208,
    "value": "Berime",
    "postal_code": "98922"
  },
  {
    "id": 9402082031,
    "province_id": 94,
    "regency_id": 9402,
    "district_id": 940208,
    "value": "Bigirage",
    "postal_code": "98922"
  },
  {
    "id": 9402082025,
    "province_id": 94,
    "regency_id": 9402,
    "district_id": 940208,
    "value": "Degi",
    "postal_code": "98922"
  },
  {
    "id": 9402082018,
    "province_id": 94,
    "regency_id": 9402,
    "district_id": 940208,
    "value": "Gigume",
    "postal_code": "98922"
  },
  {
    "id": 9402082022,
    "province_id": 94,
    "regency_id": 9402,
    "district_id": 940208,
    "value": "Gimanggen",
    "postal_code": "98922"
  },
  {
    "id": 9402082035,
    "province_id": 94,
    "regency_id": 9402,
    "district_id": 940208,
    "value": "Gobak",
    "postal_code": "98922"
  },
  {
    "id": 9402082071,
    "province_id": 94,
    "regency_id": 9402,
    "district_id": 940208,
    "value": "Gubupur",
    "postal_code": "98922"
  },
  {
    "id": 9402082033,
    "province_id": 94,
    "regency_id": 9402,
    "district_id": 940208,
    "value": "Inikimaluk",
    "postal_code": "98922"
  },
  {
    "id": 9402082026,
    "province_id": 94,
    "regency_id": 9402,
    "district_id": 940208,
    "value": "Jugumbelawi",
    "postal_code": "98922"
  },
  {
    "id": 9402082032,
    "province_id": 94,
    "regency_id": 9402,
    "district_id": 940208,
    "value": "Lumbuk",
    "postal_code": "98922"
  },
  {
    "id": 9402082010,
    "province_id": 94,
    "regency_id": 9402,
    "district_id": 940208,
    "value": "Melekom",
    "postal_code": "98922"
  },
  {
    "id": 9402082003,
    "province_id": 94,
    "regency_id": 9402,
    "district_id": 940208,
    "value": "Monia",
    "postal_code": "98922"
  },
  {
    "id": 9402082019,
    "province_id": 94,
    "regency_id": 9402,
    "district_id": 940208,
    "value": "Papua",
    "postal_code": "98922"
  },
  {
    "id": 9402082027,
    "province_id": 94,
    "regency_id": 9402,
    "district_id": 940208,
    "value": "Paralo",
    "postal_code": "98922"
  },
  {
    "id": 9402082008,
    "province_id": 94,
    "regency_id": 9402,
    "district_id": 940208,
    "value": "Tingginambut",
    "postal_code": "98922"
  },
  {
    "id": 9402082002,
    "province_id": 94,
    "regency_id": 9402,
    "district_id": 940208,
    "value": "Tinggineri",
    "postal_code": "98922"
  },
  {
    "id": 9402082020,
    "province_id": 94,
    "regency_id": 9402,
    "district_id": 940208,
    "value": "Tingginime",
    "postal_code": "98922"
  },
  {
    "id": 9402082021,
    "province_id": 94,
    "regency_id": 9402,
    "district_id": 940208,
    "value": "Tombo",
    "postal_code": "98922"
  },
  {
    "id": 9402082023,
    "province_id": 94,
    "regency_id": 9402,
    "district_id": 940208,
    "value": "Uragi",
    "postal_code": "98922"
  },
  {
    "id": 9402082028,
    "province_id": 94,
    "regency_id": 9402,
    "district_id": 940208,
    "value": "Womelagandan",
    "postal_code": "98922"
  },
  {
    "id": 9402082024,
    "province_id": 94,
    "regency_id": 9402,
    "district_id": 940208,
    "value": "Yamengga",
    "postal_code": "98922"
  },
  {
    "id": 9402082034,
    "province_id": 94,
    "regency_id": 9402,
    "district_id": 940208,
    "value": "Yonggun",
    "postal_code": "98922"
  }
]