[
  {
    "id": 9210092007,
    "province_id": 92,
    "regency_id": 9210,
    "district_id": 921009,
    "value": "Arne",
    "postal_code": "98248"
  },
  {
    "id": 9210092014,
    "province_id": 92,
    "regency_id": 9210,
    "district_id": 921009,
    "value": "Arne Timur",
    "postal_code": "98248"
  },
  {
    "id": 9210092009,
    "province_id": 92,
    "regency_id": 9210,
    "district_id": 921009,
    "value": "Aus Tiwit",
    "postal_code": "98248"
  },
  {
    "id": 9210092006,
    "province_id": 92,
    "regency_id": 9210,
    "district_id": 921009,
    "value": "Hohoyor",
    "postal_code": "98248"
  },
  {
    "id": 9210092010,
    "province_id": 92,
    "regency_id": 9210,
    "district_id": 921009,
    "value": "Johafah",
    "postal_code": "98248"
  },
  {
    "id": 9210092003,
    "province_id": 92,
    "regency_id": 9210,
    "district_id": 921009,
    "value": "Karetubun",
    "postal_code": "98248"
  },
  {
    "id": 9210092013,
    "province_id": 92,
    "regency_id": 9210,
    "district_id": 921009,
    "value": "Kfaa",
    "postal_code": "98248"
  },
  {
    "id": 9210092020,
    "province_id": 92,
    "regency_id": 9210,
    "district_id": 921009,
    "value": "Nauwita",
    "postal_code": "98248"
  },
  {
    "id": 9210092012,
    "province_id": 92,
    "regency_id": 9210,
    "district_id": 921009,
    "value": "Serma",
    "postal_code": "98248"
  },
  {
    "id": 9210092004,
    "province_id": 92,
    "regency_id": 9210,
    "district_id": 921009,
    "value": "Setta",
    "postal_code": "98248"
  },
  {
    "id": 9210092001,
    "province_id": 92,
    "regency_id": 9210,
    "district_id": 921009,
    "value": "Yubiah",
    "postal_code": "98248"
  },
  {
    "id": 9210092011,
    "province_id": 92,
    "regency_id": 9210,
    "district_id": 921009,
    "value": "Yukase",
    "postal_code": "98248"
  }
]