[
  {
    "id": 810515,
    "province_id": 81,
    "regency_id": 8105,
    "district_id": 810515,
    "value": "Bellis",
    "postal_code": "97524"
  },
  {
    "id": 810515,
    "province_id": 81,
    "regency_id": 8105,
    "district_id": 810515,
    "value": "Boinfia",
    "postal_code": "97524"
  },
  {
    "id": 810515,
    "province_id": 81,
    "regency_id": 8105,
    "district_id": 810515,
    "value": "Dawang",
    "postal_code": "97524"
  },
  {
    "id": 810515,
    "province_id": 81,
    "regency_id": 8105,
    "district_id": 810515,
    "value": "Kampung Baru",
    "postal_code": "97524"
  },
  {
    "id": 810515,
    "province_id": 81,
    "regency_id": 8105,
    "district_id": 810515,
    "value": "Karay",
    "postal_code": "97524"
  },
  {
    "id": 810515,
    "province_id": 81,
    "regency_id": 8105,
    "district_id": 810515,
    "value": "Madak",
    "postal_code": "97524"
  },
  {
    "id": 810515,
    "province_id": 81,
    "regency_id": 8105,
    "district_id": 810515,
    "value": "Nama Andan",
    "postal_code": "97524"
  },
  {
    "id": 810515,
    "province_id": 81,
    "regency_id": 8105,
    "district_id": 810515,
    "value": "Nama Lena",
    "postal_code": "97524"
  },
  {
    "id": 810515,
    "province_id": 81,
    "regency_id": 8105,
    "district_id": 810515,
    "value": "Solang",
    "postal_code": "97524"
  },
  {
    "id": 810515,
    "province_id": 81,
    "regency_id": 8105,
    "district_id": 810515,
    "value": "Tubir Wasiwang",
    "postal_code": "97524"
  },
  {
    "id": 810515,
    "province_id": 81,
    "regency_id": 8105,
    "district_id": 810515,
    "value": "Waru",
    "postal_code": "97524"
  }
]