[
  {
    "id": 1106162026,
    "province_id": 11,
    "regency_id": 1106,
    "district_id": 110616,
    "value": "Bak Sukon",
    "postal_code": "23364"
  },
  {
    "id": 1106162013,
    "province_id": 11,
    "regency_id": 1106,
    "district_id": 110616,
    "value": "Banda Safa (Bandasafa)",
    "postal_code": "23364"
  },
  {
    "id": 1106162011,
    "province_id": 11,
    "regency_id": 1106,
    "district_id": 110616,
    "value": "Barih Lhok",
    "postal_code": "23364"
  },
  {
    "id": 1106162014,
    "province_id": 11,
    "regency_id": 1106,
    "district_id": 110616,
    "value": "Bithak",
    "postal_code": "23364"
  },
  {
    "id": 1106162012,
    "province_id": 11,
    "regency_id": 1106,
    "district_id": 110616,
    "value": "Bueng Simek",
    "postal_code": "23364"
  },
  {
    "id": 1106162027,
    "province_id": 11,
    "regency_id": 1106,
    "district_id": 110616,
    "value": "Cot Bayu",
    "postal_code": "23364"
  },
  {
    "id": 1106162028,
    "province_id": 11,
    "regency_id": 1106,
    "district_id": 110616,
    "value": "Glee Jai",
    "postal_code": "23364"
  },
  {
    "id": 1106162009,
    "province_id": 11,
    "regency_id": 1106,
    "district_id": 110616,
    "value": "Ie Alang Dayah",
    "postal_code": "23364"
  },
  {
    "id": 1106162007,
    "province_id": 11,
    "regency_id": 1106,
    "district_id": 110616,
    "value": "Ie Alang Lamghui (Ie Alang Lam Ghui)",
    "postal_code": "23364"
  },
  {
    "id": 1106162006,
    "province_id": 11,
    "regency_id": 1106,
    "district_id": 110616,
    "value": "Ie Alang Lamkreumeuh (Ie Alang Lam Kreumeuh)",
    "postal_code": "23364"
  },
  {
    "id": 1106162008,
    "province_id": 11,
    "regency_id": 1106,
    "district_id": 110616,
    "value": "Ie Alang Mesjid",
    "postal_code": "23364"
  },
  {
    "id": 1106162023,
    "province_id": 11,
    "regency_id": 1106,
    "district_id": 110616,
    "value": "Keumireu",
    "postal_code": "23364"
  },
  {
    "id": 1106162029,
    "province_id": 11,
    "regency_id": 1106,
    "district_id": 110616,
    "value": "Keuruweung Blang",
    "postal_code": "23364"
  },
  {
    "id": 1106162030,
    "province_id": 11,
    "regency_id": 1106,
    "district_id": 110616,
    "value": "Keuruweung Krueng",
    "postal_code": "23364"
  },
  {
    "id": 1106162003,
    "province_id": 11,
    "regency_id": 1106,
    "district_id": 110616,
    "value": "Lam Aling/Alieng",
    "postal_code": "23364"
  },
  {
    "id": 1106162015,
    "province_id": 11,
    "regency_id": 1106,
    "district_id": 110616,
    "value": "Lambeugak (Lam Beugak)",
    "postal_code": "23364"
  },
  {
    "id": 1106162005,
    "province_id": 11,
    "regency_id": 1106,
    "district_id": 110616,
    "value": "Lamkleng (Lam Kleng / Kleeng)",
    "postal_code": "23364"
  },
  {
    "id": 1106162024,
    "province_id": 11,
    "regency_id": 1106,
    "district_id": 110616,
    "value": "Lamleuot (Lam Leuot)",
    "postal_code": "23364"
  },
  {
    "id": 1106162004,
    "province_id": 11,
    "regency_id": 1106,
    "district_id": 110616,
    "value": "Lamleupung (Lam Leupung)",
    "postal_code": "23364"
  },
  {
    "id": 1106162001,
    "province_id": 11,
    "regency_id": 1106,
    "district_id": 110616,
    "value": "Lampakuk",
    "postal_code": "23364"
  },
  {
    "id": 1106162002,
    "province_id": 11,
    "regency_id": 1106,
    "district_id": 110616,
    "value": "Lampoh Raja",
    "postal_code": "23364"
  },
  {
    "id": 1106162017,
    "province_id": 11,
    "regency_id": 1106,
    "district_id": 110616,
    "value": "Lamsie (Lamsiem)",
    "postal_code": "23364"
  },
  {
    "id": 1106162010,
    "province_id": 11,
    "regency_id": 1106,
    "district_id": 110616,
    "value": "Lamtui",
    "postal_code": "23364"
  },
  {
    "id": 1106162025,
    "province_id": 11,
    "regency_id": 1106,
    "district_id": 110616,
    "value": "Leupung Balue (Leupung Baleu / Balee)",
    "postal_code": "23364"
  },
  {
    "id": 1106162022,
    "province_id": 11,
    "regency_id": 1106,
    "district_id": 110616,
    "value": "Leupung Bruk/Bruek",
    "postal_code": "23364"
  },
  {
    "id": 1106162021,
    "province_id": 11,
    "regency_id": 1106,
    "district_id": 110616,
    "value": "Maheng",
    "postal_code": "23364"
  },
  {
    "id": 1106162016,
    "province_id": 11,
    "regency_id": 1106,
    "district_id": 110616,
    "value": "Pakuk",
    "postal_code": "23364"
  },
  {
    "id": 1106162020,
    "province_id": 11,
    "regency_id": 1106,
    "district_id": 110616,
    "value": "Pasar Lampaku (Pasar Lampakuk)",
    "postal_code": "23364"
  },
  {
    "id": 1106162018,
    "province_id": 11,
    "regency_id": 1106,
    "district_id": 110616,
    "value": "Sigapang",
    "postal_code": "23364"
  },
  {
    "id": 1106162031,
    "province_id": 11,
    "regency_id": 1106,
    "district_id": 110616,
    "value": "Siron Blang",
    "postal_code": "23364"
  },
  {
    "id": 1106162032,
    "province_id": 11,
    "regency_id": 1106,
    "district_id": 110616,
    "value": "Siron Krueng",
    "postal_code": "23364"
  },
  {
    "id": 1106162019,
    "province_id": 11,
    "regency_id": 1106,
    "district_id": 110616,
    "value": "Tutui/Tutue",
    "postal_code": "23364"
  }
]