[
  {
    "id": 930210,
    "province_id": 93,
    "regency_id": 9302,
    "district_id": 930210,
    "value": "Bangun",
    "postal_code": "99673"
  },
  {
    "id": 930210,
    "province_id": 93,
    "regency_id": 9302,
    "district_id": 930210,
    "value": "Domo",
    "postal_code": "99673"
  },
  {
    "id": 930210,
    "province_id": 93,
    "regency_id": 9302,
    "district_id": 930210,
    "value": "Hamkhu",
    "postal_code": "99673"
  },
  {
    "id": 930210,
    "province_id": 93,
    "regency_id": 9302,
    "district_id": 930210,
    "value": "Hello",
    "postal_code": "99673"
  },
  {
    "id": 930210,
    "province_id": 93,
    "regency_id": 9302,
    "district_id": 930210,
    "value": "Makmur",
    "postal_code": "99673"
  },
  {
    "id": 930210,
    "province_id": 93,
    "regency_id": 9302,
    "district_id": 930210,
    "value": "Navini",
    "postal_code": "99673"
  },
  {
    "id": 930210,
    "province_id": 93,
    "regency_id": 9302,
    "district_id": 930210,
    "value": "Sadar",
    "postal_code": "99673"
  },
  {
    "id": 930210,
    "province_id": 93,
    "regency_id": 9302,
    "district_id": 930210,
    "value": "Sohokanggo",
    "postal_code": "99673"
  }
]