[
  {
    "id": 7206182003,
    "province_id": 72,
    "regency_id": 7206,
    "district_id": 720618,
    "value": "Bahomoahi",
    "postal_code": "94980"
  },
  {
    "id": 7206182002,
    "province_id": 72,
    "regency_id": 7206,
    "district_id": 720618,
    "value": "Bahomotefe",
    "postal_code": "94980"
  },
  {
    "id": 7206182006,
    "province_id": 72,
    "regency_id": 7206,
    "district_id": 720618,
    "value": "Geresa",
    "postal_code": "94980"
  },
  {
    "id": 7206182005,
    "province_id": 72,
    "regency_id": 7206,
    "district_id": 720618,
    "value": "Kolono",
    "postal_code": "94980"
  },
  {
    "id": 7206182010,
    "province_id": 72,
    "regency_id": 7206,
    "district_id": 720618,
    "value": "Lahuafu",
    "postal_code": "94980"
  },
  {
    "id": 7206182007,
    "province_id": 72,
    "regency_id": 7206,
    "district_id": 720618,
    "value": "Laroue",
    "postal_code": "94980"
  },
  {
    "id": 7206182008,
    "province_id": 72,
    "regency_id": 7206,
    "district_id": 720618,
    "value": "Nambo",
    "postal_code": "94980"
  },
  {
    "id": 7206182001,
    "province_id": 72,
    "regency_id": 7206,
    "district_id": 720618,
    "value": "Oneputeh Jaya",
    "postal_code": "94980"
  },
  {
    "id": 7206182004,
    "province_id": 72,
    "regency_id": 7206,
    "district_id": 720618,
    "value": "Ululere",
    "postal_code": "94980"
  },
  {
    "id": 7206182009,
    "province_id": 72,
    "regency_id": 7206,
    "district_id": 720618,
    "value": "Unsongi",
    "postal_code": "94980"
  }
]