[
  {
    "id": 620709,
    "province_id": 62,
    "regency_id": 6207,
    "district_id": 620709,
    "value": "Batu Menangis (Batu Manangis)",
    "postal_code": "74281"
  },
  {
    "id": 620709,
    "province_id": 62,
    "regency_id": 6207,
    "district_id": 620709,
    "value": "Derawa",
    "postal_code": "74281"
  },
  {
    "id": 620709,
    "province_id": 62,
    "regency_id": 6207,
    "district_id": 620709,
    "value": "Durian Kait",
    "postal_code": "74281"
  },
  {
    "id": 620709,
    "province_id": 62,
    "regency_id": 6207,
    "district_id": 620709,
    "value": "Kalang",
    "postal_code": "74281"
  },
  {
    "id": 620709,
    "province_id": 62,
    "regency_id": 6207,
    "district_id": 620709,
    "value": "Sandul",
    "postal_code": "74281"
  },
  {
    "id": 620709,
    "province_id": 62,
    "regency_id": 6207,
    "district_id": 620709,
    "value": "Sebabi",
    "postal_code": "74281"
  },
  {
    "id": 620709,
    "province_id": 62,
    "regency_id": 6207,
    "district_id": 620709,
    "value": "Sehabu (Sahabu/Sebabu)",
    "postal_code": "74281"
  },
  {
    "id": 620709,
    "province_id": 62,
    "regency_id": 6207,
    "district_id": 620709,
    "value": "Suka Mulya",
    "postal_code": "74281"
  },
  {
    "id": 620709,
    "province_id": 62,
    "regency_id": 6207,
    "district_id": 620709,
    "value": "Wana Tirta",
    "postal_code": "74281"
  }
]