[
  {
    "id": 360119,
    "province_id": 36,
    "regency_id": 3601,
    "district_id": 360119,
    "value": "Banjarsari",
    "postal_code": "42253"
  },
  {
    "id": 360119,
    "province_id": 36,
    "regency_id": 3601,
    "district_id": 360119,
    "value": "Banyumundu (Bayumundu)",
    "postal_code": "42253"
  },
  {
    "id": 360119,
    "province_id": 36,
    "regency_id": 3601,
    "district_id": 360119,
    "value": "Campaka",
    "postal_code": "42253"
  },
  {
    "id": 360119,
    "province_id": 36,
    "regency_id": 3601,
    "district_id": 360119,
    "value": "Ciputri",
    "postal_code": "42253"
  },
  {
    "id": 360119,
    "province_id": 36,
    "regency_id": 3601,
    "district_id": 360119,
    "value": "Kadugemblo",
    "postal_code": "42253"
  },
  {
    "id": 360119,
    "province_id": 36,
    "regency_id": 3601,
    "district_id": 360119,
    "value": "Mandalasari",
    "postal_code": "42253"
  },
  {
    "id": 360119,
    "province_id": 36,
    "regency_id": 3601,
    "district_id": 360119,
    "value": "Palurahan",
    "postal_code": "42253"
  },
  {
    "id": 360119,
    "province_id": 36,
    "regency_id": 3601,
    "district_id": 360119,
    "value": "Saninten",
    "postal_code": "42253"
  },
  {
    "id": 360119,
    "province_id": 36,
    "regency_id": 3601,
    "district_id": 360119,
    "value": "Sukamanah",
    "postal_code": "42253"
  },
  {
    "id": 360119,
    "province_id": 36,
    "regency_id": 3601,
    "district_id": 360119,
    "value": "Sukasari",
    "postal_code": "42253"
  }
]