[
  {
    "id": 5107032002,
    "province_id": 51,
    "regency_id": 5107,
    "district_id": 510703,
    "value": "Antiga",
    "postal_code": "80871"
  },
  {
    "id": 5107032010,
    "province_id": 51,
    "regency_id": 5107,
    "district_id": 510703,
    "value": "Antiga Kelod",
    "postal_code": "80871"
  },
  {
    "id": 5107032001,
    "province_id": 51,
    "regency_id": 5107,
    "district_id": 510703,
    "value": "Gegelang",
    "postal_code": "80871"
  },
  {
    "id": 5107032004,
    "province_id": 51,
    "regency_id": 5107,
    "district_id": 510703,
    "value": "Manggis",
    "postal_code": "80871"
  },
  {
    "id": 5107032007,
    "province_id": 51,
    "regency_id": 5107,
    "district_id": 510703,
    "value": "Ngis",
    "postal_code": "80871"
  },
  {
    "id": 5107032005,
    "province_id": 51,
    "regency_id": 5107,
    "district_id": 510703,
    "value": "Nyuh Tebel",
    "postal_code": "80871"
  },
  {
    "id": 5107032009,
    "province_id": 51,
    "regency_id": 5107,
    "district_id": 510703,
    "value": "Padangbai",
    "postal_code": "80871"
  },
  {
    "id": 5107032011,
    "province_id": 51,
    "regency_id": 5107,
    "district_id": 510703,
    "value": "Pasedahan (Pesedahan)",
    "postal_code": "80871"
  },
  {
    "id": 5107032008,
    "province_id": 51,
    "regency_id": 5107,
    "district_id": 510703,
    "value": "Selumbung",
    "postal_code": "80871"
  },
  {
    "id": 5107032012,
    "province_id": 51,
    "regency_id": 5107,
    "district_id": 510703,
    "value": "Sengkidu",
    "postal_code": "80871"
  },
  {
    "id": 5107032006,
    "province_id": 51,
    "regency_id": 5107,
    "district_id": 510703,
    "value": "Tenganan",
    "postal_code": "80871"
  },
  {
    "id": 5107032003,
    "province_id": 51,
    "regency_id": 5107,
    "district_id": 510703,
    "value": "Ulakan",
    "postal_code": "80871"
  }
]