[
  {
    "id": 7404232013,
    "province_id": 74,
    "regency_id": 7404,
    "district_id": 740423,
    "value": "Benteng",
    "postal_code": "93756"
  },
  {
    "id": 7404232007,
    "province_id": 74,
    "regency_id": 7404,
    "district_id": 740423,
    "value": "Bonelalo",
    "postal_code": "93756"
  },
  {
    "id": 7404232001,
    "province_id": 74,
    "regency_id": 7404,
    "district_id": 740423,
    "value": "Kakenauwe",
    "postal_code": "93756"
  },
  {
    "id": 7404231005,
    "province_id": 74,
    "regency_id": 7404,
    "district_id": 740423,
    "value": "Kamaru",
    "postal_code": "93756"
  },
  {
    "id": 7404232006,
    "province_id": 74,
    "regency_id": 7404,
    "district_id": 740423,
    "value": "Lasembangi",
    "postal_code": "93756"
  },
  {
    "id": 7404232003,
    "province_id": 74,
    "regency_id": 7404,
    "district_id": 740423,
    "value": "Lawele",
    "postal_code": "93756"
  },
  {
    "id": 7404232015,
    "province_id": 74,
    "regency_id": 7404,
    "district_id": 740423,
    "value": "Nambo",
    "postal_code": "93756"
  },
  {
    "id": 7404232010,
    "province_id": 74,
    "regency_id": 7404,
    "district_id": 740423,
    "value": "Sribatara",
    "postal_code": "93756"
  },
  {
    "id": 7404232004,
    "province_id": 74,
    "regency_id": 7404,
    "district_id": 740423,
    "value": "Suandala",
    "postal_code": "93756"
  },
  {
    "id": 7404232014,
    "province_id": 74,
    "regency_id": 7404,
    "district_id": 740423,
    "value": "Talaga Baru",
    "postal_code": "93756"
  },
  {
    "id": 7404232011,
    "province_id": 74,
    "regency_id": 7404,
    "district_id": 740423,
    "value": "Togomangura (Togo Mangura)",
    "postal_code": "93756"
  },
  {
    "id": 7404232009,
    "province_id": 74,
    "regency_id": 7404,
    "district_id": 740423,
    "value": "Wagari",
    "postal_code": "93756"
  },
  {
    "id": 7404232002,
    "province_id": 74,
    "regency_id": 7404,
    "district_id": 740423,
    "value": "Waoleona",
    "postal_code": "93756"
  },
  {
    "id": 7404232012,
    "province_id": 74,
    "regency_id": 7404,
    "district_id": 740423,
    "value": "Wasambaa",
    "postal_code": "93756"
  },
  {
    "id": 7404232008,
    "province_id": 74,
    "regency_id": 7404,
    "district_id": 740423,
    "value": "Wasuamba",
    "postal_code": "93756"
  }
]