[
  {
    "id": 640809,
    "province_id": 64,
    "regency_id": 6408,
    "district_id": 640809,
    "value": "Keraitan",
    "postal_code": "75618"
  },
  {
    "id": 640809,
    "province_id": 64,
    "regency_id": 6408,
    "district_id": 640809,
    "value": "Muara Bengalon",
    "postal_code": "75618"
  },
  {
    "id": 640809,
    "province_id": 64,
    "regency_id": 6408,
    "district_id": 640809,
    "value": "Sekerat",
    "postal_code": "75618"
  },
  {
    "id": 640809,
    "province_id": 64,
    "regency_id": 6408,
    "district_id": 640809,
    "value": "Sepaso (Sepaso Induk)",
    "postal_code": "75618"
  },
  {
    "id": 640809,
    "province_id": 64,
    "regency_id": 6408,
    "district_id": 640809,
    "value": "Sepaso Barat",
    "postal_code": "75618"
  },
  {
    "id": 640809,
    "province_id": 64,
    "regency_id": 6408,
    "district_id": 640809,
    "value": "Sepaso Selatan",
    "postal_code": "75618"
  },
  {
    "id": 640809,
    "province_id": 64,
    "regency_id": 6408,
    "district_id": 640809,
    "value": "Sepaso Timur",
    "postal_code": "75618"
  },
  {
    "id": 640809,
    "province_id": 64,
    "regency_id": 6408,
    "district_id": 640809,
    "value": "Tebangan Lebak/Lembak",
    "postal_code": "75618"
  },
  {
    "id": 640809,
    "province_id": 64,
    "regency_id": 6408,
    "district_id": 640809,
    "value": "Tepian Baru",
    "postal_code": "75618"
  },
  {
    "id": 640809,
    "province_id": 64,
    "regency_id": 6408,
    "district_id": 640809,
    "value": "Tepian Indah",
    "postal_code": "75618"
  },
  {
    "id": 640809,
    "province_id": 64,
    "regency_id": 6408,
    "district_id": 640809,
    "value": "Tepian Langsat",
    "postal_code": "75618"
  }
]