[
  {
    "id": 720802,
    "province_id": 72,
    "regency_id": 7208,
    "district_id": 720802,
    "value": "Aloo",
    "postal_code": "94474"
  },
  {
    "id": 720802,
    "province_id": 72,
    "regency_id": 7208,
    "district_id": 720802,
    "value": "Ampibabo",
    "postal_code": "94474"
  },
  {
    "id": 720802,
    "province_id": 72,
    "regency_id": 7208,
    "district_id": 720802,
    "value": "Ampibabo Timur",
    "postal_code": "94474"
  },
  {
    "id": 720802,
    "province_id": 72,
    "regency_id": 7208,
    "district_id": 720802,
    "value": "Ampibabo Utara",
    "postal_code": "94474"
  },
  {
    "id": 720802,
    "province_id": 72,
    "regency_id": 7208,
    "district_id": 720802,
    "value": "Buranga",
    "postal_code": "94474"
  },
  {
    "id": 720802,
    "province_id": 72,
    "regency_id": 7208,
    "district_id": 720802,
    "value": "Lemo",
    "postal_code": "94474"
  },
  {
    "id": 720802,
    "province_id": 72,
    "regency_id": 7208,
    "district_id": 720802,
    "value": "Lemo Tengah",
    "postal_code": "94474"
  },
  {
    "id": 720802,
    "province_id": 72,
    "regency_id": 7208,
    "district_id": 720802,
    "value": "Lemo Utara",
    "postal_code": "94474"
  },
  {
    "id": 720802,
    "province_id": 72,
    "regency_id": 7208,
    "district_id": 720802,
    "value": "Ogolugus",
    "postal_code": "94474"
  },
  {
    "id": 720802,
    "province_id": 72,
    "regency_id": 7208,
    "district_id": 720802,
    "value": "Pangku",
    "postal_code": "94474"
  },
  {
    "id": 720802,
    "province_id": 72,
    "regency_id": 7208,
    "district_id": 720802,
    "value": "Paranggi",
    "postal_code": "94474"
  },
  {
    "id": 720802,
    "province_id": 72,
    "regency_id": 7208,
    "district_id": 720802,
    "value": "Sidole",
    "postal_code": "94474"
  },
  {
    "id": 720802,
    "province_id": 72,
    "regency_id": 7208,
    "district_id": 720802,
    "value": "Sidole Barat",
    "postal_code": "94474"
  },
  {
    "id": 720802,
    "province_id": 72,
    "regency_id": 7208,
    "district_id": 720802,
    "value": "Sidole Timur",
    "postal_code": "94474"
  },
  {
    "id": 720802,
    "province_id": 72,
    "regency_id": 7208,
    "district_id": 720802,
    "value": "Tanampedagi (Tamanpedagi)",
    "postal_code": "94474"
  },
  {
    "id": 720802,
    "province_id": 72,
    "regency_id": 7208,
    "district_id": 720802,
    "value": "Toga",
    "postal_code": "94474"
  },
  {
    "id": 720802,
    "province_id": 72,
    "regency_id": 7208,
    "district_id": 720802,
    "value": "Tolole",
    "postal_code": "94474"
  },
  {
    "id": 720802,
    "province_id": 72,
    "regency_id": 7208,
    "district_id": 720802,
    "value": "Tolole Raya",
    "postal_code": "94474"
  },
  {
    "id": 720802,
    "province_id": 72,
    "regency_id": 7208,
    "district_id": 720802,
    "value": "Tombi",
    "postal_code": "94474"
  }
]