[
  {
    "id": 530516,
    "province_id": 53,
    "regency_id": 5305,
    "district_id": 530516,
    "value": "Aramaba",
    "postal_code": "85883"
  },
  {
    "id": 530516,
    "province_id": 53,
    "regency_id": 5305,
    "district_id": 530516,
    "value": "Bagang",
    "postal_code": "85883"
  },
  {
    "id": 530516,
    "province_id": 53,
    "regency_id": 5305,
    "district_id": 530516,
    "value": "Delaki",
    "postal_code": "85883"
  },
  {
    "id": 530516,
    "province_id": 53,
    "regency_id": 5305,
    "district_id": 530516,
    "value": "Eka Jaya",
    "postal_code": "85883"
  },
  {
    "id": 530516,
    "province_id": 53,
    "regency_id": 5305,
    "district_id": 530516,
    "value": "Mauta",
    "postal_code": "85883"
  },
  {
    "id": 530516,
    "province_id": 53,
    "regency_id": 5305,
    "district_id": 530516,
    "value": "Muriabang",
    "postal_code": "85883"
  },
  {
    "id": 530516,
    "province_id": 53,
    "regency_id": 5305,
    "district_id": 530516,
    "value": "Tamakh",
    "postal_code": "85883"
  },
  {
    "id": 530516,
    "province_id": 53,
    "regency_id": 5305,
    "district_id": 530516,
    "value": "Toang",
    "postal_code": "85883"
  },
  {
    "id": 530516,
    "province_id": 53,
    "regency_id": 5305,
    "district_id": 530516,
    "value": "Tubbe (Tube)",
    "postal_code": "85883"
  },
  {
    "id": 530516,
    "province_id": 53,
    "regency_id": 5305,
    "district_id": 530516,
    "value": "Tude",
    "postal_code": "85883"
  }
]