[
  {
    "id": 710801,
    "province_id": 71,
    "regency_id": 7108,
    "district_id": 710801,
    "value": "Ampeng Sembeka",
    "postal_code": "95762"
  },
  {
    "id": 710801,
    "province_id": 71,
    "regency_id": 7108,
    "district_id": 710801,
    "value": "Busisingo",
    "postal_code": "95762"
  },
  {
    "id": 710801,
    "province_id": 71,
    "regency_id": 7108,
    "district_id": 710801,
    "value": "Busisingo Utara",
    "postal_code": "95762"
  },
  {
    "id": 710801,
    "province_id": 71,
    "regency_id": 7108,
    "district_id": 710801,
    "value": "Mokusato",
    "postal_code": "95762"
  },
  {
    "id": 710801,
    "province_id": 71,
    "regency_id": 7108,
    "district_id": 710801,
    "value": "Monompia",
    "postal_code": "95762"
  },
  {
    "id": 710801,
    "province_id": 71,
    "regency_id": 7108,
    "district_id": 710801,
    "value": "Pangkusa",
    "postal_code": "95762"
  },
  {
    "id": 710801,
    "province_id": 71,
    "regency_id": 7108,
    "district_id": 710801,
    "value": "Sampiro",
    "postal_code": "95762"
  },
  {
    "id": 710801,
    "province_id": 71,
    "regency_id": 7108,
    "district_id": 710801,
    "value": "Sang Tombolang (Sangtombolang)",
    "postal_code": "95762"
  },
  {
    "id": 710801,
    "province_id": 71,
    "regency_id": 7108,
    "district_id": 710801,
    "value": "Sangkub Empat (Sanglup Empat)",
    "postal_code": "95762"
  },
  {
    "id": 710801,
    "province_id": 71,
    "regency_id": 7108,
    "district_id": 710801,
    "value": "Sangkub Timur",
    "postal_code": "95762"
  },
  {
    "id": 710801,
    "province_id": 71,
    "regency_id": 7108,
    "district_id": 710801,
    "value": "Sangkup I (Sangkub I)",
    "postal_code": "95762"
  },
  {
    "id": 710801,
    "province_id": 71,
    "regency_id": 7108,
    "district_id": 710801,
    "value": "Sangkup II (Sangkub II)",
    "postal_code": "95762"
  },
  {
    "id": 710801,
    "province_id": 71,
    "regency_id": 7108,
    "district_id": 710801,
    "value": "Sangkup III (Sangkub III)",
    "postal_code": "95762"
  },
  {
    "id": 710801,
    "province_id": 71,
    "regency_id": 7108,
    "district_id": 710801,
    "value": "Sidodadi",
    "postal_code": "95762"
  },
  {
    "id": 710801,
    "province_id": 71,
    "regency_id": 7108,
    "district_id": 710801,
    "value": "Suka Makmur",
    "postal_code": "95762"
  },
  {
    "id": 710801,
    "province_id": 71,
    "regency_id": 7108,
    "district_id": 710801,
    "value": "Tombolango",
    "postal_code": "95762"
  }
]