[
  {
    "id": 321121,
    "province_id": 32,
    "regency_id": 3211,
    "district_id": 321121,
    "value": "Cikaramas",
    "postal_code": "45352"
  },
  {
    "id": 321121,
    "province_id": 32,
    "regency_id": 3211,
    "district_id": 321121,
    "value": "Jingkang",
    "postal_code": "45352"
  },
  {
    "id": 321121,
    "province_id": 32,
    "regency_id": 3211,
    "district_id": 321121,
    "value": "Kamal",
    "postal_code": "45352"
  },
  {
    "id": 321121,
    "province_id": 32,
    "regency_id": 3211,
    "district_id": 321121,
    "value": "Kertamukti",
    "postal_code": "45352"
  },
  {
    "id": 321121,
    "province_id": 32,
    "regency_id": 3211,
    "district_id": 321121,
    "value": "Sukamukti",
    "postal_code": "45352"
  },
  {
    "id": 321121,
    "province_id": 32,
    "regency_id": 3211,
    "district_id": 321121,
    "value": "Sukatani",
    "postal_code": "45352"
  },
  {
    "id": 321121,
    "province_id": 32,
    "regency_id": 3211,
    "district_id": 321121,
    "value": "Tanjung Medar (Tanjungmedar)",
    "postal_code": "45352"
  },
  {
    "id": 321121,
    "province_id": 32,
    "regency_id": 3211,
    "district_id": 321121,
    "value": "Tanjungwangi",
    "postal_code": "45352"
  },
  {
    "id": 321121,
    "province_id": 32,
    "regency_id": 3211,
    "district_id": 321121,
    "value": "Wargaluyu",
    "postal_code": "45352"
  }
]