[
  {
    "id": 950111,
    "province_id": 95,
    "regency_id": 9501,
    "district_id": 950111,
    "value": "Aipakma",
    "postal_code": "99549"
  },
  {
    "id": 950111,
    "province_id": 95,
    "regency_id": 9501,
    "district_id": 950111,
    "value": "Akorek",
    "postal_code": "99549"
  },
  {
    "id": 950111,
    "province_id": 95,
    "regency_id": 9501,
    "district_id": 950111,
    "value": "Bitti",
    "postal_code": "99549"
  },
  {
    "id": 950111,
    "province_id": 95,
    "regency_id": 9501,
    "district_id": 950111,
    "value": "Manili",
    "postal_code": "99549"
  },
  {
    "id": 950111,
    "province_id": 95,
    "regency_id": 9501,
    "district_id": 950111,
    "value": "Pilimo",
    "postal_code": "99549"
  },
  {
    "id": 950111,
    "province_id": 95,
    "regency_id": 9501,
    "district_id": 950111,
    "value": "Taganik",
    "postal_code": "99549"
  },
  {
    "id": 950111,
    "province_id": 95,
    "regency_id": 9501,
    "district_id": 950111,
    "value": "Tumun",
    "postal_code": "99549"
  },
  {
    "id": 950111,
    "province_id": 95,
    "regency_id": 9501,
    "district_id": 950111,
    "value": "Wamanuk Dua",
    "postal_code": "99549"
  },
  {
    "id": 950111,
    "province_id": 95,
    "regency_id": 9501,
    "district_id": 950111,
    "value": "Wananuk",
    "postal_code": "99549"
  },
  {
    "id": 950111,
    "province_id": 95,
    "regency_id": 9501,
    "district_id": 950111,
    "value": "Wugurima",
    "postal_code": "99549"
  },
  {
    "id": 950111,
    "province_id": 95,
    "regency_id": 9501,
    "district_id": 950111,
    "value": "Yalengga (Yelengga)",
    "postal_code": "99549"
  }
]