[
  {
    "id": 911903,
    "province_id": 91,
    "regency_id": 9119,
    "district_id": 911903,
    "value": "Douwbo (Doubo)",
    "postal_code": "98573"
  },
  {
    "id": 911903,
    "province_id": 91,
    "regency_id": 9119,
    "district_id": 911903,
    "value": "Duber",
    "postal_code": "98573"
  },
  {
    "id": 911903,
    "province_id": 91,
    "regency_id": 9119,
    "district_id": 911903,
    "value": "Marsram",
    "postal_code": "98573"
  },
  {
    "id": 911903,
    "province_id": 91,
    "regency_id": 9119,
    "district_id": 911903,
    "value": "Sauyas",
    "postal_code": "98573"
  },
  {
    "id": 911903,
    "province_id": 91,
    "regency_id": 9119,
    "district_id": 911903,
    "value": "Sorendidori (Sorendiweri)",
    "postal_code": "98573"
  },
  {
    "id": 911903,
    "province_id": 91,
    "regency_id": 9119,
    "district_id": 911903,
    "value": "Syurdori",
    "postal_code": "98573"
  },
  {
    "id": 911903,
    "province_id": 91,
    "regency_id": 9119,
    "district_id": 911903,
    "value": "Wafor",
    "postal_code": "98573"
  },
  {
    "id": 911903,
    "province_id": 91,
    "regency_id": 9119,
    "district_id": 911903,
    "value": "Waryesi",
    "postal_code": "98573"
  },
  {
    "id": 911903,
    "province_id": 91,
    "regency_id": 9119,
    "district_id": 911903,
    "value": "Wombonda",
    "postal_code": "98573"
  },
  {
    "id": 911903,
    "province_id": 91,
    "regency_id": 9119,
    "district_id": 911903,
    "value": "Yawerma",
    "postal_code": "98573"
  }
]