[
  {
    "id": 9206022008,
    "province_id": 92,
    "regency_id": 9206,
    "district_id": 920602,
    "value": "Anajero",
    "postal_code": "98163"
  },
  {
    "id": 9206022014,
    "province_id": 92,
    "regency_id": 9206,
    "district_id": 920602,
    "value": "Mekiesefeb",
    "postal_code": "98163"
  },
  {
    "id": 9206022007,
    "province_id": 92,
    "regency_id": 9206,
    "district_id": 920602,
    "value": "Menggerba",
    "postal_code": "98163"
  },
  {
    "id": 9206022001,
    "province_id": 92,
    "regency_id": 9206,
    "district_id": 920602,
    "value": "Merdey",
    "postal_code": "98163"
  },
  {
    "id": 9206022002,
    "province_id": 92,
    "regency_id": 9206,
    "district_id": 920602,
    "value": "Meryeb",
    "postal_code": "98163"
  },
  {
    "id": 9206022020,
    "province_id": 92,
    "regency_id": 9206,
    "district_id": 920602,
    "value": "Meyetga",
    "postal_code": "98163"
  },
  {
    "id": 9206022004,
    "province_id": 92,
    "regency_id": 9206,
    "district_id": 920602,
    "value": "Meyom",
    "postal_code": "98163"
  },
  {
    "id": 9206022010,
    "province_id": 92,
    "regency_id": 9206,
    "district_id": 920602,
    "value": "Mogromus",
    "postal_code": "98163"
  },
  {
    "id": 9206022011,
    "province_id": 92,
    "regency_id": 9206,
    "district_id": 920602,
    "value": "Morombuy",
    "postal_code": "98163"
  }
]