[
  {
    "id": 3527102009,
    "province_id": 35,
    "regency_id": 3527,
    "district_id": 352710,
    "value": "Bapelle",
    "postal_code": "69255"
  },
  {
    "id": 3527102015,
    "province_id": 35,
    "regency_id": 3527,
    "district_id": 352710,
    "value": "Gunung Rancak",
    "postal_code": "69255"
  },
  {
    "id": 3527102013,
    "province_id": 35,
    "regency_id": 3527,
    "district_id": 352710,
    "value": "Jelgung",
    "postal_code": "69255"
  },
  {
    "id": 3527102008,
    "province_id": 35,
    "regency_id": 3527,
    "district_id": 352710,
    "value": "Lepelle",
    "postal_code": "69255"
  },
  {
    "id": 3527102016,
    "province_id": 35,
    "regency_id": 3527,
    "district_id": 352710,
    "value": "Pandiyangan",
    "postal_code": "69255"
  },
  {
    "id": 3527102014,
    "province_id": 35,
    "regency_id": 3527,
    "district_id": 352710,
    "value": "Robatal",
    "postal_code": "69255"
  },
  {
    "id": 3527102010,
    "province_id": 35,
    "regency_id": 3527,
    "district_id": 352710,
    "value": "Sawah Tengah",
    "postal_code": "69255"
  },
  {
    "id": 3527102011,
    "province_id": 35,
    "regency_id": 3527,
    "district_id": 352710,
    "value": "Torjunan",
    "postal_code": "69255"
  },
  {
    "id": 3527102012,
    "province_id": 35,
    "regency_id": 3527,
    "district_id": 352710,
    "value": "Tragih",
    "postal_code": "69255"
  }
]