[
  {
    "id": 350403,
    "province_id": 35,
    "regency_id": 3504,
    "district_id": 350403,
    "value": "Bangoan",
    "postal_code": "66229"
  },
  {
    "id": 350403,
    "province_id": 35,
    "regency_id": 3504,
    "district_id": 350403,
    "value": "Boro",
    "postal_code": "66229"
  },
  {
    "id": 350403,
    "province_id": 35,
    "regency_id": 3504,
    "district_id": 350403,
    "value": "Bulusari",
    "postal_code": "66229"
  },
  {
    "id": 350403,
    "province_id": 35,
    "regency_id": 3504,
    "district_id": 350403,
    "value": "Gendingan",
    "postal_code": "66229"
  },
  {
    "id": 350403,
    "province_id": 35,
    "regency_id": 3504,
    "district_id": 350403,
    "value": "Kedungwaru",
    "postal_code": "66224"
  },
  {
    "id": 350403,
    "province_id": 35,
    "regency_id": 3504,
    "district_id": 350403,
    "value": "Ketanon",
    "postal_code": "66226"
  },
  {
    "id": 350403,
    "province_id": 35,
    "regency_id": 3504,
    "district_id": 350403,
    "value": "Loderesan",
    "postal_code": "66229"
  },
  {
    "id": 350403,
    "province_id": 35,
    "regency_id": 3504,
    "district_id": 350403,
    "value": "Majan",
    "postal_code": "66229"
  },
  {
    "id": 350403,
    "province_id": 35,
    "regency_id": 3504,
    "district_id": 350403,
    "value": "Mangunsari",
    "postal_code": "66228"
  },
  {
    "id": 350403,
    "province_id": 35,
    "regency_id": 3504,
    "district_id": 350403,
    "value": "Ngujang",
    "postal_code": "66229"
  },
  {
    "id": 350403,
    "province_id": 35,
    "regency_id": 3504,
    "district_id": 350403,
    "value": "Plandaan",
    "postal_code": "66229"
  },
  {
    "id": 350403,
    "province_id": 35,
    "regency_id": 3504,
    "district_id": 350403,
    "value": "Plosokandang",
    "postal_code": "66221"
  },
  {
    "id": 350403,
    "province_id": 35,
    "regency_id": 3504,
    "district_id": 350403,
    "value": "Rejoagung",
    "postal_code": "66225"
  },
  {
    "id": 350403,
    "province_id": 35,
    "regency_id": 3504,
    "district_id": 350403,
    "value": "Ringinpitu",
    "postal_code": "66223"
  },
  {
    "id": 350403,
    "province_id": 35,
    "regency_id": 3504,
    "district_id": 350403,
    "value": "Simo",
    "postal_code": "66229"
  },
  {
    "id": 350403,
    "province_id": 35,
    "regency_id": 3504,
    "district_id": 350403,
    "value": "Tapan",
    "postal_code": "66229"
  },
  {
    "id": 350403,
    "province_id": 35,
    "regency_id": 3504,
    "district_id": 350403,
    "value": "Tawangsari",
    "postal_code": "66227"
  },
  {
    "id": 350403,
    "province_id": 35,
    "regency_id": 3504,
    "district_id": 350403,
    "value": "Tunggulsari",
    "postal_code": "66222"
  },
  {
    "id": 350403,
    "province_id": 35,
    "regency_id": 3504,
    "district_id": 350403,
    "value": "Winong",
    "postal_code": "66229"
  }
]