[
  {
    "id": 180910,
    "province_id": 18,
    "regency_id": 1809,
    "district_id": 180910,
    "value": "Batu Menyan",
    "postal_code": "35450"
  },
  {
    "id": 180910,
    "province_id": 18,
    "regency_id": 1809,
    "district_id": 180910,
    "value": "Cilimus",
    "postal_code": "35450"
  },
  {
    "id": 180910,
    "province_id": 18,
    "regency_id": 1809,
    "district_id": 180910,
    "value": "Gebang",
    "postal_code": "35450"
  },
  {
    "id": 180910,
    "province_id": 18,
    "regency_id": 1809,
    "district_id": 180910,
    "value": "Hanura",
    "postal_code": "35450"
  },
  {
    "id": 180910,
    "province_id": 18,
    "regency_id": 1809,
    "district_id": 180910,
    "value": "Hurun",
    "postal_code": "35450"
  },
  {
    "id": 180910,
    "province_id": 18,
    "regency_id": 1809,
    "district_id": 180910,
    "value": "Munca",
    "postal_code": "35450"
  },
  {
    "id": 180910,
    "province_id": 18,
    "regency_id": 1809,
    "district_id": 180910,
    "value": "Sidodadi",
    "postal_code": "35450"
  },
  {
    "id": 180910,
    "province_id": 18,
    "regency_id": 1809,
    "district_id": 180910,
    "value": "Sukajaya Lempasing",
    "postal_code": "35450"
  },
  {
    "id": 180910,
    "province_id": 18,
    "regency_id": 1809,
    "district_id": 180910,
    "value": "Talang Mulya",
    "postal_code": "35450"
  },
  {
    "id": 180910,
    "province_id": 18,
    "regency_id": 1809,
    "district_id": 180910,
    "value": "Tanjung Agung",
    "postal_code": "35450"
  }
]