[
  {
    "id": 940217,
    "province_id": 94,
    "regency_id": 9402,
    "district_id": 940217,
    "value": "Dokome",
    "postal_code": "98924"
  },
  {
    "id": 940217,
    "province_id": 94,
    "regency_id": 9402,
    "district_id": 940217,
    "value": "Imulineri",
    "postal_code": "98924"
  },
  {
    "id": 940217,
    "province_id": 94,
    "regency_id": 9402,
    "district_id": 940217,
    "value": "Kimibut",
    "postal_code": "98924"
  },
  {
    "id": 940217,
    "province_id": 94,
    "regency_id": 9402,
    "district_id": 940217,
    "value": "Molobak",
    "postal_code": "98924"
  },
  {
    "id": 940217,
    "province_id": 94,
    "regency_id": 9402,
    "district_id": 940217,
    "value": "Nowome",
    "postal_code": "98924"
  },
  {
    "id": 940217,
    "province_id": 94,
    "regency_id": 9402,
    "district_id": 940217,
    "value": "Nowoneri",
    "postal_code": "98924"
  },
  {
    "id": 940217,
    "province_id": 94,
    "regency_id": 9402,
    "district_id": 940217,
    "value": "Nungwawi",
    "postal_code": "98924"
  },
  {
    "id": 940217,
    "province_id": 94,
    "regency_id": 9402,
    "district_id": 940217,
    "value": "Purbalo",
    "postal_code": "98924"
  },
  {
    "id": 940217,
    "province_id": 94,
    "regency_id": 9402,
    "district_id": 940217,
    "value": "Wurage",
    "postal_code": "98924"
  }
]