[
  {
    "id": 121610,
    "province_id": 12,
    "regency_id": 1216,
    "district_id": 121610,
    "value": "Marpadan",
    "postal_code": "22451"
  },
  {
    "id": 121610,
    "province_id": 12,
    "regency_id": 1216,
    "district_id": 121610,
    "value": "Mungkur",
    "postal_code": "22451"
  },
  {
    "id": 121610,
    "province_id": 12,
    "regency_id": 1216,
    "district_id": 121610,
    "value": "Sibongkare",
    "postal_code": "22451"
  },
  {
    "id": 121610,
    "province_id": 12,
    "regency_id": 1216,
    "district_id": 121610,
    "value": "Sibongkare Sianju",
    "postal_code": "22451"
  },
  {
    "id": 121610,
    "province_id": 12,
    "regency_id": 1216,
    "district_id": 121610,
    "value": "Sihombu",
    "postal_code": "22451"
  },
  {
    "id": 121610,
    "province_id": 12,
    "regency_id": 1216,
    "district_id": 121610,
    "value": "Sihotang Hasugian Toruan",
    "postal_code": "22451"
  },
  {
    "id": 121610,
    "province_id": 12,
    "regency_id": 1216,
    "district_id": 121610,
    "value": "Simbara",
    "postal_code": "22451"
  },
  {
    "id": 121610,
    "province_id": 12,
    "regency_id": 1216,
    "district_id": 121610,
    "value": "Sitanduk",
    "postal_code": "22451"
  },
  {
    "id": 121610,
    "province_id": 12,
    "regency_id": 1216,
    "district_id": 121610,
    "value": "Tarabintang (Tara Bintang)",
    "postal_code": "22451"
  }
]