[
  {
    "id": 610803,
    "province_id": 61,
    "regency_id": 6108,
    "district_id": 610803,
    "value": "Bengkawe",
    "postal_code": "79362"
  },
  {
    "id": 610803,
    "province_id": 61,
    "regency_id": 6108,
    "district_id": 610803,
    "value": "Lamoanak (Lamo Anak)",
    "postal_code": "79362"
  },
  {
    "id": 610803,
    "province_id": 61,
    "regency_id": 6108,
    "district_id": 610803,
    "value": "Menjalin",
    "postal_code": "79362"
  },
  {
    "id": 610803,
    "province_id": 61,
    "regency_id": 6108,
    "district_id": 610803,
    "value": "Nangka",
    "postal_code": "79362"
  },
  {
    "id": 610803,
    "province_id": 61,
    "regency_id": 6108,
    "district_id": 610803,
    "value": "Raba",
    "postal_code": "79362"
  },
  {
    "id": 610803,
    "province_id": 61,
    "regency_id": 6108,
    "district_id": 610803,
    "value": "Re'es (Rees)",
    "postal_code": "79362"
  },
  {
    "id": 610803,
    "province_id": 61,
    "regency_id": 6108,
    "district_id": 610803,
    "value": "Sepahat",
    "postal_code": "79362"
  },
  {
    "id": 610803,
    "province_id": 61,
    "regency_id": 6108,
    "district_id": 610803,
    "value": "Tempoak",
    "postal_code": "79362"
  }
]