[
  {
    "id": 181105,
    "province_id": 18,
    "regency_id": 1811,
    "district_id": 181105,
    "value": "Agung Batin",
    "postal_code": "34699"
  },
  {
    "id": 181105,
    "province_id": 18,
    "regency_id": 1811,
    "district_id": 181105,
    "value": "Aji Jaya",
    "postal_code": "34699"
  },
  {
    "id": 181105,
    "province_id": 18,
    "regency_id": 1811,
    "district_id": 181105,
    "value": "Bangun Mulyo",
    "postal_code": "34699"
  },
  {
    "id": 181105,
    "province_id": 18,
    "regency_id": 1811,
    "district_id": 181105,
    "value": "Budi Aji",
    "postal_code": "34699"
  },
  {
    "id": 181105,
    "province_id": 18,
    "regency_id": 1811,
    "district_id": 181105,
    "value": "Harapan Jaya",
    "postal_code": "34699"
  },
  {
    "id": 181105,
    "province_id": 18,
    "regency_id": 1811,
    "district_id": 181105,
    "value": "Jaya Sakti",
    "postal_code": "34699"
  },
  {
    "id": 181105,
    "province_id": 18,
    "regency_id": 1811,
    "district_id": 181105,
    "value": "Margo Makmur",
    "postal_code": "34699"
  },
  {
    "id": 181105,
    "province_id": 18,
    "regency_id": 1811,
    "district_id": 181105,
    "value": "Margo Rahayu",
    "postal_code": "34699"
  },
  {
    "id": 181105,
    "province_id": 18,
    "regency_id": 1811,
    "district_id": 181105,
    "value": "Mulya Agung",
    "postal_code": "34699"
  },
  {
    "id": 181105,
    "province_id": 18,
    "regency_id": 1811,
    "district_id": 181105,
    "value": "Rejo Binangun",
    "postal_code": "34699"
  },
  {
    "id": 181105,
    "province_id": 18,
    "regency_id": 1811,
    "district_id": 181105,
    "value": "Simpang Mesuji",
    "postal_code": "34699"
  },
  {
    "id": 181105,
    "province_id": 18,
    "regency_id": 1811,
    "district_id": 181105,
    "value": "Simpang Pematang",
    "postal_code": "34699"
  },
  {
    "id": 181105,
    "province_id": 18,
    "regency_id": 1811,
    "district_id": 181105,
    "value": "Wira Bangun",
    "postal_code": "34699"
  }
]