[
  {
    "id": 357901,
    "province_id": 35,
    "regency_id": 3579,
    "district_id": 357901,
    "value": "Ngaglik",
    "postal_code": "65311"
  },
  {
    "id": 357901,
    "province_id": 35,
    "regency_id": 3579,
    "district_id": 357901,
    "value": "Oro-Oro Ombo",
    "postal_code": "65316"
  },
  {
    "id": 357901,
    "province_id": 35,
    "regency_id": 3579,
    "district_id": 357901,
    "value": "Pesanggrahan",
    "postal_code": "65313"
  },
  {
    "id": 357901,
    "province_id": 35,
    "regency_id": 3579,
    "district_id": 357901,
    "value": "Sidomulyo",
    "postal_code": "65317"
  },
  {
    "id": 357901,
    "province_id": 35,
    "regency_id": 3579,
    "district_id": 357901,
    "value": "Sisir",
    "postal_code": "65314"
  },
  {
    "id": 357901,
    "province_id": 35,
    "regency_id": 3579,
    "district_id": 357901,
    "value": "Songgokerto (Songgo Kerto)",
    "postal_code": "65312"
  },
  {
    "id": 357901,
    "province_id": 35,
    "regency_id": 3579,
    "district_id": 357901,
    "value": "Sumberejo (Sumber Rejo)",
    "postal_code": "65318"
  },
  {
    "id": 357901,
    "province_id": 35,
    "regency_id": 3579,
    "district_id": 357901,
    "value": "Temas",
    "postal_code": "65315"
  }
]