[
  {
    "id": 9503362004,
    "province_id": 95,
    "regency_id": 9503,
    "district_id": 950336,
    "value": "Banga",
    "postal_code": "99743"
  },
  {
    "id": 9503362008,
    "province_id": 95,
    "regency_id": 9503,
    "district_id": 950336,
    "value": "Erim",
    "postal_code": "99743"
  },
  {
    "id": 9503362002,
    "province_id": 95,
    "regency_id": 9503,
    "district_id": 950336,
    "value": "Kwelena",
    "postal_code": "99743"
  },
  {
    "id": 9503362006,
    "province_id": 95,
    "regency_id": 9503,
    "district_id": 950336,
    "value": "Musan",
    "postal_code": "99743"
  },
  {
    "id": 9503362007,
    "province_id": 95,
    "regency_id": 9503,
    "district_id": 950336,
    "value": "Salbi",
    "postal_code": "99743"
  },
  {
    "id": 9503362003,
    "province_id": 95,
    "regency_id": 9503,
    "district_id": 950336,
    "value": "Singokla",
    "postal_code": "99743"
  },
  {
    "id": 9503362005,
    "province_id": 95,
    "regency_id": 9503,
    "district_id": 950336,
    "value": "Soline",
    "postal_code": "99743"
  },
  {
    "id": 9503362001,
    "province_id": 95,
    "regency_id": 9503,
    "district_id": 950336,
    "value": "Weawen (Weanem)",
    "postal_code": "99743"
  }
]