[
  {
    "id": 6105042005,
    "province_id": 61,
    "regency_id": 6105,
    "district_id": 610504,
    "value": "Air Nyuruk",
    "postal_code": "78652"
  },
  {
    "id": 6105042015,
    "province_id": 61,
    "regency_id": 6105,
    "district_id": 610504,
    "value": "Batu Ampar",
    "postal_code": "78652"
  },
  {
    "id": 6105042020,
    "province_id": 61,
    "regency_id": 6105,
    "district_id": 610504,
    "value": "Batu Nyadi",
    "postal_code": "78652"
  },
  {
    "id": 6105042012,
    "province_id": 61,
    "regency_id": 6105,
    "district_id": 610504,
    "value": "Baung Sengatap",
    "postal_code": "78652"
  },
  {
    "id": 6105042014,
    "province_id": 61,
    "regency_id": 6105,
    "district_id": 610504,
    "value": "Beluh Mulyo",
    "postal_code": "78652"
  },
  {
    "id": 6105042017,
    "province_id": 61,
    "regency_id": 6105,
    "district_id": 610504,
    "value": "Betung Permai",
    "postal_code": "78652"
  },
  {
    "id": 6105042016,
    "province_id": 61,
    "regency_id": 6105,
    "district_id": 610504,
    "value": "Bukit Sidin Permai",
    "postal_code": "78652"
  },
  {
    "id": 6105042019,
    "province_id": 61,
    "regency_id": 6105,
    "district_id": 610504,
    "value": "Jentawang Hilir",
    "postal_code": "78652"
  },
  {
    "id": 6105042018,
    "province_id": 61,
    "regency_id": 6105,
    "district_id": 610504,
    "value": "Kenuak",
    "postal_code": "78652"
  },
  {
    "id": 6105042022,
    "province_id": 61,
    "regency_id": 6105,
    "district_id": 610504,
    "value": "Lepung Pantak",
    "postal_code": "78652"
  },
  {
    "id": 6105042025,
    "province_id": 61,
    "regency_id": 6105,
    "district_id": 610504,
    "value": "Maung",
    "postal_code": "78652"
  },
  {
    "id": 6105042024,
    "province_id": 61,
    "regency_id": 6105,
    "district_id": 610504,
    "value": "Mungguk Kelapa",
    "postal_code": "78652"
  },
  {
    "id": 6105042001,
    "province_id": 61,
    "regency_id": 6105,
    "district_id": 610504,
    "value": "Nanga Ketungau",
    "postal_code": "78652"
  },
  {
    "id": 6105042006,
    "province_id": 61,
    "regency_id": 6105,
    "district_id": 610504,
    "value": "Nanga Merkak",
    "postal_code": "78652"
  },
  {
    "id": 6105042008,
    "province_id": 61,
    "regency_id": 6105,
    "district_id": 610504,
    "value": "Nanga Sejirak",
    "postal_code": "78652"
  },
  {
    "id": 6105042023,
    "province_id": 61,
    "regency_id": 6105,
    "district_id": 610504,
    "value": "Pampang Dua",
    "postal_code": "78652"
  },
  {
    "id": 6105042021,
    "province_id": 61,
    "regency_id": 6105,
    "district_id": 610504,
    "value": "Ratu Damai",
    "postal_code": "78652"
  },
  {
    "id": 6105042007,
    "province_id": 61,
    "regency_id": 6105,
    "district_id": 610504,
    "value": "Sei/Sungai Deras",
    "postal_code": "78652"
  },
  {
    "id": 6105042004,
    "province_id": 61,
    "regency_id": 6105,
    "district_id": 610504,
    "value": "Sei/Sungai Mali",
    "postal_code": "78652"
  },
  {
    "id": 6105042013,
    "province_id": 61,
    "regency_id": 6105,
    "district_id": 610504,
    "value": "Semajau Mekar",
    "postal_code": "78652"
  },
  {
    "id": 6105042009,
    "province_id": 61,
    "regency_id": 6105,
    "district_id": 610504,
    "value": "Semuntai",
    "postal_code": "78652"
  },
  {
    "id": 6105042010,
    "province_id": 61,
    "regency_id": 6105,
    "district_id": 610504,
    "value": "Senibung",
    "postal_code": "78652"
  },
  {
    "id": 6105042002,
    "province_id": 61,
    "regency_id": 6105,
    "district_id": 610504,
    "value": "Setungkup",
    "postal_code": "78652"
  },
  {
    "id": 6105042011,
    "province_id": 61,
    "regency_id": 6105,
    "district_id": 610504,
    "value": "Tanjung Baung",
    "postal_code": "78652"
  }
]