[
  {
    "id": 1603032024,
    "province_id": 16,
    "regency_id": 1603,
    "district_id": 160303,
    "value": "Air Cekdam",
    "postal_code": "31172"
  },
  {
    "id": 1603032019,
    "province_id": 16,
    "regency_id": 1603,
    "district_id": 160303,
    "value": "Air Enau",
    "postal_code": "31172"
  },
  {
    "id": 1603032015,
    "province_id": 16,
    "regency_id": 1603,
    "district_id": 160303,
    "value": "Air Limau",
    "postal_code": "31172"
  },
  {
    "id": 1603032018,
    "province_id": 16,
    "regency_id": 1603,
    "district_id": 160303,
    "value": "Air Talas",
    "postal_code": "31172"
  },
  {
    "id": 1603032021,
    "province_id": 16,
    "regency_id": 1603,
    "district_id": 160303,
    "value": "Aur Duri",
    "postal_code": "31172"
  },
  {
    "id": 1603032001,
    "province_id": 16,
    "regency_id": 1603,
    "district_id": 160303,
    "value": "Gemawang",
    "postal_code": "31172"
  },
  {
    "id": 1603032006,
    "province_id": 16,
    "regency_id": 1603,
    "district_id": 160303,
    "value": "Gerinam",
    "postal_code": "31172"
  },
  {
    "id": 1603032003,
    "province_id": 16,
    "regency_id": 1603,
    "district_id": 160303,
    "value": "Jemenang",
    "postal_code": "31172"
  },
  {
    "id": 1603032023,
    "province_id": 16,
    "regency_id": 1603,
    "district_id": 160303,
    "value": "Kasih Dewa",
    "postal_code": "31172"
  },
  {
    "id": 1603032002,
    "province_id": 16,
    "regency_id": 1603,
    "district_id": 160303,
    "value": "Lubuk Raman",
    "postal_code": "31172"
  },
  {
    "id": 1603032017,
    "province_id": 16,
    "regency_id": 1603,
    "district_id": 160303,
    "value": "Manunggal Jaya",
    "postal_code": "31172"
  },
  {
    "id": 1603032020,
    "province_id": 16,
    "regency_id": 1603,
    "district_id": 160303,
    "value": "Manunggal Makmur",
    "postal_code": "31172"
  },
  {
    "id": 1603032016,
    "province_id": 16,
    "regency_id": 1603,
    "district_id": 160303,
    "value": "Muara Emburung",
    "postal_code": "31172"
  },
  {
    "id": 1603032014,
    "province_id": 16,
    "regency_id": 1603,
    "district_id": 160303,
    "value": "Suban Jeriji",
    "postal_code": "31172"
  },
  {
    "id": 1603032004,
    "province_id": 16,
    "regency_id": 1603,
    "district_id": 160303,
    "value": "Tanjung Menang",
    "postal_code": "31172"
  },
  {
    "id": 1603032005,
    "province_id": 16,
    "regency_id": 1603,
    "district_id": 160303,
    "value": "Tebat Agung",
    "postal_code": "31172"
  }
]