[
  {
    "id": 5203042010,
    "province_id": 52,
    "regency_id": 5203,
    "district_id": 520304,
    "value": "Darmasari",
    "postal_code": "83662"
  },
  {
    "id": 5203042009,
    "province_id": 52,
    "regency_id": 5203,
    "district_id": 520304,
    "value": "Gelora",
    "postal_code": "83662"
  },
  {
    "id": 5203042012,
    "province_id": 52,
    "regency_id": 5203,
    "district_id": 520304,
    "value": "Jeruk Manis",
    "postal_code": "83662"
  },
  {
    "id": 5203042007,
    "province_id": 52,
    "regency_id": 5203,
    "district_id": 520304,
    "value": "Kembang Kuning",
    "postal_code": "83662"
  },
  {
    "id": 5203042005,
    "province_id": 52,
    "regency_id": 5203,
    "district_id": 520304,
    "value": "Kota Raja (Kotaraja)",
    "postal_code": "83662"
  },
  {
    "id": 5203042004,
    "province_id": 52,
    "regency_id": 5203,
    "district_id": 520304,
    "value": "Loyok",
    "postal_code": "83662"
  },
  {
    "id": 5203042003,
    "province_id": 52,
    "regency_id": 5203,
    "district_id": 520304,
    "value": "Montong Baan (Montongbaan)",
    "postal_code": "83662"
  },
  {
    "id": 5203042008,
    "province_id": 52,
    "regency_id": 5203,
    "district_id": 520304,
    "value": "Montong Baan Selatan",
    "postal_code": "83662"
  },
  {
    "id": 5203042001,
    "province_id": 52,
    "regency_id": 5203,
    "district_id": 520304,
    "value": "Semaya",
    "postal_code": "83662"
  },
  {
    "id": 5203042002,
    "province_id": 52,
    "regency_id": 5203,
    "district_id": 520304,
    "value": "Sikur",
    "postal_code": "83662"
  },
  {
    "id": 5203042014,
    "province_id": 52,
    "regency_id": 5203,
    "district_id": 520304,
    "value": "Sikur Barat",
    "postal_code": "83662"
  },
  {
    "id": 5203042013,
    "province_id": 52,
    "regency_id": 5203,
    "district_id": 520304,
    "value": "Sikur Selatan",
    "postal_code": "83662"
  },
  {
    "id": 5203042006,
    "province_id": 52,
    "regency_id": 5203,
    "district_id": 520304,
    "value": "Tete Batu (Tetebatu)",
    "postal_code": "83662"
  },
  {
    "id": 5203042011,
    "province_id": 52,
    "regency_id": 5203,
    "district_id": 520304,
    "value": "Tetebatu Selatan",
    "postal_code": "83662"
  }
]