[
  {
    "id": 520409,
    "province_id": 52,
    "regency_id": 5204,
    "district_id": 520409,
    "value": "Batu Bangka",
    "postal_code": "84381"
  },
  {
    "id": 520409,
    "province_id": 52,
    "regency_id": 5204,
    "district_id": 520409,
    "value": "Berare",
    "postal_code": "84381"
  },
  {
    "id": 520409,
    "province_id": 52,
    "regency_id": 5204,
    "district_id": 520409,
    "value": "Kakiang",
    "postal_code": "84381"
  },
  {
    "id": 520409,
    "province_id": 52,
    "regency_id": 5204,
    "district_id": 520409,
    "value": "Labuhan Ijuk",
    "postal_code": "84381"
  },
  {
    "id": 520409,
    "province_id": 52,
    "regency_id": 5204,
    "district_id": 520409,
    "value": "Moyo",
    "postal_code": "84381"
  },
  {
    "id": 520409,
    "province_id": 52,
    "regency_id": 5204,
    "district_id": 520409,
    "value": "Moyo Mekar",
    "postal_code": "84381"
  },
  {
    "id": 520409,
    "province_id": 52,
    "regency_id": 5204,
    "district_id": 520409,
    "value": "Ngeru",
    "postal_code": "84381"
  },
  {
    "id": 520409,
    "province_id": 52,
    "regency_id": 5204,
    "district_id": 520409,
    "value": "Olat Rawa",
    "postal_code": "84381"
  },
  {
    "id": 520409,
    "province_id": 52,
    "regency_id": 5204,
    "district_id": 520409,
    "value": "Poto",
    "postal_code": "84381"
  },
  {
    "id": 520409,
    "province_id": 52,
    "regency_id": 5204,
    "district_id": 520409,
    "value": "Serading",
    "postal_code": "84381"
  }
]