[
  {
    "id": 360426,
    "province_id": 36,
    "regency_id": 3604,
    "district_id": 360426,
    "value": "Bojot",
    "postal_code": "42177"
  },
  {
    "id": 360426,
    "province_id": 36,
    "regency_id": 3604,
    "district_id": 360426,
    "value": "Cemplang",
    "postal_code": "42177"
  },
  {
    "id": 360426,
    "province_id": 36,
    "regency_id": 3604,
    "district_id": 360426,
    "value": "Jawilan",
    "postal_code": "42177"
  },
  {
    "id": 360426,
    "province_id": 36,
    "regency_id": 3604,
    "district_id": 360426,
    "value": "Junti",
    "postal_code": "42177"
  },
  {
    "id": 360426,
    "province_id": 36,
    "regency_id": 3604,
    "district_id": 360426,
    "value": "Kareo",
    "postal_code": "42177"
  },
  {
    "id": 360426,
    "province_id": 36,
    "regency_id": 3604,
    "district_id": 360426,
    "value": "Majasari",
    "postal_code": "42177"
  },
  {
    "id": 360426,
    "province_id": 36,
    "regency_id": 3604,
    "district_id": 360426,
    "value": "Pagintungan",
    "postal_code": "42177"
  },
  {
    "id": 360426,
    "province_id": 36,
    "regency_id": 3604,
    "district_id": 360426,
    "value": "Parakan",
    "postal_code": "42177"
  },
  {
    "id": 360426,
    "province_id": 36,
    "regency_id": 3604,
    "district_id": 360426,
    "value": "Pasirbuyut",
    "postal_code": "42177"
  }
]