[
  {
    "id": 1703222003,
    "province_id": 17,
    "regency_id": 1703,
    "district_id": 170322,
    "value": "Alun Dua",
    "postal_code": "38576"
  },
  {
    "id": 1703222004,
    "province_id": 17,
    "regency_id": 1703,
    "district_id": 170322,
    "value": "Ketapi",
    "postal_code": "38576"
  },
  {
    "id": 1703222008,
    "province_id": 17,
    "regency_id": 1703,
    "district_id": 170322,
    "value": "Lubuk Gading",
    "postal_code": "38576"
  },
  {
    "id": 1703222002,
    "province_id": 17,
    "regency_id": 1703,
    "district_id": 170322,
    "value": "Lubuk Pendam",
    "postal_code": "38576"
  },
  {
    "id": 1703222005,
    "province_id": 17,
    "regency_id": 1703,
    "district_id": 170322,
    "value": "Lubuk Semantung (Lubuk Sematung)",
    "postal_code": "38576"
  },
  {
    "id": 1703222010,
    "province_id": 17,
    "regency_id": 1703,
    "district_id": 170322,
    "value": "Padang Sepan",
    "postal_code": "38576"
  },
  {
    "id": 1703222006,
    "province_id": 17,
    "regency_id": 1703,
    "district_id": 170322,
    "value": "Sawang Lebar",
    "postal_code": "38576"
  },
  {
    "id": 1703222007,
    "province_id": 17,
    "regency_id": 1703,
    "district_id": 170322,
    "value": "Sawang Lebar Ilir",
    "postal_code": "38576"
  },
  {
    "id": 1703222001,
    "province_id": 17,
    "regency_id": 1703,
    "district_id": 170322,
    "value": "Sengkuang",
    "postal_code": "38576"
  },
  {
    "id": 1703222009,
    "province_id": 17,
    "regency_id": 1703,
    "district_id": 170322,
    "value": "Tanjung Agung",
    "postal_code": "38576"
  }
]