[
  {
    "id": 8104062006,
    "province_id": 81,
    "regency_id": 8104,
    "district_id": 810406,
    "value": "Hatawano",
    "postal_code": "97573"
  },
  {
    "id": 8104062001,
    "province_id": 81,
    "regency_id": 8104,
    "district_id": 810406,
    "value": "Lamahang",
    "postal_code": "97573"
  },
  {
    "id": 8104062005,
    "province_id": 81,
    "regency_id": 8104,
    "district_id": 810406,
    "value": "Namsina",
    "postal_code": "97573"
  },
  {
    "id": 8104062004,
    "province_id": 81,
    "regency_id": 8104,
    "district_id": 810406,
    "value": "Samalagi",
    "postal_code": "97573"
  },
  {
    "id": 8104062010,
    "province_id": 81,
    "regency_id": 8104,
    "district_id": 810406,
    "value": "Skikilale",
    "postal_code": "97573"
  },
  {
    "id": 8104062009,
    "province_id": 81,
    "regency_id": 8104,
    "district_id": 810406,
    "value": "Waepotih",
    "postal_code": "97573"
  },
  {
    "id": 8104062003,
    "province_id": 81,
    "regency_id": 8104,
    "district_id": 810406,
    "value": "Waeura",
    "postal_code": "97573"
  },
  {
    "id": 8104062007,
    "province_id": 81,
    "regency_id": 8104,
    "district_id": 810406,
    "value": "Wailihang (Waelihang)",
    "postal_code": "97573"
  },
  {
    "id": 8104062002,
    "province_id": 81,
    "regency_id": 8104,
    "district_id": 810406,
    "value": "Waplau",
    "postal_code": "97573"
  },
  {
    "id": 8104062008,
    "province_id": 81,
    "regency_id": 8104,
    "district_id": 810406,
    "value": "Waprea",
    "postal_code": "97573"
  }
]