[
  {
    "id": 140313,
    "province_id": 14,
    "regency_id": 1403,
    "district_id": 140313,
    "value": "Balai Pungut",
    "postal_code": "28784"
  },
  {
    "id": 140313,
    "province_id": 14,
    "regency_id": 1403,
    "district_id": 140313,
    "value": "Balai Raja",
    "postal_code": "28784"
  },
  {
    "id": 140313,
    "province_id": 14,
    "regency_id": 1403,
    "district_id": 140313,
    "value": "Buluh Apo",
    "postal_code": "28784"
  },
  {
    "id": 140313,
    "province_id": 14,
    "regency_id": 1403,
    "district_id": 140313,
    "value": "Muara Basung",
    "postal_code": "28784"
  },
  {
    "id": 140313,
    "province_id": 14,
    "regency_id": 1403,
    "district_id": 140313,
    "value": "Pangkalan Libut",
    "postal_code": "28784"
  },
  {
    "id": 140313,
    "province_id": 14,
    "regency_id": 1403,
    "district_id": 140313,
    "value": "Pinggir",
    "postal_code": "28784"
  },
  {
    "id": 140313,
    "province_id": 14,
    "regency_id": 1403,
    "district_id": 140313,
    "value": "Semunai",
    "postal_code": "28784"
  },
  {
    "id": 140313,
    "province_id": 14,
    "regency_id": 1403,
    "district_id": 140313,
    "value": "Sungai Meranti",
    "postal_code": "28784"
  },
  {
    "id": 140313,
    "province_id": 14,
    "regency_id": 1403,
    "district_id": 140313,
    "value": "Tengganau",
    "postal_code": "28784"
  },
  {
    "id": 140313,
    "province_id": 14,
    "regency_id": 1403,
    "district_id": 140313,
    "value": "Titian Antui",
    "postal_code": "28784"
  }
]