[
  {
    "id": 352708,
    "province_id": 35,
    "regency_id": 3527,
    "district_id": 352708,
    "value": "Banjarbillah (Banjar Billah)",
    "postal_code": "69253"
  },
  {
    "id": 352708,
    "province_id": 35,
    "regency_id": 3527,
    "district_id": 352708,
    "value": "Barunggagah (Barung Gagah)",
    "postal_code": "69253"
  },
  {
    "id": 352708,
    "province_id": 35,
    "regency_id": 3527,
    "district_id": 352708,
    "value": "Batorasang (Baturasang)",
    "postal_code": "69253"
  },
  {
    "id": 352708,
    "province_id": 35,
    "regency_id": 3527,
    "district_id": 352708,
    "value": "Beringin (Bringin)",
    "postal_code": "69253"
  },
  {
    "id": 352708,
    "province_id": 35,
    "regency_id": 3527,
    "district_id": 352708,
    "value": "Birem",
    "postal_code": "69253"
  },
  {
    "id": 352708,
    "province_id": 35,
    "regency_id": 3527,
    "district_id": 352708,
    "value": "Karanganyar (Karang Anyar)",
    "postal_code": "69253"
  },
  {
    "id": 352708,
    "province_id": 35,
    "regency_id": 3527,
    "district_id": 352708,
    "value": "Mambulu Barat",
    "postal_code": "69253"
  },
  {
    "id": 352708,
    "province_id": 35,
    "regency_id": 3527,
    "district_id": 352708,
    "value": "Samaran",
    "postal_code": "69253"
  },
  {
    "id": 352708,
    "province_id": 35,
    "regency_id": 3527,
    "district_id": 352708,
    "value": "Somber",
    "postal_code": "69253"
  },
  {
    "id": 352708,
    "province_id": 35,
    "regency_id": 3527,
    "district_id": 352708,
    "value": "Tambelangan",
    "postal_code": "69253"
  }
]