[
  {
    "id": 140604,
    "province_id": 14,
    "regency_id": 1406,
    "district_id": 140604,
    "value": "Batang Kumu",
    "postal_code": "28558"
  },
  {
    "id": 140604,
    "province_id": 14,
    "regency_id": 1406,
    "district_id": 140604,
    "value": "Batas",
    "postal_code": "28558"
  },
  {
    "id": 140604,
    "province_id": 14,
    "regency_id": 1406,
    "district_id": 140604,
    "value": "Lubuk Soting",
    "postal_code": "28558"
  },
  {
    "id": 140604,
    "province_id": 14,
    "regency_id": 1406,
    "district_id": 140604,
    "value": "Rantau Panjang",
    "postal_code": "28558"
  },
  {
    "id": 140604,
    "province_id": 14,
    "regency_id": 1406,
    "district_id": 140604,
    "value": "Sialang Rindang",
    "postal_code": "28558"
  },
  {
    "id": 140604,
    "province_id": 14,
    "regency_id": 1406,
    "district_id": 140604,
    "value": "Suka Maju",
    "postal_code": "28558"
  },
  {
    "id": 140604,
    "province_id": 14,
    "regency_id": 1406,
    "district_id": 140604,
    "value": "Sungai Komango (Sungai Kumango)",
    "postal_code": "28558"
  },
  {
    "id": 140604,
    "province_id": 14,
    "regency_id": 1406,
    "district_id": 140604,
    "value": "Talikumain (Tali Kumain)",
    "postal_code": "28558"
  },
  {
    "id": 140604,
    "province_id": 14,
    "regency_id": 1406,
    "district_id": 140604,
    "value": "Tambusai Barat",
    "postal_code": "28558"
  },
  {
    "id": 140604,
    "province_id": 14,
    "regency_id": 1406,
    "district_id": 140604,
    "value": "Tambusai Tengah",
    "postal_code": "28558"
  },
  {
    "id": 140604,
    "province_id": 14,
    "regency_id": 1406,
    "district_id": 140604,
    "value": "Tambusai Timur",
    "postal_code": "28558"
  },
  {
    "id": 140604,
    "province_id": 14,
    "regency_id": 1406,
    "district_id": 140604,
    "value": "Tingkok",
    "postal_code": "28558"
  }
]