[
  {
    "id": 1602132015,
    "province_id": 16,
    "regency_id": 1602,
    "district_id": 160213,
    "value": "Bumi Arjo (Bumiarjo)",
    "postal_code": "30657"
  },
  {
    "id": 1602132009,
    "province_id": 16,
    "regency_id": 1602,
    "district_id": 160213,
    "value": "Bumiagung",
    "postal_code": "30657"
  },
  {
    "id": 1602132034,
    "province_id": 16,
    "regency_id": 1602,
    "district_id": 160213,
    "value": "Bumiarjo Makmur",
    "postal_code": "30657"
  },
  {
    "id": 1602132008,
    "province_id": 16,
    "regency_id": 1602,
    "district_id": 160213,
    "value": "Cahaya Maju",
    "postal_code": "30657"
  },
  {
    "id": 1602132035,
    "province_id": 16,
    "regency_id": 1602,
    "district_id": 160213,
    "value": "Cahaya Makmur",
    "postal_code": "30657"
  },
  {
    "id": 1602132006,
    "province_id": 16,
    "regency_id": 1602,
    "district_id": 160213,
    "value": "Cahya Bumi (Cahaya Bumi)",
    "postal_code": "30657"
  },
  {
    "id": 1602132013,
    "province_id": 16,
    "regency_id": 1602,
    "district_id": 160213,
    "value": "Dabuk Rejo",
    "postal_code": "30657"
  },
  {
    "id": 1602132017,
    "province_id": 16,
    "regency_id": 1602,
    "district_id": 160213,
    "value": "Kepayang (Kepahyang)",
    "postal_code": "30657"
  },
  {
    "id": 1602132007,
    "province_id": 16,
    "regency_id": 1602,
    "district_id": 160213,
    "value": "Kutapandan",
    "postal_code": "30657"
  },
  {
    "id": 1602132028,
    "province_id": 16,
    "regency_id": 1602,
    "district_id": 160213,
    "value": "Mekar Jaya",
    "postal_code": "30657"
  },
  {
    "id": 1602132027,
    "province_id": 16,
    "regency_id": 1602,
    "district_id": 160213,
    "value": "Sindang Sari",
    "postal_code": "30657"
  },
  {
    "id": 1602132014,
    "province_id": 16,
    "regency_id": 1602,
    "district_id": 160213,
    "value": "Suka Mulya",
    "postal_code": "30657"
  },
  {
    "id": 1602132036,
    "province_id": 16,
    "regency_id": 1602,
    "district_id": 160213,
    "value": "Sumber Makmur",
    "postal_code": "30657"
  },
  {
    "id": 1602132010,
    "province_id": 16,
    "regency_id": 1602,
    "district_id": 160213,
    "value": "Sumberagung",
    "postal_code": "30657"
  },
  {
    "id": 1602132005,
    "province_id": 16,
    "regency_id": 1602,
    "district_id": 160213,
    "value": "Tebing Suluh",
    "postal_code": "30657"
  },
  {
    "id": 1602132026,
    "province_id": 16,
    "regency_id": 1602,
    "district_id": 160213,
    "value": "Tugu Agung",
    "postal_code": "30657"
  },
  {
    "id": 1602132025,
    "province_id": 16,
    "regency_id": 1602,
    "district_id": 160213,
    "value": "Tugu Jaya",
    "postal_code": "30657"
  },
  {
    "id": 1602132011,
    "province_id": 16,
    "regency_id": 1602,
    "district_id": 160213,
    "value": "Tugumulyo",
    "postal_code": "30657"
  },
  {
    "id": 1602132016,
    "province_id": 16,
    "regency_id": 1602,
    "district_id": 160213,
    "value": "Tulung Harapan",
    "postal_code": "30657"
  }
]