[
  {
    "id": 950118,
    "province_id": 95,
    "regency_id": 9501,
    "district_id": 950118,
    "value": "Bokiem",
    "postal_code": "99555"
  },
  {
    "id": 950118,
    "province_id": 95,
    "regency_id": 9501,
    "district_id": 950118,
    "value": "Budliem",
    "postal_code": "99555"
  },
  {
    "id": 950118,
    "province_id": 95,
    "regency_id": 9501,
    "district_id": 950118,
    "value": "Entagekokma",
    "postal_code": "99555"
  },
  {
    "id": 950118,
    "province_id": 95,
    "regency_id": 9501,
    "district_id": 950118,
    "value": "Huluaima",
    "postal_code": "99555"
  },
  {
    "id": 950118,
    "province_id": 95,
    "regency_id": 9501,
    "district_id": 950118,
    "value": "Iyora",
    "postal_code": "99555"
  },
  {
    "id": 950118,
    "province_id": 95,
    "regency_id": 9501,
    "district_id": 950118,
    "value": "Senogolik",
    "postal_code": "99555"
  },
  {
    "id": 950118,
    "province_id": 95,
    "regency_id": 9501,
    "district_id": 950118,
    "value": "Tailarek (Taila)",
    "postal_code": "99555"
  },
  {
    "id": 950118,
    "province_id": 95,
    "regency_id": 9501,
    "district_id": 950118,
    "value": "Yoman Weya",
    "postal_code": "99555"
  }
]