[
  {
    "id": 7402032018,
    "province_id": 74,
    "regency_id": 7402,
    "district_id": 740203,
    "value": "Analahumbuti",
    "postal_code": "93462"
  },
  {
    "id": 7402032017,
    "province_id": 74,
    "regency_id": 7402,
    "district_id": 740203,
    "value": "Anggotoa",
    "postal_code": "93462"
  },
  {
    "id": 7402031027,
    "province_id": 74,
    "regency_id": 7402,
    "district_id": 740203,
    "value": "Bose Bose",
    "postal_code": "93462"
  },
  {
    "id": 7402031007,
    "province_id": 74,
    "regency_id": 7402,
    "district_id": 740203,
    "value": "Hopa-Hopa",
    "postal_code": "93462"
  },
  {
    "id": 7402031002,
    "province_id": 74,
    "regency_id": 7402,
    "district_id": 740203,
    "value": "Inalahi",
    "postal_code": "93462"
  },
  {
    "id": 7402031020,
    "province_id": 74,
    "regency_id": 7402,
    "district_id": 740203,
    "value": "Inolobu",
    "postal_code": "93462"
  },
  {
    "id": 7402032025,
    "province_id": 74,
    "regency_id": 7402,
    "district_id": 740203,
    "value": "Karandu",
    "postal_code": "93462"
  },
  {
    "id": 7402032031,
    "province_id": 74,
    "regency_id": 7402,
    "district_id": 740203,
    "value": "Kasumewuho",
    "postal_code": "93462"
  },
  {
    "id": 7402031011,
    "province_id": 74,
    "regency_id": 7402,
    "district_id": 740203,
    "value": "Kasupute",
    "postal_code": "93462"
  },
  {
    "id": 7402032026,
    "province_id": 74,
    "regency_id": 7402,
    "district_id": 740203,
    "value": "Korumba",
    "postal_code": "93462"
  },
  {
    "id": 7402032032,
    "province_id": 74,
    "regency_id": 7402,
    "district_id": 740203,
    "value": "Kukuluri",
    "postal_code": "93462"
  },
  {
    "id": 7402031008,
    "province_id": 74,
    "regency_id": 7402,
    "district_id": 740203,
    "value": "Kulahi",
    "postal_code": "93462"
  },
  {
    "id": 7402031006,
    "province_id": 74,
    "regency_id": 7402,
    "district_id": 740203,
    "value": "Lalosabila",
    "postal_code": "93462"
  },
  {
    "id": 7402032013,
    "province_id": 74,
    "regency_id": 7402,
    "district_id": 740203,
    "value": "Nario Indah",
    "postal_code": "93462"
  },
  {
    "id": 7402031019,
    "province_id": 74,
    "regency_id": 7402,
    "district_id": 740203,
    "value": "Nohu Nohu",
    "postal_code": "93462"
  },
  {
    "id": 7402031010,
    "province_id": 74,
    "regency_id": 7402,
    "district_id": 740203,
    "value": "Palarahi",
    "postal_code": "93462"
  },
  {
    "id": 7402031028,
    "province_id": 74,
    "regency_id": 7402,
    "district_id": 740203,
    "value": "Puusinauwi",
    "postal_code": "93462"
  },
  {
    "id": 7402031009,
    "province_id": 74,
    "regency_id": 7402,
    "district_id": 740203,
    "value": "Ranoeya",
    "postal_code": "93462"
  },
  {
    "id": 7402031001,
    "province_id": 74,
    "regency_id": 7402,
    "district_id": 740203,
    "value": "Wawotobi",
    "postal_code": "93462"
  }
]