[
  {
    "id": 940310,
    "province_id": 94,
    "regency_id": 9403,
    "district_id": 940310,
    "value": "Baguwo",
    "postal_code": "98733"
  },
  {
    "id": 940310,
    "province_id": 94,
    "regency_id": 9403,
    "district_id": 940310,
    "value": "Dabamomaida",
    "postal_code": "98733"
  },
  {
    "id": 940310,
    "province_id": 94,
    "regency_id": 9403,
    "district_id": 940310,
    "value": "Debamomaida",
    "postal_code": "98733"
  },
  {
    "id": 940310,
    "province_id": 94,
    "regency_id": 9403,
    "district_id": 940310,
    "value": "Geida",
    "postal_code": "98733"
  },
  {
    "id": 940310,
    "province_id": 94,
    "regency_id": 9403,
    "district_id": 940310,
    "value": "Iteuwo",
    "postal_code": "98733"
  },
  {
    "id": 940310,
    "province_id": 94,
    "regency_id": 9403,
    "district_id": 940310,
    "value": "Keneugi",
    "postal_code": "98733"
  },
  {
    "id": 940310,
    "province_id": 94,
    "regency_id": 9403,
    "district_id": 940310,
    "value": "Makidimi",
    "postal_code": "98733"
  },
  {
    "id": 940310,
    "province_id": 94,
    "regency_id": 9403,
    "district_id": 940310,
    "value": "Ogeida",
    "postal_code": "98733"
  },
  {
    "id": 940310,
    "province_id": 94,
    "regency_id": 9403,
    "district_id": 940310,
    "value": "Pasir Putih",
    "postal_code": "98733"
  },
  {
    "id": 940310,
    "province_id": 94,
    "regency_id": 9403,
    "district_id": 940310,
    "value": "Tegougi Pugaida",
    "postal_code": "98733"
  },
  {
    "id": 940310,
    "province_id": 94,
    "regency_id": 9403,
    "district_id": 940310,
    "value": "Teguogi Pugaida II",
    "postal_code": "98733"
  },
  {
    "id": 940310,
    "province_id": 94,
    "regency_id": 9403,
    "district_id": 940310,
    "value": "Widimeida",
    "postal_code": "98733"
  }
]