[
  {
    "id": 6213052010,
    "province_id": 62,
    "regency_id": 6213,
    "district_id": 621305,
    "value": "Ampah II (Ampah Dua)",
    "postal_code": "73652"
  },
  {
    "id": 6213051011,
    "province_id": 62,
    "regency_id": 6213,
    "district_id": 621305,
    "value": "Ampah Kota",
    "postal_code": "73652"
  },
  {
    "id": 6213052025,
    "province_id": 62,
    "regency_id": 6213,
    "district_id": 621305,
    "value": "Muara Awang",
    "postal_code": "73652"
  },
  {
    "id": 6213052018,
    "province_id": 62,
    "regency_id": 6213,
    "district_id": 621305,
    "value": "Netampin (Netapin)",
    "postal_code": "73652"
  },
  {
    "id": 6213052012,
    "province_id": 62,
    "regency_id": 6213,
    "district_id": 621305,
    "value": "Putai",
    "postal_code": "73652"
  },
  {
    "id": 6213052009,
    "province_id": 62,
    "regency_id": 6213,
    "district_id": 621305,
    "value": "Rodok",
    "postal_code": "73652"
  },
  {
    "id": 6213052008,
    "province_id": 62,
    "regency_id": 6213,
    "district_id": 621305,
    "value": "Saing",
    "postal_code": "73652"
  },
  {
    "id": 6213052024,
    "province_id": 62,
    "regency_id": 6213,
    "district_id": 621305,
    "value": "Sumber Garunggung (Sumber Garonggong)",
    "postal_code": "73652"
  }
]