[
  {
    "id": 160407,
    "province_id": 16,
    "regency_id": 1604,
    "district_id": 160407,
    "value": "Bangke",
    "postal_code": "31462"
  },
  {
    "id": 160407,
    "province_id": 16,
    "regency_id": 1604,
    "district_id": 160407,
    "value": "Bintuhan",
    "postal_code": "31462"
  },
  {
    "id": 160407,
    "province_id": 16,
    "regency_id": 1604,
    "district_id": 160407,
    "value": "Gedung Agung",
    "postal_code": "31462"
  },
  {
    "id": 160407,
    "province_id": 16,
    "regency_id": 1604,
    "district_id": 160407,
    "value": "Gunung Liwat (Gunung Lewat)",
    "postal_code": "31462"
  },
  {
    "id": 160407,
    "province_id": 16,
    "regency_id": 1604,
    "district_id": 160407,
    "value": "Karang Agung",
    "postal_code": "31462"
  },
  {
    "id": 160407,
    "province_id": 16,
    "regency_id": 1604,
    "district_id": 160407,
    "value": "Karang Endah",
    "postal_code": "31462"
  },
  {
    "id": 160407,
    "province_id": 16,
    "regency_id": 1604,
    "district_id": 160407,
    "value": "Kebun Jati (Kebon Jati)",
    "postal_code": "31462"
  },
  {
    "id": 160407,
    "province_id": 16,
    "regency_id": 1604,
    "district_id": 160407,
    "value": "Kota Agung",
    "postal_code": "31462"
  },
  {
    "id": 160407,
    "province_id": 16,
    "regency_id": 1604,
    "district_id": 160407,
    "value": "Lawang Agung",
    "postal_code": "31462"
  },
  {
    "id": 160407,
    "province_id": 16,
    "regency_id": 1604,
    "district_id": 160407,
    "value": "Muara Gula",
    "postal_code": "31462"
  },
  {
    "id": 160407,
    "province_id": 16,
    "regency_id": 1604,
    "district_id": 160407,
    "value": "Mutar Alam Baru (Muntar Alam Baru)",
    "postal_code": "31462"
  },
  {
    "id": 160407,
    "province_id": 16,
    "regency_id": 1604,
    "district_id": 160407,
    "value": "Mutar Alam Lama (Muntar Alam Lama)",
    "postal_code": "31462"
  },
  {
    "id": 160407,
    "province_id": 16,
    "regency_id": 1604,
    "district_id": 160407,
    "value": "Pagaruyung (Pagar Ruyung)",
    "postal_code": "31462"
  },
  {
    "id": 160407,
    "province_id": 16,
    "regency_id": 1604,
    "district_id": 160407,
    "value": "Pandan Arang Ulu",
    "postal_code": "31462"
  },
  {
    "id": 160407,
    "province_id": 16,
    "regency_id": 1604,
    "district_id": 160407,
    "value": "Singapure (Singapura)",
    "postal_code": "31462"
  },
  {
    "id": 160407,
    "province_id": 16,
    "regency_id": 1604,
    "district_id": 160407,
    "value": "Suka Raja (Sukaraja)",
    "postal_code": "31462"
  },
  {
    "id": 160407,
    "province_id": 16,
    "regency_id": 1604,
    "district_id": 160407,
    "value": "Sukarami (Sukarame)",
    "postal_code": "31462"
  },
  {
    "id": 160407,
    "province_id": 16,
    "regency_id": 1604,
    "district_id": 160407,
    "value": "Tanjung Beringin",
    "postal_code": "31462"
  },
  {
    "id": 160407,
    "province_id": 16,
    "regency_id": 1604,
    "district_id": 160407,
    "value": "Tanjung Bulan",
    "postal_code": "31462"
  },
  {
    "id": 160407,
    "province_id": 16,
    "regency_id": 1604,
    "district_id": 160407,
    "value": "Tanjung Raman",
    "postal_code": "31462"
  },
  {
    "id": 160407,
    "province_id": 16,
    "regency_id": 1604,
    "district_id": 160407,
    "value": "Tebat Langsat",
    "postal_code": "31462"
  },
  {
    "id": 160407,
    "province_id": 16,
    "regency_id": 1604,
    "district_id": 160407,
    "value": "Tunggul Bute",
    "postal_code": "31462"
  }
]