[
  {
    "id": 111115,
    "province_id": 11,
    "regency_id": 1111,
    "district_id": 111115,
    "value": "Alue Glumpang (Alue Glumpang Sbl.K)",
    "postal_code": "24269"
  },
  {
    "id": 111115,
    "province_id": 11,
    "regency_id": 1111,
    "district_id": 111115,
    "value": "Alue Iet",
    "postal_code": "24269"
  },
  {
    "id": 111115,
    "province_id": 11,
    "regency_id": 1111,
    "district_id": 111115,
    "value": "Alue Keupula (Kupula)",
    "postal_code": "24269"
  },
  {
    "id": 111115,
    "province_id": 11,
    "regency_id": 1111,
    "district_id": 111115,
    "value": "Alue Krueb",
    "postal_code": "24269"
  },
  {
    "id": 111115,
    "province_id": 11,
    "regency_id": 1111,
    "district_id": 111115,
    "value": "Awe Geutah",
    "postal_code": "24269"
  },
  {
    "id": 111115,
    "province_id": 11,
    "regency_id": 1111,
    "district_id": 111115,
    "value": "Awe Geutah Paya",
    "postal_code": "24269"
  },
  {
    "id": 111115,
    "province_id": 11,
    "regency_id": 1111,
    "district_id": 111115,
    "value": "Blang Cirih",
    "postal_code": "24269"
  },
  {
    "id": 111115,
    "province_id": 11,
    "regency_id": 1111,
    "district_id": 111115,
    "value": "Buket Sudan",
    "postal_code": "24269"
  },
  {
    "id": 111115,
    "province_id": 11,
    "regency_id": 1111,
    "district_id": 111115,
    "value": "Cot Aneuk Batee",
    "postal_code": "24269"
  },
  {
    "id": 111115,
    "province_id": 11,
    "regency_id": 1111,
    "district_id": 111115,
    "value": "Cot Saleuet (Cot Saleut)",
    "postal_code": "24269"
  },
  {
    "id": 111115,
    "province_id": 11,
    "regency_id": 1111,
    "district_id": 111115,
    "value": "Dayah Baro (Dayah Baroe)",
    "postal_code": "24269"
  },
  {
    "id": 111115,
    "province_id": 11,
    "regency_id": 1111,
    "district_id": 111115,
    "value": "Kubu",
    "postal_code": "24269"
  },
  {
    "id": 111115,
    "province_id": 11,
    "regency_id": 1111,
    "district_id": 111115,
    "value": "Kubu Raya",
    "postal_code": "24269"
  },
  {
    "id": 111115,
    "province_id": 11,
    "regency_id": 1111,
    "district_id": 111115,
    "value": "Lueng Daneun",
    "postal_code": "24269"
  },
  {
    "id": 111115,
    "province_id": 11,
    "regency_id": 1111,
    "district_id": 111115,
    "value": "Paloh Mampre (Paloh Mampree)",
    "postal_code": "24269"
  },
  {
    "id": 111115,
    "province_id": 11,
    "regency_id": 1111,
    "district_id": 111115,
    "value": "Pante Baro Buket Panyang (Bukit Panyang)",
    "postal_code": "24269"
  },
  {
    "id": 111115,
    "province_id": 11,
    "regency_id": 1111,
    "district_id": 111115,
    "value": "Pante Baro Gle Siblah (Pante Baro Glee Siblah)",
    "postal_code": "24269"
  },
  {
    "id": 111115,
    "province_id": 11,
    "regency_id": 1111,
    "district_id": 111115,
    "value": "Pante Baro Kumbang",
    "postal_code": "24269"
  },
  {
    "id": 111115,
    "province_id": 11,
    "regency_id": 1111,
    "district_id": 111115,
    "value": "Pante Karya",
    "postal_code": "24269"
  },
  {
    "id": 111115,
    "province_id": 11,
    "regency_id": 1111,
    "district_id": 111115,
    "value": "Rambong Payong",
    "postal_code": "24269"
  },
  {
    "id": 111115,
    "province_id": 11,
    "regency_id": 1111,
    "district_id": 111115,
    "value": "Teupin Raya",
    "postal_code": "24269"
  }
]