[
  {
    "id": 3207132005,
    "province_id": 32,
    "regency_id": 3207,
    "district_id": 320713,
    "value": "Andapraja",
    "postal_code": "46254"
  },
  {
    "id": 3207132011,
    "province_id": 32,
    "regency_id": 3207,
    "district_id": 320713,
    "value": "Purwaraja",
    "postal_code": "46254"
  },
  {
    "id": 3207132001,
    "province_id": 32,
    "regency_id": 3207,
    "district_id": 320713,
    "value": "Rajadesa",
    "postal_code": "46254"
  },
  {
    "id": 3207132009,
    "province_id": 32,
    "regency_id": 3207,
    "district_id": 320713,
    "value": "Sirnabaya",
    "postal_code": "46254"
  },
  {
    "id": 3207132010,
    "province_id": 32,
    "regency_id": 3207,
    "district_id": 320713,
    "value": "Sirnajaya",
    "postal_code": "46254"
  },
  {
    "id": 3207132006,
    "province_id": 32,
    "regency_id": 3207,
    "district_id": 320713,
    "value": "Sukaharja",
    "postal_code": "46254"
  },
  {
    "id": 3207132007,
    "province_id": 32,
    "regency_id": 3207,
    "district_id": 320713,
    "value": "Sukajaya",
    "postal_code": "46254"
  },
  {
    "id": 3207132004,
    "province_id": 32,
    "regency_id": 3207,
    "district_id": 320713,
    "value": "Tanjungjaya",
    "postal_code": "46254"
  },
  {
    "id": 3207132003,
    "province_id": 32,
    "regency_id": 3207,
    "district_id": 320713,
    "value": "Tanjungsari",
    "postal_code": "46254"
  },
  {
    "id": 3207132002,
    "province_id": 32,
    "regency_id": 3207,
    "district_id": 320713,
    "value": "Tanjungsukur",
    "postal_code": "46254"
  },
  {
    "id": 3207132008,
    "province_id": 32,
    "regency_id": 3207,
    "district_id": 320713,
    "value": "Tigaherang",
    "postal_code": "46254"
  }
]