[
  {
    "id": 122403,
    "province_id": 12,
    "regency_id": 1224,
    "district_id": 122403,
    "value": "Alo'oa (Alooa)",
    "postal_code": "22852"
  },
  {
    "id": 122403,
    "province_id": 12,
    "regency_id": 1224,
    "district_id": 122403,
    "value": "Banua Gea (Banuagea)",
    "postal_code": "22852"
  },
  {
    "id": 122403,
    "province_id": 12,
    "regency_id": 1224,
    "district_id": 122403,
    "value": "Botolakha",
    "postal_code": "22852"
  },
  {
    "id": 122403,
    "province_id": 12,
    "regency_id": 1224,
    "district_id": 122403,
    "value": "Fino",
    "postal_code": "22852"
  },
  {
    "id": 122403,
    "province_id": 12,
    "regency_id": 1224,
    "district_id": 122403,
    "value": "La'aya (Laaya)",
    "postal_code": "22852"
  },
  {
    "id": 122403,
    "province_id": 12,
    "regency_id": 1224,
    "district_id": 122403,
    "value": "Ladara",
    "postal_code": "22852"
  },
  {
    "id": 122403,
    "province_id": 12,
    "regency_id": 1224,
    "district_id": 122403,
    "value": "Silima Banua",
    "postal_code": "22852"
  },
  {
    "id": 122403,
    "province_id": 12,
    "regency_id": 1224,
    "district_id": 122403,
    "value": "Siofa Banua",
    "postal_code": "22852"
  }
]