[
  {
    "id": 950324,
    "province_id": 95,
    "regency_id": 9503,
    "district_id": 950324,
    "value": "Helapilik",
    "postal_code": "99760"
  },
  {
    "id": 950324,
    "province_id": 95,
    "regency_id": 9503,
    "district_id": 950324,
    "value": "Hiklahin",
    "postal_code": "99760"
  },
  {
    "id": 950324,
    "province_id": 95,
    "regency_id": 9503,
    "district_id": 950324,
    "value": "Huhulpunu",
    "postal_code": "99760"
  },
  {
    "id": 950324,
    "province_id": 95,
    "regency_id": 9503,
    "district_id": 950324,
    "value": "Lirutek",
    "postal_code": "99760"
  },
  {
    "id": 950324,
    "province_id": 95,
    "regency_id": 9503,
    "district_id": 950324,
    "value": "Piliam",
    "postal_code": "99760"
  },
  {
    "id": 950324,
    "province_id": 95,
    "regency_id": 9503,
    "district_id": 950324,
    "value": "Pontempilik (Pontenpelek)",
    "postal_code": "99760"
  },
  {
    "id": 950324,
    "province_id": 95,
    "regency_id": 9503,
    "district_id": 950324,
    "value": "Pronggoli",
    "postal_code": "99760"
  },
  {
    "id": 950324,
    "province_id": 95,
    "regency_id": 9503,
    "district_id": 950324,
    "value": "Siwikma",
    "postal_code": "99760"
  }
]