[
  {
    "id": 170602,
    "province_id": 17,
    "regency_id": 1706,
    "district_id": 170602,
    "value": "Bandar Ratu",
    "postal_code": "38712"
  },
  {
    "id": 170602,
    "province_id": 17,
    "regency_id": 1706,
    "district_id": 170602,
    "value": "Koto Jaya",
    "postal_code": "38715"
  },
  {
    "id": 170602,
    "province_id": 17,
    "regency_id": 1706,
    "district_id": 170602,
    "value": "Pasar Mukomuko",
    "postal_code": "38711"
  },
  {
    "id": 170602,
    "province_id": 17,
    "regency_id": 1706,
    "district_id": 170602,
    "value": "Pasar Sebelah",
    "postal_code": "38716"
  },
  {
    "id": 170602,
    "province_id": 17,
    "regency_id": 1706,
    "district_id": 170602,
    "value": "Pondok Batu",
    "postal_code": "38713"
  },
  {
    "id": 170602,
    "province_id": 17,
    "regency_id": 1706,
    "district_id": 170602,
    "value": "Selagan Jaya",
    "postal_code": "38717"
  },
  {
    "id": 170602,
    "province_id": 17,
    "regency_id": 1706,
    "district_id": 170602,
    "value": "Tanah Harapan",
    "postal_code": "38718"
  },
  {
    "id": 170602,
    "province_id": 17,
    "regency_id": 1706,
    "district_id": 170602,
    "value": "Tanah Rekah",
    "postal_code": "38719"
  },
  {
    "id": 170602,
    "province_id": 17,
    "regency_id": 1706,
    "district_id": 170602,
    "value": "Ujung Padang",
    "postal_code": "38714"
  }
]