[
  {
    "id": 720905,
    "province_id": 72,
    "regency_id": 7209,
    "district_id": 720905,
    "value": "Ampana",
    "postal_code": "94683"
  },
  {
    "id": 720905,
    "province_id": 72,
    "regency_id": 7209,
    "district_id": 720905,
    "value": "Bailo",
    "postal_code": "94683"
  },
  {
    "id": 720905,
    "province_id": 72,
    "regency_id": 7209,
    "district_id": 720905,
    "value": "Bailo Baru",
    "postal_code": "94683"
  },
  {
    "id": 720905,
    "province_id": 72,
    "regency_id": 7209,
    "district_id": 720905,
    "value": "Bone Rato",
    "postal_code": "94683"
  },
  {
    "id": 720905,
    "province_id": 72,
    "regency_id": 7209,
    "district_id": 720905,
    "value": "Buntongi",
    "postal_code": "94683"
  },
  {
    "id": 720905,
    "province_id": 72,
    "regency_id": 7209,
    "district_id": 720905,
    "value": "Labiabae",
    "postal_code": "94683"
  },
  {
    "id": 720905,
    "province_id": 72,
    "regency_id": 7209,
    "district_id": 720905,
    "value": "Malotong",
    "postal_code": "94683"
  },
  {
    "id": 720905,
    "province_id": 72,
    "regency_id": 7209,
    "district_id": 720905,
    "value": "Padang Tumbuo",
    "postal_code": "94683"
  },
  {
    "id": 720905,
    "province_id": 72,
    "regency_id": 7209,
    "district_id": 720905,
    "value": "Saluaba",
    "postal_code": "94683"
  },
  {
    "id": 720905,
    "province_id": 72,
    "regency_id": 7209,
    "district_id": 720905,
    "value": "Sansarino",
    "postal_code": "94683"
  }
]