[
  {
    "id": 122009,
    "province_id": 12,
    "regency_id": 1220,
    "district_id": 122009,
    "value": "Aek Godang",
    "postal_code": "22740"
  },
  {
    "id": 122009,
    "province_id": 12,
    "regency_id": 1220,
    "district_id": 122009,
    "value": "Aek Nauli",
    "postal_code": "22740"
  },
  {
    "id": 122009,
    "province_id": 12,
    "regency_id": 1220,
    "district_id": 122009,
    "value": "Pangirkiran",
    "postal_code": "22740"
  },
  {
    "id": 122009,
    "province_id": 12,
    "regency_id": 1220,
    "district_id": 122009,
    "value": "Parmeraan",
    "postal_code": "22740"
  },
  {
    "id": 122009,
    "province_id": 12,
    "regency_id": 1220,
    "district_id": 122009,
    "value": "Pintu Bosi",
    "postal_code": "22740"
  },
  {
    "id": 122009,
    "province_id": 12,
    "regency_id": 1220,
    "district_id": 122009,
    "value": "Sampuran Simarloting",
    "postal_code": "22740"
  },
  {
    "id": 122009,
    "province_id": 12,
    "regency_id": 1220,
    "district_id": 122009,
    "value": "Sidong-dong (Sidongdong)",
    "postal_code": "22740"
  },
  {
    "id": 122009,
    "province_id": 12,
    "regency_id": 1220,
    "district_id": 122009,
    "value": "Simaninggir",
    "postal_code": "22740"
  },
  {
    "id": 122009,
    "province_id": 12,
    "regency_id": 1220,
    "district_id": 122009,
    "value": "Sitabar",
    "postal_code": "22740"
  },
  {
    "id": 122009,
    "province_id": 12,
    "regency_id": 1220,
    "district_id": 122009,
    "value": "Suka Dame",
    "postal_code": "22740"
  }
]