[
  {
    "id": 1211062016,
    "province_id": 12,
    "regency_id": 1211,
    "district_id": 121106,
    "value": "Alur Subur",
    "postal_code": "22253"
  },
  {
    "id": 1211062013,
    "province_id": 12,
    "regency_id": 1211,
    "district_id": 121106,
    "value": "Balandua",
    "postal_code": "22253"
  },
  {
    "id": 1211062002,
    "province_id": 12,
    "regency_id": 1211,
    "district_id": 121106,
    "value": "Gunung Tua",
    "postal_code": "22253"
  },
  {
    "id": 1211062003,
    "province_id": 12,
    "regency_id": 1211,
    "district_id": 121106,
    "value": "Harapan",
    "postal_code": "22253"
  },
  {
    "id": 1211062006,
    "province_id": 12,
    "regency_id": 1211,
    "district_id": 121106,
    "value": "Kempawa",
    "postal_code": "22253"
  },
  {
    "id": 1211062009,
    "province_id": 12,
    "regency_id": 1211,
    "district_id": 121106,
    "value": "Kuta Buluh (Kutabuluh)",
    "postal_code": "22253"
  },
  {
    "id": 1211062005,
    "province_id": 12,
    "regency_id": 1211,
    "district_id": 121106,
    "value": "Kuta Gamber (Kuta Gambir)",
    "postal_code": "22253"
  },
  {
    "id": 1211062017,
    "province_id": 12,
    "regency_id": 1211,
    "district_id": 121106,
    "value": "Lau Njuhar I",
    "postal_code": "22253"
  },
  {
    "id": 1211062004,
    "province_id": 12,
    "regency_id": 1211,
    "district_id": 121106,
    "value": "Lau Primbon",
    "postal_code": "22253"
  },
  {
    "id": 1211062012,
    "province_id": 12,
    "regency_id": 1211,
    "district_id": 121106,
    "value": "Lau Tawar",
    "postal_code": "22253"
  },
  {
    "id": 1211062015,
    "province_id": 12,
    "regency_id": 1211,
    "district_id": 121106,
    "value": "Liang Jering",
    "postal_code": "22253"
  },
  {
    "id": 1211062014,
    "province_id": 12,
    "regency_id": 1211,
    "district_id": 121106,
    "value": "Mangan Molih",
    "postal_code": "22253"
  },
  {
    "id": 1211062008,
    "province_id": 12,
    "regency_id": 1211,
    "district_id": 121106,
    "value": "Pamah",
    "postal_code": "22253"
  },
  {
    "id": 1211062018,
    "province_id": 12,
    "regency_id": 1211,
    "district_id": 121106,
    "value": "Pasir Mbelang",
    "postal_code": "22253"
  },
  {
    "id": 1211062010,
    "province_id": 12,
    "regency_id": 1211,
    "district_id": 121106,
    "value": "Pasir Tengah",
    "postal_code": "22253"
  },
  {
    "id": 1211062011,
    "province_id": 12,
    "regency_id": 1211,
    "district_id": 121106,
    "value": "Renun",
    "postal_code": "22253"
  },
  {
    "id": 1211062019,
    "province_id": 12,
    "regency_id": 1211,
    "district_id": 121106,
    "value": "Sinar Pagi",
    "postal_code": "22253"
  },
  {
    "id": 1211062001,
    "province_id": 12,
    "regency_id": 1211,
    "district_id": 121106,
    "value": "Sukadame (Suka Dame)",
    "postal_code": "22253"
  },
  {
    "id": 1211062007,
    "province_id": 12,
    "regency_id": 1211,
    "district_id": 121106,
    "value": "Tanah Pinem",
    "postal_code": "22253"
  }
]