[
  {
    "id": 351617,
    "province_id": 35,
    "regency_id": 3516,
    "district_id": 351617,
    "value": "Bangeran",
    "postal_code": "61354"
  },
  {
    "id": 351617,
    "province_id": 35,
    "regency_id": 3516,
    "district_id": 351617,
    "value": "Banyulegi",
    "postal_code": "61354"
  },
  {
    "id": 351617,
    "province_id": 35,
    "regency_id": 3516,
    "district_id": 351617,
    "value": "Brayublandong",
    "postal_code": "61354"
  },
  {
    "id": 351617,
    "province_id": 35,
    "regency_id": 3516,
    "district_id": 351617,
    "value": "Cendoro",
    "postal_code": "61354"
  },
  {
    "id": 351617,
    "province_id": 35,
    "regency_id": 3516,
    "district_id": 351617,
    "value": "Cinandang",
    "postal_code": "61354"
  },
  {
    "id": 351617,
    "province_id": 35,
    "regency_id": 3516,
    "district_id": 351617,
    "value": "Dawarblandong",
    "postal_code": "61354"
  },
  {
    "id": 351617,
    "province_id": 35,
    "regency_id": 3516,
    "district_id": 351617,
    "value": "Gunungan",
    "postal_code": "61354"
  },
  {
    "id": 351617,
    "province_id": 35,
    "regency_id": 3516,
    "district_id": 351617,
    "value": "Gunungsari",
    "postal_code": "61354"
  },
  {
    "id": 351617,
    "province_id": 35,
    "regency_id": 3516,
    "district_id": 351617,
    "value": "Jatirowo",
    "postal_code": "61354"
  },
  {
    "id": 351617,
    "province_id": 35,
    "regency_id": 3516,
    "district_id": 351617,
    "value": "Madureso",
    "postal_code": "61354"
  },
  {
    "id": 351617,
    "province_id": 35,
    "regency_id": 3516,
    "district_id": 351617,
    "value": "Pucuk",
    "postal_code": "61354"
  },
  {
    "id": 351617,
    "province_id": 35,
    "regency_id": 3516,
    "district_id": 351617,
    "value": "Pulorejo",
    "postal_code": "61354"
  },
  {
    "id": 351617,
    "province_id": 35,
    "regency_id": 3516,
    "district_id": 351617,
    "value": "Randegan",
    "postal_code": "61354"
  },
  {
    "id": 351617,
    "province_id": 35,
    "regency_id": 3516,
    "district_id": 351617,
    "value": "Simongagrok",
    "postal_code": "61354"
  },
  {
    "id": 351617,
    "province_id": 35,
    "regency_id": 3516,
    "district_id": 351617,
    "value": "Sumberwuluh",
    "postal_code": "61354"
  },
  {
    "id": 351617,
    "province_id": 35,
    "regency_id": 3516,
    "district_id": 351617,
    "value": "Suru",
    "postal_code": "61354"
  },
  {
    "id": 351617,
    "province_id": 35,
    "regency_id": 3516,
    "district_id": 351617,
    "value": "Talunblandong",
    "postal_code": "61354"
  },
  {
    "id": 351617,
    "province_id": 35,
    "regency_id": 3516,
    "district_id": 351617,
    "value": "Temuireng",
    "postal_code": "61354"
  }
]