[
  {
    "id": 950725,
    "province_id": 95,
    "regency_id": 9507,
    "district_id": 950725,
    "value": "Birik",
    "postal_code": "99585"
  },
  {
    "id": 950725,
    "province_id": 95,
    "regency_id": 9507,
    "district_id": 950725,
    "value": "Bruyugu",
    "postal_code": "99585"
  },
  {
    "id": 950725,
    "province_id": 95,
    "regency_id": 9507,
    "district_id": 950725,
    "value": "Ekaba",
    "postal_code": "99585"
  },
  {
    "id": 950725,
    "province_id": 95,
    "regency_id": 9507,
    "district_id": 950725,
    "value": "Longgapur",
    "postal_code": "99585"
  },
  {
    "id": 950725,
    "province_id": 95,
    "regency_id": 9507,
    "district_id": 950725,
    "value": "Ogodome",
    "postal_code": "99585"
  },
  {
    "id": 950725,
    "province_id": 95,
    "regency_id": 9507,
    "district_id": 950725,
    "value": "Tikuluk",
    "postal_code": "99585"
  },
  {
    "id": 950725,
    "province_id": 95,
    "regency_id": 9507,
    "district_id": 950725,
    "value": "Wame",
    "postal_code": "99585"
  },
  {
    "id": 950725,
    "province_id": 95,
    "regency_id": 9507,
    "district_id": 950725,
    "value": "Wumbugi",
    "postal_code": "99585"
  },
  {
    "id": 950725,
    "province_id": 95,
    "regency_id": 9507,
    "district_id": 950725,
    "value": "Yalogu",
    "postal_code": "99585"
  }
]