[
  {
    "id": 740802,
    "province_id": 74,
    "regency_id": 7408,
    "district_id": 740802,
    "value": "Alipato",
    "postal_code": "93954"
  },
  {
    "id": 740802,
    "province_id": 74,
    "regency_id": 7408,
    "district_id": 740802,
    "value": "Kasumeeto",
    "postal_code": "93954"
  },
  {
    "id": 740802,
    "province_id": 74,
    "regency_id": 7408,
    "district_id": 740802,
    "value": "Kondara",
    "postal_code": "93954"
  },
  {
    "id": 740802,
    "province_id": 74,
    "regency_id": 7408,
    "district_id": 740802,
    "value": "Kosali",
    "postal_code": "93954"
  },
  {
    "id": 740802,
    "province_id": 74,
    "regency_id": 7408,
    "district_id": 740802,
    "value": "Lalombundi",
    "postal_code": "93954"
  },
  {
    "id": 740802,
    "province_id": 74,
    "regency_id": 7408,
    "district_id": 740802,
    "value": "Lalume",
    "postal_code": "93954"
  },
  {
    "id": 740802,
    "province_id": 74,
    "regency_id": 7408,
    "district_id": 740802,
    "value": "Mikuasi",
    "postal_code": "93954"
  },
  {
    "id": 740802,
    "province_id": 74,
    "regency_id": 7408,
    "district_id": 740802,
    "value": "Olo-Oloho (Olo-Olaha)",
    "postal_code": "93954"
  },
  {
    "id": 740802,
    "province_id": 74,
    "regency_id": 7408,
    "district_id": 740802,
    "value": "Seuwwa",
    "postal_code": "93954"
  },
  {
    "id": 740802,
    "province_id": 74,
    "regency_id": 7408,
    "district_id": 740802,
    "value": "Sipakainge",
    "postal_code": "93954"
  },
  {
    "id": 740802,
    "province_id": 74,
    "regency_id": 7408,
    "district_id": 740802,
    "value": "Toaha",
    "postal_code": "93954"
  }
]