[
  {
    "id": 950701,
    "province_id": 95,
    "regency_id": 9507,
    "district_id": 950701,
    "value": "Bokon",
    "postal_code": "99593"
  },
  {
    "id": 950701,
    "province_id": 95,
    "regency_id": 9507,
    "district_id": 950701,
    "value": "Dura",
    "postal_code": "99593"
  },
  {
    "id": 950701,
    "province_id": 95,
    "regency_id": 9507,
    "district_id": 950701,
    "value": "Ginime",
    "postal_code": "99593"
  },
  {
    "id": 950701,
    "province_id": 95,
    "regency_id": 9507,
    "district_id": 950701,
    "value": "Gurika",
    "postal_code": "99593"
  },
  {
    "id": 950701,
    "province_id": 95,
    "regency_id": 9507,
    "district_id": 950701,
    "value": "Kuapur",
    "postal_code": "99593"
  },
  {
    "id": 950701,
    "province_id": 95,
    "regency_id": 9507,
    "district_id": 950701,
    "value": "Langgalo",
    "postal_code": "99593"
  },
  {
    "id": 950701,
    "province_id": 95,
    "regency_id": 9507,
    "district_id": 950701,
    "value": "Olume",
    "postal_code": "99593"
  },
  {
    "id": 950701,
    "province_id": 95,
    "regency_id": 9507,
    "district_id": 950701,
    "value": "Oyi",
    "postal_code": "99593"
  },
  {
    "id": 950701,
    "province_id": 95,
    "regency_id": 9507,
    "district_id": 950701,
    "value": "Palunggame",
    "postal_code": "99593"
  },
  {
    "id": 950701,
    "province_id": 95,
    "regency_id": 9507,
    "district_id": 950701,
    "value": "Wadinalome",
    "postal_code": "99593"
  },
  {
    "id": 950701,
    "province_id": 95,
    "regency_id": 9507,
    "district_id": 950701,
    "value": "Yilondum",
    "postal_code": "99593"
  }
]