[
  {
    "id": 621009,
    "province_id": 62,
    "regency_id": 6210,
    "district_id": 621009,
    "value": "Bontoi (Buntui / Buntoi)",
    "postal_code": "74555"
  },
  {
    "id": 621009,
    "province_id": 62,
    "regency_id": 6210,
    "district_id": 621009,
    "value": "Harowo (Harowu)",
    "postal_code": "74555"
  },
  {
    "id": 621009,
    "province_id": 62,
    "regency_id": 6210,
    "district_id": 621009,
    "value": "Mangkuhung",
    "postal_code": "74555"
  },
  {
    "id": 621009,
    "province_id": 62,
    "regency_id": 6210,
    "district_id": 621009,
    "value": "Rangan Hiran",
    "postal_code": "74555"
  },
  {
    "id": 621009,
    "province_id": 62,
    "regency_id": 6210,
    "district_id": 621009,
    "value": "Tumbang Hatung (Tumbang Hantung)",
    "postal_code": "74555"
  },
  {
    "id": 621009,
    "province_id": 62,
    "regency_id": 6210,
    "district_id": 621009,
    "value": "Tumbang Koroi",
    "postal_code": "74555"
  },
  {
    "id": 621009,
    "province_id": 62,
    "regency_id": 6210,
    "district_id": 621009,
    "value": "Tumbang Lapan",
    "postal_code": "74555"
  },
  {
    "id": 621009,
    "province_id": 62,
    "regency_id": 6210,
    "district_id": 621009,
    "value": "Tumbang Manyoi",
    "postal_code": "74555"
  },
  {
    "id": 621009,
    "province_id": 62,
    "regency_id": 6210,
    "district_id": 621009,
    "value": "Tumbang Masukih",
    "postal_code": "74555"
  },
  {
    "id": 621009,
    "province_id": 62,
    "regency_id": 6210,
    "district_id": 621009,
    "value": "Tumbang Napoi",
    "postal_code": "74555"
  },
  {
    "id": 621009,
    "province_id": 62,
    "regency_id": 6210,
    "district_id": 621009,
    "value": "Tumbang Siruk",
    "postal_code": "74555"
  }
]