[
  {
    "id": 8108052007,
    "province_id": 81,
    "regency_id": 8108,
    "district_id": 810805,
    "value": "Ahanari",
    "postal_code": "97654"
  },
  {
    "id": 8108052009,
    "province_id": 81,
    "regency_id": 8108,
    "district_id": 810805,
    "value": "Analutur",
    "postal_code": "97654"
  },
  {
    "id": 8108052005,
    "province_id": 81,
    "regency_id": 8108,
    "district_id": 810805,
    "value": "Emplawas (Empalwas)",
    "postal_code": "97654"
  },
  {
    "id": 8108052006,
    "province_id": 81,
    "regency_id": 8108,
    "district_id": 810805,
    "value": "Kokwari",
    "postal_code": "97654"
  },
  {
    "id": 8108052003,
    "province_id": 81,
    "regency_id": 8108,
    "district_id": 810805,
    "value": "Kroing",
    "postal_code": "97654"
  },
  {
    "id": 8108052001,
    "province_id": 81,
    "regency_id": 8108,
    "district_id": 810805,
    "value": "Letwurung",
    "postal_code": "97654"
  },
  {
    "id": 8108052010,
    "province_id": 81,
    "regency_id": 8108,
    "district_id": 810805,
    "value": "Manuweri (Manuari)",
    "postal_code": "97654"
  },
  {
    "id": 8108052004,
    "province_id": 81,
    "regency_id": 8108,
    "district_id": 810805,
    "value": "Nakarhamto",
    "postal_code": "97654"
  },
  {
    "id": 8108052011,
    "province_id": 81,
    "regency_id": 8108,
    "district_id": 810805,
    "value": "Tutuwawang",
    "postal_code": "97654"
  },
  {
    "id": 8108052008,
    "province_id": 81,
    "regency_id": 8108,
    "district_id": 810805,
    "value": "Wakpapapi",
    "postal_code": "97654"
  },
  {
    "id": 8108052002,
    "province_id": 81,
    "regency_id": 8108,
    "district_id": 810805,
    "value": "Yatoke",
    "postal_code": "97654"
  }
]