[
  {
    "id": 3212082011,
    "province_id": 32,
    "regency_id": 3212,
    "district_id": 321208,
    "value": "Jambe",
    "postal_code": "45274"
  },
  {
    "id": 3212082008,
    "province_id": 32,
    "regency_id": 3212,
    "district_id": 321208,
    "value": "Jengkok",
    "postal_code": "45274"
  },
  {
    "id": 3212082014,
    "province_id": 32,
    "regency_id": 3212,
    "district_id": 321208,
    "value": "Kertasemaya",
    "postal_code": "45274"
  },
  {
    "id": 3212082015,
    "province_id": 32,
    "regency_id": 3212,
    "district_id": 321208,
    "value": "Kliwed",
    "postal_code": "45274"
  },
  {
    "id": 3212082017,
    "province_id": 32,
    "regency_id": 3212,
    "district_id": 321208,
    "value": "Larangan Jambe (Laranganjambe)",
    "postal_code": "45274"
  },
  {
    "id": 3212082012,
    "province_id": 32,
    "regency_id": 3212,
    "district_id": 321208,
    "value": "Lemahayu",
    "postal_code": "45274"
  },
  {
    "id": 3212082010,
    "province_id": 32,
    "regency_id": 3212,
    "district_id": 321208,
    "value": "Manguntara",
    "postal_code": "45274"
  },
  {
    "id": 3212082019,
    "province_id": 32,
    "regency_id": 3212,
    "district_id": 321208,
    "value": "Sukawera",
    "postal_code": "45274"
  },
  {
    "id": 3212082009,
    "province_id": 32,
    "regency_id": 3212,
    "district_id": 321208,
    "value": "Tegal Wirangrong (Tegalwirangrong)",
    "postal_code": "45274"
  },
  {
    "id": 3212082016,
    "province_id": 32,
    "regency_id": 3212,
    "district_id": 321208,
    "value": "Tenajar",
    "postal_code": "45274"
  },
  {
    "id": 3212082013,
    "province_id": 32,
    "regency_id": 3212,
    "district_id": 321208,
    "value": "Tenajar Kidul",
    "postal_code": "45274"
  },
  {
    "id": 3212082018,
    "province_id": 32,
    "regency_id": 3212,
    "district_id": 321208,
    "value": "Tenajar Lor",
    "postal_code": "45274"
  },
  {
    "id": 3212082007,
    "province_id": 32,
    "regency_id": 3212,
    "district_id": 321208,
    "value": "Tulungagung",
    "postal_code": "45274"
  }
]