[
  {
    "id": 810111,
    "province_id": 81,
    "regency_id": 8101,
    "district_id": 810111,
    "value": "Hatu",
    "postal_code": "97519"
  },
  {
    "id": 810111,
    "province_id": 81,
    "regency_id": 8101,
    "district_id": 810111,
    "value": "Hatumete",
    "postal_code": "97519"
  },
  {
    "id": 810111,
    "province_id": 81,
    "regency_id": 8101,
    "district_id": 810111,
    "value": "Haya",
    "postal_code": "97519"
  },
  {
    "id": 810111,
    "province_id": 81,
    "regency_id": 8101,
    "district_id": 810111,
    "value": "Mosso",
    "postal_code": "97519"
  },
  {
    "id": 810111,
    "province_id": 81,
    "regency_id": 8101,
    "district_id": 810111,
    "value": "Piliama (Piliana)",
    "postal_code": "97519"
  },
  {
    "id": 810111,
    "province_id": 81,
    "regency_id": 8101,
    "district_id": 810111,
    "value": "Salamahu",
    "postal_code": "97519"
  },
  {
    "id": 810111,
    "province_id": 81,
    "regency_id": 8101,
    "district_id": 810111,
    "value": "Saunulu",
    "postal_code": "97519"
  },
  {
    "id": 810111,
    "province_id": 81,
    "regency_id": 8101,
    "district_id": 810111,
    "value": "Tehoru",
    "postal_code": "97519"
  },
  {
    "id": 810111,
    "province_id": 81,
    "regency_id": 8101,
    "district_id": 810111,
    "value": "Telutih Baru (Teluti Baru)",
    "postal_code": "97519"
  },
  {
    "id": 810111,
    "province_id": 81,
    "regency_id": 8101,
    "district_id": 810111,
    "value": "Yaputih",
    "postal_code": "97519"
  }
]