[
  {
    "id": 140417,
    "province_id": 14,
    "regency_id": 1404,
    "district_id": 140417,
    "value": "Bangun Harjo Jaya",
    "postal_code": "29256"
  },
  {
    "id": 140417,
    "province_id": 14,
    "regency_id": 1404,
    "district_id": 140417,
    "value": "Binagun Jaya",
    "postal_code": "29256"
  },
  {
    "id": 140417,
    "province_id": 14,
    "regency_id": 1404,
    "district_id": 140417,
    "value": "Bukit Sari Intan Jaya",
    "postal_code": "29256"
  },
  {
    "id": 140417,
    "province_id": 14,
    "regency_id": 1404,
    "district_id": 140417,
    "value": "Keramat Jaya",
    "postal_code": "29256"
  },
  {
    "id": 140417,
    "province_id": 14,
    "regency_id": 1404,
    "district_id": 140417,
    "value": "Manunggal Jaya",
    "postal_code": "29256"
  },
  {
    "id": 140417,
    "province_id": 14,
    "regency_id": 1404,
    "district_id": 140417,
    "value": "Mayang Sari Jaya",
    "postal_code": "29256"
  },
  {
    "id": 140417,
    "province_id": 14,
    "regency_id": 1404,
    "district_id": 140417,
    "value": "Pulauburung (Pulau Burung)",
    "postal_code": "29256"
  },
  {
    "id": 140417,
    "province_id": 14,
    "regency_id": 1404,
    "district_id": 140417,
    "value": "Ringin Jaya (Beringin Jaya)",
    "postal_code": "29256"
  },
  {
    "id": 140417,
    "province_id": 14,
    "regency_id": 1404,
    "district_id": 140417,
    "value": "Sapta Jaya",
    "postal_code": "29256"
  },
  {
    "id": 140417,
    "province_id": 14,
    "regency_id": 1404,
    "district_id": 140417,
    "value": "Sri Damai",
    "postal_code": "29256"
  },
  {
    "id": 140417,
    "province_id": 14,
    "regency_id": 1404,
    "district_id": 140417,
    "value": "Suka Jaya",
    "postal_code": "29256"
  },
  {
    "id": 140417,
    "province_id": 14,
    "regency_id": 1404,
    "district_id": 140417,
    "value": "Sukaharjo Jaya (Suko Harjo Jaya)",
    "postal_code": "29256"
  },
  {
    "id": 140417,
    "province_id": 14,
    "regency_id": 1404,
    "district_id": 140417,
    "value": "Sungaidanai (Sungai Danai)",
    "postal_code": "29256"
  },
  {
    "id": 140417,
    "province_id": 14,
    "regency_id": 1404,
    "district_id": 140417,
    "value": "Teluknibung (Teluk Nibung)",
    "postal_code": "29256"
  }
]