[
  {
    "id": 1218082006,
    "province_id": 12,
    "regency_id": 1218,
    "district_id": 121808,
    "value": "Baja Dolok",
    "postal_code": "20992"
  },
  {
    "id": 1218082003,
    "province_id": 12,
    "regency_id": 1218,
    "district_id": 121808,
    "value": "Bartong",
    "postal_code": "20992"
  },
  {
    "id": 1218082015,
    "province_id": 12,
    "regency_id": 1218,
    "district_id": 121808,
    "value": "Buluh Duri",
    "postal_code": "20992"
  },
  {
    "id": 1218082017,
    "province_id": 12,
    "regency_id": 1218,
    "district_id": 121808,
    "value": "Damak Kurat",
    "postal_code": "20992"
  },
  {
    "id": 1218082016,
    "province_id": 12,
    "regency_id": 1218,
    "district_id": 121808,
    "value": "Gunung Monako (Gunung Manako)",
    "postal_code": "20992"
  },
  {
    "id": 1218082019,
    "province_id": 12,
    "regency_id": 1218,
    "district_id": 121808,
    "value": "Gunung Pane",
    "postal_code": "20992"
  },
  {
    "id": 1218082011,
    "province_id": 12,
    "regency_id": 1218,
    "district_id": 121808,
    "value": "Mariah Nagur",
    "postal_code": "20992"
  },
  {
    "id": 1218082013,
    "province_id": 12,
    "regency_id": 1218,
    "district_id": 121808,
    "value": "Marjanji",
    "postal_code": "20992"
  },
  {
    "id": 1218082004,
    "province_id": 12,
    "regency_id": 1218,
    "district_id": 121808,
    "value": "Marubun",
    "postal_code": "20992"
  },
  {
    "id": 1218082010,
    "province_id": 12,
    "regency_id": 1218,
    "district_id": 121808,
    "value": "Naga Raja",
    "postal_code": "20992"
  },
  {
    "id": 1218082008,
    "province_id": 12,
    "regency_id": 1218,
    "district_id": 121808,
    "value": "Nagur Pane",
    "postal_code": "20992"
  },
  {
    "id": 1218082009,
    "province_id": 12,
    "regency_id": 1218,
    "district_id": 121808,
    "value": "Parlambean",
    "postal_code": "20992"
  },
  {
    "id": 1218082005,
    "province_id": 12,
    "regency_id": 1218,
    "district_id": 121808,
    "value": "Pispis",
    "postal_code": "20992"
  },
  {
    "id": 1218082012,
    "province_id": 12,
    "regency_id": 1218,
    "district_id": 121808,
    "value": "Rimbun",
    "postal_code": "20992"
  },
  {
    "id": 1218082002,
    "province_id": 12,
    "regency_id": 1218,
    "district_id": 121808,
    "value": "Serbananti",
    "postal_code": "20992"
  },
  {
    "id": 1218082020,
    "province_id": 12,
    "regency_id": 1218,
    "district_id": 121808,
    "value": "Sibarau (Sibangu)",
    "postal_code": "20992"
  },
  {
    "id": 1218082014,
    "province_id": 12,
    "regency_id": 1218,
    "district_id": 121808,
    "value": "Silau Padang",
    "postal_code": "20992"
  },
  {
    "id": 1218082018,
    "province_id": 12,
    "regency_id": 1218,
    "district_id": 121808,
    "value": "Simalas",
    "postal_code": "20992"
  },
  {
    "id": 1218082001,
    "province_id": 12,
    "regency_id": 1218,
    "district_id": 121808,
    "value": "Sipispis",
    "postal_code": "20992"
  },
  {
    "id": 1218082007,
    "province_id": 12,
    "regency_id": 1218,
    "district_id": 121808,
    "value": "Tinokkah",
    "postal_code": "20992"
  }
]