[
  {
    "id": 320639,
    "province_id": 32,
    "regency_id": 3206,
    "district_id": 320639,
    "value": "Banjarsari",
    "postal_code": "46419"
  },
  {
    "id": 320639,
    "province_id": 32,
    "regency_id": 3206,
    "district_id": 320639,
    "value": "Cipondok",
    "postal_code": "46419"
  },
  {
    "id": 320639,
    "province_id": 32,
    "regency_id": 3206,
    "district_id": 320639,
    "value": "Margamulya",
    "postal_code": "46419"
  },
  {
    "id": 320639,
    "province_id": 32,
    "regency_id": 3206,
    "district_id": 320639,
    "value": "Sukamenak",
    "postal_code": "46419"
  },
  {
    "id": 320639,
    "province_id": 32,
    "regency_id": 3206,
    "district_id": 320639,
    "value": "Sukapancar",
    "postal_code": "46419"
  },
  {
    "id": 320639,
    "province_id": 32,
    "regency_id": 3206,
    "district_id": 320639,
    "value": "Sukaratu",
    "postal_code": "46419"
  },
  {
    "id": 320639,
    "province_id": 32,
    "regency_id": 3206,
    "district_id": 320639,
    "value": "Sukaresik",
    "postal_code": "46419"
  },
  {
    "id": 320639,
    "province_id": 32,
    "regency_id": 3206,
    "district_id": 320639,
    "value": "Tanjungsari",
    "postal_code": "46419"
  }
]