[
  {
    "id": 350513,
    "province_id": 35,
    "regency_id": 3505,
    "district_id": 350513,
    "value": "Balerejo (Bale Rejo)",
    "postal_code": "66174"
  },
  {
    "id": 350513,
    "province_id": 35,
    "regency_id": 3505,
    "district_id": 350513,
    "value": "Bumiayu",
    "postal_code": "66174"
  },
  {
    "id": 350513,
    "province_id": 35,
    "regency_id": 3505,
    "district_id": 350513,
    "value": "Kaligambir (Kali Gambir)",
    "postal_code": "66174"
  },
  {
    "id": 350513,
    "province_id": 35,
    "regency_id": 3505,
    "district_id": 350513,
    "value": "Kalitengah",
    "postal_code": "66174"
  },
  {
    "id": 350513,
    "province_id": 35,
    "regency_id": 3505,
    "district_id": 350513,
    "value": "Margomulyo (Margo Mulyo)",
    "postal_code": "66174"
  },
  {
    "id": 350513,
    "province_id": 35,
    "regency_id": 3505,
    "district_id": 350513,
    "value": "Panggungasri (Panggung Asri)",
    "postal_code": "66174"
  },
  {
    "id": 350513,
    "province_id": 35,
    "regency_id": 3505,
    "district_id": 350513,
    "value": "Panggungrejo (Panggung Rejo)",
    "postal_code": "66174"
  },
  {
    "id": 350513,
    "province_id": 35,
    "regency_id": 3505,
    "district_id": 350513,
    "value": "Serang",
    "postal_code": "66174"
  },
  {
    "id": 350513,
    "province_id": 35,
    "regency_id": 3505,
    "district_id": 350513,
    "value": "Sumberagung (Sumber Agung)",
    "postal_code": "66174"
  },
  {
    "id": 350513,
    "province_id": 35,
    "regency_id": 3505,
    "district_id": 350513,
    "value": "Sumbersih",
    "postal_code": "66174"
  }
]