[
  {
    "id": 331408,
    "province_id": 33,
    "regency_id": 3314,
    "district_id": 331408,
    "value": "Bandung",
    "postal_code": "57252"
  },
  {
    "id": 331408,
    "province_id": 33,
    "regency_id": 3314,
    "district_id": 331408,
    "value": "Bener",
    "postal_code": "57252"
  },
  {
    "id": 331408,
    "province_id": 33,
    "regency_id": 3314,
    "district_id": 331408,
    "value": "Gabus",
    "postal_code": "57252"
  },
  {
    "id": 331408,
    "province_id": 33,
    "regency_id": 3314,
    "district_id": 331408,
    "value": "Karangudi",
    "postal_code": "57252"
  },
  {
    "id": 331408,
    "province_id": 33,
    "regency_id": 3314,
    "district_id": 331408,
    "value": "Kebonromo",
    "postal_code": "57252"
  },
  {
    "id": 331408,
    "province_id": 33,
    "regency_id": 3314,
    "district_id": 331408,
    "value": "Klandungan",
    "postal_code": "57252"
  },
  {
    "id": 331408,
    "province_id": 33,
    "regency_id": 3314,
    "district_id": 331408,
    "value": "Ngarum",
    "postal_code": "57252"
  },
  {
    "id": 331408,
    "province_id": 33,
    "regency_id": 3314,
    "district_id": 331408,
    "value": "Pilangsari",
    "postal_code": "57252"
  }
]