[
  {
    "id": 9501132005,
    "province_id": 95,
    "regency_id": 9501,
    "district_id": 950113,
    "value": "Healekma",
    "postal_code": "99505"
  },
  {
    "id": 9501132002,
    "province_id": 95,
    "regency_id": 9501,
    "district_id": 950113,
    "value": "Holima",
    "postal_code": "99505"
  },
  {
    "id": 9501132003,
    "province_id": 95,
    "regency_id": 9501,
    "district_id": 950113,
    "value": "Lani Matuan",
    "postal_code": "99505"
  },
  {
    "id": 9501132001,
    "province_id": 95,
    "regency_id": 9501,
    "district_id": 950113,
    "value": "Napua",
    "postal_code": "99505"
  },
  {
    "id": 9501132004,
    "province_id": 95,
    "regency_id": 9501,
    "district_id": 950113,
    "value": "Okilik",
    "postal_code": "99505"
  },
  {
    "id": 9501132007,
    "province_id": 95,
    "regency_id": 9501,
    "district_id": 950113,
    "value": "Sapalek",
    "postal_code": "99505"
  },
  {
    "id": 9501132009,
    "province_id": 95,
    "regency_id": 9501,
    "district_id": 950113,
    "value": "Wilekama",
    "postal_code": "99505"
  },
  {
    "id": 9501132006,
    "province_id": 95,
    "regency_id": 9501,
    "district_id": 950113,
    "value": "Yelekama",
    "postal_code": "99505"
  },
  {
    "id": 9501132008,
    "province_id": 95,
    "regency_id": 9501,
    "district_id": 950113,
    "value": "Yomaima",
    "postal_code": "99505"
  }
]