[
  {
    "id": 131102,
    "province_id": 13,
    "regency_id": 1311,
    "district_id": 131102,
    "value": "Bomas",
    "postal_code": "27774"
  },
  {
    "id": 131102,
    "province_id": 13,
    "regency_id": 1311,
    "district_id": 131102,
    "value": "Koto Baru",
    "postal_code": "27774"
  },
  {
    "id": 131102,
    "province_id": 13,
    "regency_id": 1311,
    "district_id": 131102,
    "value": "Pasar Muara Labuh",
    "postal_code": "27774"
  },
  {
    "id": 131102,
    "province_id": 13,
    "regency_id": 1311,
    "district_id": 131102,
    "value": "Pasir Talang",
    "postal_code": "27774"
  },
  {
    "id": 131102,
    "province_id": 13,
    "regency_id": 1311,
    "district_id": 131102,
    "value": "Pasir Talang Barat",
    "postal_code": "27774"
  },
  {
    "id": 131102,
    "province_id": 13,
    "regency_id": 1311,
    "district_id": 131102,
    "value": "Pasir Talang Selatan",
    "postal_code": "27774"
  },
  {
    "id": 131102,
    "province_id": 13,
    "regency_id": 1311,
    "district_id": 131102,
    "value": "Pasir Talang Timur",
    "postal_code": "27774"
  },
  {
    "id": 131102,
    "province_id": 13,
    "regency_id": 1311,
    "district_id": 131102,
    "value": "Pulakek Koto Baru",
    "postal_code": "27774"
  },
  {
    "id": 131102,
    "province_id": 13,
    "regency_id": 1311,
    "district_id": 131102,
    "value": "Sako Pasia Talang",
    "postal_code": "27774"
  },
  {
    "id": 131102,
    "province_id": 13,
    "regency_id": 1311,
    "district_id": 131102,
    "value": "Sako Selatan Pasia Talang",
    "postal_code": "27774"
  },
  {
    "id": 131102,
    "province_id": 13,
    "regency_id": 1311,
    "district_id": 131102,
    "value": "Sako Utara Pasia Talang",
    "postal_code": "27774"
  }
]