[
  {
    "id": 912001,
    "province_id": 91,
    "regency_id": 9120,
    "district_id": 912001,
    "value": "Anggreso",
    "postal_code": "98692"
  },
  {
    "id": 912001,
    "province_id": 91,
    "regency_id": 9120,
    "district_id": 912001,
    "value": "Babija",
    "postal_code": "98692"
  },
  {
    "id": 912001,
    "province_id": 91,
    "regency_id": 9120,
    "district_id": 912001,
    "value": "Burmeso",
    "postal_code": "98692"
  },
  {
    "id": 912001,
    "province_id": 91,
    "regency_id": 9120,
    "district_id": 912001,
    "value": "Danau Bira",
    "postal_code": "98692"
  },
  {
    "id": 912001,
    "province_id": 91,
    "regency_id": 9120,
    "district_id": 912001,
    "value": "Kasonaweja",
    "postal_code": "98692"
  },
  {
    "id": 912001,
    "province_id": 91,
    "regency_id": 9120,
    "district_id": 912001,
    "value": "Kwerba",
    "postal_code": "98692"
  },
  {
    "id": 912001,
    "province_id": 91,
    "regency_id": 9120,
    "district_id": 912001,
    "value": "Marina Valen",
    "postal_code": "98692"
  },
  {
    "id": 912001,
    "province_id": 91,
    "regency_id": 9120,
    "district_id": 912001,
    "value": "Metaweja",
    "postal_code": "98692"
  },
  {
    "id": 912001,
    "province_id": 91,
    "regency_id": 9120,
    "district_id": 912001,
    "value": "Muru Mare",
    "postal_code": "98692"
  },
  {
    "id": 912001,
    "province_id": 91,
    "regency_id": 9120,
    "district_id": 912001,
    "value": "Namunaweja",
    "postal_code": "98692"
  },
  {
    "id": 912001,
    "province_id": 91,
    "regency_id": 9120,
    "district_id": 912001,
    "value": "Sosawakwesar",
    "postal_code": "98692"
  }
]