[
  {
    "id": 3517182001,
    "province_id": 35,
    "regency_id": 3517,
    "district_id": 351718,
    "value": "Bandarkedungmulyo (Bandar Kedung Mulyo)",
    "postal_code": "61462"
  },
  {
    "id": 3517182008,
    "province_id": 35,
    "regency_id": 3517,
    "district_id": 351718,
    "value": "Banjarsari (Banjar Sari)",
    "postal_code": "61462"
  },
  {
    "id": 3517182003,
    "province_id": 35,
    "regency_id": 3517,
    "district_id": 351718,
    "value": "Barongsawahan (Barong Sawahan)",
    "postal_code": "61462"
  },
  {
    "id": 3517182009,
    "province_id": 35,
    "regency_id": 3517,
    "district_id": 351718,
    "value": "Brangkal",
    "postal_code": "61462"
  },
  {
    "id": 3517182006,
    "province_id": 35,
    "regency_id": 3517,
    "district_id": 351718,
    "value": "Brodot",
    "postal_code": "61462"
  },
  {
    "id": 3517182005,
    "province_id": 35,
    "regency_id": 3517,
    "district_id": 351718,
    "value": "Gondangmanis (Gondang Manis)",
    "postal_code": "61462"
  },
  {
    "id": 3517182010,
    "province_id": 35,
    "regency_id": 3517,
    "district_id": 351718,
    "value": "Karangdagangan (Karang Dagangan)",
    "postal_code": "61462"
  },
  {
    "id": 3517182004,
    "province_id": 35,
    "regency_id": 3517,
    "district_id": 351718,
    "value": "Kayen",
    "postal_code": "61462"
  },
  {
    "id": 3517182002,
    "province_id": 35,
    "regency_id": 3517,
    "district_id": 351718,
    "value": "Mojokambang",
    "postal_code": "61462"
  },
  {
    "id": 3517182007,
    "province_id": 35,
    "regency_id": 3517,
    "district_id": 351718,
    "value": "Pucangsimo (Pucang Simo)",
    "postal_code": "61462"
  },
  {
    "id": 3517182011,
    "province_id": 35,
    "regency_id": 3517,
    "district_id": 351718,
    "value": "Tinggar",
    "postal_code": "61462"
  }
]