[
  {
    "id": 7602031002,
    "province_id": 76,
    "regency_id": 7602,
    "district_id": 760203,
    "value": "Bebanga",
    "postal_code": "91561"
  },
  {
    "id": 7602032006,
    "province_id": 76,
    "regency_id": 7602,
    "district_id": 760203,
    "value": "Belang-Belang",
    "postal_code": "91561"
  },
  {
    "id": 7602032005,
    "province_id": 76,
    "regency_id": 7602,
    "district_id": 760203,
    "value": "Beru-Beru",
    "postal_code": "91561"
  },
  {
    "id": 7602032010,
    "province_id": 76,
    "regency_id": 7602,
    "district_id": 760203,
    "value": "Guliling",
    "postal_code": "91561"
  },
  {
    "id": 7602032007,
    "province_id": 76,
    "regency_id": 7602,
    "district_id": 760203,
    "value": "Kabuloang",
    "postal_code": "91561"
  },
  {
    "id": 7602031003,
    "province_id": 76,
    "regency_id": 7602,
    "district_id": 760203,
    "value": "Kalukku",
    "postal_code": "91561"
  },
  {
    "id": 7602032012,
    "province_id": 76,
    "regency_id": 7602,
    "district_id": 760203,
    "value": "Kalukku Barat",
    "postal_code": "91561"
  },
  {
    "id": 7602032008,
    "province_id": 76,
    "regency_id": 7602,
    "district_id": 760203,
    "value": "Keang",
    "postal_code": "91561"
  },
  {
    "id": 7602032013,
    "province_id": 76,
    "regency_id": 7602,
    "district_id": 760203,
    "value": "Pammulukang",
    "postal_code": "91561"
  },
  {
    "id": 7602032009,
    "province_id": 76,
    "regency_id": 7602,
    "district_id": 760203,
    "value": "Pokkang",
    "postal_code": "91561"
  },
  {
    "id": 7602031001,
    "province_id": 76,
    "regency_id": 7602,
    "district_id": 760203,
    "value": "Sinyonyoi",
    "postal_code": "91561"
  },
  {
    "id": 7602031014,
    "province_id": 76,
    "regency_id": 7602,
    "district_id": 760203,
    "value": "Sinyonyoi Selatan",
    "postal_code": "91561"
  },
  {
    "id": 7602032004,
    "province_id": 76,
    "regency_id": 7602,
    "district_id": 760203,
    "value": "Sondoang",
    "postal_code": "91561"
  },
  {
    "id": 7602032011,
    "province_id": 76,
    "regency_id": 7602,
    "district_id": 760203,
    "value": "Uhaimate",
    "postal_code": "91561"
  }
]