[
  {
    "id": 360420,
    "province_id": 36,
    "regency_id": 3604,
    "district_id": 360420,
    "value": "Bojong Catang",
    "postal_code": "42174"
  },
  {
    "id": 360420,
    "province_id": 36,
    "regency_id": 3604,
    "district_id": 360420,
    "value": "Bojong Menteng",
    "postal_code": "42174"
  },
  {
    "id": 360420,
    "province_id": 36,
    "regency_id": 3604,
    "district_id": 360420,
    "value": "Bojong Pandan",
    "postal_code": "42174"
  },
  {
    "id": 360420,
    "province_id": 36,
    "regency_id": 3604,
    "district_id": 360420,
    "value": "Kemuning (Kamuning)",
    "postal_code": "42174"
  },
  {
    "id": 360420,
    "province_id": 36,
    "regency_id": 3604,
    "district_id": 360420,
    "value": "Malanggah",
    "postal_code": "42174"
  },
  {
    "id": 360420,
    "province_id": 36,
    "regency_id": 3604,
    "district_id": 360420,
    "value": "Pancaregang (Pancarecang)",
    "postal_code": "42174"
  },
  {
    "id": 360420,
    "province_id": 36,
    "regency_id": 3604,
    "district_id": 360420,
    "value": "Panunggulan",
    "postal_code": "42174"
  },
  {
    "id": 360420,
    "province_id": 36,
    "regency_id": 3604,
    "district_id": 360420,
    "value": "Sukasari",
    "postal_code": "42174"
  },
  {
    "id": 360420,
    "province_id": 36,
    "regency_id": 3604,
    "district_id": 360420,
    "value": "Tanjung Teja (Tunjung Teja)",
    "postal_code": "42174"
  }
]