[
  {
    "id": 9502012020,
    "province_id": 95,
    "regency_id": 9502,
    "district_id": 950201,
    "value": "Akmakot",
    "postal_code": "99415"
  },
  {
    "id": 9502012017,
    "province_id": 95,
    "regency_id": 9502,
    "district_id": 950201,
    "value": "Aldom",
    "postal_code": "99415"
  },
  {
    "id": 9502012022,
    "province_id": 95,
    "regency_id": 9502,
    "district_id": 950201,
    "value": "Bunamdol",
    "postal_code": "99415"
  },
  {
    "id": 9502012001,
    "province_id": 95,
    "regency_id": 9502,
    "district_id": 950201,
    "value": "Kabiding (Betaabib)",
    "postal_code": "99415"
  },
  {
    "id": 9502012018,
    "province_id": 95,
    "regency_id": 9502,
    "district_id": 950201,
    "value": "Kutdol",
    "postal_code": "99415"
  },
  {
    "id": 9502012021,
    "province_id": 95,
    "regency_id": 9502,
    "district_id": 950201,
    "value": "Mabilabol",
    "postal_code": "99415"
  },
  {
    "id": 9502012023,
    "province_id": 95,
    "regency_id": 9502,
    "district_id": 950201,
    "value": "Molbib Silibib",
    "postal_code": "99415"
  },
  {
    "id": 9502012019,
    "province_id": 95,
    "regency_id": 9502,
    "district_id": 950201,
    "value": "Polsam",
    "postal_code": "99415"
  }
]