[
  {
    "id": 7504042015,
    "province_id": 75,
    "regency_id": 7504,
    "district_id": 750404,
    "value": "Batubilotahu (Batubilotahu Indah)",
    "postal_code": "96365"
  },
  {
    "id": 7504042018,
    "province_id": 75,
    "regency_id": 7504,
    "district_id": 750404,
    "value": "Bulangita",
    "postal_code": "96365"
  },
  {
    "id": 7504042003,
    "province_id": 75,
    "regency_id": 7504,
    "district_id": 750404,
    "value": "Marisa Selatan",
    "postal_code": "96365"
  },
  {
    "id": 7504042004,
    "province_id": 75,
    "regency_id": 7504,
    "district_id": 750404,
    "value": "Marisa Utara",
    "postal_code": "96365"
  },
  {
    "id": 7504042016,
    "province_id": 75,
    "regency_id": 7504,
    "district_id": 750404,
    "value": "Palopo",
    "postal_code": "96365"
  },
  {
    "id": 7504042008,
    "province_id": 75,
    "regency_id": 7504,
    "district_id": 750404,
    "value": "Pohuwato",
    "postal_code": "96365"
  },
  {
    "id": 7504042017,
    "province_id": 75,
    "regency_id": 7504,
    "district_id": 750404,
    "value": "Pohuwato Timur",
    "postal_code": "96365"
  },
  {
    "id": 7504042007,
    "province_id": 75,
    "regency_id": 7504,
    "district_id": 750404,
    "value": "Teratai",
    "postal_code": "96365"
  }
]