[
  {
    "id": 331317,
    "province_id": 33,
    "regency_id": 3313,
    "district_id": 331317,
    "value": "Anggrasmanis",
    "postal_code": "57794"
  },
  {
    "id": 331317,
    "province_id": 33,
    "regency_id": 3313,
    "district_id": 331317,
    "value": "Balong",
    "postal_code": "57794"
  },
  {
    "id": 331317,
    "province_id": 33,
    "regency_id": 3313,
    "district_id": 331317,
    "value": "Gumeng",
    "postal_code": "57794"
  },
  {
    "id": 331317,
    "province_id": 33,
    "regency_id": 3313,
    "district_id": 331317,
    "value": "Jenawi",
    "postal_code": "57794"
  },
  {
    "id": 331317,
    "province_id": 33,
    "regency_id": 3313,
    "district_id": 331317,
    "value": "Lempong",
    "postal_code": "57794"
  },
  {
    "id": 331317,
    "province_id": 33,
    "regency_id": 3313,
    "district_id": 331317,
    "value": "Menjing",
    "postal_code": "57794"
  },
  {
    "id": 331317,
    "province_id": 33,
    "regency_id": 3313,
    "district_id": 331317,
    "value": "Seloromo",
    "postal_code": "57794"
  },
  {
    "id": 331317,
    "province_id": 33,
    "regency_id": 3313,
    "district_id": 331317,
    "value": "Sidomukti",
    "postal_code": "57794"
  },
  {
    "id": 331317,
    "province_id": 33,
    "regency_id": 3313,
    "district_id": 331317,
    "value": "Trengguli",
    "postal_code": "57794"
  }
]