[
  {
    "id": 131205,
    "province_id": 13,
    "regency_id": 1312,
    "district_id": 131205,
    "value": "Ampek Koto",
    "postal_code": "26567"
  },
  {
    "id": 131205,
    "province_id": 13,
    "regency_id": 1312,
    "district_id": 131205,
    "value": "Ampek Koto Barat",
    "postal_code": "26567"
  },
  {
    "id": 131205,
    "province_id": 13,
    "regency_id": 1312,
    "district_id": 131205,
    "value": "Anam Koto Selatan",
    "postal_code": "26567"
  },
  {
    "id": 131205,
    "province_id": 13,
    "regency_id": 1312,
    "district_id": 131205,
    "value": "Anam Koto Utara",
    "postal_code": "26567"
  },
  {
    "id": 131205,
    "province_id": 13,
    "regency_id": 1312,
    "district_id": 131205,
    "value": "Bancah Kariang",
    "postal_code": "26567"
  },
  {
    "id": 131205,
    "province_id": 13,
    "regency_id": 1312,
    "district_id": 131205,
    "value": "Bandua Balai",
    "postal_code": "26567"
  },
  {
    "id": 131205,
    "province_id": 13,
    "regency_id": 1312,
    "district_id": 131205,
    "value": "Bunuik",
    "postal_code": "26567"
  },
  {
    "id": 131205,
    "province_id": 13,
    "regency_id": 1312,
    "district_id": 131205,
    "value": "Katiagan (Katiagan Mandiangin)",
    "postal_code": "26567"
  },
  {
    "id": 131205,
    "province_id": 13,
    "regency_id": 1312,
    "district_id": 131205,
    "value": "Kinali",
    "postal_code": "26567"
  },
  {
    "id": 131205,
    "province_id": 13,
    "regency_id": 1312,
    "district_id": 131205,
    "value": "Koto Gadang Jaya",
    "postal_code": "26567"
  },
  {
    "id": 131205,
    "province_id": 13,
    "regency_id": 1312,
    "district_id": 131205,
    "value": "Langgam Saiyo",
    "postal_code": "26567"
  },
  {
    "id": 131205,
    "province_id": 13,
    "regency_id": 1312,
    "district_id": 131205,
    "value": "Langgam Sepakat",
    "postal_code": "26567"
  },
  {
    "id": 131205,
    "province_id": 13,
    "regency_id": 1312,
    "district_id": 131205,
    "value": "Limau Purut",
    "postal_code": "26567"
  },
  {
    "id": 131205,
    "province_id": 13,
    "regency_id": 1312,
    "district_id": 131205,
    "value": "Mudiak Labuah",
    "postal_code": "26567"
  },
  {
    "id": 131205,
    "province_id": 13,
    "regency_id": 1312,
    "district_id": 131205,
    "value": "Padang Canduh",
    "postal_code": "26567"
  },
  {
    "id": 131205,
    "province_id": 13,
    "regency_id": 1312,
    "district_id": 131205,
    "value": "Sigunanti",
    "postal_code": "26567"
  },
  {
    "id": 131205,
    "province_id": 13,
    "regency_id": 1312,
    "district_id": 131205,
    "value": "Tandikek",
    "postal_code": "26567"
  }
]