[
  {
    "id": 721009,
    "province_id": 72,
    "regency_id": 7210,
    "district_id": 721009,
    "value": "Balongga",
    "postal_code": "94371"
  },
  {
    "id": 721009,
    "province_id": 72,
    "regency_id": 7210,
    "district_id": 721009,
    "value": "Baluase",
    "postal_code": "94371"
  },
  {
    "id": 721009,
    "province_id": 72,
    "regency_id": 7210,
    "district_id": 721009,
    "value": "Bangga",
    "postal_code": "94371"
  },
  {
    "id": 721009,
    "province_id": 72,
    "regency_id": 7210,
    "district_id": 721009,
    "value": "Bulubete",
    "postal_code": "94371"
  },
  {
    "id": 721009,
    "province_id": 72,
    "regency_id": 7210,
    "district_id": 721009,
    "value": "Jono",
    "postal_code": "94371"
  },
  {
    "id": 721009,
    "province_id": 72,
    "regency_id": 7210,
    "district_id": 721009,
    "value": "Poi",
    "postal_code": "94371"
  },
  {
    "id": 721009,
    "province_id": 72,
    "regency_id": 7210,
    "district_id": 721009,
    "value": "Pulu",
    "postal_code": "94371"
  },
  {
    "id": 721009,
    "province_id": 72,
    "regency_id": 7210,
    "district_id": 721009,
    "value": "Ramba",
    "postal_code": "94371"
  },
  {
    "id": 721009,
    "province_id": 72,
    "regency_id": 7210,
    "district_id": 721009,
    "value": "Rogo",
    "postal_code": "94371"
  },
  {
    "id": 721009,
    "province_id": 72,
    "regency_id": 7210,
    "district_id": 721009,
    "value": "Sambo",
    "postal_code": "94371"
  },
  {
    "id": 721009,
    "province_id": 72,
    "regency_id": 7210,
    "district_id": 721009,
    "value": "Walatana",
    "postal_code": "94371"
  },
  {
    "id": 721009,
    "province_id": 72,
    "regency_id": 7210,
    "district_id": 721009,
    "value": "Wisolo",
    "postal_code": "94371"
  }
]