[
  {
    "id": 110606,
    "province_id": 11,
    "regency_id": 1106,
    "district_id": 110606,
    "value": "Aneuk Batee",
    "postal_code": "23361"
  },
  {
    "id": 110606,
    "province_id": 11,
    "regency_id": 1106,
    "district_id": 110606,
    "value": "Aneuk Galong Baro",
    "postal_code": "23361"
  },
  {
    "id": 110606,
    "province_id": 11,
    "regency_id": 1106,
    "district_id": 110606,
    "value": "Aneuk Galong Titi",
    "postal_code": "23361"
  },
  {
    "id": 110606,
    "province_id": 11,
    "regency_id": 1106,
    "district_id": 110606,
    "value": "Baet Lampuot",
    "postal_code": "23361"
  },
  {
    "id": 110606,
    "province_id": 11,
    "regency_id": 1106,
    "district_id": 110606,
    "value": "Baet Mesago (Baet Meusugo)",
    "postal_code": "23361"
  },
  {
    "id": 110606,
    "province_id": 11,
    "regency_id": 1106,
    "district_id": 110606,
    "value": "Baet Mesjid",
    "postal_code": "23361"
  },
  {
    "id": 110606,
    "province_id": 11,
    "regency_id": 1106,
    "district_id": 110606,
    "value": "Blang Cot/Cut",
    "postal_code": "23361"
  },
  {
    "id": 110606,
    "province_id": 11,
    "regency_id": 1106,
    "district_id": 110606,
    "value": "Bukloh",
    "postal_code": "23361"
  },
  {
    "id": 110606,
    "province_id": 11,
    "regency_id": 1106,
    "district_id": 110606,
    "value": "Dilib Bukit (Dilib Bukti)",
    "postal_code": "23361"
  },
  {
    "id": 110606,
    "province_id": 11,
    "regency_id": 1106,
    "district_id": 110606,
    "value": "Dilib Lamteungoh",
    "postal_code": "23361"
  },
  {
    "id": 110606,
    "province_id": 11,
    "regency_id": 1106,
    "district_id": 110606,
    "value": "Kayee Adang",
    "postal_code": "23361"
  },
  {
    "id": 110606,
    "province_id": 11,
    "regency_id": 1106,
    "district_id": 110606,
    "value": "Klieng Mayang (Klieng Manyang)",
    "postal_code": "23361"
  },
  {
    "id": 110606,
    "province_id": 11,
    "regency_id": 1106,
    "district_id": 110606,
    "value": "Lam Lheu",
    "postal_code": "23361"
  },
  {
    "id": 110606,
    "province_id": 11,
    "regency_id": 1106,
    "district_id": 110606,
    "value": "Lam Tanjong",
    "postal_code": "23361"
  },
  {
    "id": 110606,
    "province_id": 11,
    "regency_id": 1106,
    "district_id": 110606,
    "value": "Lambarih Jurong Raya",
    "postal_code": "23361"
  },
  {
    "id": 110606,
    "province_id": 11,
    "regency_id": 1106,
    "district_id": 110606,
    "value": "Lambaro Sibreh",
    "postal_code": "23361"
  },
  {
    "id": 110606,
    "province_id": 11,
    "regency_id": 1106,
    "district_id": 110606,
    "value": "Lambirah",
    "postal_code": "23361"
  },
  {
    "id": 110606,
    "province_id": 11,
    "regency_id": 1106,
    "district_id": 110606,
    "value": "Lambirah Bak Mee (Lambarih Bak Mee)",
    "postal_code": "23361"
  },
  {
    "id": 110606,
    "province_id": 11,
    "regency_id": 1106,
    "district_id": 110606,
    "value": "Lamgeu Baro",
    "postal_code": "23361"
  },
  {
    "id": 110606,
    "province_id": 11,
    "regency_id": 1106,
    "district_id": 110606,
    "value": "Lamgeu Tuha",
    "postal_code": "23361"
  },
  {
    "id": 110606,
    "province_id": 11,
    "regency_id": 1106,
    "district_id": 110606,
    "value": "Lampanah Ineu",
    "postal_code": "23361"
  },
  {
    "id": 110606,
    "province_id": 11,
    "regency_id": 1106,
    "district_id": 110606,
    "value": "Lampisang",
    "postal_code": "23361"
  },
  {
    "id": 110606,
    "province_id": 11,
    "regency_id": 1106,
    "district_id": 110606,
    "value": "Lamteh Dayah",
    "postal_code": "23361"
  },
  {
    "id": 110606,
    "province_id": 11,
    "regency_id": 1106,
    "district_id": 110606,
    "value": "Luthu Dayah Krueng",
    "postal_code": "23361"
  },
  {
    "id": 110606,
    "province_id": 11,
    "regency_id": 1106,
    "district_id": 110606,
    "value": "Luthu Lamweu",
    "postal_code": "23361"
  },
  {
    "id": 110606,
    "province_id": 11,
    "regency_id": 1106,
    "district_id": 110606,
    "value": "Meunasah Bakthu",
    "postal_code": "23361"
  },
  {
    "id": 110606,
    "province_id": 11,
    "regency_id": 1106,
    "district_id": 110606,
    "value": "Meunasah Tuha",
    "postal_code": "23361"
  },
  {
    "id": 110606,
    "province_id": 11,
    "regency_id": 1106,
    "district_id": 110606,
    "value": "Niron",
    "postal_code": "23361"
  },
  {
    "id": 110606,
    "province_id": 11,
    "regency_id": 1106,
    "district_id": 110606,
    "value": "Panterawa",
    "postal_code": "23361"
  },
  {
    "id": 110606,
    "province_id": 11,
    "regency_id": 1106,
    "district_id": 110606,
    "value": "Reuhat Tuha",
    "postal_code": "23361"
  },
  {
    "id": 110606,
    "province_id": 11,
    "regency_id": 1106,
    "district_id": 110606,
    "value": "Seumeureung",
    "postal_code": "23361"
  },
  {
    "id": 110606,
    "province_id": 11,
    "regency_id": 1106,
    "district_id": 110606,
    "value": "Sibreh Keumudee",
    "postal_code": "23361"
  },
  {
    "id": 110606,
    "province_id": 11,
    "regency_id": 1106,
    "district_id": 110606,
    "value": "Tampok Blang",
    "postal_code": "23361"
  },
  {
    "id": 110606,
    "province_id": 11,
    "regency_id": 1106,
    "district_id": 110606,
    "value": "Tampok Jeurat Raya",
    "postal_code": "23361"
  },
  {
    "id": 110606,
    "province_id": 11,
    "regency_id": 1106,
    "district_id": 110606,
    "value": "Weusiteh",
    "postal_code": "23361"
  }
]