[
  {
    "id": 160421,
    "province_id": 16,
    "regency_id": 1604,
    "district_id": 160421,
    "value": "Batay",
    "postal_code": "31419"
  },
  {
    "id": 160421,
    "province_id": 16,
    "regency_id": 1604,
    "district_id": 160421,
    "value": "Darmo",
    "postal_code": "31419"
  },
  {
    "id": 160421,
    "province_id": 16,
    "regency_id": 1604,
    "district_id": 160421,
    "value": "Indikat Ilir (Endikat Ilir)",
    "postal_code": "31419"
  },
  {
    "id": 160421,
    "province_id": 16,
    "regency_id": 1604,
    "district_id": 160421,
    "value": "Mandi Angin",
    "postal_code": "31419"
  },
  {
    "id": 160421,
    "province_id": 16,
    "regency_id": 1604,
    "district_id": 160421,
    "value": "Muara Tandi",
    "postal_code": "31419"
  },
  {
    "id": 160421,
    "province_id": 16,
    "regency_id": 1604,
    "district_id": 160421,
    "value": "Ngalam Baru",
    "postal_code": "31419"
  },
  {
    "id": 160421,
    "province_id": 16,
    "regency_id": 1604,
    "district_id": 160421,
    "value": "Sugi Waras (Sugih Waras)",
    "postal_code": "31419"
  },
  {
    "id": 160421,
    "province_id": 16,
    "regency_id": 1604,
    "district_id": 160421,
    "value": "Suka Makmur",
    "postal_code": "31419"
  },
  {
    "id": 160421,
    "province_id": 16,
    "regency_id": 1604,
    "district_id": 160421,
    "value": "Sukarami",
    "postal_code": "31419"
  },
  {
    "id": 160421,
    "province_id": 16,
    "regency_id": 1604,
    "district_id": 160421,
    "value": "Tanah Pilih",
    "postal_code": "31419"
  },
  {
    "id": 160421,
    "province_id": 16,
    "regency_id": 1604,
    "district_id": 160421,
    "value": "Tanjung Baru",
    "postal_code": "31419"
  },
  {
    "id": 160421,
    "province_id": 16,
    "regency_id": 1604,
    "district_id": 160421,
    "value": "Tanjung Beringin",
    "postal_code": "31419"
  },
  {
    "id": 160421,
    "province_id": 16,
    "regency_id": 1604,
    "district_id": 160421,
    "value": "Tanjung Dalam",
    "postal_code": "31419"
  },
  {
    "id": 160421,
    "province_id": 16,
    "regency_id": 1604,
    "district_id": 160421,
    "value": "Tanjung Karangan",
    "postal_code": "31419"
  },
  {
    "id": 160421,
    "province_id": 16,
    "regency_id": 1604,
    "district_id": 160421,
    "value": "Tanjung Periuk",
    "postal_code": "31419"
  }
]