[
  {
    "id": 110715,
    "province_id": 11,
    "regency_id": 1107,
    "district_id": 110715,
    "value": "Balee Pineung (Balee)",
    "postal_code": "24172"
  },
  {
    "id": 110715,
    "province_id": 11,
    "regency_id": 1107,
    "district_id": 110715,
    "value": "Balee Restong",
    "postal_code": "24172"
  },
  {
    "id": 110715,
    "province_id": 11,
    "regency_id": 1107,
    "district_id": 110715,
    "value": "Blang Krueng Seumideun",
    "postal_code": "24172"
  },
  {
    "id": 110715,
    "province_id": 11,
    "regency_id": 1107,
    "district_id": 110715,
    "value": "Blang Raya",
    "postal_code": "24172"
  },
  {
    "id": 110715,
    "province_id": 11,
    "regency_id": 1107,
    "district_id": 110715,
    "value": "Blang Seupeng (Kampong Blang Seupeng)",
    "postal_code": "24172"
  },
  {
    "id": 110715,
    "province_id": 11,
    "regency_id": 1107,
    "district_id": 110715,
    "value": "Bluek Arab (Bluk Arab)",
    "postal_code": "24172"
  },
  {
    "id": 110715,
    "province_id": 11,
    "regency_id": 1107,
    "district_id": 110715,
    "value": "Cempala Kuneng",
    "postal_code": "24172"
  },
  {
    "id": 110715,
    "province_id": 11,
    "regency_id": 1107,
    "district_id": 110715,
    "value": "Cot Meulu",
    "postal_code": "24172"
  },
  {
    "id": 110715,
    "province_id": 11,
    "regency_id": 1107,
    "district_id": 110715,
    "value": "Dayah Bubue",
    "postal_code": "24172"
  },
  {
    "id": 110715,
    "province_id": 11,
    "regency_id": 1107,
    "district_id": 110715,
    "value": "Dayah Muara",
    "postal_code": "24172"
  },
  {
    "id": 110715,
    "province_id": 11,
    "regency_id": 1107,
    "district_id": 110715,
    "value": "Dayah Seumideun",
    "postal_code": "24172"
  },
  {
    "id": 110715,
    "province_id": 11,
    "regency_id": 1107,
    "district_id": 110715,
    "value": "Dayah Sukon",
    "postal_code": "24172"
  },
  {
    "id": 110715,
    "province_id": 11,
    "regency_id": 1107,
    "district_id": 110715,
    "value": "Dayah Tungku",
    "postal_code": "24172"
  },
  {
    "id": 110715,
    "province_id": 11,
    "regency_id": 1107,
    "district_id": 110715,
    "value": "Dua Paya",
    "postal_code": "24172"
  },
  {
    "id": 110715,
    "province_id": 11,
    "regency_id": 1107,
    "district_id": 110715,
    "value": "Gampong",
    "postal_code": "24172"
  },
  {
    "id": 110715,
    "province_id": 11,
    "regency_id": 1107,
    "district_id": 110715,
    "value": "Gampong waido",
    "postal_code": "24172"
  },
  {
    "id": 110715,
    "province_id": 11,
    "regency_id": 1107,
    "district_id": 110715,
    "value": "Jim",
    "postal_code": "24172"
  },
  {
    "id": 110715,
    "province_id": 11,
    "regency_id": 1107,
    "district_id": 110715,
    "value": "Jurong",
    "postal_code": "24172"
  },
  {
    "id": 110715,
    "province_id": 11,
    "regency_id": 1107,
    "district_id": 110715,
    "value": "Jurong Raya",
    "postal_code": "24172"
  },
  {
    "id": 110715,
    "province_id": 11,
    "regency_id": 1107,
    "district_id": 110715,
    "value": "Kabat",
    "postal_code": "24172"
  },
  {
    "id": 110715,
    "province_id": 11,
    "regency_id": 1107,
    "district_id": 110715,
    "value": "Keurumbok",
    "postal_code": "24172"
  },
  {
    "id": 110715,
    "province_id": 11,
    "regency_id": 1107,
    "district_id": 110715,
    "value": "Keutapang",
    "postal_code": "24172"
  },
  {
    "id": 110715,
    "province_id": 11,
    "regency_id": 1107,
    "district_id": 110715,
    "value": "Kumbang waido",
    "postal_code": "24172"
  },
  {
    "id": 110715,
    "province_id": 11,
    "regency_id": 1107,
    "district_id": 110715,
    "value": "Leuhop",
    "postal_code": "24172"
  },
  {
    "id": 110715,
    "province_id": 11,
    "regency_id": 1107,
    "district_id": 110715,
    "value": "Lueng Guci Rumpong",
    "postal_code": "24172"
  },
  {
    "id": 110715,
    "province_id": 11,
    "regency_id": 1107,
    "district_id": 110715,
    "value": "Lueng Mesjid",
    "postal_code": "24172"
  },
  {
    "id": 110715,
    "province_id": 11,
    "regency_id": 1107,
    "district_id": 110715,
    "value": "Me Tanoh",
    "postal_code": "24172"
  },
  {
    "id": 110715,
    "province_id": 11,
    "regency_id": 1107,
    "district_id": 110715,
    "value": "Mee Hagu",
    "postal_code": "24172"
  },
  {
    "id": 110715,
    "province_id": 11,
    "regency_id": 1107,
    "district_id": 110715,
    "value": "Mee Krueng Seumideun",
    "postal_code": "24172"
  },
  {
    "id": 110715,
    "province_id": 11,
    "regency_id": 1107,
    "district_id": 110715,
    "value": "Mee Krukon",
    "postal_code": "24172"
  },
  {
    "id": 110715,
    "province_id": 11,
    "regency_id": 1107,
    "district_id": 110715,
    "value": "Mee Lampoh Saka",
    "postal_code": "24172"
  },
  {
    "id": 110715,
    "province_id": 11,
    "regency_id": 1107,
    "district_id": 110715,
    "value": "Menje Mesjid",
    "postal_code": "24172"
  },
  {
    "id": 110715,
    "province_id": 11,
    "regency_id": 1107,
    "district_id": 110715,
    "value": "Mesjid Guci Rumpong",
    "postal_code": "24172"
  },
  {
    "id": 110715,
    "province_id": 11,
    "regency_id": 1107,
    "district_id": 110715,
    "value": "Meuleuweuk",
    "postal_code": "24172"
  },
  {
    "id": 110715,
    "province_id": 11,
    "regency_id": 1107,
    "district_id": 110715,
    "value": "Peunayong",
    "postal_code": "24172"
  },
  {
    "id": 110715,
    "province_id": 11,
    "regency_id": 1107,
    "district_id": 110715,
    "value": "Puuk",
    "postal_code": "24172"
  },
  {
    "id": 110715,
    "province_id": 11,
    "regency_id": 1107,
    "district_id": 110715,
    "value": "Rambayan Kupula",
    "postal_code": "24172"
  },
  {
    "id": 110715,
    "province_id": 11,
    "regency_id": 1107,
    "district_id": 110715,
    "value": "Rambayan Lueng",
    "postal_code": "24172"
  },
  {
    "id": 110715,
    "province_id": 11,
    "regency_id": 1107,
    "district_id": 110715,
    "value": "Raya Krueng Seumideun",
    "postal_code": "24172"
  },
  {
    "id": 110715,
    "province_id": 11,
    "regency_id": 1107,
    "district_id": 110715,
    "value": "Reuba Waido",
    "postal_code": "24172"
  },
  {
    "id": 110715,
    "province_id": 11,
    "regency_id": 1107,
    "district_id": 110715,
    "value": "Sawiet",
    "postal_code": "24172"
  },
  {
    "id": 110715,
    "province_id": 11,
    "regency_id": 1107,
    "district_id": 110715,
    "value": "Sialet-Alet",
    "postal_code": "24172"
  },
  {
    "id": 110715,
    "province_id": 11,
    "regency_id": 1107,
    "district_id": 110715,
    "value": "Sukon Krueng Seumideun",
    "postal_code": "24172"
  },
  {
    "id": 110715,
    "province_id": 11,
    "regency_id": 1107,
    "district_id": 110715,
    "value": "Sumboe Buga",
    "postal_code": "24172"
  },
  {
    "id": 110715,
    "province_id": 11,
    "regency_id": 1107,
    "district_id": 110715,
    "value": "Tanjong Hagu",
    "postal_code": "24172"
  },
  {
    "id": 110715,
    "province_id": 11,
    "regency_id": 1107,
    "district_id": 110715,
    "value": "Teungoh Baroh",
    "postal_code": "24172"
  },
  {
    "id": 110715,
    "province_id": 11,
    "regency_id": 1107,
    "district_id": 110715,
    "value": "Ulee Cot Seupeng",
    "postal_code": "24172"
  },
  {
    "id": 110715,
    "province_id": 11,
    "regency_id": 1107,
    "district_id": 110715,
    "value": "Ulee Tutue",
    "postal_code": "24172"
  }
]