[
  {
    "id": 161015,
    "province_id": 16,
    "regency_id": 1610,
    "district_id": 161015,
    "value": "Betung I",
    "postal_code": "30868"
  },
  {
    "id": 161015,
    "province_id": 16,
    "regency_id": 1610,
    "district_id": 161015,
    "value": "Betung II",
    "postal_code": "30868"
  },
  {
    "id": 161015,
    "province_id": 16,
    "regency_id": 1610,
    "district_id": 161015,
    "value": "Embecang (Embacang)",
    "postal_code": "30868"
  },
  {
    "id": 161015,
    "province_id": 16,
    "regency_id": 1610,
    "district_id": 161015,
    "value": "Kasi Raja (Kasih Raja)",
    "postal_code": "30868"
  },
  {
    "id": 161015,
    "province_id": 16,
    "regency_id": 1610,
    "district_id": 161015,
    "value": "Ketiau",
    "postal_code": "30868"
  },
  {
    "id": 161015,
    "province_id": 16,
    "regency_id": 1610,
    "district_id": 161015,
    "value": "Lubuk Keliat",
    "postal_code": "30868"
  },
  {
    "id": 161015,
    "province_id": 16,
    "regency_id": 1610,
    "district_id": 161015,
    "value": "Payalengkang (Payalingkung)",
    "postal_code": "30868"
  },
  {
    "id": 161015,
    "province_id": 16,
    "regency_id": 1610,
    "district_id": 161015,
    "value": "Talang Tengah Darat",
    "postal_code": "30868"
  },
  {
    "id": 161015,
    "province_id": 16,
    "regency_id": 1610,
    "district_id": 161015,
    "value": "Talang Tengah Laut",
    "postal_code": "30868"
  },
  {
    "id": 161015,
    "province_id": 16,
    "regency_id": 1610,
    "district_id": 161015,
    "value": "Ulak Kembahang",
    "postal_code": "30868"
  }
]