[
  {
    "id": 330503,
    "province_id": 33,
    "regency_id": 3305,
    "district_id": 330503,
    "value": "Arjowinangun",
    "postal_code": "54383"
  },
  {
    "id": 330503,
    "province_id": 33,
    "regency_id": 3305,
    "district_id": 330503,
    "value": "Banjarejo",
    "postal_code": "54383"
  },
  {
    "id": 330503,
    "province_id": 33,
    "regency_id": 3305,
    "district_id": 330503,
    "value": "Bumirejo",
    "postal_code": "54383"
  },
  {
    "id": 330503,
    "province_id": 33,
    "regency_id": 3305,
    "district_id": 330503,
    "value": "Kaleng",
    "postal_code": "54383"
  },
  {
    "id": 330503,
    "province_id": 33,
    "regency_id": 3305,
    "district_id": 330503,
    "value": "Kedalemankulon",
    "postal_code": "54383"
  },
  {
    "id": 330503,
    "province_id": 33,
    "regency_id": 3305,
    "district_id": 330503,
    "value": "Kedalemanwetan",
    "postal_code": "54383"
  },
  {
    "id": 330503,
    "province_id": 33,
    "regency_id": 3305,
    "district_id": 330503,
    "value": "Krandegan",
    "postal_code": "54383"
  },
  {
    "id": 330503,
    "province_id": 33,
    "regency_id": 3305,
    "district_id": 330503,
    "value": "Madurejo",
    "postal_code": "54383"
  },
  {
    "id": 330503,
    "province_id": 33,
    "regency_id": 3305,
    "district_id": 330503,
    "value": "Pesuruhan (Pasuruhan / Pasuruan)",
    "postal_code": "54383"
  },
  {
    "id": 330503,
    "province_id": 33,
    "regency_id": 3305,
    "district_id": 330503,
    "value": "Puliharjo",
    "postal_code": "54383"
  },
  {
    "id": 330503,
    "province_id": 33,
    "regency_id": 3305,
    "district_id": 330503,
    "value": "Purwoharjo",
    "postal_code": "54383"
  },
  {
    "id": 330503,
    "province_id": 33,
    "regency_id": 3305,
    "district_id": 330503,
    "value": "Purwosari",
    "postal_code": "54383"
  },
  {
    "id": 330503,
    "province_id": 33,
    "regency_id": 3305,
    "district_id": 330503,
    "value": "Sidobunder",
    "postal_code": "54383"
  },
  {
    "id": 330503,
    "province_id": 33,
    "regency_id": 3305,
    "district_id": 330503,
    "value": "Sidodadi",
    "postal_code": "54383"
  },
  {
    "id": 330503,
    "province_id": 33,
    "regency_id": 3305,
    "district_id": 330503,
    "value": "Sidoharjo",
    "postal_code": "54383"
  },
  {
    "id": 330503,
    "province_id": 33,
    "regency_id": 3305,
    "district_id": 330503,
    "value": "Sitiadi",
    "postal_code": "54383"
  },
  {
    "id": 330503,
    "province_id": 33,
    "regency_id": 3305,
    "district_id": 330503,
    "value": "Srusuhjurutengah",
    "postal_code": "54383"
  },
  {
    "id": 330503,
    "province_id": 33,
    "regency_id": 3305,
    "district_id": 330503,
    "value": "Surorejan",
    "postal_code": "54383"
  },
  {
    "id": 330503,
    "province_id": 33,
    "regency_id": 3305,
    "district_id": 330503,
    "value": "Tambakmulyo",
    "postal_code": "54383"
  },
  {
    "id": 330503,
    "province_id": 33,
    "regency_id": 3305,
    "district_id": 330503,
    "value": "Tukinggedong",
    "postal_code": "54383"
  },
  {
    "id": 330503,
    "province_id": 33,
    "regency_id": 3305,
    "district_id": 330503,
    "value": "Waluyorejo",
    "postal_code": "54383"
  },
  {
    "id": 330503,
    "province_id": 33,
    "regency_id": 3305,
    "district_id": 330503,
    "value": "Wetonkulon",
    "postal_code": "54383"
  },
  {
    "id": 330503,
    "province_id": 33,
    "regency_id": 3305,
    "district_id": 330503,
    "value": "Wetonwetan",
    "postal_code": "54383"
  }
]