[
  {
    "id": 7110042010,
    "province_id": 71,
    "regency_id": 7110,
    "district_id": 711004,
    "value": "Badaro",
    "postal_code": "95780"
  },
  {
    "id": 7110042007,
    "province_id": 71,
    "regency_id": 7110,
    "district_id": 711004,
    "value": "Buyandi",
    "postal_code": "95780"
  },
  {
    "id": 7110042021,
    "province_id": 71,
    "regency_id": 7110,
    "district_id": 711004,
    "value": "Candi Rejo",
    "postal_code": "95780"
  },
  {
    "id": 7110042009,
    "province_id": 71,
    "regency_id": 7110,
    "district_id": 711004,
    "value": "Lanut",
    "postal_code": "95780"
  },
  {
    "id": 7110042002,
    "province_id": 71,
    "regency_id": 7110,
    "district_id": 711004,
    "value": "Liberia",
    "postal_code": "95780"
  },
  {
    "id": 7110042014,
    "province_id": 71,
    "regency_id": 7110,
    "district_id": 711004,
    "value": "Liberia Timur",
    "postal_code": "95780"
  },
  {
    "id": 7110042001,
    "province_id": 71,
    "regency_id": 7110,
    "district_id": 711004,
    "value": "Modayag",
    "postal_code": "95780"
  },
  {
    "id": 7110042011,
    "province_id": 71,
    "regency_id": 7110,
    "district_id": 711004,
    "value": "Modayag Barat",
    "postal_code": "95780"
  },
  {
    "id": 7110042012,
    "province_id": 71,
    "regency_id": 7110,
    "district_id": 711004,
    "value": "Modayag Timur",
    "postal_code": "95780"
  },
  {
    "id": 7110042003,
    "province_id": 71,
    "regency_id": 7110,
    "district_id": 711004,
    "value": "Purworejo",
    "postal_code": "95780"
  },
  {
    "id": 7110042016,
    "province_id": 71,
    "regency_id": 7110,
    "district_id": 711004,
    "value": "Purworejo Tengah",
    "postal_code": "95780"
  },
  {
    "id": 7110042013,
    "province_id": 71,
    "regency_id": 7110,
    "district_id": 711004,
    "value": "Purworejo Timur",
    "postal_code": "95780"
  },
  {
    "id": 7110042022,
    "province_id": 71,
    "regency_id": 7110,
    "district_id": 711004,
    "value": "Sumber Rejo",
    "postal_code": "95780"
  },
  {
    "id": 7110042008,
    "province_id": 71,
    "regency_id": 7110,
    "district_id": 711004,
    "value": "Tobongon",
    "postal_code": "95780"
  }
]