[
  {
    "id": 130114,
    "province_id": 13,
    "regency_id": 1301,
    "district_id": 130114,
    "value": "Binjai Tapan",
    "postal_code": "25670"
  },
  {
    "id": 130114,
    "province_id": 13,
    "regency_id": 1301,
    "district_id": 130114,
    "value": "Kampung Tengah Tapan",
    "postal_code": "25670"
  },
  {
    "id": 130114,
    "province_id": 13,
    "regency_id": 1301,
    "district_id": 130114,
    "value": "Kubu Tapan (Kobu Tapan)",
    "postal_code": "25670"
  },
  {
    "id": 130114,
    "province_id": 13,
    "regency_id": 1301,
    "district_id": 130114,
    "value": "Limau Purut Tapan",
    "postal_code": "25670"
  },
  {
    "id": 130114,
    "province_id": 13,
    "regency_id": 1301,
    "district_id": 130114,
    "value": "Simpang Gunung Tapan (Simpanggunung Tapan)",
    "postal_code": "25670"
  },
  {
    "id": 130114,
    "province_id": 13,
    "regency_id": 1301,
    "district_id": 130114,
    "value": "Sungai Gambir Sako Tapan (Sungaigambir)",
    "postal_code": "25670"
  },
  {
    "id": 130114,
    "province_id": 13,
    "regency_id": 1301,
    "district_id": 130114,
    "value": "Sungai Pinang Tapan (Sungaipinang Tapan)",
    "postal_code": "25670"
  },
  {
    "id": 130114,
    "province_id": 13,
    "regency_id": 1301,
    "district_id": 130114,
    "value": "Talang Balarik Tapan",
    "postal_code": "25670"
  },
  {
    "id": 130114,
    "province_id": 13,
    "regency_id": 1301,
    "district_id": 130114,
    "value": "Talang Koto Pulai Tapan",
    "postal_code": "25670"
  },
  {
    "id": 130114,
    "province_id": 13,
    "regency_id": 1301,
    "district_id": 130114,
    "value": "Tebing Tinggi Tapan",
    "postal_code": "25670"
  }
]