[
  {
    "id": 350608,
    "province_id": 35,
    "regency_id": 3506,
    "district_id": 350608,
    "value": "Asmorobangun",
    "postal_code": "64292"
  },
  {
    "id": 350608,
    "province_id": 35,
    "regency_id": 3506,
    "district_id": 350608,
    "value": "Gadungan",
    "postal_code": "64292"
  },
  {
    "id": 350608,
    "province_id": 35,
    "regency_id": 3506,
    "district_id": 350608,
    "value": "Manggis",
    "postal_code": "64292"
  },
  {
    "id": 350608,
    "province_id": 35,
    "regency_id": 3506,
    "district_id": 350608,
    "value": "Puncu",
    "postal_code": "64292"
  },
  {
    "id": 350608,
    "province_id": 35,
    "regency_id": 3506,
    "district_id": 350608,
    "value": "Satak",
    "postal_code": "64292"
  },
  {
    "id": 350608,
    "province_id": 35,
    "regency_id": 3506,
    "district_id": 350608,
    "value": "Sidomulyo",
    "postal_code": "64292"
  },
  {
    "id": 350608,
    "province_id": 35,
    "regency_id": 3506,
    "district_id": 350608,
    "value": "Watugede",
    "postal_code": "64292"
  },
  {
    "id": 350608,
    "province_id": 35,
    "regency_id": 3506,
    "district_id": 350608,
    "value": "Wonorejo",
    "postal_code": "64292"
  }
]