[
  {
    "id": 320731,
    "province_id": 32,
    "regency_id": 3207,
    "district_id": 320731,
    "value": "Budiasih",
    "postal_code": "46268"
  },
  {
    "id": 320731,
    "province_id": 32,
    "regency_id": 3207,
    "district_id": 320731,
    "value": "Budiharja",
    "postal_code": "46268"
  },
  {
    "id": 320731,
    "province_id": 32,
    "regency_id": 3207,
    "district_id": 320731,
    "value": "Gunungcupu",
    "postal_code": "46268"
  },
  {
    "id": 320731,
    "province_id": 32,
    "regency_id": 3207,
    "district_id": 320731,
    "value": "Sindangkasih",
    "postal_code": "46268"
  },
  {
    "id": 320731,
    "province_id": 32,
    "regency_id": 3207,
    "district_id": 320731,
    "value": "Sukamanah",
    "postal_code": "46268"
  },
  {
    "id": 320731,
    "province_id": 32,
    "regency_id": 3207,
    "district_id": 320731,
    "value": "Sukaraja",
    "postal_code": "46268"
  },
  {
    "id": 320731,
    "province_id": 32,
    "regency_id": 3207,
    "district_id": 320731,
    "value": "Sukaresik",
    "postal_code": "46268"
  },
  {
    "id": 320731,
    "province_id": 32,
    "regency_id": 3207,
    "district_id": 320731,
    "value": "Sukasenang",
    "postal_code": "46268"
  },
  {
    "id": 320731,
    "province_id": 32,
    "regency_id": 3207,
    "district_id": 320731,
    "value": "Wanasigra",
    "postal_code": "46268"
  }
]