[
  {
    "id": 531910,
    "province_id": 53,
    "regency_id": 5319,
    "district_id": 531910,
    "value": "Golo Meni (Golomeni)",
    "postal_code": "86572"
  },
  {
    "id": 531910,
    "province_id": 53,
    "regency_id": 5319,
    "district_id": 531910,
    "value": "Golo Ndele",
    "postal_code": "86572"
  },
  {
    "id": 531910,
    "province_id": 53,
    "regency_id": 5319,
    "district_id": 531910,
    "value": "Golo Nderu",
    "postal_code": "86572"
  },
  {
    "id": 531910,
    "province_id": 53,
    "regency_id": 5319,
    "district_id": 531910,
    "value": "Golo Tolang",
    "postal_code": "86572"
  },
  {
    "id": 531910,
    "province_id": 53,
    "regency_id": 5319,
    "district_id": 531910,
    "value": "Gunung Baru",
    "postal_code": "86572"
  },
  {
    "id": 531910,
    "province_id": 53,
    "regency_id": 5319,
    "district_id": 531910,
    "value": "Mokel",
    "postal_code": "86572"
  },
  {
    "id": 531910,
    "province_id": 53,
    "regency_id": 5319,
    "district_id": 531910,
    "value": "Mokel Morid",
    "postal_code": "86572"
  },
  {
    "id": 531910,
    "province_id": 53,
    "regency_id": 5319,
    "district_id": 531910,
    "value": "Paan Leleng",
    "postal_code": "86572"
  },
  {
    "id": 531910,
    "province_id": 53,
    "regency_id": 5319,
    "district_id": 531910,
    "value": "Rana Mbata",
    "postal_code": "86572"
  },
  {
    "id": 531910,
    "province_id": 53,
    "regency_id": 5319,
    "district_id": 531910,
    "value": "Rana Mbeling",
    "postal_code": "86572"
  },
  {
    "id": 531910,
    "province_id": 53,
    "regency_id": 5319,
    "district_id": 531910,
    "value": "Watu Pari",
    "postal_code": "86572"
  }
]