[
  {
    "id": 332907,
    "province_id": 33,
    "regency_id": 3329,
    "district_id": 332907,
    "value": "Bojong",
    "postal_code": "52261"
  },
  {
    "id": 332907,
    "province_id": 33,
    "regency_id": 3329,
    "district_id": 332907,
    "value": "Buaran",
    "postal_code": "52261"
  },
  {
    "id": 332907,
    "province_id": 33,
    "regency_id": 3329,
    "district_id": 332907,
    "value": "Janegara",
    "postal_code": "52261"
  },
  {
    "id": 332907,
    "province_id": 33,
    "regency_id": 3329,
    "district_id": 332907,
    "value": "Jatibarang Kidul",
    "postal_code": "52261"
  },
  {
    "id": 332907,
    "province_id": 33,
    "regency_id": 3329,
    "district_id": 332907,
    "value": "Jatibarang Lor",
    "postal_code": "52261"
  },
  {
    "id": 332907,
    "province_id": 33,
    "regency_id": 3329,
    "district_id": 332907,
    "value": "Kalialang",
    "postal_code": "52261"
  },
  {
    "id": 332907,
    "province_id": 33,
    "regency_id": 3329,
    "district_id": 332907,
    "value": "Kalipucang",
    "postal_code": "52261"
  },
  {
    "id": 332907,
    "province_id": 33,
    "regency_id": 3329,
    "district_id": 332907,
    "value": "Karanglo",
    "postal_code": "52261"
  },
  {
    "id": 332907,
    "province_id": 33,
    "regency_id": 3329,
    "district_id": 332907,
    "value": "Kebogadung",
    "postal_code": "52261"
  },
  {
    "id": 332907,
    "province_id": 33,
    "regency_id": 3329,
    "district_id": 332907,
    "value": "Kebonagung",
    "postal_code": "52261"
  },
  {
    "id": 332907,
    "province_id": 33,
    "regency_id": 3329,
    "district_id": 332907,
    "value": "Kedungtukang",
    "postal_code": "52261"
  },
  {
    "id": 332907,
    "province_id": 33,
    "regency_id": 3329,
    "district_id": 332907,
    "value": "Kemiriamba",
    "postal_code": "52261"
  },
  {
    "id": 332907,
    "province_id": 33,
    "regency_id": 3329,
    "district_id": 332907,
    "value": "Kendawa",
    "postal_code": "52261"
  },
  {
    "id": 332907,
    "province_id": 33,
    "regency_id": 3329,
    "district_id": 332907,
    "value": "Kertasinduyasa",
    "postal_code": "52261"
  },
  {
    "id": 332907,
    "province_id": 33,
    "regency_id": 3329,
    "district_id": 332907,
    "value": "Klampis",
    "postal_code": "52261"
  },
  {
    "id": 332907,
    "province_id": 33,
    "regency_id": 3329,
    "district_id": 332907,
    "value": "Klikiran",
    "postal_code": "52261"
  },
  {
    "id": 332907,
    "province_id": 33,
    "regency_id": 3329,
    "district_id": 332907,
    "value": "Kramat",
    "postal_code": "52261"
  },
  {
    "id": 332907,
    "province_id": 33,
    "regency_id": 3329,
    "district_id": 332907,
    "value": "Pamengger",
    "postal_code": "52261"
  },
  {
    "id": 332907,
    "province_id": 33,
    "regency_id": 3329,
    "district_id": 332907,
    "value": "Pedeslohor",
    "postal_code": "52261"
  },
  {
    "id": 332907,
    "province_id": 33,
    "regency_id": 3329,
    "district_id": 332907,
    "value": "Rengasbandung",
    "postal_code": "52261"
  },
  {
    "id": 332907,
    "province_id": 33,
    "regency_id": 3329,
    "district_id": 332907,
    "value": "Tegalwulung",
    "postal_code": "52261"
  },
  {
    "id": 332907,
    "province_id": 33,
    "regency_id": 3329,
    "district_id": 332907,
    "value": "Tembelang",
    "postal_code": "52261"
  }
]