[
  {
    "id": 1206172016,
    "province_id": 12,
    "regency_id": 1206,
    "district_id": 120617,
    "value": "Gunung Merlawan",
    "postal_code": "22156"
  },
  {
    "id": 1206172005,
    "province_id": 12,
    "regency_id": 1206,
    "district_id": 120617,
    "value": "Jandimeriah (Jandi Meriah)",
    "postal_code": "22156"
  },
  {
    "id": 1206172003,
    "province_id": 12,
    "regency_id": 1206,
    "district_id": 120617,
    "value": "Kutagaluh",
    "postal_code": "22156"
  },
  {
    "id": 1206172011,
    "province_id": 12,
    "regency_id": 1206,
    "district_id": 120617,
    "value": "Kutakepar (Kuta Kepar)",
    "postal_code": "22156"
  },
  {
    "id": 1206172004,
    "province_id": 12,
    "regency_id": 1206,
    "district_id": 120617,
    "value": "Kutambaru",
    "postal_code": "22156"
  },
  {
    "id": 1206172002,
    "province_id": 12,
    "regency_id": 1206,
    "district_id": 120617,
    "value": "Mardingding",
    "postal_code": "22156"
  },
  {
    "id": 1206172014,
    "province_id": 12,
    "regency_id": 1206,
    "district_id": 120617,
    "value": "Narigunung I (Nari Gunung Satu)",
    "postal_code": "22156"
  },
  {
    "id": 1206172015,
    "province_id": 12,
    "regency_id": 1206,
    "district_id": 120617,
    "value": "Narigunung II (Nari Gunung Dua)",
    "postal_code": "22156"
  },
  {
    "id": 1206172012,
    "province_id": 12,
    "regency_id": 1206,
    "district_id": 120617,
    "value": "Penampen",
    "postal_code": "22156"
  },
  {
    "id": 1206172009,
    "province_id": 12,
    "regency_id": 1206,
    "district_id": 120617,
    "value": "Perbaji",
    "postal_code": "22156"
  },
  {
    "id": 1206172001,
    "province_id": 12,
    "regency_id": 1206,
    "district_id": 120617,
    "value": "Sukatendel (Suka Tendel)",
    "postal_code": "22156"
  },
  {
    "id": 1206172017,
    "province_id": 12,
    "regency_id": 1206,
    "district_id": 120617,
    "value": "Susuk",
    "postal_code": "22156"
  },
  {
    "id": 1206172013,
    "province_id": 12,
    "regency_id": 1206,
    "district_id": 120617,
    "value": "Tanjung Mbelang",
    "postal_code": "22156"
  },
  {
    "id": 1206172008,
    "province_id": 12,
    "regency_id": 1206,
    "district_id": 120617,
    "value": "Tanjung Merawa",
    "postal_code": "22156"
  },
  {
    "id": 1206172007,
    "province_id": 12,
    "regency_id": 1206,
    "district_id": 120617,
    "value": "Tanjung Pulo",
    "postal_code": "22156"
  },
  {
    "id": 1206172010,
    "province_id": 12,
    "regency_id": 1206,
    "district_id": 120617,
    "value": "Temburun",
    "postal_code": "22156"
  },
  {
    "id": 1206172006,
    "province_id": 12,
    "regency_id": 1206,
    "district_id": 120617,
    "value": "Tiganderket (Tiga Nderket)",
    "postal_code": "22156"
  }
]