[
  {
    "id": 3201022002,
    "province_id": 32,
    "regency_id": 3201,
    "district_id": 320102,
    "value": "Bojong Kulur",
    "postal_code": "16969"
  },
  {
    "id": 3201022005,
    "province_id": 32,
    "regency_id": 3201,
    "district_id": 320102,
    "value": "Bojong Nangka",
    "postal_code": "16963"
  },
  {
    "id": 3201022003,
    "province_id": 32,
    "regency_id": 3201,
    "district_id": 320102,
    "value": "Ciangsana",
    "postal_code": "16968"
  },
  {
    "id": 3201022007,
    "province_id": 32,
    "regency_id": 3201,
    "district_id": 320102,
    "value": "Cicadas",
    "postal_code": "16964"
  },
  {
    "id": 3201022008,
    "province_id": 32,
    "regency_id": 3201,
    "district_id": 320102,
    "value": "Cikeas Udik",
    "postal_code": "16966"
  },
  {
    "id": 3201022004,
    "province_id": 32,
    "regency_id": 3201,
    "district_id": 320102,
    "value": "Gunung Putri",
    "postal_code": "16961"
  },
  {
    "id": 3201022010,
    "province_id": 32,
    "regency_id": 3201,
    "district_id": 320102,
    "value": "Karanggan",
    "postal_code": "16960"
  },
  {
    "id": 3201022009,
    "province_id": 32,
    "regency_id": 3201,
    "district_id": 320102,
    "value": "Nagrak (Nagrag)",
    "postal_code": "16967"
  },
  {
    "id": 3201022006,
    "province_id": 32,
    "regency_id": 3201,
    "district_id": 320102,
    "value": "Tlajung Udik",
    "postal_code": "16962"
  },
  {
    "id": 3201022001,
    "province_id": 32,
    "regency_id": 3201,
    "district_id": 320102,
    "value": "Wanaherang",
    "postal_code": "16965"
  }
]