[
  {
    "id": 9210022001,
    "province_id": 92,
    "regency_id": 9210,
    "district_id": 921002,
    "value": "Ayawasi",
    "postal_code": "98277"
  },
  {
    "id": 9210022002,
    "province_id": 92,
    "regency_id": 9210,
    "district_id": 921002,
    "value": "Ayawasi Selatan",
    "postal_code": "98277"
  },
  {
    "id": 9210022003,
    "province_id": 92,
    "regency_id": 9210,
    "district_id": 921002,
    "value": "Ayawasi Timur",
    "postal_code": "98277"
  },
  {
    "id": 9210022005,
    "province_id": 92,
    "regency_id": 9210,
    "district_id": 921002,
    "value": "Fonatu",
    "postal_code": "98277"
  },
  {
    "id": 9210022012,
    "province_id": 92,
    "regency_id": 9210,
    "district_id": 921002,
    "value": "Haenkanes",
    "postal_code": "98277"
  },
  {
    "id": 9210022011,
    "province_id": 92,
    "regency_id": 9210,
    "district_id": 921002,
    "value": "Howait",
    "postal_code": "98277"
  },
  {
    "id": 9210022017,
    "province_id": 92,
    "regency_id": 9210,
    "district_id": 921002,
    "value": "Irata",
    "postal_code": "98277"
  },
  {
    "id": 9210022008,
    "province_id": 92,
    "regency_id": 9210,
    "district_id": 921002,
    "value": "Konja",
    "postal_code": "98277"
  },
  {
    "id": 9210022013,
    "province_id": 92,
    "regency_id": 9210,
    "district_id": 921002,
    "value": "Konja Barat",
    "postal_code": "98277"
  },
  {
    "id": 9210022010,
    "province_id": 92,
    "regency_id": 9210,
    "district_id": 921002,
    "value": "Man",
    "postal_code": "98277"
  },
  {
    "id": 9210022006,
    "province_id": 92,
    "regency_id": 9210,
    "district_id": 921002,
    "value": "Mosun",
    "postal_code": "98277"
  },
  {
    "id": 9210022019,
    "province_id": 92,
    "regency_id": 9210,
    "district_id": 921002,
    "value": "Mosun Timur",
    "postal_code": "98277"
  },
  {
    "id": 9210022020,
    "province_id": 92,
    "regency_id": 9210,
    "district_id": 921002,
    "value": "Mosun Utara",
    "postal_code": "98277"
  },
  {
    "id": 9210022016,
    "province_id": 92,
    "regency_id": 9210,
    "district_id": 921002,
    "value": "Mowes",
    "postal_code": "98277"
  },
  {
    "id": 9210022018,
    "province_id": 92,
    "regency_id": 9210,
    "district_id": 921002,
    "value": "Neset",
    "postal_code": "98277"
  },
  {
    "id": 9210022015,
    "province_id": 92,
    "regency_id": 9210,
    "district_id": 921002,
    "value": "Raha",
    "postal_code": "98277"
  },
  {
    "id": 9210022004,
    "province_id": 92,
    "regency_id": 9210,
    "district_id": 921002,
    "value": "Susai",
    "postal_code": "98277"
  },
  {
    "id": 9210022007,
    "province_id": 92,
    "regency_id": 9210,
    "district_id": 921002,
    "value": "Wayane",
    "postal_code": "98277"
  },
  {
    "id": 9210022009,
    "province_id": 92,
    "regency_id": 9210,
    "district_id": 921002,
    "value": "Yarat",
    "postal_code": "98277"
  },
  {
    "id": 9210022014,
    "province_id": 92,
    "regency_id": 9210,
    "district_id": 921002,
    "value": "Yarat Timur",
    "postal_code": "98277"
  }
]