[
  {
    "id": 320802,
    "province_id": 32,
    "regency_id": 3208,
    "district_id": 320802,
    "value": "Cijeumit (Cijemit)",
    "postal_code": "45565"
  },
  {
    "id": 320802,
    "province_id": 32,
    "regency_id": 3208,
    "district_id": 320802,
    "value": "Ciniru",
    "postal_code": "45565"
  },
  {
    "id": 320802,
    "province_id": 32,
    "regency_id": 3208,
    "district_id": 320802,
    "value": "Cipedes",
    "postal_code": "45565"
  },
  {
    "id": 320802,
    "province_id": 32,
    "regency_id": 3208,
    "district_id": 320802,
    "value": "Gunungmanik",
    "postal_code": "45565"
  },
  {
    "id": 320802,
    "province_id": 32,
    "regency_id": 3208,
    "district_id": 320802,
    "value": "Longkewang",
    "postal_code": "45565"
  },
  {
    "id": 320802,
    "province_id": 32,
    "regency_id": 3208,
    "district_id": 320802,
    "value": "Mungkaldatar",
    "postal_code": "45565"
  },
  {
    "id": 320802,
    "province_id": 32,
    "regency_id": 3208,
    "district_id": 320802,
    "value": "Pamupukan",
    "postal_code": "45565"
  },
  {
    "id": 320802,
    "province_id": 32,
    "regency_id": 3208,
    "district_id": 320802,
    "value": "Pinara",
    "postal_code": "45565"
  },
  {
    "id": 320802,
    "province_id": 32,
    "regency_id": 3208,
    "district_id": 320802,
    "value": "Rambatan",
    "postal_code": "45565"
  }
]