[
  {
    "id": 3309042014,
    "province_id": 33,
    "regency_id": 3309,
    "district_id": 330904,
    "value": "Cluntang",
    "postal_code": "57331"
  },
  {
    "id": 3309042017,
    "province_id": 33,
    "regency_id": 3309,
    "district_id": 330904,
    "value": "Kebongulo",
    "postal_code": "57331"
  },
  {
    "id": 3309042015,
    "province_id": 33,
    "regency_id": 3309,
    "district_id": 330904,
    "value": "Kembangsari",
    "postal_code": "57331"
  },
  {
    "id": 3309042018,
    "province_id": 33,
    "regency_id": 3309,
    "district_id": 330904,
    "value": "Musuk",
    "postal_code": "57331"
  },
  {
    "id": 3309042011,
    "province_id": 33,
    "regency_id": 3309,
    "district_id": 330904,
    "value": "Pagerjurang",
    "postal_code": "57331"
  },
  {
    "id": 3309042020,
    "province_id": 33,
    "regency_id": 3309,
    "district_id": 330904,
    "value": "Pusporenggo",
    "postal_code": "57331"
  },
  {
    "id": 3309042016,
    "province_id": 33,
    "regency_id": 3309,
    "district_id": 330904,
    "value": "Ringinlarik (Ringin Larik)",
    "postal_code": "57331"
  },
  {
    "id": 3309042013,
    "province_id": 33,
    "regency_id": 3309,
    "district_id": 330904,
    "value": "Sruni",
    "postal_code": "57331"
  },
  {
    "id": 3309042019,
    "province_id": 33,
    "regency_id": 3309,
    "district_id": 330904,
    "value": "Sukorame",
    "postal_code": "57331"
  },
  {
    "id": 3309042012,
    "province_id": 33,
    "regency_id": 3309,
    "district_id": 330904,
    "value": "Sukorejo",
    "postal_code": "57331"
  }
]