[
  {
    "id": 7306112008,
    "province_id": 73,
    "regency_id": 7306,
    "district_id": 730611,
    "value": "Batumalonro",
    "postal_code": "90244"
  },
  {
    "id": 7306112007,
    "province_id": 73,
    "regency_id": 7306,
    "district_id": 730611,
    "value": "Baturappe",
    "postal_code": "90244"
  },
  {
    "id": 7306112005,
    "province_id": 73,
    "regency_id": 7306,
    "district_id": 730611,
    "value": "Berutallasa",
    "postal_code": "90244"
  },
  {
    "id": 7306112009,
    "province_id": 73,
    "regency_id": 7306,
    "district_id": 730611,
    "value": "Borimasunggu",
    "postal_code": "90244"
  },
  {
    "id": 7306112011,
    "province_id": 73,
    "regency_id": 7306,
    "district_id": 730611,
    "value": "Julukanaya",
    "postal_code": "90244"
  },
  {
    "id": 7306111004,
    "province_id": 73,
    "regency_id": 7306,
    "district_id": 730611,
    "value": "Lauwa",
    "postal_code": "90244"
  },
  {
    "id": 7306112010,
    "province_id": 73,
    "regency_id": 7306,
    "district_id": 730611,
    "value": "Lembangloe",
    "postal_code": "90244"
  },
  {
    "id": 7306112006,
    "province_id": 73,
    "regency_id": 7306,
    "district_id": 730611,
    "value": "Parangloe",
    "postal_code": "90244"
  },
  {
    "id": 7306112003,
    "province_id": 73,
    "regency_id": 7306,
    "district_id": 730611,
    "value": "Pencong",
    "postal_code": "90244"
  },
  {
    "id": 7306112001,
    "province_id": 73,
    "regency_id": 7306,
    "district_id": 730611,
    "value": "Taring",
    "postal_code": "90244"
  },
  {
    "id": 7306111002,
    "province_id": 73,
    "regency_id": 7306,
    "district_id": 730611,
    "value": "Tonrorita",
    "postal_code": "90244"
  }
]