[
  {
    "id": 351507,
    "province_id": 35,
    "regency_id": 3515,
    "district_id": 351507,
    "value": "Balongdowo",
    "postal_code": "61271"
  },
  {
    "id": 351507,
    "province_id": 35,
    "regency_id": 3515,
    "district_id": 351507,
    "value": "Balonggabus",
    "postal_code": "61271"
  },
  {
    "id": 351507,
    "province_id": 35,
    "regency_id": 3515,
    "district_id": 351507,
    "value": "Bligo",
    "postal_code": "61271"
  },
  {
    "id": 351507,
    "province_id": 35,
    "regency_id": 3515,
    "district_id": 351507,
    "value": "Candi",
    "postal_code": "61271"
  },
  {
    "id": 351507,
    "province_id": 35,
    "regency_id": 3515,
    "district_id": 351507,
    "value": "Durungbanjar",
    "postal_code": "61271"
  },
  {
    "id": 351507,
    "province_id": 35,
    "regency_id": 3515,
    "district_id": 351507,
    "value": "Durungbedug",
    "postal_code": "61271"
  },
  {
    "id": 351507,
    "province_id": 35,
    "regency_id": 3515,
    "district_id": 351507,
    "value": "Gelam",
    "postal_code": "61271"
  },
  {
    "id": 351507,
    "province_id": 35,
    "regency_id": 3515,
    "district_id": 351507,
    "value": "Jambangan",
    "postal_code": "61271"
  },
  {
    "id": 351507,
    "province_id": 35,
    "regency_id": 3515,
    "district_id": 351507,
    "value": "Kalipecabean",
    "postal_code": "61271"
  },
  {
    "id": 351507,
    "province_id": 35,
    "regency_id": 3515,
    "district_id": 351507,
    "value": "Karangtanjung",
    "postal_code": "61271"
  },
  {
    "id": 351507,
    "province_id": 35,
    "regency_id": 3515,
    "district_id": 351507,
    "value": "Kebonsari (Kebunsari)",
    "postal_code": "61271"
  },
  {
    "id": 351507,
    "province_id": 35,
    "regency_id": 3515,
    "district_id": 351507,
    "value": "Kedungkendo",
    "postal_code": "61271"
  },
  {
    "id": 351507,
    "province_id": 35,
    "regency_id": 3515,
    "district_id": 351507,
    "value": "Kedungpeluk (Kedung Peluk)",
    "postal_code": "61271"
  },
  {
    "id": 351507,
    "province_id": 35,
    "regency_id": 3515,
    "district_id": 351507,
    "value": "Kendalpecabean",
    "postal_code": "61271"
  },
  {
    "id": 351507,
    "province_id": 35,
    "regency_id": 3515,
    "district_id": 351507,
    "value": "Klurak",
    "postal_code": "61271"
  },
  {
    "id": 351507,
    "province_id": 35,
    "regency_id": 3515,
    "district_id": 351507,
    "value": "Larangan",
    "postal_code": "61271"
  },
  {
    "id": 351507,
    "province_id": 35,
    "regency_id": 3515,
    "district_id": 351507,
    "value": "Ngampelsari",
    "postal_code": "61271"
  },
  {
    "id": 351507,
    "province_id": 35,
    "regency_id": 3515,
    "district_id": 351507,
    "value": "Sepande",
    "postal_code": "61271"
  },
  {
    "id": 351507,
    "province_id": 35,
    "regency_id": 3515,
    "district_id": 351507,
    "value": "Sidodadi",
    "postal_code": "61271"
  },
  {
    "id": 351507,
    "province_id": 35,
    "regency_id": 3515,
    "district_id": 351507,
    "value": "Sugihwaras (Sugih Waras)",
    "postal_code": "61271"
  },
  {
    "id": 351507,
    "province_id": 35,
    "regency_id": 3515,
    "district_id": 351507,
    "value": "Sumokali",
    "postal_code": "61271"
  },
  {
    "id": 351507,
    "province_id": 35,
    "regency_id": 3515,
    "district_id": 351507,
    "value": "Sumorame",
    "postal_code": "61271"
  },
  {
    "id": 351507,
    "province_id": 35,
    "regency_id": 3515,
    "district_id": 351507,
    "value": "Tenggulunan",
    "postal_code": "61271"
  },
  {
    "id": 351507,
    "province_id": 35,
    "regency_id": 3515,
    "district_id": 351507,
    "value": "Wedoroklurak (Wedoro Klurak)",
    "postal_code": "61271"
  }
]