[
  {
    "id": 332514,
    "province_id": 33,
    "regency_id": 3325,
    "district_id": 332514,
    "value": "Bandung",
    "postal_code": "51262"
  },
  {
    "id": 332514,
    "province_id": 33,
    "regency_id": 3325,
    "district_id": 332514,
    "value": "Gemuh",
    "postal_code": "51262"
  },
  {
    "id": 332514,
    "province_id": 33,
    "regency_id": 3325,
    "district_id": 332514,
    "value": "Gombong",
    "postal_code": "51262"
  },
  {
    "id": 332514,
    "province_id": 33,
    "regency_id": 3325,
    "district_id": 332514,
    "value": "Gumawang",
    "postal_code": "51262"
  },
  {
    "id": 332514,
    "province_id": 33,
    "regency_id": 3325,
    "district_id": 332514,
    "value": "Keniten",
    "postal_code": "51262"
  },
  {
    "id": 332514,
    "province_id": 33,
    "regency_id": 3325,
    "district_id": 332514,
    "value": "Pecalungan",
    "postal_code": "51262"
  },
  {
    "id": 332514,
    "province_id": 33,
    "regency_id": 3325,
    "district_id": 332514,
    "value": "Pretek",
    "postal_code": "51262"
  },
  {
    "id": 332514,
    "province_id": 33,
    "regency_id": 3325,
    "district_id": 332514,
    "value": "Randu",
    "postal_code": "51262"
  },
  {
    "id": 332514,
    "province_id": 33,
    "regency_id": 3325,
    "district_id": 332514,
    "value": "Selokarto",
    "postal_code": "51262"
  },
  {
    "id": 332514,
    "province_id": 33,
    "regency_id": 3325,
    "district_id": 332514,
    "value": "Siguci",
    "postal_code": "51262"
  }
]