[
  {
    "id": 121401,
    "province_id": 12,
    "regency_id": 1214,
    "district_id": 121401,
    "value": "Botohilindruria (Botohili Ndruria)",
    "postal_code": "22867"
  },
  {
    "id": 121401,
    "province_id": 12,
    "regency_id": 1214,
    "district_id": 121401,
    "value": "Caritas Sogawunasi",
    "postal_code": "22867"
  },
  {
    "id": 121401,
    "province_id": 12,
    "regency_id": 1214,
    "district_id": 121401,
    "value": "Ewo",
    "postal_code": "22867"
  },
  {
    "id": 121401,
    "province_id": 12,
    "regency_id": 1214,
    "district_id": 121401,
    "value": "Hilifaondrato",
    "postal_code": "22867"
  },
  {
    "id": 121401,
    "province_id": 12,
    "regency_id": 1214,
    "district_id": 121401,
    "value": "Hiliotalua (Hili Otalua)",
    "postal_code": "22867"
  },
  {
    "id": 121401,
    "province_id": 12,
    "regency_id": 1214,
    "district_id": 121401,
    "value": "Hilisangowola",
    "postal_code": "22867"
  },
  {
    "id": 121401,
    "province_id": 12,
    "regency_id": 1214,
    "district_id": 121401,
    "value": "Ko'olotano",
    "postal_code": "22867"
  },
  {
    "id": 121401,
    "province_id": 12,
    "regency_id": 1214,
    "district_id": 121401,
    "value": "Koendrafo",
    "postal_code": "22867"
  },
  {
    "id": 121401,
    "province_id": 12,
    "regency_id": 1214,
    "district_id": 121401,
    "value": "Lawa-Lawa Luo",
    "postal_code": "22867"
  },
  {
    "id": 121401,
    "province_id": 12,
    "regency_id": 1214,
    "district_id": 121401,
    "value": "Orudua Lawa-lawa Luo (Orudua Lawa-Lawa Lou)",
    "postal_code": "22867"
  },
  {
    "id": 121401,
    "province_id": 12,
    "regency_id": 1214,
    "district_id": 121401,
    "value": "Tesikhori",
    "postal_code": "22867"
  },
  {
    "id": 121401,
    "province_id": 12,
    "regency_id": 1214,
    "district_id": 121401,
    "value": "Tuhemberua",
    "postal_code": "22867"
  },
  {
    "id": 121401,
    "province_id": 12,
    "regency_id": 1214,
    "district_id": 121401,
    "value": "Tumari",
    "postal_code": "22867"
  }
]