[
  {
    "id": 331820,
    "province_id": 33,
    "regency_id": 3318,
    "district_id": 331820,
    "value": "Alasdowo",
    "postal_code": "59158"
  },
  {
    "id": 331820,
    "province_id": 33,
    "regency_id": 3318,
    "district_id": 331820,
    "value": "Bakalan",
    "postal_code": "59158"
  },
  {
    "id": 331820,
    "province_id": 33,
    "regency_id": 3318,
    "district_id": 331820,
    "value": "Banyutowo",
    "postal_code": "59158"
  },
  {
    "id": 331820,
    "province_id": 33,
    "regency_id": 3318,
    "district_id": 331820,
    "value": "Dukuhseti",
    "postal_code": "59158"
  },
  {
    "id": 331820,
    "province_id": 33,
    "regency_id": 3318,
    "district_id": 331820,
    "value": "Dumpil",
    "postal_code": "59158"
  },
  {
    "id": 331820,
    "province_id": 33,
    "regency_id": 3318,
    "district_id": 331820,
    "value": "Grogolan",
    "postal_code": "59158"
  },
  {
    "id": 331820,
    "province_id": 33,
    "regency_id": 3318,
    "district_id": 331820,
    "value": "Kembang",
    "postal_code": "59158"
  },
  {
    "id": 331820,
    "province_id": 33,
    "regency_id": 3318,
    "district_id": 331820,
    "value": "Kenanti",
    "postal_code": "59158"
  },
  {
    "id": 331820,
    "province_id": 33,
    "regency_id": 3318,
    "district_id": 331820,
    "value": "Ngagel",
    "postal_code": "59158"
  },
  {
    "id": 331820,
    "province_id": 33,
    "regency_id": 3318,
    "district_id": 331820,
    "value": "Puncel",
    "postal_code": "59158"
  },
  {
    "id": 331820,
    "province_id": 33,
    "regency_id": 3318,
    "district_id": 331820,
    "value": "Tegalombo",
    "postal_code": "59158"
  },
  {
    "id": 331820,
    "province_id": 33,
    "regency_id": 3318,
    "district_id": 331820,
    "value": "Wedusan",
    "postal_code": "59158"
  }
]