[
  {
    "id": 1104022001,
    "province_id": 11,
    "regency_id": 1104,
    "district_id": 110402,
    "value": "Arul Gele",
    "postal_code": "24569"
  },
  {
    "id": 1104022002,
    "province_id": 11,
    "regency_id": 1104,
    "district_id": 110402,
    "value": "Arul Kumer",
    "postal_code": "24569"
  },
  {
    "id": 1104022039,
    "province_id": 11,
    "regency_id": 1104,
    "district_id": 110402,
    "value": "Arul Kumer Barat",
    "postal_code": "24569"
  },
  {
    "id": 1104022041,
    "province_id": 11,
    "regency_id": 1104,
    "district_id": 110402,
    "value": "Arul Kumer Selatan",
    "postal_code": "24569"
  },
  {
    "id": 1104022040,
    "province_id": 11,
    "regency_id": 1104,
    "district_id": 110402,
    "value": "Arul Kumer Timur",
    "postal_code": "24569"
  },
  {
    "id": 1104022016,
    "province_id": 11,
    "regency_id": 1104,
    "district_id": 110402,
    "value": "Arul Putih",
    "postal_code": "24569"
  },
  {
    "id": 1104022017,
    "province_id": 11,
    "regency_id": 1104,
    "district_id": 110402,
    "value": "Arul Relem",
    "postal_code": "24569"
  },
  {
    "id": 1104022034,
    "province_id": 11,
    "regency_id": 1104,
    "district_id": 110402,
    "value": "Bius Utama",
    "postal_code": "24569"
  },
  {
    "id": 1104022003,
    "province_id": 11,
    "regency_id": 1104,
    "district_id": 110402,
    "value": "Burni Bius",
    "postal_code": "24569"
  },
  {
    "id": 1104022018,
    "province_id": 11,
    "regency_id": 1104,
    "district_id": 110402,
    "value": "Burni Bius Baru",
    "postal_code": "24569"
  },
  {
    "id": 1104022004,
    "province_id": 11,
    "regency_id": 1104,
    "district_id": 110402,
    "value": "Genting Gerbang",
    "postal_code": "24569"
  },
  {
    "id": 1104022005,
    "province_id": 11,
    "regency_id": 1104,
    "district_id": 110402,
    "value": "Gunung Singit",
    "postal_code": "24569"
  },
  {
    "id": 1104022019,
    "province_id": 11,
    "regency_id": 1104,
    "district_id": 110402,
    "value": "Jerata",
    "postal_code": "24569"
  },
  {
    "id": 1104022035,
    "province_id": 11,
    "regency_id": 1104,
    "district_id": 110402,
    "value": "Meker Indah (Mekar Indah)",
    "postal_code": "24569"
  },
  {
    "id": 1104022036,
    "province_id": 11,
    "regency_id": 1104,
    "district_id": 110402,
    "value": "Mulie Jadi",
    "postal_code": "24569"
  },
  {
    "id": 1104022022,
    "province_id": 11,
    "regency_id": 1104,
    "district_id": 110402,
    "value": "Paya Beke",
    "postal_code": "24569"
  },
  {
    "id": 1104022023,
    "province_id": 11,
    "regency_id": 1104,
    "district_id": 110402,
    "value": "Paya Pelu",
    "postal_code": "24569"
  },
  {
    "id": 1104022007,
    "province_id": 11,
    "regency_id": 1104,
    "district_id": 110402,
    "value": "Pepayungan Angkup (Pepayungen Angkup)",
    "postal_code": "24569"
  },
  {
    "id": 1104022026,
    "province_id": 11,
    "regency_id": 1104,
    "district_id": 110402,
    "value": "Rebe Gedung",
    "postal_code": "24569"
  },
  {
    "id": 1104022008,
    "province_id": 11,
    "regency_id": 1104,
    "district_id": 110402,
    "value": "Remesen",
    "postal_code": "24569"
  },
  {
    "id": 1104022027,
    "province_id": 11,
    "regency_id": 1104,
    "district_id": 110402,
    "value": "Reremal",
    "postal_code": "24569"
  },
  {
    "id": 1104022009,
    "province_id": 11,
    "regency_id": 1104,
    "district_id": 110402,
    "value": "Rutih",
    "postal_code": "24569"
  },
  {
    "id": 1104022010,
    "province_id": 11,
    "regency_id": 1104,
    "district_id": 110402,
    "value": "Semelit Mutiara",
    "postal_code": "24569"
  },
  {
    "id": 1104022029,
    "province_id": 11,
    "regency_id": 1104,
    "district_id": 110402,
    "value": "Senehen (Sanehen)",
    "postal_code": "24569"
  },
  {
    "id": 1104022030,
    "province_id": 11,
    "regency_id": 1104,
    "district_id": 110402,
    "value": "Simpang Kemili",
    "postal_code": "24569"
  },
  {
    "id": 1104022031,
    "province_id": 11,
    "regency_id": 1104,
    "district_id": 110402,
    "value": "Tenebuk Kampung Baru",
    "postal_code": "24569"
  },
  {
    "id": 1104022032,
    "province_id": 11,
    "regency_id": 1104,
    "district_id": 110402,
    "value": "Terang Engon",
    "postal_code": "24569"
  },
  {
    "id": 1104022013,
    "province_id": 11,
    "regency_id": 1104,
    "district_id": 110402,
    "value": "Wih Bakong (Wihni Bakong)",
    "postal_code": "24569"
  },
  {
    "id": 1104022037,
    "province_id": 11,
    "regency_id": 1104,
    "district_id": 110402,
    "value": "Wih Bersih",
    "postal_code": "24569"
  },
  {
    "id": 1104022033,
    "province_id": 11,
    "regency_id": 1104,
    "district_id": 110402,
    "value": "Wih Pesam",
    "postal_code": "24569"
  },
  {
    "id": 1104022012,
    "province_id": 11,
    "regency_id": 1104,
    "district_id": 110402,
    "value": "Wih Porak",
    "postal_code": "24569"
  },
  {
    "id": 1104022038,
    "province_id": 11,
    "regency_id": 1104,
    "district_id": 110402,
    "value": "Wih Sagi Indah",
    "postal_code": "24569"
  },
  {
    "id": 1104022014,
    "province_id": 11,
    "regency_id": 1104,
    "district_id": 110402,
    "value": "Wihni Durin",
    "postal_code": "24569"
  }
]