[
  {
    "id": 3316051013,
    "province_id": 33,
    "regency_id": 3316,
    "district_id": 331605,
    "value": "Balun",
    "postal_code": "58311"
  },
  {
    "id": 3316052003,
    "province_id": 33,
    "regency_id": 3316,
    "district_id": 331605,
    "value": "Cabeyan (Cabean)",
    "postal_code": "58315"
  },
  {
    "id": 3316051014,
    "province_id": 33,
    "regency_id": 3316,
    "district_id": 331605,
    "value": "Cepu",
    "postal_code": "58312"
  },
  {
    "id": 3316052001,
    "province_id": 33,
    "regency_id": 3316,
    "district_id": 331605,
    "value": "Gadon",
    "postal_code": "58315"
  },
  {
    "id": 3316052006,
    "province_id": 33,
    "regency_id": 3316,
    "district_id": 331605,
    "value": "Getas",
    "postal_code": "58315"
  },
  {
    "id": 3316052005,
    "province_id": 33,
    "regency_id": 3316,
    "district_id": 331605,
    "value": "Jipang",
    "postal_code": "58315"
  },
  {
    "id": 3316052004,
    "province_id": 33,
    "regency_id": 3316,
    "district_id": 331605,
    "value": "Kapuan",
    "postal_code": "58315"
  },
  {
    "id": 3316051016,
    "province_id": 33,
    "regency_id": 3316,
    "district_id": 331605,
    "value": "Karangboyo",
    "postal_code": "58315"
  },
  {
    "id": 3316052008,
    "province_id": 33,
    "regency_id": 3316,
    "district_id": 331605,
    "value": "Kentong",
    "postal_code": "58315"
  },
  {
    "id": 3316052009,
    "province_id": 33,
    "regency_id": 3316,
    "district_id": 331605,
    "value": "Mernung",
    "postal_code": "58315"
  },
  {
    "id": 3316052010,
    "province_id": 33,
    "regency_id": 3316,
    "district_id": 331605,
    "value": "Mulyorejo",
    "postal_code": "58315"
  },
  {
    "id": 3316051015,
    "province_id": 33,
    "regency_id": 3316,
    "district_id": 331605,
    "value": "Ngelo",
    "postal_code": "58313"
  },
  {
    "id": 3316052012,
    "province_id": 33,
    "regency_id": 3316,
    "district_id": 331605,
    "value": "Nglanjuk",
    "postal_code": "58315"
  },
  {
    "id": 3316052002,
    "province_id": 33,
    "regency_id": 3316,
    "district_id": 331605,
    "value": "Ngloram",
    "postal_code": "58315"
  },
  {
    "id": 3316051017,
    "province_id": 33,
    "regency_id": 3316,
    "district_id": 331605,
    "value": "Ngroto",
    "postal_code": "58314"
  },
  {
    "id": 3316052007,
    "province_id": 33,
    "regency_id": 3316,
    "district_id": 331605,
    "value": "Sumberpitu",
    "postal_code": "58315"
  },
  {
    "id": 3316051011,
    "province_id": 33,
    "regency_id": 3316,
    "district_id": 331605,
    "value": "Tambakromo",
    "postal_code": "58315"
  }
]