[
  {
    "id": 3271041005,
    "province_id": 32,
    "regency_id": 3271,
    "district_id": 327104,
    "value": "Balumbang Jaya (Balungbang Jaya)",
    "postal_code": "16116"
  },
  {
    "id": 3271041003,
    "province_id": 32,
    "regency_id": 3271,
    "district_id": 327104,
    "value": "Bubulak",
    "postal_code": "16115"
  },
  {
    "id": 3271041008,
    "province_id": 32,
    "regency_id": 3271,
    "district_id": 327104,
    "value": "Cilendek Barat",
    "postal_code": "16112"
  },
  {
    "id": 3271041009,
    "province_id": 32,
    "regency_id": 3271,
    "district_id": 327104,
    "value": "Cilendek Timur",
    "postal_code": "16112"
  },
  {
    "id": 3271041011,
    "province_id": 32,
    "regency_id": 3271,
    "district_id": 327104,
    "value": "Curug",
    "postal_code": "16113"
  },
  {
    "id": 3271041010,
    "province_id": 32,
    "regency_id": 3271,
    "district_id": 327104,
    "value": "Curug Mekar",
    "postal_code": "16113"
  },
  {
    "id": 3271041015,
    "province_id": 32,
    "regency_id": 3271,
    "district_id": 327104,
    "value": "Gunung Batu (Gunungbatu)",
    "postal_code": "16118"
  },
  {
    "id": 3271041016,
    "province_id": 32,
    "regency_id": 3271,
    "district_id": 327104,
    "value": "Loji",
    "postal_code": "16117"
  },
  {
    "id": 3271041004,
    "province_id": 32,
    "regency_id": 3271,
    "district_id": 327104,
    "value": "Margajaya",
    "postal_code": "16116"
  },
  {
    "id": 3271041001,
    "province_id": 32,
    "regency_id": 3271,
    "district_id": 327104,
    "value": "Menteng",
    "postal_code": "16111"
  },
  {
    "id": 3271041012,
    "province_id": 32,
    "regency_id": 3271,
    "district_id": 327104,
    "value": "Pasir Jaya",
    "postal_code": "16119"
  },
  {
    "id": 3271041013,
    "province_id": 32,
    "regency_id": 3271,
    "district_id": 327104,
    "value": "Pasir Kuda",
    "postal_code": "16119"
  },
  {
    "id": 3271041014,
    "province_id": 32,
    "regency_id": 3271,
    "district_id": 327104,
    "value": "Pasir Mulya",
    "postal_code": "16118"
  },
  {
    "id": 3271041007,
    "province_id": 32,
    "regency_id": 3271,
    "district_id": 327104,
    "value": "Semplak",
    "postal_code": "16114"
  },
  {
    "id": 3271041002,
    "province_id": 32,
    "regency_id": 3271,
    "district_id": 327104,
    "value": "Sindang Barang (Sindangbarang)",
    "postal_code": "16117"
  },
  {
    "id": 3271041006,
    "province_id": 32,
    "regency_id": 3271,
    "district_id": 327104,
    "value": "Situ Gede",
    "postal_code": "16115"
  }
]