[
  {
    "id": 7304072003,
    "province_id": 73,
    "regency_id": 7304,
    "district_id": 730407,
    "value": "Balumbungan (Balumbungang)",
    "postal_code": "92351"
  },
  {
    "id": 7304072004,
    "province_id": 73,
    "regency_id": 7304,
    "district_id": 730407,
    "value": "Bangkalaloe",
    "postal_code": "92351"
  },
  {
    "id": 7304072012,
    "province_id": 73,
    "regency_id": 7304,
    "district_id": 730407,
    "value": "Baraya",
    "postal_code": "92351"
  },
  {
    "id": 7304072008,
    "province_id": 73,
    "regency_id": 7304,
    "district_id": 730407,
    "value": "Batujala",
    "postal_code": "92351"
  },
  {
    "id": 7304071002,
    "province_id": 73,
    "regency_id": 7304,
    "district_id": 730407,
    "value": "Bontoramba",
    "postal_code": "92351"
  },
  {
    "id": 7304072001,
    "province_id": 73,
    "regency_id": 7304,
    "district_id": 730407,
    "value": "Bulusibatang",
    "postal_code": "92351"
  },
  {
    "id": 7304072009,
    "province_id": 73,
    "regency_id": 7304,
    "district_id": 730407,
    "value": "Bulusuka",
    "postal_code": "92351"
  },
  {
    "id": 7304072005,
    "province_id": 73,
    "regency_id": 7304,
    "district_id": 730407,
    "value": "Datara",
    "postal_code": "92351"
  },
  {
    "id": 7304072007,
    "province_id": 73,
    "regency_id": 7304,
    "district_id": 730407,
    "value": "Kareloe",
    "postal_code": "92351"
  },
  {
    "id": 7304072011,
    "province_id": 73,
    "regency_id": 7304,
    "district_id": 730407,
    "value": "Lentu",
    "postal_code": "92351"
  },
  {
    "id": 7304072006,
    "province_id": 73,
    "regency_id": 7304,
    "district_id": 730407,
    "value": "Maero",
    "postal_code": "92351"
  },
  {
    "id": 7304072010,
    "province_id": 73,
    "regency_id": 7304,
    "district_id": 730407,
    "value": "Tanammawang",
    "postal_code": "92351"
  }
]