[
  {
    "id": 5301051002,
    "province_id": 53,
    "regency_id": 5301,
    "district_id": 530105,
    "value": "Batakte",
    "postal_code": "85351"
  },
  {
    "id": 5301052010,
    "province_id": 53,
    "regency_id": 5301,
    "district_id": 530105,
    "value": "Bolok",
    "postal_code": "85351"
  },
  {
    "id": 5301052008,
    "province_id": 53,
    "regency_id": 5301,
    "district_id": 530105,
    "value": "Kuanheun",
    "postal_code": "85351"
  },
  {
    "id": 5301052005,
    "province_id": 53,
    "regency_id": 5301,
    "district_id": 530105,
    "value": "Lifuleo",
    "postal_code": "85351"
  },
  {
    "id": 5301052003,
    "province_id": 53,
    "regency_id": 5301,
    "district_id": 530105,
    "value": "Manulai I",
    "postal_code": "85351"
  },
  {
    "id": 5301052009,
    "province_id": 53,
    "regency_id": 5301,
    "district_id": 530105,
    "value": "Nitneo",
    "postal_code": "85351"
  },
  {
    "id": 5301052007,
    "province_id": 53,
    "regency_id": 5301,
    "district_id": 530105,
    "value": "Oematnunu (Oematanunu)",
    "postal_code": "85351"
  },
  {
    "id": 5301052012,
    "province_id": 53,
    "regency_id": 5301,
    "district_id": 530105,
    "value": "Oenaek",
    "postal_code": "85351"
  },
  {
    "id": 5301051001,
    "province_id": 53,
    "regency_id": 5301,
    "district_id": 530105,
    "value": "Oenesu",
    "postal_code": "85351"
  },
  {
    "id": 5301052004,
    "province_id": 53,
    "regency_id": 5301,
    "district_id": 530105,
    "value": "Sumlili",
    "postal_code": "85351"
  },
  {
    "id": 5301052011,
    "province_id": 53,
    "regency_id": 5301,
    "district_id": 530105,
    "value": "Tablolong",
    "postal_code": "85351"
  },
  {
    "id": 5301052006,
    "province_id": 53,
    "regency_id": 5301,
    "district_id": 530105,
    "value": "Tesabela",
    "postal_code": "85351"
  }
]