[
  {
    "id": 820109,
    "province_id": 82,
    "regency_id": 8201,
    "district_id": 820109,
    "value": "Air Panas",
    "postal_code": "97758"
  },
  {
    "id": 820109,
    "province_id": 82,
    "regency_id": 8201,
    "district_id": 820109,
    "value": "Akelamo",
    "postal_code": "97758"
  },
  {
    "id": 820109,
    "province_id": 82,
    "regency_id": 8201,
    "district_id": 820109,
    "value": "Aketola",
    "postal_code": "97758"
  },
  {
    "id": 820109,
    "province_id": 82,
    "regency_id": 8201,
    "district_id": 820109,
    "value": "Awer",
    "postal_code": "97758"
  },
  {
    "id": 820109,
    "province_id": 82,
    "regency_id": 8201,
    "district_id": 820109,
    "value": "Campaka",
    "postal_code": "97758"
  },
  {
    "id": 820109,
    "province_id": 82,
    "regency_id": 8201,
    "district_id": 820109,
    "value": "Gamiyel (Gamnyial)",
    "postal_code": "97758"
  },
  {
    "id": 820109,
    "province_id": 82,
    "regency_id": 8201,
    "district_id": 820109,
    "value": "Gamomeng",
    "postal_code": "97758"
  },
  {
    "id": 820109,
    "province_id": 82,
    "regency_id": 8201,
    "district_id": 820109,
    "value": "Gamsugi (Gamsungi)",
    "postal_code": "97758"
  },
  {
    "id": 820109,
    "province_id": 82,
    "regency_id": 8201,
    "district_id": 820109,
    "value": "Goal",
    "postal_code": "97758"
  },
  {
    "id": 820109,
    "province_id": 82,
    "regency_id": 8201,
    "district_id": 820109,
    "value": "Golago Kusuma",
    "postal_code": "97758"
  },
  {
    "id": 820109,
    "province_id": 82,
    "regency_id": 8201,
    "district_id": 820109,
    "value": "Hoku Hoku Gam",
    "postal_code": "97758"
  },
  {
    "id": 820109,
    "province_id": 82,
    "regency_id": 8201,
    "district_id": 820109,
    "value": "Idam Gamlamo (Idamgamlamo)",
    "postal_code": "97758"
  },
  {
    "id": 820109,
    "province_id": 82,
    "regency_id": 8201,
    "district_id": 820109,
    "value": "Loce",
    "postal_code": "97758"
  },
  {
    "id": 820109,
    "province_id": 82,
    "regency_id": 8201,
    "district_id": 820109,
    "value": "Ngaon",
    "postal_code": "97758"
  },
  {
    "id": 820109,
    "province_id": 82,
    "regency_id": 8201,
    "district_id": 820109,
    "value": "Sidodadi",
    "postal_code": "97758"
  },
  {
    "id": 820109,
    "province_id": 82,
    "regency_id": 8201,
    "district_id": 820109,
    "value": "Taba Campaka",
    "postal_code": "97758"
  },
  {
    "id": 820109,
    "province_id": 82,
    "regency_id": 8201,
    "district_id": 820109,
    "value": "Taraudu Kusu",
    "postal_code": "97758"
  },
  {
    "id": 820109,
    "province_id": 82,
    "regency_id": 8201,
    "district_id": 820109,
    "value": "Tibobo",
    "postal_code": "97758"
  }
]