[
  {
    "id": 3515182012,
    "province_id": 35,
    "regency_id": 3515,
    "district_id": 351518,
    "value": "Berbek",
    "postal_code": "61256"
  },
  {
    "id": 3515182017,
    "province_id": 35,
    "regency_id": 3515,
    "district_id": 351518,
    "value": "Bungurasih",
    "postal_code": "61256"
  },
  {
    "id": 3515182014,
    "province_id": 35,
    "regency_id": 3515,
    "district_id": 351518,
    "value": "Janti",
    "postal_code": "61256"
  },
  {
    "id": 3515182015,
    "province_id": 35,
    "regency_id": 3515,
    "district_id": 351518,
    "value": "Kedungrejo",
    "postal_code": "61256"
  },
  {
    "id": 3515182011,
    "province_id": 35,
    "regency_id": 3515,
    "district_id": 351518,
    "value": "Kepuhkiriman (Kepuh Kiriman)",
    "postal_code": "61256"
  },
  {
    "id": 3515182003,
    "province_id": 35,
    "regency_id": 3515,
    "district_id": 351518,
    "value": "Kureksari",
    "postal_code": "61256"
  },
  {
    "id": 3515182016,
    "province_id": 35,
    "regency_id": 3515,
    "district_id": 351518,
    "value": "Medaeng",
    "postal_code": "61256"
  },
  {
    "id": 3515182004,
    "province_id": 35,
    "regency_id": 3515,
    "district_id": 351518,
    "value": "Ngingas",
    "postal_code": "61256"
  },
  {
    "id": 3515182001,
    "province_id": 35,
    "regency_id": 3515,
    "district_id": 351518,
    "value": "Pepelegi",
    "postal_code": "61256"
  },
  {
    "id": 3515182008,
    "province_id": 35,
    "regency_id": 3515,
    "district_id": 351518,
    "value": "Tambakoso (Tambak Oso)",
    "postal_code": "61256"
  },
  {
    "id": 3515182007,
    "province_id": 35,
    "regency_id": 3515,
    "district_id": 351518,
    "value": "Tambakrejo (Tambak Rejo)",
    "postal_code": "61256"
  },
  {
    "id": 3515182006,
    "province_id": 35,
    "regency_id": 3515,
    "district_id": 351518,
    "value": "Tambaksawah (Tambak Sawah)",
    "postal_code": "61256"
  },
  {
    "id": 3515182009,
    "province_id": 35,
    "regency_id": 3515,
    "district_id": 351518,
    "value": "Tambaksumur (Tambak Sumur)",
    "postal_code": "61256"
  },
  {
    "id": 3515182005,
    "province_id": 35,
    "regency_id": 3515,
    "district_id": 351518,
    "value": "Tropodo",
    "postal_code": "61256"
  },
  {
    "id": 3515182010,
    "province_id": 35,
    "regency_id": 3515,
    "district_id": 351518,
    "value": "Wadungasri",
    "postal_code": "61256"
  },
  {
    "id": 3515182002,
    "province_id": 35,
    "regency_id": 3515,
    "district_id": 351518,
    "value": "Waru",
    "postal_code": "61256"
  },
  {
    "id": 3515182013,
    "province_id": 35,
    "regency_id": 3515,
    "district_id": 351518,
    "value": "Wedoro",
    "postal_code": "61256"
  }
]