[
  {
    "id": 351406,
    "province_id": 35,
    "regency_id": 3514,
    "district_id": 351406,
    "value": "Ambal Ambil",
    "postal_code": "67172"
  },
  {
    "id": 351406,
    "province_id": 35,
    "regency_id": 3514,
    "district_id": 351406,
    "value": "Benerwojo",
    "postal_code": "67172"
  },
  {
    "id": 351406,
    "province_id": 35,
    "regency_id": 3514,
    "district_id": 351406,
    "value": "Cobanjoyo (Coban Joyo)",
    "postal_code": "67172"
  },
  {
    "id": 351406,
    "province_id": 35,
    "regency_id": 3514,
    "district_id": 351406,
    "value": "Kedemungan",
    "postal_code": "67172"
  },
  {
    "id": 351406,
    "province_id": 35,
    "regency_id": 3514,
    "district_id": 351406,
    "value": "Kedungpengaron (Kedung Pengaron)",
    "postal_code": "67172"
  },
  {
    "id": 351406,
    "province_id": 35,
    "regency_id": 3514,
    "district_id": 351406,
    "value": "Kejayan",
    "postal_code": "67172"
  },
  {
    "id": 351406,
    "province_id": 35,
    "regency_id": 3514,
    "district_id": 351406,
    "value": "Kepuh",
    "postal_code": "67172"
  },
  {
    "id": 351406,
    "province_id": 35,
    "regency_id": 3514,
    "district_id": 351406,
    "value": "Ketangirejo (Ketangi Rejo / Kangirejo)",
    "postal_code": "67172"
  },
  {
    "id": 351406,
    "province_id": 35,
    "regency_id": 3514,
    "district_id": 351406,
    "value": "Klangrong",
    "postal_code": "67172"
  },
  {
    "id": 351406,
    "province_id": 35,
    "regency_id": 3514,
    "district_id": 351406,
    "value": "Klinter",
    "postal_code": "67172"
  },
  {
    "id": 351406,
    "province_id": 35,
    "regency_id": 3514,
    "district_id": 351406,
    "value": "Kurung",
    "postal_code": "67172"
  },
  {
    "id": 351406,
    "province_id": 35,
    "regency_id": 3514,
    "district_id": 351406,
    "value": "Linggo",
    "postal_code": "67172"
  },
  {
    "id": 351406,
    "province_id": 35,
    "regency_id": 3514,
    "district_id": 351406,
    "value": "Lorokan",
    "postal_code": "67172"
  },
  {
    "id": 351406,
    "province_id": 35,
    "regency_id": 3514,
    "district_id": 351406,
    "value": "Luwuk",
    "postal_code": "67172"
  },
  {
    "id": 351406,
    "province_id": 35,
    "regency_id": 3514,
    "district_id": 351406,
    "value": "Oro Oro Puleh (Oro Oro Pule)",
    "postal_code": "67172"
  },
  {
    "id": 351406,
    "province_id": 35,
    "regency_id": 3514,
    "district_id": 351406,
    "value": "Pacar Keling",
    "postal_code": "67172"
  },
  {
    "id": 351406,
    "province_id": 35,
    "regency_id": 3514,
    "district_id": 351406,
    "value": "Patebon",
    "postal_code": "67172"
  },
  {
    "id": 351406,
    "province_id": 35,
    "regency_id": 3514,
    "district_id": 351406,
    "value": "Randugong (Randu Gong)",
    "postal_code": "67172"
  },
  {
    "id": 351406,
    "province_id": 35,
    "regency_id": 3514,
    "district_id": 351406,
    "value": "Sladi",
    "postal_code": "67172"
  },
  {
    "id": 351406,
    "province_id": 35,
    "regency_id": 3514,
    "district_id": 351406,
    "value": "Sumber Banteng",
    "postal_code": "67172"
  },
  {
    "id": 351406,
    "province_id": 35,
    "regency_id": 3514,
    "district_id": 351406,
    "value": "Sumber Suko",
    "postal_code": "67172"
  },
  {
    "id": 351406,
    "province_id": 35,
    "regency_id": 3514,
    "district_id": 351406,
    "value": "Tanggulangin",
    "postal_code": "67172"
  },
  {
    "id": 351406,
    "province_id": 35,
    "regency_id": 3514,
    "district_id": 351406,
    "value": "Tundosuro/Tundosor o",
    "postal_code": "67172"
  },
  {
    "id": 351406,
    "province_id": 35,
    "regency_id": 3514,
    "district_id": 351406,
    "value": "Wangkalwetan (Wangkal Wetan)",
    "postal_code": "67172"
  },
  {
    "id": 351406,
    "province_id": 35,
    "regency_id": 3514,
    "district_id": 351406,
    "value": "Wrati",
    "postal_code": "67172"
  }
]