[
  {
    "id": 710204,
    "province_id": 71,
    "regency_id": 7102,
    "district_id": 710204,
    "value": "Kalawiran",
    "postal_code": "95684"
  },
  {
    "id": 710204,
    "province_id": 71,
    "regency_id": 7102,
    "district_id": 710204,
    "value": "Kayubesi (Kayu Besi)",
    "postal_code": "95684"
  },
  {
    "id": 710204,
    "province_id": 71,
    "regency_id": 7102,
    "district_id": 710204,
    "value": "Kinaselon (Kinaleosan)",
    "postal_code": "95684"
  },
  {
    "id": 710204,
    "province_id": 71,
    "regency_id": 7102,
    "district_id": 710204,
    "value": "Kolongan",
    "postal_code": "95684"
  },
  {
    "id": 710204,
    "province_id": 71,
    "regency_id": 7102,
    "district_id": 710204,
    "value": "Kolongan I",
    "postal_code": "95684"
  },
  {
    "id": 710204,
    "province_id": 71,
    "regency_id": 7102,
    "district_id": 710204,
    "value": "Kombi",
    "postal_code": "95684"
  },
  {
    "id": 710204,
    "province_id": 71,
    "regency_id": 7102,
    "district_id": 710204,
    "value": "Lalumpe",
    "postal_code": "95684"
  },
  {
    "id": 710204,
    "province_id": 71,
    "regency_id": 7102,
    "district_id": 710204,
    "value": "Makalisung",
    "postal_code": "95684"
  },
  {
    "id": 710204,
    "province_id": 71,
    "regency_id": 7102,
    "district_id": 710204,
    "value": "Ranowangko II (Ranowangko Dua)",
    "postal_code": "95684"
  },
  {
    "id": 710204,
    "province_id": 71,
    "regency_id": 7102,
    "district_id": 710204,
    "value": "Rerer",
    "postal_code": "95684"
  },
  {
    "id": 710204,
    "province_id": 71,
    "regency_id": 7102,
    "district_id": 710204,
    "value": "Rerer I",
    "postal_code": "95684"
  },
  {
    "id": 710204,
    "province_id": 71,
    "regency_id": 7102,
    "district_id": 710204,
    "value": "Sawangan",
    "postal_code": "95684"
  },
  {
    "id": 710204,
    "province_id": 71,
    "regency_id": 7102,
    "district_id": 710204,
    "value": "Tulap",
    "postal_code": "95684"
  }
]