[
  {
    "id": 531511,
    "province_id": 53,
    "regency_id": 5315,
    "district_id": 531511,
    "value": "Benteng Ndope",
    "postal_code": "86755"
  },
  {
    "id": 531511,
    "province_id": 53,
    "regency_id": 5315,
    "district_id": 531511,
    "value": "Compang",
    "postal_code": "86755"
  },
  {
    "id": 531511,
    "province_id": 53,
    "regency_id": 5315,
    "district_id": 531511,
    "value": "Golo Lajang",
    "postal_code": "86755"
  },
  {
    "id": 531511,
    "province_id": 53,
    "regency_id": 5315,
    "district_id": 531511,
    "value": "Golo Lajang Barat",
    "postal_code": "86755"
  },
  {
    "id": 531511,
    "province_id": 53,
    "regency_id": 5315,
    "district_id": 531511,
    "value": "Kombo",
    "postal_code": "86755"
  },
  {
    "id": 531511,
    "province_id": 53,
    "regency_id": 5315,
    "district_id": 531511,
    "value": "Kombo Selatan",
    "postal_code": "86755"
  },
  {
    "id": 531511,
    "province_id": 53,
    "regency_id": 5315,
    "district_id": 531511,
    "value": "Kombo Tengah",
    "postal_code": "86755"
  },
  {
    "id": 531511,
    "province_id": 53,
    "regency_id": 5315,
    "district_id": 531511,
    "value": "Loha",
    "postal_code": "86755"
  },
  {
    "id": 531511,
    "province_id": 53,
    "regency_id": 5315,
    "district_id": 531511,
    "value": "Manong",
    "postal_code": "86755"
  },
  {
    "id": 531511,
    "province_id": 53,
    "regency_id": 5315,
    "district_id": 531511,
    "value": "Pacar",
    "postal_code": "86755"
  },
  {
    "id": 531511,
    "province_id": 53,
    "regency_id": 5315,
    "district_id": 531511,
    "value": "Pong Kolong",
    "postal_code": "86755"
  },
  {
    "id": 531511,
    "province_id": 53,
    "regency_id": 5315,
    "district_id": 531511,
    "value": "Romang",
    "postal_code": "86755"
  },
  {
    "id": 531511,
    "province_id": 53,
    "regency_id": 5315,
    "district_id": 531511,
    "value": "Waka",
    "postal_code": "86755"
  }
]