[
  {
    "id": 330524,
    "province_id": 33,
    "regency_id": 3305,
    "district_id": 330524,
    "value": "Balingasal",
    "postal_code": "54394"
  },
  {
    "id": 330524,
    "province_id": 33,
    "regency_id": 3305,
    "district_id": 330524,
    "value": "Kaligubug (Kaligubuk)",
    "postal_code": "54394"
  },
  {
    "id": 330524,
    "province_id": 33,
    "regency_id": 3305,
    "district_id": 330524,
    "value": "Kalijering",
    "postal_code": "54394"
  },
  {
    "id": 330524,
    "province_id": 33,
    "regency_id": 3305,
    "district_id": 330524,
    "value": "Merden",
    "postal_code": "54394"
  },
  {
    "id": 330524,
    "province_id": 33,
    "regency_id": 3305,
    "district_id": 330524,
    "value": "Padureso",
    "postal_code": "54394"
  },
  {
    "id": 330524,
    "province_id": 33,
    "regency_id": 3305,
    "district_id": 330524,
    "value": "Pejengkolan",
    "postal_code": "54394"
  },
  {
    "id": 330524,
    "province_id": 33,
    "regency_id": 3305,
    "district_id": 330524,
    "value": "Rahayu",
    "postal_code": "54394"
  },
  {
    "id": 330524,
    "province_id": 33,
    "regency_id": 3305,
    "district_id": 330524,
    "value": "Sendangdalem",
    "postal_code": "54394"
  },
  {
    "id": 330524,
    "province_id": 33,
    "regency_id": 3305,
    "district_id": 330524,
    "value": "Sidototo",
    "postal_code": "54394"
  }
]