[
  {
    "id": 111207,
    "province_id": 11,
    "regency_id": 1112,
    "district_id": 111207,
    "value": "Alue Dama",
    "postal_code": "23763"
  },
  {
    "id": 111207,
    "province_id": 11,
    "regency_id": 1112,
    "district_id": 111207,
    "value": "Cinta Makmur",
    "postal_code": "23763"
  },
  {
    "id": 111207,
    "province_id": 11,
    "regency_id": 1112,
    "district_id": 111207,
    "value": "Kuta Murni",
    "postal_code": "23763"
  },
  {
    "id": 111207,
    "province_id": 11,
    "regency_id": 1112,
    "district_id": 111207,
    "value": "Lhang",
    "postal_code": "23763"
  },
  {
    "id": 111207,
    "province_id": 11,
    "regency_id": 1112,
    "district_id": 111207,
    "value": "Mon Mameh (Pesisir Mon Mameh)",
    "postal_code": "23763"
  },
  {
    "id": 111207,
    "province_id": 11,
    "regency_id": 1112,
    "district_id": 111207,
    "value": "Pisang",
    "postal_code": "23763"
  },
  {
    "id": 111207,
    "province_id": 11,
    "regency_id": 1112,
    "district_id": 111207,
    "value": "Rambong",
    "postal_code": "23763"
  },
  {
    "id": 111207,
    "province_id": 11,
    "regency_id": 1112,
    "district_id": 111207,
    "value": "Tangan Tangan Cut",
    "postal_code": "23763"
  },
  {
    "id": 111207,
    "province_id": 11,
    "regency_id": 1112,
    "district_id": 111207,
    "value": "Ujong Tanoh (Ujung Tanah)",
    "postal_code": "23763"
  }
]