[
  {
    "id": 3503012012,
    "province_id": 35,
    "regency_id": 3503,
    "district_id": 350301,
    "value": "Banjar",
    "postal_code": "66364"
  },
  {
    "id": 3503012014,
    "province_id": 35,
    "regency_id": 3503,
    "district_id": 350301,
    "value": "Barang",
    "postal_code": "66364"
  },
  {
    "id": 3503012001,
    "province_id": 35,
    "regency_id": 3503,
    "district_id": 350301,
    "value": "Besuki",
    "postal_code": "66364"
  },
  {
    "id": 3503012009,
    "province_id": 35,
    "regency_id": 3503,
    "district_id": 350301,
    "value": "Bodag",
    "postal_code": "66364"
  },
  {
    "id": 3503012005,
    "province_id": 35,
    "regency_id": 3503,
    "district_id": 350301,
    "value": "Depok",
    "postal_code": "66364"
  },
  {
    "id": 3503012007,
    "province_id": 35,
    "regency_id": 3503,
    "district_id": 350301,
    "value": "Gayam",
    "postal_code": "66364"
  },
  {
    "id": 3503012003,
    "province_id": 35,
    "regency_id": 3503,
    "district_id": 350301,
    "value": "Karangtengah",
    "postal_code": "66364"
  },
  {
    "id": 3503012006,
    "province_id": 35,
    "regency_id": 3503,
    "district_id": 350301,
    "value": "Kertosono",
    "postal_code": "66364"
  },
  {
    "id": 3503012016,
    "province_id": 35,
    "regency_id": 3503,
    "district_id": 350301,
    "value": "Manggis",
    "postal_code": "66364"
  },
  {
    "id": 3503012011,
    "province_id": 35,
    "regency_id": 3503,
    "district_id": 350301,
    "value": "Nglebeng",
    "postal_code": "66364"
  },
  {
    "id": 3503012017,
    "province_id": 35,
    "regency_id": 3503,
    "district_id": 350301,
    "value": "Ngrambingan",
    "postal_code": "66364"
  },
  {
    "id": 3503012013,
    "province_id": 35,
    "regency_id": 3503,
    "district_id": 350301,
    "value": "Ngrencak",
    "postal_code": "66364"
  },
  {
    "id": 3503012008,
    "province_id": 35,
    "regency_id": 3503,
    "district_id": 350301,
    "value": "Panggul",
    "postal_code": "66364"
  },
  {
    "id": 3503012015,
    "province_id": 35,
    "regency_id": 3503,
    "district_id": 350301,
    "value": "Sawahan",
    "postal_code": "66364"
  },
  {
    "id": 3503012010,
    "province_id": 35,
    "regency_id": 3503,
    "district_id": 350301,
    "value": "Tangkil",
    "postal_code": "66364"
  },
  {
    "id": 3503012002,
    "province_id": 35,
    "regency_id": 3503,
    "district_id": 350301,
    "value": "Terbis",
    "postal_code": "66364"
  },
  {
    "id": 3503012004,
    "province_id": 35,
    "regency_id": 3503,
    "district_id": 350301,
    "value": "Wonocoyo",
    "postal_code": "66364"
  }
]