[
  {
    "id": 820403,
    "province_id": 82,
    "regency_id": 8204,
    "district_id": 820403,
    "value": "Akelamo",
    "postal_code": "97783"
  },
  {
    "id": 820403,
    "province_id": 82,
    "regency_id": 8204,
    "district_id": 820403,
    "value": "Batonam",
    "postal_code": "97783"
  },
  {
    "id": 820403,
    "province_id": 82,
    "regency_id": 8204,
    "district_id": 820403,
    "value": "Foya",
    "postal_code": "97783"
  },
  {
    "id": 820403,
    "province_id": 82,
    "regency_id": 8204,
    "district_id": 820403,
    "value": "Foya Tobaru",
    "postal_code": "97783"
  },
  {
    "id": 820403,
    "province_id": 82,
    "regency_id": 8204,
    "district_id": 820403,
    "value": "Kebun Raja",
    "postal_code": "97783"
  },
  {
    "id": 820403,
    "province_id": 82,
    "regency_id": 8204,
    "district_id": 820403,
    "value": "Kotalow",
    "postal_code": "97783"
  },
  {
    "id": 820403,
    "province_id": 82,
    "regency_id": 8204,
    "district_id": 820403,
    "value": "Lalubi",
    "postal_code": "97783"
  },
  {
    "id": 820403,
    "province_id": 82,
    "regency_id": 8204,
    "district_id": 820403,
    "value": "Maffa",
    "postal_code": "97783"
  },
  {
    "id": 820403,
    "province_id": 82,
    "regency_id": 8204,
    "district_id": 820403,
    "value": "Sumber Makmur",
    "postal_code": "97783"
  },
  {
    "id": 820403,
    "province_id": 82,
    "regency_id": 8204,
    "district_id": 820403,
    "value": "Tanjung Jere",
    "postal_code": "97783"
  },
  {
    "id": 820403,
    "province_id": 82,
    "regency_id": 8204,
    "district_id": 820403,
    "value": "Tobaru",
    "postal_code": "97783"
  },
  {
    "id": 820403,
    "province_id": 82,
    "regency_id": 8204,
    "district_id": 820403,
    "value": "Wosi",
    "postal_code": "97783"
  }
]