[
  {
    "id": 350821,
    "province_id": 35,
    "regency_id": 3508,
    "district_id": 350821,
    "value": "Grati",
    "postal_code": "67316"
  },
  {
    "id": 350821,
    "province_id": 35,
    "regency_id": 3508,
    "district_id": 350821,
    "value": "Kebonsari",
    "postal_code": "67316"
  },
  {
    "id": 350821,
    "province_id": 35,
    "regency_id": 3508,
    "district_id": 350821,
    "value": "Labruk Kidul",
    "postal_code": "67316"
  },
  {
    "id": 350821,
    "province_id": 35,
    "regency_id": 3508,
    "district_id": 350821,
    "value": "Mojosari",
    "postal_code": "67316"
  },
  {
    "id": 350821,
    "province_id": 35,
    "regency_id": 3508,
    "district_id": 350821,
    "value": "Petahunan",
    "postal_code": "67316"
  },
  {
    "id": 350821,
    "province_id": 35,
    "regency_id": 3508,
    "district_id": 350821,
    "value": "Purwosono",
    "postal_code": "67316"
  },
  {
    "id": 350821,
    "province_id": 35,
    "regency_id": 3508,
    "district_id": 350821,
    "value": "Sentul",
    "postal_code": "67316"
  },
  {
    "id": 350821,
    "province_id": 35,
    "regency_id": 3508,
    "district_id": 350821,
    "value": "Sumbersuko",
    "postal_code": "67316"
  }
]