[
  {
    "id": 150202,
    "province_id": 15,
    "regency_id": 1502,
    "district_id": 150202,
    "value": "Dusun Bangko",
    "postal_code": "37313"
  },
  {
    "id": 150202,
    "province_id": 15,
    "regency_id": 1502,
    "district_id": 150202,
    "value": "Kungkai",
    "postal_code": "37311"
  },
  {
    "id": 150202,
    "province_id": 15,
    "regency_id": 1502,
    "district_id": 150202,
    "value": "Langling",
    "postal_code": "37311"
  },
  {
    "id": 150202,
    "province_id": 15,
    "regency_id": 1502,
    "district_id": 150202,
    "value": "Mudo (Dusun Mudo)",
    "postal_code": "37311"
  },
  {
    "id": 150202,
    "province_id": 15,
    "regency_id": 1502,
    "district_id": 150202,
    "value": "Pasar Atas (Pasar Atas Bangko)",
    "postal_code": "37312"
  },
  {
    "id": 150202,
    "province_id": 15,
    "regency_id": 1502,
    "district_id": 150202,
    "value": "Pasar Bangko",
    "postal_code": "37311"
  },
  {
    "id": 150202,
    "province_id": 15,
    "regency_id": 1502,
    "district_id": 150202,
    "value": "Pematang Kandis",
    "postal_code": "37314"
  },
  {
    "id": 150202,
    "province_id": 15,
    "regency_id": 1502,
    "district_id": 150202,
    "value": "Sungai Kapas",
    "postal_code": "37311"
  }
]