[
  {
    "id": 531110,
    "province_id": 53,
    "regency_id": 5311,
    "district_id": 531110,
    "value": "Kaliuda",
    "postal_code": "87182"
  },
  {
    "id": 531110,
    "province_id": 53,
    "regency_id": 5311,
    "district_id": 531110,
    "value": "Kuruwaki",
    "postal_code": "87182"
  },
  {
    "id": 531110,
    "province_id": 53,
    "regency_id": 5311,
    "district_id": 531110,
    "value": "Lambakara",
    "postal_code": "87182"
  },
  {
    "id": 531110,
    "province_id": 53,
    "regency_id": 5311,
    "district_id": 531110,
    "value": "Mburukulu",
    "postal_code": "87182"
  },
  {
    "id": 531110,
    "province_id": 53,
    "regency_id": 5311,
    "district_id": 531110,
    "value": "Palanggai",
    "postal_code": "87182"
  },
  {
    "id": 531110,
    "province_id": 53,
    "regency_id": 5311,
    "district_id": 531110,
    "value": "Pamburu",
    "postal_code": "87182"
  },
  {
    "id": 531110,
    "province_id": 53,
    "regency_id": 5311,
    "district_id": 531110,
    "value": "Tamma",
    "postal_code": "87182"
  },
  {
    "id": 531110,
    "province_id": 53,
    "regency_id": 5311,
    "district_id": 531110,
    "value": "Tana Manang (Tanamanang)",
    "postal_code": "87182"
  }
]