[
  {
    "id": 921004,
    "province_id": 92,
    "regency_id": 9210,
    "district_id": 921004,
    "value": "Asiaf Saman (Asiaf Zaman)",
    "postal_code": "98272"
  },
  {
    "id": 921004,
    "province_id": 92,
    "regency_id": 9210,
    "district_id": 921004,
    "value": "Awet Main",
    "postal_code": "98272"
  },
  {
    "id": 921004,
    "province_id": 92,
    "regency_id": 9210,
    "district_id": 921004,
    "value": "Fuog",
    "postal_code": "98272"
  },
  {
    "id": 921004,
    "province_id": 92,
    "regency_id": 9210,
    "district_id": 921004,
    "value": "Fuog Selatan",
    "postal_code": "98272"
  },
  {
    "id": 921004,
    "province_id": 92,
    "regency_id": 9210,
    "district_id": 921004,
    "value": "Hora Iek",
    "postal_code": "98272"
  },
  {
    "id": 921004,
    "province_id": 92,
    "regency_id": 9210,
    "district_id": 921004,
    "value": "Imsun",
    "postal_code": "98272"
  },
  {
    "id": 921004,
    "province_id": 92,
    "regency_id": 9210,
    "district_id": 921004,
    "value": "Kaitana",
    "postal_code": "98272"
  },
  {
    "id": 921004,
    "province_id": 92,
    "regency_id": 9210,
    "district_id": 921004,
    "value": "Kisor",
    "postal_code": "98272"
  },
  {
    "id": 921004,
    "province_id": 92,
    "regency_id": 9210,
    "district_id": 921004,
    "value": "Krus",
    "postal_code": "98272"
  },
  {
    "id": 921004,
    "province_id": 92,
    "regency_id": 9210,
    "district_id": 921004,
    "value": "Roma",
    "postal_code": "98272"
  },
  {
    "id": 921004,
    "province_id": 92,
    "regency_id": 9210,
    "district_id": 921004,
    "value": "Sabah",
    "postal_code": "98272"
  },
  {
    "id": 921004,
    "province_id": 92,
    "regency_id": 9210,
    "district_id": 921004,
    "value": "Same Rakator",
    "postal_code": "98272"
  },
  {
    "id": 921004,
    "province_id": 92,
    "regency_id": 9210,
    "district_id": 921004,
    "value": "Sorry",
    "postal_code": "98272"
  },
  {
    "id": 921004,
    "province_id": 92,
    "regency_id": 9210,
    "district_id": 921004,
    "value": "Tahsimara",
    "postal_code": "98272"
  },
  {
    "id": 921004,
    "province_id": 92,
    "regency_id": 9210,
    "district_id": 921004,
    "value": "Tolak",
    "postal_code": "98272"
  },
  {
    "id": 921004,
    "province_id": 92,
    "regency_id": 9210,
    "district_id": 921004,
    "value": "Yeek",
    "postal_code": "98272"
  }
]