[
  {
    "id": 352411,
    "province_id": 35,
    "regency_id": 3524,
    "district_id": 352411,
    "value": "Ardirejo",
    "postal_code": "62284"
  },
  {
    "id": 352411,
    "province_id": 35,
    "regency_id": 3524,
    "district_id": 352411,
    "value": "Barurejo",
    "postal_code": "62284"
  },
  {
    "id": 352411,
    "province_id": 35,
    "regency_id": 3524,
    "district_id": 352411,
    "value": "Candisari",
    "postal_code": "62284"
  },
  {
    "id": 352411,
    "province_id": 35,
    "regency_id": 3524,
    "district_id": 352411,
    "value": "Garung",
    "postal_code": "62284"
  },
  {
    "id": 352411,
    "province_id": 35,
    "regency_id": 3524,
    "district_id": 352411,
    "value": "Gempolmanis",
    "postal_code": "62284"
  },
  {
    "id": 352411,
    "province_id": 35,
    "regency_id": 3524,
    "district_id": 352411,
    "value": "Jatipandak",
    "postal_code": "62284"
  },
  {
    "id": 352411,
    "province_id": 35,
    "regency_id": 3524,
    "district_id": 352411,
    "value": "Kedungbanjar",
    "postal_code": "62284"
  },
  {
    "id": 352411,
    "province_id": 35,
    "regency_id": 3524,
    "district_id": 352411,
    "value": "Kedungwangi",
    "postal_code": "62284"
  },
  {
    "id": 352411,
    "province_id": 35,
    "regency_id": 3524,
    "district_id": 352411,
    "value": "Kreteranggon",
    "postal_code": "62284"
  },
  {
    "id": 352411,
    "province_id": 35,
    "regency_id": 3524,
    "district_id": 352411,
    "value": "Nogojatisari",
    "postal_code": "62284"
  },
  {
    "id": 352411,
    "province_id": 35,
    "regency_id": 3524,
    "district_id": 352411,
    "value": "Pamotan",
    "postal_code": "62284"
  },
  {
    "id": 352411,
    "province_id": 35,
    "regency_id": 3524,
    "district_id": 352411,
    "value": "Pasarlegi",
    "postal_code": "62284"
  },
  {
    "id": 352411,
    "province_id": 35,
    "regency_id": 3524,
    "district_id": 352411,
    "value": "Pataan",
    "postal_code": "62284"
  },
  {
    "id": 352411,
    "province_id": 35,
    "regency_id": 3524,
    "district_id": 352411,
    "value": "Sekidang",
    "postal_code": "62284"
  },
  {
    "id": 352411,
    "province_id": 35,
    "regency_id": 3524,
    "district_id": 352411,
    "value": "Selorejo",
    "postal_code": "62284"
  },
  {
    "id": 352411,
    "province_id": 35,
    "regency_id": 3524,
    "district_id": 352411,
    "value": "Semampirejo",
    "postal_code": "62284"
  },
  {
    "id": 352411,
    "province_id": 35,
    "regency_id": 3524,
    "district_id": 352411,
    "value": "Sidokumpul",
    "postal_code": "62284"
  },
  {
    "id": 352411,
    "province_id": 35,
    "regency_id": 3524,
    "district_id": 352411,
    "value": "Sumbersari",
    "postal_code": "62284"
  },
  {
    "id": 352411,
    "province_id": 35,
    "regency_id": 3524,
    "district_id": 352411,
    "value": "Tenggiring",
    "postal_code": "62284"
  },
  {
    "id": 352411,
    "province_id": 35,
    "regency_id": 3524,
    "district_id": 352411,
    "value": "Wateswinangun",
    "postal_code": "62284"
  },
  {
    "id": 352411,
    "province_id": 35,
    "regency_id": 3524,
    "district_id": 352411,
    "value": "Wonorejo",
    "postal_code": "62284"
  },
  {
    "id": 352411,
    "province_id": 35,
    "regency_id": 3524,
    "district_id": 352411,
    "value": "Wudi",
    "postal_code": "62284"
  }
]