[
  {
    "id": 740806,
    "province_id": 74,
    "regency_id": 7408,
    "district_id": 740806,
    "value": "Beringin",
    "postal_code": "93958"
  },
  {
    "id": 740806,
    "province_id": 74,
    "regency_id": 7408,
    "district_id": 740806,
    "value": "Koreiha",
    "postal_code": "93958"
  },
  {
    "id": 740806,
    "province_id": 74,
    "regency_id": 7408,
    "district_id": 740806,
    "value": "Lapai",
    "postal_code": "93958"
  },
  {
    "id": 740806,
    "province_id": 74,
    "regency_id": 7408,
    "district_id": 740806,
    "value": "Lawolatu",
    "postal_code": "93958"
  },
  {
    "id": 740806,
    "province_id": 74,
    "regency_id": 7408,
    "district_id": 740806,
    "value": "Mataiwoi",
    "postal_code": "93958"
  },
  {
    "id": 740806,
    "province_id": 74,
    "regency_id": 7408,
    "district_id": 740806,
    "value": "Ngapa",
    "postal_code": "93958"
  },
  {
    "id": 740806,
    "province_id": 74,
    "regency_id": 7408,
    "district_id": 740806,
    "value": "Nimbuneha",
    "postal_code": "93958"
  },
  {
    "id": 740806,
    "province_id": 74,
    "regency_id": 7408,
    "district_id": 740806,
    "value": "Padaelo",
    "postal_code": "93958"
  },
  {
    "id": 740806,
    "province_id": 74,
    "regency_id": 7408,
    "district_id": 740806,
    "value": "Paruttellang (Paruttelang)",
    "postal_code": "93958"
  },
  {
    "id": 740806,
    "province_id": 74,
    "regency_id": 7408,
    "district_id": 740806,
    "value": "Puurau",
    "postal_code": "93958"
  },
  {
    "id": 740806,
    "province_id": 74,
    "regency_id": 7408,
    "district_id": 740806,
    "value": "Tadaumera",
    "postal_code": "93958"
  },
  {
    "id": 740806,
    "province_id": 74,
    "regency_id": 7408,
    "district_id": 740806,
    "value": "Watumotaha",
    "postal_code": "93958"
  }
]