[
  {
    "id": 530401,
    "province_id": 53,
    "regency_id": 5304,
    "district_id": 530401,
    "value": "Dirun",
    "postal_code": "85772"
  },
  {
    "id": 530401,
    "province_id": 53,
    "regency_id": 5304,
    "district_id": 530401,
    "value": "Duarato",
    "postal_code": "85772"
  },
  {
    "id": 530401,
    "province_id": 53,
    "regency_id": 5304,
    "district_id": 530401,
    "value": "Fulur",
    "postal_code": "85772"
  },
  {
    "id": 530401,
    "province_id": 53,
    "regency_id": 5304,
    "district_id": 530401,
    "value": "Kewar",
    "postal_code": "85772"
  },
  {
    "id": 530401,
    "province_id": 53,
    "regency_id": 5304,
    "district_id": 530401,
    "value": "Lamaksenulu",
    "postal_code": "85772"
  },
  {
    "id": 530401,
    "province_id": 53,
    "regency_id": 5304,
    "district_id": 530401,
    "value": "Leowalu",
    "postal_code": "85772"
  },
  {
    "id": 530401,
    "province_id": 53,
    "regency_id": 5304,
    "district_id": 530401,
    "value": "Mahuitas",
    "postal_code": "85772"
  },
  {
    "id": 530401,
    "province_id": 53,
    "regency_id": 5304,
    "district_id": 530401,
    "value": "Makir",
    "postal_code": "85772"
  },
  {
    "id": 530401,
    "province_id": 53,
    "regency_id": 5304,
    "district_id": 530401,
    "value": "Maudemu",
    "postal_code": "85772"
  }
]