[
  {
    "id": 731407,
    "province_id": 73,
    "regency_id": 7314,
    "district_id": 731407,
    "value": "Allakuang",
    "postal_code": "91611"
  },
  {
    "id": 731407,
    "province_id": 73,
    "regency_id": 7314,
    "district_id": 731407,
    "value": "Kanie",
    "postal_code": "91611"
  },
  {
    "id": 731407,
    "province_id": 73,
    "regency_id": 7314,
    "district_id": 731407,
    "value": "Lautang Benteng",
    "postal_code": "91611"
  },
  {
    "id": 731407,
    "province_id": 73,
    "regency_id": 7314,
    "district_id": 731407,
    "value": "Lekessi (Lakessi)",
    "postal_code": "91611"
  },
  {
    "id": 731407,
    "province_id": 73,
    "regency_id": 7314,
    "district_id": 731407,
    "value": "Majjelling",
    "postal_code": "91611"
  },
  {
    "id": 731407,
    "province_id": 73,
    "regency_id": 7314,
    "district_id": 731407,
    "value": "Majjelling Watang (Majelling Watang)",
    "postal_code": "91611"
  },
  {
    "id": 731407,
    "province_id": 73,
    "regency_id": 7314,
    "district_id": 731407,
    "value": "Pangkajene",
    "postal_code": "91611"
  },
  {
    "id": 731407,
    "province_id": 73,
    "regency_id": 7314,
    "district_id": 731407,
    "value": "Rijang Pitu (Rijang Pittu)",
    "postal_code": "91611"
  },
  {
    "id": 731407,
    "province_id": 73,
    "regency_id": 7314,
    "district_id": 731407,
    "value": "Sereang",
    "postal_code": "91615"
  },
  {
    "id": 731407,
    "province_id": 73,
    "regency_id": 7314,
    "district_id": 731407,
    "value": "Tanete",
    "postal_code": "91611"
  },
  {
    "id": 731407,
    "province_id": 73,
    "regency_id": 7314,
    "district_id": 731407,
    "value": "Tekkalasi (Takkalasi)",
    "postal_code": "91611"
  },
  {
    "id": 731407,
    "province_id": 73,
    "regency_id": 7314,
    "district_id": 731407,
    "value": "Wala",
    "postal_code": "91611"
  }
]