[
  {
    "id": 710221,
    "province_id": 71,
    "regency_id": 7102,
    "district_id": 710221,
    "value": "Kiawa Dua",
    "postal_code": "95699"
  },
  {
    "id": 710221,
    "province_id": 71,
    "regency_id": 7102,
    "district_id": 710221,
    "value": "Kiawa Dua Barat",
    "postal_code": "95699"
  },
  {
    "id": 710221,
    "province_id": 71,
    "regency_id": 7102,
    "district_id": 710221,
    "value": "Kiawa Dua Timur",
    "postal_code": "95699"
  },
  {
    "id": 710221,
    "province_id": 71,
    "regency_id": 7102,
    "district_id": 710221,
    "value": "Kiawa Satu",
    "postal_code": "95699"
  },
  {
    "id": 710221,
    "province_id": 71,
    "regency_id": 7102,
    "district_id": 710221,
    "value": "Kiawa Satu Barat",
    "postal_code": "95699"
  },
  {
    "id": 710221,
    "province_id": 71,
    "regency_id": 7102,
    "district_id": 710221,
    "value": "Kiawa Satu Utara",
    "postal_code": "95699"
  },
  {
    "id": 710221,
    "province_id": 71,
    "regency_id": 7102,
    "district_id": 710221,
    "value": "Talikuran",
    "postal_code": "95699"
  },
  {
    "id": 710221,
    "province_id": 71,
    "regency_id": 7102,
    "district_id": 710221,
    "value": "Talikuran Barat",
    "postal_code": "95699"
  },
  {
    "id": 710221,
    "province_id": 71,
    "regency_id": 7102,
    "district_id": 710221,
    "value": "Talikuran Utara",
    "postal_code": "95699"
  },
  {
    "id": 710221,
    "province_id": 71,
    "regency_id": 7102,
    "district_id": 710221,
    "value": "Uner",
    "postal_code": "95699"
  }
]