[
  {
    "id": 950420,
    "province_id": 95,
    "regency_id": 9504,
    "district_id": 950420,
    "value": "Aworera",
    "postal_code": "99055"
  },
  {
    "id": 950420,
    "province_id": 95,
    "regency_id": 9504,
    "district_id": 950420,
    "value": "Enggawogo",
    "postal_code": "99055"
  },
  {
    "id": 950420,
    "province_id": 95,
    "regency_id": 9504,
    "district_id": 950420,
    "value": "Gingga",
    "postal_code": "99055"
  },
  {
    "id": 950420,
    "province_id": 95,
    "regency_id": 9504,
    "district_id": 950420,
    "value": "Gubuk",
    "postal_code": "99055"
  },
  {
    "id": 950420,
    "province_id": 95,
    "regency_id": 9504,
    "district_id": 950420,
    "value": "Gumbini",
    "postal_code": "99055"
  },
  {
    "id": 950420,
    "province_id": 95,
    "regency_id": 9504,
    "district_id": 950420,
    "value": "Kalarin",
    "postal_code": "99055"
  },
  {
    "id": 950420,
    "province_id": 95,
    "regency_id": 9504,
    "district_id": 950420,
    "value": "Kurik",
    "postal_code": "99055"
  },
  {
    "id": 950420,
    "province_id": 95,
    "regency_id": 9504,
    "district_id": 950420,
    "value": "Muruneri",
    "postal_code": "99055"
  },
  {
    "id": 950420,
    "province_id": 95,
    "regency_id": 9504,
    "district_id": 950420,
    "value": "Nangga",
    "postal_code": "99055"
  },
  {
    "id": 950420,
    "province_id": 95,
    "regency_id": 9504,
    "district_id": 950420,
    "value": "Oker",
    "postal_code": "99055"
  },
  {
    "id": 950420,
    "province_id": 95,
    "regency_id": 9504,
    "district_id": 950420,
    "value": "Punggelak",
    "postal_code": "99055"
  },
  {
    "id": 950420,
    "province_id": 95,
    "regency_id": 9504,
    "district_id": 950420,
    "value": "Umar",
    "postal_code": "99055"
  },
  {
    "id": 950420,
    "province_id": 95,
    "regency_id": 9504,
    "district_id": 950420,
    "value": "Wamili",
    "postal_code": "99055"
  },
  {
    "id": 950420,
    "province_id": 95,
    "regency_id": 9504,
    "district_id": 950420,
    "value": "Wamolo",
    "postal_code": "99055"
  },
  {
    "id": 950420,
    "province_id": 95,
    "regency_id": 9504,
    "district_id": 950420,
    "value": "Winengga",
    "postal_code": "99055"
  },
  {
    "id": 950420,
    "province_id": 95,
    "regency_id": 9504,
    "district_id": 950420,
    "value": "Wobe",
    "postal_code": "99055"
  },
  {
    "id": 950420,
    "province_id": 95,
    "regency_id": 9504,
    "district_id": 950420,
    "value": "Woraga",
    "postal_code": "99055"
  }
]