[
  {
    "id": 110512,
    "province_id": 11,
    "regency_id": 1105,
    "district_id": 110512,
    "value": "Antong",
    "postal_code": "23684"
  },
  {
    "id": 110512,
    "province_id": 11,
    "regency_id": 1105,
    "district_id": 110512,
    "value": "Babah Krueng Manggie",
    "postal_code": "23684"
  },
  {
    "id": 110512,
    "province_id": 11,
    "regency_id": 1105,
    "district_id": 110512,
    "value": "Baro Paya",
    "postal_code": "23684"
  },
  {
    "id": 110512,
    "province_id": 11,
    "regency_id": 1105,
    "district_id": 110512,
    "value": "Blang Balee",
    "postal_code": "23684"
  },
  {
    "id": 110512,
    "province_id": 11,
    "regency_id": 1105,
    "district_id": 110512,
    "value": "Blang Teungoh",
    "postal_code": "23684"
  },
  {
    "id": 110512,
    "province_id": 11,
    "regency_id": 1105,
    "district_id": 110512,
    "value": "Cot Manggie",
    "postal_code": "23684"
  },
  {
    "id": 110512,
    "province_id": 11,
    "regency_id": 1105,
    "district_id": 110512,
    "value": "Gampong Baro",
    "postal_code": "23684"
  },
  {
    "id": 110512,
    "province_id": 11,
    "regency_id": 1105,
    "district_id": 110512,
    "value": "Gunong Mata Ie (Gunung Mata Ie)",
    "postal_code": "23684"
  },
  {
    "id": 110512,
    "province_id": 11,
    "regency_id": 1105,
    "district_id": 110512,
    "value": "Kuala Manyeue (Kuala Manye)",
    "postal_code": "23684"
  },
  {
    "id": 110512,
    "province_id": 11,
    "regency_id": 1105,
    "district_id": 110512,
    "value": "Lek Lek",
    "postal_code": "23684"
  },
  {
    "id": 110512,
    "province_id": 11,
    "regency_id": 1105,
    "district_id": 110512,
    "value": "Manggie",
    "postal_code": "23684"
  },
  {
    "id": 110512,
    "province_id": 11,
    "regency_id": 1105,
    "district_id": 110512,
    "value": "Mentulang (Meutulang)",
    "postal_code": "23684"
  },
  {
    "id": 110512,
    "province_id": 11,
    "regency_id": 1105,
    "district_id": 110512,
    "value": "Mugo Cut",
    "postal_code": "23684"
  },
  {
    "id": 110512,
    "province_id": 11,
    "regency_id": 1105,
    "district_id": 110512,
    "value": "Mugo Rayeuk",
    "postal_code": "23684"
  },
  {
    "id": 110512,
    "province_id": 11,
    "regency_id": 1105,
    "district_id": 110512,
    "value": "Paya Baro Meuko",
    "postal_code": "23684"
  },
  {
    "id": 110512,
    "province_id": 11,
    "regency_id": 1105,
    "district_id": 110512,
    "value": "Sibintang",
    "postal_code": "23684"
  },
  {
    "id": 110512,
    "province_id": 11,
    "regency_id": 1105,
    "district_id": 110512,
    "value": "Tamping",
    "postal_code": "23684"
  },
  {
    "id": 110512,
    "province_id": 11,
    "regency_id": 1105,
    "district_id": 110512,
    "value": "Tuwi Buya",
    "postal_code": "23684"
  },
  {
    "id": 110512,
    "province_id": 11,
    "regency_id": 1105,
    "district_id": 110512,
    "value": "Ujong Raja",
    "postal_code": "23684"
  }
]