[
  {
    "id": 3527012010,
    "province_id": 35,
    "regency_id": 3527,
    "district_id": 352701,
    "value": "Bangsah",
    "postal_code": "69273"
  },
  {
    "id": 3527012009,
    "province_id": 35,
    "regency_id": 3527,
    "district_id": 352701,
    "value": "Bundah",
    "postal_code": "69273"
  },
  {
    "id": 3527012005,
    "province_id": 35,
    "regency_id": 3527,
    "district_id": 352701,
    "value": "Disanah",
    "postal_code": "69273"
  },
  {
    "id": 3527012012,
    "province_id": 35,
    "regency_id": 3527,
    "district_id": 352701,
    "value": "Junuk (Junok)",
    "postal_code": "69273"
  },
  {
    "id": 3527012007,
    "province_id": 35,
    "regency_id": 3527,
    "district_id": 352701,
    "value": "Klobur",
    "postal_code": "69273"
  },
  {
    "id": 3527012008,
    "province_id": 35,
    "regency_id": 3527,
    "district_id": 352701,
    "value": "Labang",
    "postal_code": "69273"
  },
  {
    "id": 3527012002,
    "province_id": 35,
    "regency_id": 3527,
    "district_id": 352701,
    "value": "Labuhan",
    "postal_code": "69273"
  },
  {
    "id": 3527012006,
    "province_id": 35,
    "regency_id": 3527,
    "district_id": 352701,
    "value": "Marparan",
    "postal_code": "69273"
  },
  {
    "id": 3527012001,
    "province_id": 35,
    "regency_id": 3527,
    "district_id": 352701,
    "value": "Noreh",
    "postal_code": "69273"
  },
  {
    "id": 3527012011,
    "province_id": 35,
    "regency_id": 3527,
    "district_id": 352701,
    "value": "Plasah",
    "postal_code": "69273"
  },
  {
    "id": 3527012004,
    "province_id": 35,
    "regency_id": 3527,
    "district_id": 352701,
    "value": "Sreseh",
    "postal_code": "69273"
  },
  {
    "id": 3527012003,
    "province_id": 35,
    "regency_id": 3527,
    "district_id": 352701,
    "value": "Taman",
    "postal_code": "69273"
  }
]