[
  {
    "id": 9504212005,
    "province_id": 95,
    "regency_id": 9504,
    "district_id": 950421,
    "value": "Baliminggi",
    "postal_code": "99033"
  },
  {
    "id": 9504212013,
    "province_id": 95,
    "regency_id": 9504,
    "district_id": 950421,
    "value": "Guniki",
    "postal_code": "99033"
  },
  {
    "id": 9504212015,
    "province_id": 95,
    "regency_id": 9504,
    "district_id": 950421,
    "value": "Jinuwanu",
    "postal_code": "99033"
  },
  {
    "id": 9504212014,
    "province_id": 95,
    "regency_id": 9504,
    "district_id": 950421,
    "value": "Keragigelok",
    "postal_code": "99033"
  },
  {
    "id": 9504212006,
    "province_id": 95,
    "regency_id": 9504,
    "district_id": 950421,
    "value": "Kuma",
    "postal_code": "99033"
  },
  {
    "id": 9504212001,
    "province_id": 95,
    "regency_id": 9504,
    "district_id": 950421,
    "value": "Numba",
    "postal_code": "99033"
  },
  {
    "id": 9504212012,
    "province_id": 95,
    "regency_id": 9504,
    "district_id": 950421,
    "value": "Tingwineri",
    "postal_code": "99033"
  },
  {
    "id": 9504212009,
    "province_id": 95,
    "regency_id": 9504,
    "district_id": 950421,
    "value": "Yalogo",
    "postal_code": "99033"
  },
  {
    "id": 9504212011,
    "province_id": 95,
    "regency_id": 9504,
    "district_id": 950421,
    "value": "Yiragame",
    "postal_code": "99033"
  },
  {
    "id": 9504212007,
    "province_id": 95,
    "regency_id": 9504,
    "district_id": 950421,
    "value": "Yugumena",
    "postal_code": "99033"
  }
]