[
  {
    "id": 331022,
    "province_id": 33,
    "regency_id": 3310,
    "district_id": 331022,
    "value": "Candirejo (Candi Rejo)",
    "postal_code": "57466"
  },
  {
    "id": 331022,
    "province_id": 33,
    "regency_id": 3310,
    "district_id": 331022,
    "value": "Drono",
    "postal_code": "57466"
  },
  {
    "id": 331022,
    "province_id": 33,
    "regency_id": 3310,
    "district_id": 331022,
    "value": "Duwet",
    "postal_code": "57466"
  },
  {
    "id": 331022,
    "province_id": 33,
    "regency_id": 3310,
    "district_id": 331022,
    "value": "Gatak",
    "postal_code": "57466"
  },
  {
    "id": 331022,
    "province_id": 33,
    "regency_id": 3310,
    "district_id": 331022,
    "value": "Kahuman",
    "postal_code": "57466"
  },
  {
    "id": 331022,
    "province_id": 33,
    "regency_id": 3310,
    "district_id": 331022,
    "value": "Kwaren",
    "postal_code": "57466"
  },
  {
    "id": 331022,
    "province_id": 33,
    "regency_id": 3310,
    "district_id": 331022,
    "value": "Manjung",
    "postal_code": "57466"
  },
  {
    "id": 331022,
    "province_id": 33,
    "regency_id": 3310,
    "district_id": 331022,
    "value": "Manjungan",
    "postal_code": "57466"
  },
  {
    "id": 331022,
    "province_id": 33,
    "regency_id": 3310,
    "district_id": 331022,
    "value": "Mayungan",
    "postal_code": "57466"
  },
  {
    "id": 331022,
    "province_id": 33,
    "regency_id": 3310,
    "district_id": 331022,
    "value": "Ngawen",
    "postal_code": "57466"
  },
  {
    "id": 331022,
    "province_id": 33,
    "regency_id": 3310,
    "district_id": 331022,
    "value": "Pepe",
    "postal_code": "57466"
  },
  {
    "id": 331022,
    "province_id": 33,
    "regency_id": 3310,
    "district_id": 331022,
    "value": "Senden",
    "postal_code": "57466"
  },
  {
    "id": 331022,
    "province_id": 33,
    "regency_id": 3310,
    "district_id": 331022,
    "value": "Tempursari",
    "postal_code": "57466"
  }
]