[
  {
    "id": 5307092004,
    "province_id": 53,
    "regency_id": 5307,
    "district_id": 530709,
    "value": "Aibura",
    "postal_code": "86185"
  },
  {
    "id": 5307092002,
    "province_id": 53,
    "regency_id": 5307,
    "district_id": 530709,
    "value": "Egon",
    "postal_code": "86185"
  },
  {
    "id": 5307092011,
    "province_id": 53,
    "regency_id": 5307,
    "district_id": 530709,
    "value": "Egon Buluk",
    "postal_code": "86185"
  },
  {
    "id": 5307092006,
    "province_id": 53,
    "regency_id": 5307,
    "district_id": 530709,
    "value": "Hoder",
    "postal_code": "86185"
  },
  {
    "id": 5307092010,
    "province_id": 53,
    "regency_id": 5307,
    "district_id": 530709,
    "value": "Mahe Kelan",
    "postal_code": "86185"
  },
  {
    "id": 5307092008,
    "province_id": 53,
    "regency_id": 5307,
    "district_id": 530709,
    "value": "Nangatobong",
    "postal_code": "86185"
  },
  {
    "id": 5307092003,
    "province_id": 53,
    "regency_id": 5307,
    "district_id": 530709,
    "value": "Pogon",
    "postal_code": "86185"
  },
  {
    "id": 5307092001,
    "province_id": 53,
    "regency_id": 5307,
    "district_id": 530709,
    "value": "Runut",
    "postal_code": "86185"
  },
  {
    "id": 5307092005,
    "province_id": 53,
    "regency_id": 5307,
    "district_id": 530709,
    "value": "Wairbleler",
    "postal_code": "86185"
  },
  {
    "id": 5307092007,
    "province_id": 53,
    "regency_id": 5307,
    "district_id": 530709,
    "value": "Wairterang",
    "postal_code": "86185"
  },
  {
    "id": 5307092009,
    "province_id": 53,
    "regency_id": 5307,
    "district_id": 530709,
    "value": "Watudiran",
    "postal_code": "86185"
  }
]