[
  {
    "id": 510803,
    "province_id": 51,
    "regency_id": 5108,
    "district_id": 510803,
    "value": "Bengkel",
    "postal_code": "81154"
  },
  {
    "id": 510803,
    "province_id": 51,
    "regency_id": 5108,
    "district_id": 510803,
    "value": "Bongancina",
    "postal_code": "81154"
  },
  {
    "id": 510803,
    "province_id": 51,
    "regency_id": 5108,
    "district_id": 510803,
    "value": "Busungbiu",
    "postal_code": "81154"
  },
  {
    "id": 510803,
    "province_id": 51,
    "regency_id": 5108,
    "district_id": 510803,
    "value": "Kedia (Kedis)",
    "postal_code": "81154"
  },
  {
    "id": 510803,
    "province_id": 51,
    "regency_id": 5108,
    "district_id": 510803,
    "value": "Kekeran",
    "postal_code": "81154"
  },
  {
    "id": 510803,
    "province_id": 51,
    "regency_id": 5108,
    "district_id": 510803,
    "value": "Pelapuan",
    "postal_code": "81154"
  },
  {
    "id": 510803,
    "province_id": 51,
    "regency_id": 5108,
    "district_id": 510803,
    "value": "Pucaksari",
    "postal_code": "81154"
  },
  {
    "id": 510803,
    "province_id": 51,
    "regency_id": 5108,
    "district_id": 510803,
    "value": "Sepang",
    "postal_code": "81154"
  },
  {
    "id": 510803,
    "province_id": 51,
    "regency_id": 5108,
    "district_id": 510803,
    "value": "Sepang Kelod",
    "postal_code": "81154"
  },
  {
    "id": 510803,
    "province_id": 51,
    "regency_id": 5108,
    "district_id": 510803,
    "value": "Subuk",
    "postal_code": "81154"
  },
  {
    "id": 510803,
    "province_id": 51,
    "regency_id": 5108,
    "district_id": 510803,
    "value": "Telaga",
    "postal_code": "81154"
  },
  {
    "id": 510803,
    "province_id": 51,
    "regency_id": 5108,
    "district_id": 510803,
    "value": "Tinggarsari",
    "postal_code": "81154"
  },
  {
    "id": 510803,
    "province_id": 51,
    "regency_id": 5108,
    "district_id": 510803,
    "value": "Tista",
    "postal_code": "81154"
  },
  {
    "id": 510803,
    "province_id": 51,
    "regency_id": 5108,
    "district_id": 510803,
    "value": "Titab",
    "postal_code": "81154"
  },
  {
    "id": 510803,
    "province_id": 51,
    "regency_id": 5108,
    "district_id": 510803,
    "value": "Umejero",
    "postal_code": "81154"
  }
]