[
  {
    "id": 170905,
    "province_id": 17,
    "regency_id": 1709,
    "district_id": 170905,
    "value": "Arga Indah I",
    "postal_code": "38381"
  },
  {
    "id": 170905,
    "province_id": 17,
    "regency_id": 1709,
    "district_id": 170905,
    "value": "Datar Penokot / Penokat",
    "postal_code": "38381"
  },
  {
    "id": 170905,
    "province_id": 17,
    "regency_id": 1709,
    "district_id": 170905,
    "value": "Karang Are",
    "postal_code": "38381"
  },
  {
    "id": 170905,
    "province_id": 17,
    "regency_id": 1709,
    "district_id": 170905,
    "value": "Keroya",
    "postal_code": "38381"
  },
  {
    "id": 170905,
    "province_id": 17,
    "regency_id": 1709,
    "district_id": 170905,
    "value": "Kerta Pati",
    "postal_code": "38381"
  },
  {
    "id": 170905,
    "province_id": 17,
    "regency_id": 1709,
    "district_id": 170905,
    "value": "Kerta Pati Mudik",
    "postal_code": "38381"
  },
  {
    "id": 170905,
    "province_id": 17,
    "regency_id": 1709,
    "district_id": 170905,
    "value": "Layang Lekat",
    "postal_code": "38381"
  },
  {
    "id": 170905,
    "province_id": 17,
    "regency_id": 1709,
    "district_id": 170905,
    "value": "Pagar Jati",
    "postal_code": "38381"
  },
  {
    "id": 170905,
    "province_id": 17,
    "regency_id": 1709,
    "district_id": 170905,
    "value": "Rena Jaya",
    "postal_code": "38381"
  },
  {
    "id": 170905,
    "province_id": 17,
    "regency_id": 1709,
    "district_id": 170905,
    "value": "Rena Kandis",
    "postal_code": "38381"
  },
  {
    "id": 170905,
    "province_id": 17,
    "regency_id": 1709,
    "district_id": 170905,
    "value": "Taba Renah / Rena",
    "postal_code": "38381"
  },
  {
    "id": 170905,
    "province_id": 17,
    "regency_id": 1709,
    "district_id": 170905,
    "value": "Talang Curup",
    "postal_code": "38381"
  },
  {
    "id": 170905,
    "province_id": 17,
    "regency_id": 1709,
    "district_id": 170905,
    "value": "Temiang",
    "postal_code": "38381"
  },
  {
    "id": 170905,
    "province_id": 17,
    "regency_id": 1709,
    "district_id": 170905,
    "value": "Tumbuk",
    "postal_code": "38381"
  }
]