[
  {
    "id": 950802,
    "province_id": 95,
    "regency_id": 9508,
    "district_id": 950802,
    "value": "Duma",
    "postal_code": "99909"
  },
  {
    "id": 950802,
    "province_id": 95,
    "regency_id": 9508,
    "district_id": 950802,
    "value": "Dumdum",
    "postal_code": "99909"
  },
  {
    "id": 950802,
    "province_id": 95,
    "regency_id": 9508,
    "district_id": 950802,
    "value": "Endumu",
    "postal_code": "99909"
  },
  {
    "id": 950802,
    "province_id": 95,
    "regency_id": 9508,
    "district_id": 950802,
    "value": "Kelapa Dua",
    "postal_code": "99909"
  },
  {
    "id": 950802,
    "province_id": 95,
    "regency_id": 9508,
    "district_id": 950802,
    "value": "Litkui",
    "postal_code": "99909"
  },
  {
    "id": 950802,
    "province_id": 95,
    "regency_id": 9508,
    "district_id": 950802,
    "value": "Lunggadumu",
    "postal_code": "99909"
  },
  {
    "id": 950802,
    "province_id": 95,
    "regency_id": 9508,
    "district_id": 950802,
    "value": "Mapenduma",
    "postal_code": "99909"
  },
  {
    "id": 950802,
    "province_id": 95,
    "regency_id": 9508,
    "district_id": 950802,
    "value": "Nowomlusu",
    "postal_code": "99909"
  },
  {
    "id": 950802,
    "province_id": 95,
    "regency_id": 9508,
    "district_id": 950802,
    "value": "Palsam",
    "postal_code": "99909"
  },
  {
    "id": 950802,
    "province_id": 95,
    "regency_id": 9508,
    "district_id": 950802,
    "value": "Yoe",
    "postal_code": "99909"
  }
]