[
  {
    "id": 332505,
    "province_id": 33,
    "regency_id": 3325,
    "district_id": 332505,
    "value": "Bawang",
    "postal_code": "51274"
  },
  {
    "id": 332505,
    "province_id": 33,
    "regency_id": 3325,
    "district_id": 332505,
    "value": "Candigugur",
    "postal_code": "51274"
  },
  {
    "id": 332505,
    "province_id": 33,
    "regency_id": 3325,
    "district_id": 332505,
    "value": "Candirejo",
    "postal_code": "51274"
  },
  {
    "id": 332505,
    "province_id": 33,
    "regency_id": 3325,
    "district_id": 332505,
    "value": "Deles",
    "postal_code": "51274"
  },
  {
    "id": 332505,
    "province_id": 33,
    "regency_id": 3325,
    "district_id": 332505,
    "value": "Getas",
    "postal_code": "51274"
  },
  {
    "id": 332505,
    "province_id": 33,
    "regency_id": 3325,
    "district_id": 332505,
    "value": "Gunungsari",
    "postal_code": "51274"
  },
  {
    "id": 332505,
    "province_id": 33,
    "regency_id": 3325,
    "district_id": 332505,
    "value": "Jambangan",
    "postal_code": "51274"
  },
  {
    "id": 332505,
    "province_id": 33,
    "regency_id": 3325,
    "district_id": 332505,
    "value": "Jlamprang",
    "postal_code": "51274"
  },
  {
    "id": 332505,
    "province_id": 33,
    "regency_id": 3325,
    "district_id": 332505,
    "value": "Kalirejo",
    "postal_code": "51274"
  },
  {
    "id": 332505,
    "province_id": 33,
    "regency_id": 3325,
    "district_id": 332505,
    "value": "Kebaturan",
    "postal_code": "51274"
  },
  {
    "id": 332505,
    "province_id": 33,
    "regency_id": 3325,
    "district_id": 332505,
    "value": "Pangempon",
    "postal_code": "51274"
  },
  {
    "id": 332505,
    "province_id": 33,
    "regency_id": 3325,
    "district_id": 332505,
    "value": "Pasusukan",
    "postal_code": "51274"
  },
  {
    "id": 332505,
    "province_id": 33,
    "regency_id": 3325,
    "district_id": 332505,
    "value": "Pranten",
    "postal_code": "51274"
  },
  {
    "id": 332505,
    "province_id": 33,
    "regency_id": 3325,
    "district_id": 332505,
    "value": "Purbo",
    "postal_code": "51274"
  },
  {
    "id": 332505,
    "province_id": 33,
    "regency_id": 3325,
    "district_id": 332505,
    "value": "Sangubanyu",
    "postal_code": "51274"
  },
  {
    "id": 332505,
    "province_id": 33,
    "regency_id": 3325,
    "district_id": 332505,
    "value": "Sibebek",
    "postal_code": "51274"
  },
  {
    "id": 332505,
    "province_id": 33,
    "regency_id": 3325,
    "district_id": 332505,
    "value": "Sidoharjo",
    "postal_code": "51274"
  },
  {
    "id": 332505,
    "province_id": 33,
    "regency_id": 3325,
    "district_id": 332505,
    "value": "Soka",
    "postal_code": "51274"
  },
  {
    "id": 332505,
    "province_id": 33,
    "regency_id": 3325,
    "district_id": 332505,
    "value": "Surjo",
    "postal_code": "51274"
  },
  {
    "id": 332505,
    "province_id": 33,
    "regency_id": 3325,
    "district_id": 332505,
    "value": "Wonosari (Wono Sari)",
    "postal_code": "51274"
  }
]