[
  {
    "id": 6101072008,
    "province_id": 61,
    "regency_id": 6101,
    "district_id": 610107,
    "value": "Bentunai",
    "postal_code": "79452"
  },
  {
    "id": 6101072015,
    "province_id": 61,
    "regency_id": 6101,
    "district_id": 610107,
    "value": "Gayung Bersambut",
    "postal_code": "79452"
  },
  {
    "id": 6101072005,
    "province_id": 61,
    "regency_id": 6101,
    "district_id": 610107,
    "value": "Kuala",
    "postal_code": "79452"
  },
  {
    "id": 6101072013,
    "province_id": 61,
    "regency_id": 6101,
    "district_id": 610107,
    "value": "Pangkalan Bemban",
    "postal_code": "79452"
  },
  {
    "id": 6101072006,
    "province_id": 61,
    "regency_id": 6101,
    "district_id": 610107,
    "value": "Parit Baru",
    "postal_code": "79452"
  },
  {
    "id": 6101072014,
    "province_id": 61,
    "regency_id": 6101,
    "district_id": 610107,
    "value": "Parit Kongsi",
    "postal_code": "79452"
  },
  {
    "id": 6101072001,
    "province_id": 61,
    "regency_id": 6101,
    "district_id": 610107,
    "value": "Semelagi Besar",
    "postal_code": "79452"
  },
  {
    "id": 6101072002,
    "province_id": 61,
    "regency_id": 6101,
    "district_id": 610107,
    "value": "Sungai Daun",
    "postal_code": "79452"
  },
  {
    "id": 6101072004,
    "province_id": 61,
    "regency_id": 6101,
    "district_id": 610107,
    "value": "Sungai Nyirih",
    "postal_code": "79452"
  },
  {
    "id": 6101072003,
    "province_id": 61,
    "regency_id": 6101,
    "district_id": 610107,
    "value": "Sungai Rusa",
    "postal_code": "79452"
  },
  {
    "id": 6101072007,
    "province_id": 61,
    "regency_id": 6101,
    "district_id": 610107,
    "value": "Twi Mentibar",
    "postal_code": "79452"
  }
]