[
  {
    "id": 320313,
    "province_id": 32,
    "regency_id": 3203,
    "district_id": 320313,
    "value": "Cibadak",
    "postal_code": "43254"
  },
  {
    "id": 320313,
    "province_id": 32,
    "regency_id": 3203,
    "district_id": 320313,
    "value": "Cibanteng",
    "postal_code": "43254"
  },
  {
    "id": 320313,
    "province_id": 32,
    "regency_id": 3203,
    "district_id": 320313,
    "value": "Cikancana",
    "postal_code": "43254"
  },
  {
    "id": 320313,
    "province_id": 32,
    "regency_id": 3203,
    "district_id": 320313,
    "value": "Cikanyere",
    "postal_code": "43254"
  },
  {
    "id": 320313,
    "province_id": 32,
    "regency_id": 3203,
    "district_id": 320313,
    "value": "Ciwalen",
    "postal_code": "43254"
  },
  {
    "id": 320313,
    "province_id": 32,
    "regency_id": 3203,
    "district_id": 320313,
    "value": "Kawungluwuk",
    "postal_code": "43254"
  },
  {
    "id": 320313,
    "province_id": 32,
    "regency_id": 3203,
    "district_id": 320313,
    "value": "Kubang",
    "postal_code": "43254"
  },
  {
    "id": 320313,
    "province_id": 32,
    "regency_id": 3203,
    "district_id": 320313,
    "value": "Pakuon",
    "postal_code": "43254"
  },
  {
    "id": 320313,
    "province_id": 32,
    "regency_id": 3203,
    "district_id": 320313,
    "value": "Rawabelut",
    "postal_code": "43254"
  },
  {
    "id": 320313,
    "province_id": 32,
    "regency_id": 3203,
    "district_id": 320313,
    "value": "Sukamahi",
    "postal_code": "43254"
  },
  {
    "id": 320313,
    "province_id": 32,
    "regency_id": 3203,
    "district_id": 320313,
    "value": "Sukaresmi",
    "postal_code": "43254"
  }
]