[
  {
    "id": 510602,
    "province_id": 51,
    "regency_id": 5106,
    "district_id": 510602,
    "value": "Bebalang",
    "postal_code": "80614"
  },
  {
    "id": 510602,
    "province_id": 51,
    "regency_id": 5106,
    "district_id": 510602,
    "value": "Bunutin",
    "postal_code": "80614"
  },
  {
    "id": 510602,
    "province_id": 51,
    "regency_id": 5106,
    "district_id": 510602,
    "value": "Cempaga",
    "postal_code": "80612"
  },
  {
    "id": 510602,
    "province_id": 51,
    "regency_id": 5106,
    "district_id": 510602,
    "value": "Kawan",
    "postal_code": "80613"
  },
  {
    "id": 510602,
    "province_id": 51,
    "regency_id": 5106,
    "district_id": 510602,
    "value": "Kayubihi",
    "postal_code": "80614"
  },
  {
    "id": 510602,
    "province_id": 51,
    "regency_id": 5106,
    "district_id": 510602,
    "value": "Kubu",
    "postal_code": "80611"
  },
  {
    "id": 510602,
    "province_id": 51,
    "regency_id": 5106,
    "district_id": 510602,
    "value": "Landih",
    "postal_code": "80611"
  },
  {
    "id": 510602,
    "province_id": 51,
    "regency_id": 5106,
    "district_id": 510602,
    "value": "Pengotan",
    "postal_code": "80614"
  },
  {
    "id": 510602,
    "province_id": 51,
    "regency_id": 5106,
    "district_id": 510602,
    "value": "Tamanbali (Taman Bali)",
    "postal_code": "80614"
  }
]