[
  {
    "id": 320113,
    "province_id": 32,
    "regency_id": 3201,
    "district_id": 320113,
    "value": "Bojongbaru (Bojong Baru)",
    "postal_code": "16920"
  },
  {
    "id": 320113,
    "province_id": 32,
    "regency_id": 3201,
    "district_id": 320113,
    "value": "Bojonggede (Bojong Gede)",
    "postal_code": "16922"
  },
  {
    "id": 320113,
    "province_id": 32,
    "regency_id": 3201,
    "district_id": 320113,
    "value": "Cimanggis",
    "postal_code": "16920"
  },
  {
    "id": 320113,
    "province_id": 32,
    "regency_id": 3201,
    "district_id": 320113,
    "value": "Kedungwaringin (Kedung Waringin)",
    "postal_code": "16923"
  },
  {
    "id": 320113,
    "province_id": 32,
    "regency_id": 3201,
    "district_id": 320113,
    "value": "Pabuaran",
    "postal_code": "16921"
  },
  {
    "id": 320113,
    "province_id": 32,
    "regency_id": 3201,
    "district_id": 320113,
    "value": "Ragajaya",
    "postal_code": "16920"
  },
  {
    "id": 320113,
    "province_id": 32,
    "regency_id": 3201,
    "district_id": 320113,
    "value": "Rawapanjang (Rawa Panjang)",
    "postal_code": "16920"
  },
  {
    "id": 320113,
    "province_id": 32,
    "regency_id": 3201,
    "district_id": 320113,
    "value": "Susukan",
    "postal_code": "16920"
  },
  {
    "id": 320113,
    "province_id": 32,
    "regency_id": 3201,
    "district_id": 320113,
    "value": "Waringinjaya (Waringin Jaya)",
    "postal_code": "16920"
  }
]