[
  {
    "id": 9501272006,
    "province_id": 95,
    "regency_id": 9501,
    "district_id": 950127,
    "value": "Gume Kupari",
    "postal_code": "99546"
  },
  {
    "id": 9501272004,
    "province_id": 95,
    "regency_id": 9501,
    "district_id": 950127,
    "value": "Lakwame",
    "postal_code": "99546"
  },
  {
    "id": 9501272009,
    "province_id": 95,
    "regency_id": 9501,
    "district_id": 950127,
    "value": "Lapeyo",
    "postal_code": "99546"
  },
  {
    "id": 9501272008,
    "province_id": 95,
    "regency_id": 9501,
    "district_id": 950127,
    "value": "Mulugame",
    "postal_code": "99546"
  },
  {
    "id": 9501272003,
    "province_id": 95,
    "regency_id": 9501,
    "district_id": 950127,
    "value": "Onggobalo",
    "postal_code": "99546"
  },
  {
    "id": 9501272002,
    "province_id": 95,
    "regency_id": 9501,
    "district_id": 950127,
    "value": "Porome",
    "postal_code": "99546"
  },
  {
    "id": 9501272001,
    "province_id": 95,
    "regency_id": 9501,
    "district_id": 950127,
    "value": "Tagime",
    "postal_code": "99546"
  },
  {
    "id": 9501272007,
    "province_id": 95,
    "regency_id": 9501,
    "district_id": 950127,
    "value": "Wandinggunie",
    "postal_code": "99546"
  },
  {
    "id": 9501272010,
    "province_id": 95,
    "regency_id": 9501,
    "district_id": 950127,
    "value": "Yanggapura",
    "postal_code": "99546"
  },
  {
    "id": 9501272011,
    "province_id": 95,
    "regency_id": 9501,
    "district_id": 950127,
    "value": "Yogobur",
    "postal_code": "99546"
  },
  {
    "id": 9501272005,
    "province_id": 95,
    "regency_id": 9501,
    "district_id": 950127,
    "value": "Yordania Tulak",
    "postal_code": "99546"
  }
]