[
  {
    "id": 531512,
    "province_id": 53,
    "regency_id": 5315,
    "district_id": 531512,
    "value": "Compang Kules",
    "postal_code": "86751"
  },
  {
    "id": 531512,
    "province_id": 53,
    "regency_id": 5315,
    "district_id": 531512,
    "value": "Golo Lewe",
    "postal_code": "86751"
  },
  {
    "id": 531512,
    "province_id": 53,
    "regency_id": 5315,
    "district_id": 531512,
    "value": "Golo Riwu",
    "postal_code": "86751"
  },
  {
    "id": 531512,
    "province_id": 53,
    "regency_id": 5315,
    "district_id": 531512,
    "value": "Golo Wedong",
    "postal_code": "86751"
  },
  {
    "id": 531512,
    "province_id": 53,
    "regency_id": 5315,
    "district_id": 531512,
    "value": "Kolang",
    "postal_code": "86751"
  },
  {
    "id": 531512,
    "province_id": 53,
    "regency_id": 5315,
    "district_id": 531512,
    "value": "Ranggu",
    "postal_code": "86751"
  },
  {
    "id": 531512,
    "province_id": 53,
    "regency_id": 5315,
    "district_id": 531512,
    "value": "Sompang Kolang",
    "postal_code": "86751"
  },
  {
    "id": 531512,
    "province_id": 53,
    "regency_id": 5315,
    "district_id": 531512,
    "value": "Tengku",
    "postal_code": "86751"
  },
  {
    "id": 531512,
    "province_id": 53,
    "regency_id": 5315,
    "district_id": 531512,
    "value": "Tueng",
    "postal_code": "86751"
  },
  {
    "id": 531512,
    "province_id": 53,
    "regency_id": 5315,
    "district_id": 531512,
    "value": "Wajur",
    "postal_code": "86751"
  }
]