[
  {
    "id": 741506,
    "province_id": 74,
    "regency_id": 7415,
    "district_id": 741506,
    "value": "Batuawu",
    "postal_code": "93743"
  },
  {
    "id": 741506,
    "province_id": 74,
    "regency_id": 7415,
    "district_id": 741506,
    "value": "Biwinapada",
    "postal_code": "93743"
  },
  {
    "id": 741506,
    "province_id": 74,
    "regency_id": 7415,
    "district_id": 741506,
    "value": "Kaimbulawa",
    "postal_code": "93743"
  },
  {
    "id": 741506,
    "province_id": 74,
    "regency_id": 7415,
    "district_id": 741506,
    "value": "Karae",
    "postal_code": "93743"
  },
  {
    "id": 741506,
    "province_id": 74,
    "regency_id": 7415,
    "district_id": 741506,
    "value": "Lapara",
    "postal_code": "93743"
  },
  {
    "id": 741506,
    "province_id": 74,
    "regency_id": 7415,
    "district_id": 741506,
    "value": "Lontoi",
    "postal_code": "93743"
  },
  {
    "id": 741506,
    "province_id": 74,
    "regency_id": 7415,
    "district_id": 741506,
    "value": "Nggulanggula",
    "postal_code": "93743"
  },
  {
    "id": 741506,
    "province_id": 74,
    "regency_id": 7415,
    "district_id": 741506,
    "value": "Tongali",
    "postal_code": "93743"
  },
  {
    "id": 741506,
    "province_id": 74,
    "regency_id": 7415,
    "district_id": 741506,
    "value": "Waindawula",
    "postal_code": "93743"
  },
  {
    "id": 741506,
    "province_id": 74,
    "regency_id": 7415,
    "district_id": 741506,
    "value": "Wakinamboro",
    "postal_code": "93743"
  }
]