[
  {
    "id": 530317,
    "province_id": 53,
    "regency_id": 5303,
    "district_id": 530317,
    "value": "Baas",
    "postal_code": "85653"
  },
  {
    "id": 530317,
    "province_id": 53,
    "regency_id": 5303,
    "district_id": 530317,
    "value": "Banain A",
    "postal_code": "85653"
  },
  {
    "id": 530317,
    "province_id": 53,
    "regency_id": 5303,
    "district_id": 530317,
    "value": "Banain B",
    "postal_code": "85653"
  },
  {
    "id": 530317,
    "province_id": 53,
    "regency_id": 5303,
    "district_id": 530317,
    "value": "Banain C",
    "postal_code": "85653"
  },
  {
    "id": 530317,
    "province_id": 53,
    "regency_id": 5303,
    "district_id": 530317,
    "value": "Faenake (Faennake)",
    "postal_code": "85653"
  },
  {
    "id": 530317,
    "province_id": 53,
    "regency_id": 5303,
    "district_id": 530317,
    "value": "Haumeni",
    "postal_code": "85653"
  },
  {
    "id": 530317,
    "province_id": 53,
    "regency_id": 5303,
    "district_id": 530317,
    "value": "Napan",
    "postal_code": "85653"
  },
  {
    "id": 530317,
    "province_id": 53,
    "regency_id": 5303,
    "district_id": 530317,
    "value": "Sainoni",
    "postal_code": "85653"
  },
  {
    "id": 530317,
    "province_id": 53,
    "regency_id": 5303,
    "district_id": 530317,
    "value": "Tes",
    "postal_code": "85653"
  }
]