[
  {
    "id": 530418,
    "province_id": 53,
    "regency_id": 5304,
    "district_id": 530418,
    "value": "Debululik",
    "postal_code": "85770"
  },
  {
    "id": 530418,
    "province_id": 53,
    "regency_id": 5304,
    "district_id": 530418,
    "value": "Ekin",
    "postal_code": "85770"
  },
  {
    "id": 530418,
    "province_id": 53,
    "regency_id": 5304,
    "district_id": 530418,
    "value": "Henes",
    "postal_code": "85770"
  },
  {
    "id": 530418,
    "province_id": 53,
    "regency_id": 5304,
    "district_id": 530418,
    "value": "Lakmaras",
    "postal_code": "85770"
  },
  {
    "id": 530418,
    "province_id": 53,
    "regency_id": 5304,
    "district_id": 530418,
    "value": "Loonuna",
    "postal_code": "85770"
  },
  {
    "id": 530418,
    "province_id": 53,
    "regency_id": 5304,
    "district_id": 530418,
    "value": "Lutha Rato (Lutarato)",
    "postal_code": "85770"
  },
  {
    "id": 530418,
    "province_id": 53,
    "regency_id": 5304,
    "district_id": 530418,
    "value": "Nualain",
    "postal_code": "85770"
  },
  {
    "id": 530418,
    "province_id": 53,
    "regency_id": 5304,
    "district_id": 530418,
    "value": "Sisi Fatuberal",
    "postal_code": "85770"
  }
]