[
  {
    "id": 510708,
    "province_id": 51,
    "regency_id": 5107,
    "district_id": 510708,
    "value": "Ban",
    "postal_code": "80853"
  },
  {
    "id": 510708,
    "province_id": 51,
    "regency_id": 5107,
    "district_id": 510708,
    "value": "Baturinggit (Batu Ringgit)",
    "postal_code": "80853"
  },
  {
    "id": 510708,
    "province_id": 51,
    "regency_id": 5107,
    "district_id": 510708,
    "value": "Dukuh",
    "postal_code": "80853"
  },
  {
    "id": 510708,
    "province_id": 51,
    "regency_id": 5107,
    "district_id": 510708,
    "value": "Kubu",
    "postal_code": "80853"
  },
  {
    "id": 510708,
    "province_id": 51,
    "regency_id": 5107,
    "district_id": 510708,
    "value": "Sukadana",
    "postal_code": "80853"
  },
  {
    "id": 510708,
    "province_id": 51,
    "regency_id": 5107,
    "district_id": 510708,
    "value": "Tianyar (Tianyar Timur)",
    "postal_code": "80853"
  },
  {
    "id": 510708,
    "province_id": 51,
    "regency_id": 5107,
    "district_id": 510708,
    "value": "Tianyar Barat",
    "postal_code": "80853"
  },
  {
    "id": 510708,
    "province_id": 51,
    "regency_id": 5107,
    "district_id": 510708,
    "value": "Tianyar Tengah",
    "postal_code": "80853"
  },
  {
    "id": 510708,
    "province_id": 51,
    "regency_id": 5107,
    "district_id": 510708,
    "value": "Tulamben",
    "postal_code": "80853"
  }
]