[
  {
    "id": 327312,
    "province_id": 32,
    "regency_id": 3273,
    "district_id": 327312,
    "value": "Binong",
    "postal_code": "40275"
  },
  {
    "id": 327312,
    "province_id": 32,
    "regency_id": 3273,
    "district_id": 327312,
    "value": "Cibangkong",
    "postal_code": "40273"
  },
  {
    "id": 327312,
    "province_id": 32,
    "regency_id": 3273,
    "district_id": 327312,
    "value": "Gumuruh",
    "postal_code": "40275"
  },
  {
    "id": 327312,
    "province_id": 32,
    "regency_id": 3273,
    "district_id": 327312,
    "value": "Kacapiring",
    "postal_code": "40271"
  },
  {
    "id": 327312,
    "province_id": 32,
    "regency_id": 3273,
    "district_id": 327312,
    "value": "Kebongedang (Kebon Gedang)",
    "postal_code": "40274"
  },
  {
    "id": 327312,
    "province_id": 32,
    "regency_id": 3273,
    "district_id": 327312,
    "value": "Kebonwaru",
    "postal_code": "40272"
  },
  {
    "id": 327312,
    "province_id": 32,
    "regency_id": 3273,
    "district_id": 327312,
    "value": "Maleer",
    "postal_code": "40274"
  },
  {
    "id": 327312,
    "province_id": 32,
    "regency_id": 3273,
    "district_id": 327312,
    "value": "Samoja",
    "postal_code": "40273"
  }
]