[
  {
    "id": 730504,
    "province_id": 73,
    "regency_id": 7305,
    "district_id": 730504,
    "value": "Lassang",
    "postal_code": "92221"
  },
  {
    "id": 730504,
    "province_id": 73,
    "regency_id": 7305,
    "district_id": 730504,
    "value": "Lassang Barat",
    "postal_code": "92221"
  },
  {
    "id": 730504,
    "province_id": 73,
    "regency_id": 7305,
    "district_id": 730504,
    "value": "Malewang",
    "postal_code": "92221"
  },
  {
    "id": 730504,
    "province_id": 73,
    "regency_id": 7305,
    "district_id": 730504,
    "value": "Manongkoki",
    "postal_code": "92221"
  },
  {
    "id": 730504,
    "province_id": 73,
    "regency_id": 7305,
    "district_id": 730504,
    "value": "Mattompodale (Mattompodalle)",
    "postal_code": "92221"
  },
  {
    "id": 730504,
    "province_id": 73,
    "regency_id": 7305,
    "district_id": 730504,
    "value": "Pa'rappunganta (Pa Rappunganta)",
    "postal_code": "92221"
  },
  {
    "id": 730504,
    "province_id": 73,
    "regency_id": 7305,
    "district_id": 730504,
    "value": "Palleko",
    "postal_code": "92221"
  },
  {
    "id": 730504,
    "province_id": 73,
    "regency_id": 7305,
    "district_id": 730504,
    "value": "Panrannuangku",
    "postal_code": "92221"
  },
  {
    "id": 730504,
    "province_id": 73,
    "regency_id": 7305,
    "district_id": 730504,
    "value": "Parang Luara",
    "postal_code": "92221"
  },
  {
    "id": 730504,
    "province_id": 73,
    "regency_id": 7305,
    "district_id": 730504,
    "value": "Towata",
    "postal_code": "92221"
  }
]