[
  {
    "id": 1271071004,
    "province_id": 12,
    "regency_id": 1271,
    "district_id": 127107,
    "value": "Kemenangan Tani",
    "postal_code": "20136"
  },
  {
    "id": 1271071007,
    "province_id": 12,
    "regency_id": 1271,
    "district_id": 127107,
    "value": "Ladang Bambu",
    "postal_code": "20138"
  },
  {
    "id": 1271071005,
    "province_id": 12,
    "regency_id": 1271,
    "district_id": 127107,
    "value": "Laucih (Lau Cih)",
    "postal_code": "20136"
  },
  {
    "id": 1271071009,
    "province_id": 12,
    "regency_id": 1271,
    "district_id": 127107,
    "value": "Mangga",
    "postal_code": "20141"
  },
  {
    "id": 1271071003,
    "province_id": 12,
    "regency_id": 1271,
    "district_id": 127107,
    "value": "Namo Gajah (Namu Gajah)",
    "postal_code": "20136"
  },
  {
    "id": 1271071006,
    "province_id": 12,
    "regency_id": 1271,
    "district_id": 127107,
    "value": "Sidomulyo",
    "postal_code": "20137"
  },
  {
    "id": 1271071008,
    "province_id": 12,
    "regency_id": 1271,
    "district_id": 127107,
    "value": "Simalingkar B",
    "postal_code": "20135"
  },
  {
    "id": 1271071002,
    "province_id": 12,
    "regency_id": 1271,
    "district_id": 127107,
    "value": "Simpang Selayang",
    "postal_code": "20135"
  },
  {
    "id": 1271071001,
    "province_id": 12,
    "regency_id": 1271,
    "district_id": 127107,
    "value": "Tanjung Selamat",
    "postal_code": "20134"
  }
]