[
  {
    "id": 710703,
    "province_id": 71,
    "regency_id": 7107,
    "district_id": 710703,
    "value": "Belang",
    "postal_code": "95992"
  },
  {
    "id": 710703,
    "province_id": 71,
    "regency_id": 7107,
    "district_id": 710703,
    "value": "Beringin (Beringing)",
    "postal_code": "95992"
  },
  {
    "id": 710703,
    "province_id": 71,
    "regency_id": 7107,
    "district_id": 710703,
    "value": "Borgo",
    "postal_code": "95992"
  },
  {
    "id": 710703,
    "province_id": 71,
    "regency_id": 7107,
    "district_id": 710703,
    "value": "Borgo Satu",
    "postal_code": "95992"
  },
  {
    "id": 710703,
    "province_id": 71,
    "regency_id": 7107,
    "district_id": 710703,
    "value": "Buku",
    "postal_code": "95992"
  },
  {
    "id": 710703,
    "province_id": 71,
    "regency_id": 7107,
    "district_id": 710703,
    "value": "Buku Selatan",
    "postal_code": "95992"
  },
  {
    "id": 710703,
    "province_id": 71,
    "regency_id": 7107,
    "district_id": 710703,
    "value": "Buku Tengah",
    "postal_code": "95992"
  },
  {
    "id": 710703,
    "province_id": 71,
    "regency_id": 7107,
    "district_id": 710703,
    "value": "Buku Tenggara",
    "postal_code": "95992"
  },
  {
    "id": 710703,
    "province_id": 71,
    "regency_id": 7107,
    "district_id": 710703,
    "value": "Buku Utara",
    "postal_code": "95992"
  },
  {
    "id": 710703,
    "province_id": 71,
    "regency_id": 7107,
    "district_id": 710703,
    "value": "Mangkit",
    "postal_code": "95992"
  },
  {
    "id": 710703,
    "province_id": 71,
    "regency_id": 7107,
    "district_id": 710703,
    "value": "Molompar",
    "postal_code": "95992"
  },
  {
    "id": 710703,
    "province_id": 71,
    "regency_id": 7107,
    "district_id": 710703,
    "value": "Molompar Timur",
    "postal_code": "95992"
  },
  {
    "id": 710703,
    "province_id": 71,
    "regency_id": 7107,
    "district_id": 710703,
    "value": "Molompar Utara",
    "postal_code": "95992"
  },
  {
    "id": 710703,
    "province_id": 71,
    "regency_id": 7107,
    "district_id": 710703,
    "value": "Ponosakan Belang",
    "postal_code": "95992"
  },
  {
    "id": 710703,
    "province_id": 71,
    "regency_id": 7107,
    "district_id": 710703,
    "value": "Ponosakan Indah",
    "postal_code": "95992"
  },
  {
    "id": 710703,
    "province_id": 71,
    "regency_id": 7107,
    "district_id": 710703,
    "value": "Tababo",
    "postal_code": "95992"
  },
  {
    "id": 710703,
    "province_id": 71,
    "regency_id": 7107,
    "district_id": 710703,
    "value": "Tababo Selatan",
    "postal_code": "95992"
  },
  {
    "id": 710703,
    "province_id": 71,
    "regency_id": 7107,
    "district_id": 710703,
    "value": "Watuliney",
    "postal_code": "95992"
  },
  {
    "id": 710703,
    "province_id": 71,
    "regency_id": 7107,
    "district_id": 710703,
    "value": "Watuliney Indah",
    "postal_code": "95992"
  },
  {
    "id": 710703,
    "province_id": 71,
    "regency_id": 7107,
    "district_id": 710703,
    "value": "Watuliney Tengah",
    "postal_code": "95992"
  }
]