[
  {
    "id": 1221052010,
    "province_id": 12,
    "regency_id": 1221,
    "district_id": 122105,
    "value": "Aliaga (Ali Aga)",
    "postal_code": "22776"
  },
  {
    "id": 1221052017,
    "province_id": 12,
    "regency_id": 1221,
    "district_id": 122105,
    "value": "Hutaraja Tinggi (Huta Raja Tinggi)",
    "postal_code": "22776"
  },
  {
    "id": 1221052004,
    "province_id": 12,
    "regency_id": 1221,
    "district_id": 122105,
    "value": "Lubuk Bunut",
    "postal_code": "22776"
  },
  {
    "id": 1221052011,
    "province_id": 12,
    "regency_id": 1221,
    "district_id": 122105,
    "value": "Mananti Sosa Jae",
    "postal_code": "22776"
  },
  {
    "id": 1221052009,
    "province_id": 12,
    "regency_id": 1221,
    "district_id": 122105,
    "value": "Pagaran Dolok Sosa (Pagaran Dolok Sosa Jae)",
    "postal_code": "22776"
  },
  {
    "id": 1221052012,
    "province_id": 12,
    "regency_id": 1221,
    "district_id": 122105,
    "value": "Panyabungan",
    "postal_code": "22776"
  },
  {
    "id": 1221052008,
    "province_id": 12,
    "regency_id": 1221,
    "district_id": 122105,
    "value": "Parmainan",
    "postal_code": "22776"
  },
  {
    "id": 1221052013,
    "province_id": 12,
    "regency_id": 1221,
    "district_id": 122105,
    "value": "Pasar Panyabungan",
    "postal_code": "22776"
  },
  {
    "id": 1221052016,
    "province_id": 12,
    "regency_id": 1221,
    "district_id": 122105,
    "value": "Paya Ombur (Payombur / Payaombor)",
    "postal_code": "22776"
  },
  {
    "id": 1221052028,
    "province_id": 12,
    "regency_id": 1221,
    "district_id": 122105,
    "value": "Pir Trans Sosa II (Pirtrans Sosa II)",
    "postal_code": "22776"
  },
  {
    "id": 1221052026,
    "province_id": 12,
    "regency_id": 1221,
    "district_id": 122105,
    "value": "Pir Trans Sosa III A (Pirtrans Sosa III A)",
    "postal_code": "22776"
  },
  {
    "id": 1221052027,
    "province_id": 12,
    "regency_id": 1221,
    "district_id": 122105,
    "value": "Pir Trans Sosa III B (Pirtrans Sosa III B)",
    "postal_code": "22776"
  },
  {
    "id": 1221052029,
    "province_id": 12,
    "regency_id": 1221,
    "district_id": 122105,
    "value": "Pir Trans Sosa IV (Pirtrans Sosa IV)",
    "postal_code": "22776"
  },
  {
    "id": 1221052030,
    "province_id": 12,
    "regency_id": 1221,
    "district_id": 122105,
    "value": "Pir Trans Sosa V (Sosa Mulia)",
    "postal_code": "22776"
  },
  {
    "id": 1221052031,
    "province_id": 12,
    "regency_id": 1221,
    "district_id": 122105,
    "value": "Pir Trans Sosa VI (Mulya Sari)",
    "postal_code": "22776"
  },
  {
    "id": 1221052015,
    "province_id": 12,
    "regency_id": 1221,
    "district_id": 122105,
    "value": "Siabu",
    "postal_code": "22776"
  },
  {
    "id": 1221052007,
    "province_id": 12,
    "regency_id": 1221,
    "district_id": 122105,
    "value": "Sibodak Sosa Jae",
    "postal_code": "22776"
  },
  {
    "id": 1221052014,
    "province_id": 12,
    "regency_id": 1221,
    "district_id": 122105,
    "value": "Sigalapung",
    "postal_code": "22776"
  },
  {
    "id": 1221052018,
    "province_id": 12,
    "regency_id": 1221,
    "district_id": 122105,
    "value": "Sungai Korang",
    "postal_code": "22776"
  },
  {
    "id": 1221052006,
    "province_id": 12,
    "regency_id": 1221,
    "district_id": 122105,
    "value": "Tanjung Baringin",
    "postal_code": "22776"
  },
  {
    "id": 1221052019,
    "province_id": 12,
    "regency_id": 1221,
    "district_id": 122105,
    "value": "Ujung Batu I",
    "postal_code": "22776"
  },
  {
    "id": 1221052020,
    "province_id": 12,
    "regency_id": 1221,
    "district_id": 122105,
    "value": "Ujung Batu II",
    "postal_code": "22776"
  },
  {
    "id": 1221052021,
    "province_id": 12,
    "regency_id": 1221,
    "district_id": 122105,
    "value": "Ujung Batu III",
    "postal_code": "22776"
  },
  {
    "id": 1221052022,
    "province_id": 12,
    "regency_id": 1221,
    "district_id": 122105,
    "value": "Ujung Batu IV",
    "postal_code": "22776"
  },
  {
    "id": 1221052023,
    "province_id": 12,
    "regency_id": 1221,
    "district_id": 122105,
    "value": "Ujung Batu V",
    "postal_code": "22776"
  },
  {
    "id": 1221052005,
    "province_id": 12,
    "regency_id": 1221,
    "district_id": 122105,
    "value": "Ujung Padang",
    "postal_code": "22776"
  }
]