[
  {
    "id": 141008,
    "province_id": 14,
    "regency_id": 1410,
    "district_id": 141008,
    "value": "Bandul",
    "postal_code": "28751"
  },
  {
    "id": 141008,
    "province_id": 14,
    "regency_id": 1410,
    "district_id": 141008,
    "value": "Dedap",
    "postal_code": "28751"
  },
  {
    "id": 141008,
    "province_id": 14,
    "regency_id": 1410,
    "district_id": 141008,
    "value": "Kudap",
    "postal_code": "28751"
  },
  {
    "id": 141008,
    "province_id": 14,
    "regency_id": 1410,
    "district_id": 141008,
    "value": "Mekar Delima",
    "postal_code": "28751"
  },
  {
    "id": 141008,
    "province_id": 14,
    "regency_id": 1410,
    "district_id": 141008,
    "value": "Mengkirau",
    "postal_code": "28751"
  },
  {
    "id": 141008,
    "province_id": 14,
    "regency_id": 1410,
    "district_id": 141008,
    "value": "Mengkopot",
    "postal_code": "28751"
  },
  {
    "id": 141008,
    "province_id": 14,
    "regency_id": 1410,
    "district_id": 141008,
    "value": "Putri Puyu",
    "postal_code": "28751"
  },
  {
    "id": 141008,
    "province_id": 14,
    "regency_id": 1410,
    "district_id": 141008,
    "value": "Selat Akar",
    "postal_code": "28751"
  },
  {
    "id": 141008,
    "province_id": 14,
    "regency_id": 1410,
    "district_id": 141008,
    "value": "Tanjung Padang",
    "postal_code": "28751"
  },
  {
    "id": 141008,
    "province_id": 14,
    "regency_id": 1410,
    "district_id": 141008,
    "value": "Tanjung Pisang",
    "postal_code": "28751"
  }
]