[
  {
    "id": 740523,
    "province_id": 74,
    "regency_id": 7405,
    "district_id": 740523,
    "value": "Amolengu",
    "postal_code": "93894"
  },
  {
    "id": 740523,
    "province_id": 74,
    "regency_id": 7405,
    "district_id": 740523,
    "value": "Ampera",
    "postal_code": "93894"
  },
  {
    "id": 740523,
    "province_id": 74,
    "regency_id": 7405,
    "district_id": 740523,
    "value": "Batuh Putih (Batu Putih)",
    "postal_code": "93894"
  },
  {
    "id": 740523,
    "province_id": 74,
    "regency_id": 7405,
    "district_id": 740523,
    "value": "Lambangi",
    "postal_code": "93894"
  },
  {
    "id": 740523,
    "province_id": 74,
    "regency_id": 7405,
    "district_id": 740523,
    "value": "Langgapulu",
    "postal_code": "93894"
  },
  {
    "id": 740523,
    "province_id": 74,
    "regency_id": 7405,
    "district_id": 740523,
    "value": "Ngapawali",
    "postal_code": "93894"
  },
  {
    "id": 740523,
    "province_id": 74,
    "regency_id": 7405,
    "district_id": 740523,
    "value": "Rambu-Rambu",
    "postal_code": "93894"
  },
  {
    "id": 740523,
    "province_id": 74,
    "regency_id": 7405,
    "district_id": 740523,
    "value": "Rumba-Rumba",
    "postal_code": "93894"
  },
  {
    "id": 740523,
    "province_id": 74,
    "regency_id": 7405,
    "district_id": 740523,
    "value": "Tumbu-Tumbu Jaya",
    "postal_code": "93894"
  },
  {
    "id": 740523,
    "province_id": 74,
    "regency_id": 7405,
    "district_id": 740523,
    "value": "Ulunese",
    "postal_code": "93894"
  }
]