[
  {
    "id": 6202081009,
    "province_id": 62,
    "regency_id": 6202,
    "district_id": 620208,
    "value": "Basirih Hilir",
    "postal_code": "74363"
  },
  {
    "id": 6202082011,
    "province_id": 62,
    "regency_id": 6202,
    "district_id": 620208,
    "value": "Basirih Hulu",
    "postal_code": "74363"
  },
  {
    "id": 6202082013,
    "province_id": 62,
    "regency_id": 6202,
    "district_id": 620208,
    "value": "Handil Sohor",
    "postal_code": "74363"
  },
  {
    "id": 6202082012,
    "province_id": 62,
    "regency_id": 6202,
    "district_id": 620208,
    "value": "Jaya Karet",
    "postal_code": "74363"
  },
  {
    "id": 6202082010,
    "province_id": 62,
    "regency_id": 6202,
    "district_id": 620208,
    "value": "Jaya Kelapa",
    "postal_code": "74363"
  },
  {
    "id": 6202082006,
    "province_id": 62,
    "regency_id": 6202,
    "district_id": 620208,
    "value": "Samuda Besar",
    "postal_code": "74363"
  },
  {
    "id": 6202082007,
    "province_id": 62,
    "regency_id": 6202,
    "district_id": 620208,
    "value": "Samuda Kecil",
    "postal_code": "74363"
  },
  {
    "id": 6202081008,
    "province_id": 62,
    "regency_id": 6202,
    "district_id": 620208,
    "value": "Samuda Kota",
    "postal_code": "74363"
  },
  {
    "id": 6202082005,
    "province_id": 62,
    "regency_id": 6202,
    "district_id": 620208,
    "value": "Sebamban (Sabamban)",
    "postal_code": "74363"
  },
  {
    "id": 6202082014,
    "province_id": 62,
    "regency_id": 6202,
    "district_id": 620208,
    "value": "Sei/Sungai Ijum Raya",
    "postal_code": "74363"
  }
]