[
  {
    "id": 950403,
    "province_id": 95,
    "regency_id": 9504,
    "district_id": 950403,
    "value": "Aulani",
    "postal_code": "99044"
  },
  {
    "id": 950403,
    "province_id": 95,
    "regency_id": 9504,
    "district_id": 950403,
    "value": "Dundu",
    "postal_code": "99044"
  },
  {
    "id": 950403,
    "province_id": 95,
    "regency_id": 9504,
    "district_id": 950403,
    "value": "Kagimaluk",
    "postal_code": "99044"
  },
  {
    "id": 950403,
    "province_id": 95,
    "regency_id": 9504,
    "district_id": 950403,
    "value": "Kanggime",
    "postal_code": "99044"
  },
  {
    "id": 950403,
    "province_id": 95,
    "regency_id": 9504,
    "district_id": 950403,
    "value": "Kerena",
    "postal_code": "99044"
  },
  {
    "id": 950403,
    "province_id": 95,
    "regency_id": 9504,
    "district_id": 950403,
    "value": "Lawor (Lawori)",
    "postal_code": "99044"
  },
  {
    "id": 950403,
    "province_id": 95,
    "regency_id": 9504,
    "district_id": 950403,
    "value": "Ligiibak / Ligimbak (Lagimbak)",
    "postal_code": "99044"
  },
  {
    "id": 950403,
    "province_id": 95,
    "regency_id": 9504,
    "district_id": 950403,
    "value": "Logon",
    "postal_code": "99044"
  },
  {
    "id": 950403,
    "province_id": 95,
    "regency_id": 9504,
    "district_id": 950403,
    "value": "Marlo",
    "postal_code": "99044"
  },
  {
    "id": 950403,
    "province_id": 95,
    "regency_id": 9504,
    "district_id": 950403,
    "value": "Purugi",
    "postal_code": "99044"
  }
]