[
  {
    "id": 740902,
    "province_id": 74,
    "regency_id": 7409,
    "district_id": 740902,
    "value": "Culumbatu",
    "postal_code": "93343"
  },
  {
    "id": 740902,
    "province_id": 74,
    "regency_id": 7409,
    "district_id": 740902,
    "value": "Lamonae",
    "postal_code": "93343"
  },
  {
    "id": 740902,
    "province_id": 74,
    "regency_id": 7409,
    "district_id": 740902,
    "value": "Lamonae Utama",
    "postal_code": "93343"
  },
  {
    "id": 740902,
    "province_id": 74,
    "regency_id": 7409,
    "district_id": 740902,
    "value": "Lamparinga",
    "postal_code": "93343"
  },
  {
    "id": 740902,
    "province_id": 74,
    "regency_id": 7409,
    "district_id": 740902,
    "value": "Larompana",
    "postal_code": "93343"
  },
  {
    "id": 740902,
    "province_id": 74,
    "regency_id": 7409,
    "district_id": 740902,
    "value": "Mata Osole",
    "postal_code": "93343"
  },
  {
    "id": 740902,
    "province_id": 74,
    "regency_id": 7409,
    "district_id": 740902,
    "value": "Padalere",
    "postal_code": "93343"
  },
  {
    "id": 740902,
    "province_id": 74,
    "regency_id": 7409,
    "district_id": 740902,
    "value": "Padalere Utama",
    "postal_code": "93343"
  },
  {
    "id": 740902,
    "province_id": 74,
    "regency_id": 7409,
    "district_id": 740902,
    "value": "Pondoa",
    "postal_code": "93343"
  },
  {
    "id": 740902,
    "province_id": 74,
    "regency_id": 7409,
    "district_id": 740902,
    "value": "Tetewatu",
    "postal_code": "93343"
  },
  {
    "id": 740902,
    "province_id": 74,
    "regency_id": 7409,
    "district_id": 740902,
    "value": "Wacu Pinodo",
    "postal_code": "93343"
  },
  {
    "id": 740902,
    "province_id": 74,
    "regency_id": 7409,
    "district_id": 740902,
    "value": "Wacumelewe (Macumelewe)",
    "postal_code": "93343"
  },
  {
    "id": 740902,
    "province_id": 74,
    "regency_id": 7409,
    "district_id": 740902,
    "value": "Wawoheo",
    "postal_code": "93343"
  },
  {
    "id": 740902,
    "province_id": 74,
    "regency_id": 7409,
    "district_id": 740902,
    "value": "Wawonsangi",
    "postal_code": "93343"
  },
  {
    "id": 740902,
    "province_id": 74,
    "regency_id": 7409,
    "district_id": 740902,
    "value": "Wawontoaho",
    "postal_code": "93343"
  }
]