[
  {
    "id": 360417,
    "province_id": 36,
    "regency_id": 3604,
    "district_id": 360417,
    "value": "Carenang",
    "postal_code": "42195"
  },
  {
    "id": 360417,
    "province_id": 36,
    "regency_id": 3604,
    "district_id": 360417,
    "value": "Mandaya",
    "postal_code": "42195"
  },
  {
    "id": 360417,
    "province_id": 36,
    "regency_id": 3604,
    "district_id": 360417,
    "value": "Mekarsari",
    "postal_code": "42195"
  },
  {
    "id": 360417,
    "province_id": 36,
    "regency_id": 3604,
    "district_id": 360417,
    "value": "Pamanuk",
    "postal_code": "42195"
  },
  {
    "id": 360417,
    "province_id": 36,
    "regency_id": 3604,
    "district_id": 360417,
    "value": "Panenjoan",
    "postal_code": "42195"
  },
  {
    "id": 360417,
    "province_id": 36,
    "regency_id": 3604,
    "district_id": 360417,
    "value": "Ragasmasigit (Ragasmesigit)",
    "postal_code": "42195"
  },
  {
    "id": 360417,
    "province_id": 36,
    "regency_id": 3604,
    "district_id": 360417,
    "value": "Teras",
    "postal_code": "42195"
  },
  {
    "id": 360417,
    "province_id": 36,
    "regency_id": 3604,
    "district_id": 360417,
    "value": "Walikukun",
    "postal_code": "42195"
  }
]