[
  {
    "id": 120814,
    "province_id": 12,
    "regency_id": 1208,
    "district_id": 120814,
    "value": "Bandar Sauhur",
    "postal_code": "21166"
  },
  {
    "id": 120814,
    "province_id": 12,
    "regency_id": 1208,
    "district_id": 120814,
    "value": "Bunga Sampang",
    "postal_code": "21166"
  },
  {
    "id": 120814,
    "province_id": 12,
    "regency_id": 1208,
    "district_id": 120814,
    "value": "Hinalang",
    "postal_code": "21166"
  },
  {
    "id": 120814,
    "province_id": 12,
    "regency_id": 1208,
    "district_id": 120814,
    "value": "Huta Raja",
    "postal_code": "21166"
  },
  {
    "id": 120814,
    "province_id": 12,
    "regency_id": 1208,
    "district_id": 120814,
    "value": "Nagori Tongah",
    "postal_code": "21166"
  },
  {
    "id": 120814,
    "province_id": 12,
    "regency_id": 1208,
    "district_id": 120814,
    "value": "Pematang Purba",
    "postal_code": "21166"
  },
  {
    "id": 120814,
    "province_id": 12,
    "regency_id": 1208,
    "district_id": 120814,
    "value": "Purba Dolok (Purba Dolog)",
    "postal_code": "21166"
  },
  {
    "id": 120814,
    "province_id": 12,
    "regency_id": 1208,
    "district_id": 120814,
    "value": "Purba Sipinggan",
    "postal_code": "21166"
  },
  {
    "id": 120814,
    "province_id": 12,
    "regency_id": 1208,
    "district_id": 120814,
    "value": "Purba Tongah",
    "postal_code": "21166"
  },
  {
    "id": 120814,
    "province_id": 12,
    "regency_id": 1208,
    "district_id": 120814,
    "value": "Seribu Jandi (Seribu Jadi)",
    "postal_code": "21166"
  },
  {
    "id": 120814,
    "province_id": 12,
    "regency_id": 1208,
    "district_id": 120814,
    "value": "Tano Tinggir",
    "postal_code": "21166"
  },
  {
    "id": 120814,
    "province_id": 12,
    "regency_id": 1208,
    "district_id": 120814,
    "value": "Tiga Runggu",
    "postal_code": "21166"
  },
  {
    "id": 120814,
    "province_id": 12,
    "regency_id": 1208,
    "district_id": 120814,
    "value": "Urung Pane",
    "postal_code": "21166"
  },
  {
    "id": 120814,
    "province_id": 12,
    "regency_id": 1208,
    "district_id": 120814,
    "value": "Urung Purba",
    "postal_code": "21166"
  }
]