[
  {
    "id": 530117,
    "province_id": 53,
    "regency_id": 5301,
    "district_id": 530117,
    "value": "Erbaun",
    "postal_code": "85376"
  },
  {
    "id": 530117,
    "province_id": 53,
    "regency_id": 5301,
    "district_id": 530117,
    "value": "Merbaun",
    "postal_code": "85376"
  },
  {
    "id": 530117,
    "province_id": 53,
    "regency_id": 5301,
    "district_id": 530117,
    "value": "Nekbaun",
    "postal_code": "85376"
  },
  {
    "id": 530117,
    "province_id": 53,
    "regency_id": 5301,
    "district_id": 530117,
    "value": "Niukbaun",
    "postal_code": "85376"
  },
  {
    "id": 530117,
    "province_id": 53,
    "regency_id": 5301,
    "district_id": 530117,
    "value": "Soba",
    "postal_code": "85376"
  },
  {
    "id": 530117,
    "province_id": 53,
    "regency_id": 5301,
    "district_id": 530117,
    "value": "Teunbaun",
    "postal_code": "85376"
  },
  {
    "id": 530117,
    "province_id": 53,
    "regency_id": 5301,
    "district_id": 530117,
    "value": "Toobaun",
    "postal_code": "85376"
  },
  {
    "id": 530117,
    "province_id": 53,
    "regency_id": 5301,
    "district_id": 530117,
    "value": "Tunbaun",
    "postal_code": "85376"
  }
]