[
  {
    "id": 1206082020,
    "province_id": 12,
    "regency_id": 1206,
    "district_id": 120608,
    "value": "Batumamak (Batumanak)",
    "postal_code": "22162"
  },
  {
    "id": 1206082016,
    "province_id": 12,
    "regency_id": 1206,
    "district_id": 120608,
    "value": "Bunga Baru",
    "postal_code": "22162"
  },
  {
    "id": 1206082001,
    "province_id": 12,
    "regency_id": 1206,
    "district_id": 120608,
    "value": "Gunung",
    "postal_code": "22162"
  },
  {
    "id": 1206082002,
    "province_id": 12,
    "regency_id": 1206,
    "district_id": 120608,
    "value": "Kem Kem",
    "postal_code": "22162"
  },
  {
    "id": 1206082004,
    "province_id": 12,
    "regency_id": 1206,
    "district_id": 120608,
    "value": "Kuala",
    "postal_code": "22162"
  },
  {
    "id": 1206082008,
    "province_id": 12,
    "regency_id": 1206,
    "district_id": 120608,
    "value": "Kuta Bangun",
    "postal_code": "22162"
  },
  {
    "id": 1206082018,
    "province_id": 12,
    "regency_id": 1206,
    "district_id": 120608,
    "value": "Kuta Buara",
    "postal_code": "22162"
  },
  {
    "id": 1206082015,
    "province_id": 12,
    "regency_id": 1206,
    "district_id": 120608,
    "value": "Kuta Galoh (Kuta Galuh)",
    "postal_code": "22162"
  },
  {
    "id": 1206082013,
    "province_id": 12,
    "regency_id": 1206,
    "district_id": 120608,
    "value": "Kuta Gerat",
    "postal_code": "22162"
  },
  {
    "id": 1206082009,
    "province_id": 12,
    "regency_id": 1206,
    "district_id": 120608,
    "value": "Kuta Raya",
    "postal_code": "22162"
  },
  {
    "id": 1206082017,
    "province_id": 12,
    "regency_id": 1206,
    "district_id": 120608,
    "value": "Kutambaru Punti (Kutambaru Punti Batu Mama)",
    "postal_code": "22162"
  },
  {
    "id": 1206082007,
    "province_id": 12,
    "regency_id": 1206,
    "district_id": 120608,
    "value": "Lau Kapur",
    "postal_code": "22162"
  },
  {
    "id": 1206082005,
    "province_id": 12,
    "regency_id": 1206,
    "district_id": 120608,
    "value": "Limang",
    "postal_code": "22162"
  },
  {
    "id": 1206082006,
    "province_id": 12,
    "regency_id": 1206,
    "district_id": 120608,
    "value": "Perbesi",
    "postal_code": "22162"
  },
  {
    "id": 1206082010,
    "province_id": 12,
    "regency_id": 1206,
    "district_id": 120608,
    "value": "Pergendangen",
    "postal_code": "22162"
  },
  {
    "id": 1206082003,
    "province_id": 12,
    "regency_id": 1206,
    "district_id": 120608,
    "value": "Pertumbuken",
    "postal_code": "22162"
  },
  {
    "id": 1206082011,
    "province_id": 12,
    "regency_id": 1206,
    "district_id": 120608,
    "value": "Simolap",
    "postal_code": "22162"
  },
  {
    "id": 1206082012,
    "province_id": 12,
    "regency_id": 1206,
    "district_id": 120608,
    "value": "Simpang Pergendangen (Perlambe)",
    "postal_code": "22162"
  },
  {
    "id": 1206082014,
    "province_id": 12,
    "regency_id": 1206,
    "district_id": 120608,
    "value": "Suka Julu (Kuta Julu)",
    "postal_code": "22162"
  },
  {
    "id": 1206081019,
    "province_id": 12,
    "regency_id": 1206,
    "district_id": 120608,
    "value": "Tiga Binanga",
    "postal_code": "22162"
  }
]