[
  {
    "id": 1305102008,
    "province_id": 13,
    "regency_id": 1305,
    "district_id": 130510,
    "value": "Kampuang Gelapuang Ulakan",
    "postal_code": "25572"
  },
  {
    "id": 1305102006,
    "province_id": 13,
    "regency_id": 1305,
    "district_id": 130510,
    "value": "Manggopoh Palak Gadang Ulakan",
    "postal_code": "25572"
  },
  {
    "id": 1305102003,
    "province_id": 13,
    "regency_id": 1305,
    "district_id": 130510,
    "value": "Padang Toboh Ulakan",
    "postal_code": "25572"
  },
  {
    "id": 1305102007,
    "province_id": 13,
    "regency_id": 1305,
    "district_id": 130510,
    "value": "Sandi Ulakan",
    "postal_code": "25572"
  },
  {
    "id": 1305102005,
    "province_id": 13,
    "regency_id": 1305,
    "district_id": 130510,
    "value": "Seulayat Ulakan",
    "postal_code": "25572"
  },
  {
    "id": 1305102004,
    "province_id": 13,
    "regency_id": 1305,
    "district_id": 130510,
    "value": "Sungai Gimba Ulakan",
    "postal_code": "25572"
  },
  {
    "id": 1305102001,
    "province_id": 13,
    "regency_id": 1305,
    "district_id": 130510,
    "value": "Tapakih",
    "postal_code": "25572"
  },
  {
    "id": 1305102002,
    "province_id": 13,
    "regency_id": 1305,
    "district_id": 130510,
    "value": "Ulakan",
    "postal_code": "25572"
  }
]