[
  {
    "id": 180406,
    "province_id": 18,
    "regency_id": 1804,
    "district_id": 180406,
    "value": "Bedudu",
    "postal_code": "34873"
  },
  {
    "id": 180406,
    "province_id": 18,
    "regency_id": 1804,
    "district_id": 180406,
    "value": "Bumi Agung",
    "postal_code": "34873"
  },
  {
    "id": 180406,
    "province_id": 18,
    "regency_id": 1804,
    "district_id": 180406,
    "value": "Fajar Agung",
    "postal_code": "34873"
  },
  {
    "id": 180406,
    "province_id": 18,
    "regency_id": 1804,
    "district_id": 180406,
    "value": "Hujung",
    "postal_code": "34873"
  },
  {
    "id": 180406,
    "province_id": 18,
    "regency_id": 1804,
    "district_id": 180406,
    "value": "Kejadian",
    "postal_code": "34873"
  },
  {
    "id": 180406,
    "province_id": 18,
    "regency_id": 1804,
    "district_id": 180406,
    "value": "Kenali",
    "postal_code": "34873"
  },
  {
    "id": 180406,
    "province_id": 18,
    "regency_id": 1804,
    "district_id": 180406,
    "value": "Serungkuk",
    "postal_code": "34873"
  },
  {
    "id": 180406,
    "province_id": 18,
    "regency_id": 1804,
    "district_id": 180406,
    "value": "Suka Makmur",
    "postal_code": "34873"
  },
  {
    "id": 180406,
    "province_id": 18,
    "regency_id": 1804,
    "district_id": 180406,
    "value": "Sukarame",
    "postal_code": "34873"
  },
  {
    "id": 180406,
    "province_id": 18,
    "regency_id": 1804,
    "district_id": 180406,
    "value": "Turgak",
    "postal_code": "34873"
  }
]