[
  {
    "id": 5302272005,
    "province_id": 53,
    "regency_id": 5302,
    "district_id": 530227,
    "value": "Enoneontes",
    "postal_code": "85551"
  },
  {
    "id": 5302272004,
    "province_id": 53,
    "regency_id": 5302,
    "district_id": 530227,
    "value": "Lakat",
    "postal_code": "85551"
  },
  {
    "id": 5302272002,
    "province_id": 53,
    "regency_id": 5302,
    "district_id": 530227,
    "value": "Naukae",
    "postal_code": "85551"
  },
  {
    "id": 5302272006,
    "province_id": 53,
    "regency_id": 5302,
    "district_id": 530227,
    "value": "O'of (Oof)",
    "postal_code": "85551"
  },
  {
    "id": 5302272008,
    "province_id": 53,
    "regency_id": 5302,
    "district_id": 530227,
    "value": "Oe Oe",
    "postal_code": "85551"
  },
  {
    "id": 5302272003,
    "province_id": 53,
    "regency_id": 5302,
    "district_id": 530227,
    "value": "Supul",
    "postal_code": "85551"
  },
  {
    "id": 5302272001,
    "province_id": 53,
    "regency_id": 5302,
    "district_id": 530227,
    "value": "Tetaf",
    "postal_code": "85551"
  },
  {
    "id": 5302272007,
    "province_id": 53,
    "regency_id": 5302,
    "district_id": 530227,
    "value": "Tubmonas",
    "postal_code": "85551"
  }
]