[
  {
    "id": 351514,
    "province_id": 35,
    "regency_id": 3515,
    "district_id": 351514,
    "value": "Anggaswangi",
    "postal_code": "61258"
  },
  {
    "id": 351514,
    "province_id": 35,
    "regency_id": 3515,
    "district_id": 351514,
    "value": "Bangsri",
    "postal_code": "61258"
  },
  {
    "id": 351514,
    "province_id": 35,
    "regency_id": 3515,
    "district_id": 351514,
    "value": "Cangkringsari",
    "postal_code": "61258"
  },
  {
    "id": 351514,
    "province_id": 35,
    "regency_id": 3515,
    "district_id": 351514,
    "value": "Jogosatru",
    "postal_code": "61258"
  },
  {
    "id": 351514,
    "province_id": 35,
    "regency_id": 3515,
    "district_id": 351514,
    "value": "Jumputrejo",
    "postal_code": "61258"
  },
  {
    "id": 351514,
    "province_id": 35,
    "regency_id": 3515,
    "district_id": 351514,
    "value": "Kebonagung",
    "postal_code": "61258"
  },
  {
    "id": 351514,
    "province_id": 35,
    "regency_id": 3515,
    "district_id": 351514,
    "value": "Kloposepuluh (Keloposepuluh)",
    "postal_code": "61258"
  },
  {
    "id": 351514,
    "province_id": 35,
    "regency_id": 3515,
    "district_id": 351514,
    "value": "Masangankulon (Masangan Kulon)",
    "postal_code": "61258"
  },
  {
    "id": 351514,
    "province_id": 35,
    "regency_id": 3515,
    "district_id": 351514,
    "value": "Masanganwetan (Masangan Wetan)",
    "postal_code": "61258"
  },
  {
    "id": 351514,
    "province_id": 35,
    "regency_id": 3515,
    "district_id": 351514,
    "value": "Ngaresrejo",
    "postal_code": "61258"
  },
  {
    "id": 351514,
    "province_id": 35,
    "regency_id": 3515,
    "district_id": 351514,
    "value": "Pademonegoro",
    "postal_code": "61258"
  },
  {
    "id": 351514,
    "province_id": 35,
    "regency_id": 3515,
    "district_id": 351514,
    "value": "Panjunan",
    "postal_code": "61216"
  },
  {
    "id": 351514,
    "province_id": 35,
    "regency_id": 3515,
    "district_id": 351514,
    "value": "Pekarungan",
    "postal_code": "61258"
  },
  {
    "id": 351514,
    "province_id": 35,
    "regency_id": 3515,
    "district_id": 351514,
    "value": "Plumbungan",
    "postal_code": "61258"
  },
  {
    "id": 351514,
    "province_id": 35,
    "regency_id": 3515,
    "district_id": 351514,
    "value": "Sambungrejo",
    "postal_code": "61258"
  },
  {
    "id": 351514,
    "province_id": 35,
    "regency_id": 3515,
    "district_id": 351514,
    "value": "Suko",
    "postal_code": "61258"
  },
  {
    "id": 351514,
    "province_id": 35,
    "regency_id": 3515,
    "district_id": 351514,
    "value": "Sukodono",
    "postal_code": "61258"
  },
  {
    "id": 351514,
    "province_id": 35,
    "regency_id": 3515,
    "district_id": 351514,
    "value": "Suruh",
    "postal_code": "61258"
  },
  {
    "id": 351514,
    "province_id": 35,
    "regency_id": 3515,
    "district_id": 351514,
    "value": "Wilayut",
    "postal_code": "61258"
  }
]