[
  {
    "id": 3602132008,
    "province_id": 36,
    "regency_id": 3602,
    "district_id": 360213,
    "value": "Binong",
    "postal_code": "42382"
  },
  {
    "id": 3602132022,
    "province_id": 36,
    "regency_id": 3602,
    "district_id": 360213,
    "value": "Buyut Mekar (Buyut)",
    "postal_code": "42382"
  },
  {
    "id": 3602132018,
    "province_id": 36,
    "regency_id": 3602,
    "district_id": 360213,
    "value": "Cilangkap",
    "postal_code": "42382"
  },
  {
    "id": 3602132015,
    "province_id": 36,
    "regency_id": 3602,
    "district_id": 360213,
    "value": "Curugbadak (Curug Badak)",
    "postal_code": "42382"
  },
  {
    "id": 3602132009,
    "province_id": 36,
    "regency_id": 3602,
    "district_id": 360213,
    "value": "Gubugan Cibeureum (Gubugcibeureum)",
    "postal_code": "42382"
  },
  {
    "id": 3602132006,
    "province_id": 36,
    "regency_id": 3602,
    "district_id": 360213,
    "value": "Maja",
    "postal_code": "42382"
  },
  {
    "id": 3602132023,
    "province_id": 36,
    "regency_id": 3602,
    "district_id": 360213,
    "value": "Maja Baru",
    "postal_code": "42382"
  },
  {
    "id": 3602132011,
    "province_id": 36,
    "regency_id": 3602,
    "district_id": 360213,
    "value": "Mekarsari",
    "postal_code": "42382"
  },
  {
    "id": 3602132012,
    "province_id": 36,
    "regency_id": 3602,
    "district_id": 360213,
    "value": "Padasuka",
    "postal_code": "42382"
  },
  {
    "id": 3602132021,
    "province_id": 36,
    "regency_id": 3602,
    "district_id": 360213,
    "value": "Pasirkecapi (Pasir Kecapi)",
    "postal_code": "42382"
  },
  {
    "id": 3602132020,
    "province_id": 36,
    "regency_id": 3602,
    "district_id": 360213,
    "value": "Pasirkembang (Pasir Kembang)",
    "postal_code": "42382"
  },
  {
    "id": 3602132007,
    "province_id": 36,
    "regency_id": 3602,
    "district_id": 360213,
    "value": "Sangiang",
    "postal_code": "42382"
  },
  {
    "id": 3602132016,
    "province_id": 36,
    "regency_id": 3602,
    "district_id": 360213,
    "value": "Sindangmulya",
    "postal_code": "42382"
  },
  {
    "id": 3602132005,
    "province_id": 36,
    "regency_id": 3602,
    "district_id": 360213,
    "value": "Tanjungsari (Tanjung Sari)",
    "postal_code": "42382"
  }
]