[
  {
    "id": 360307,
    "province_id": 36,
    "regency_id": 3603,
    "district_id": 360307,
    "value": "Bakung",
    "postal_code": "15550"
  },
  {
    "id": 360307,
    "province_id": 36,
    "regency_id": 3603,
    "district_id": 360307,
    "value": "Blukbuk",
    "postal_code": "15550"
  },
  {
    "id": 360307,
    "province_id": 36,
    "regency_id": 3603,
    "district_id": 360307,
    "value": "Cirumpak",
    "postal_code": "15550"
  },
  {
    "id": 360307,
    "province_id": 36,
    "regency_id": 3603,
    "district_id": 360307,
    "value": "Kronjo",
    "postal_code": "15550"
  },
  {
    "id": 360307,
    "province_id": 36,
    "regency_id": 3603,
    "district_id": 360307,
    "value": "Muncung",
    "postal_code": "15550"
  },
  {
    "id": 360307,
    "province_id": 36,
    "regency_id": 3603,
    "district_id": 360307,
    "value": "Pagedangan Ilir",
    "postal_code": "15550"
  },
  {
    "id": 360307,
    "province_id": 36,
    "regency_id": 3603,
    "district_id": 360307,
    "value": "Pagedangan Udik",
    "postal_code": "15550"
  },
  {
    "id": 360307,
    "province_id": 36,
    "regency_id": 3603,
    "district_id": 360307,
    "value": "Pagenjahan",
    "postal_code": "15550"
  },
  {
    "id": 360307,
    "province_id": 36,
    "regency_id": 3603,
    "district_id": 360307,
    "value": "Pasilian",
    "postal_code": "15550"
  },
  {
    "id": 360307,
    "province_id": 36,
    "regency_id": 3603,
    "district_id": 360307,
    "value": "Pasir",
    "postal_code": "15550"
  }
]