[
  {
    "id": 717204,
    "province_id": 71,
    "regency_id": 7172,
    "district_id": 717204,
    "value": "Aertembaga Dua (II)",
    "postal_code": "95526"
  },
  {
    "id": 717204,
    "province_id": 71,
    "regency_id": 7172,
    "district_id": 717204,
    "value": "Aertembaga Satu (I)",
    "postal_code": "95526"
  },
  {
    "id": 717204,
    "province_id": 71,
    "regency_id": 7172,
    "district_id": 717204,
    "value": "Kasawari",
    "postal_code": "95521"
  },
  {
    "id": 717204,
    "province_id": 71,
    "regency_id": 7172,
    "district_id": 717204,
    "value": "Makawidey",
    "postal_code": "95528"
  },
  {
    "id": 717204,
    "province_id": 71,
    "regency_id": 7172,
    "district_id": 717204,
    "value": "Peteten Dua (II)",
    "postal_code": "95524"
  },
  {
    "id": 717204,
    "province_id": 71,
    "regency_id": 7172,
    "district_id": 717204,
    "value": "Peteten Satu (I)",
    "postal_code": "95524"
  },
  {
    "id": 717204,
    "province_id": 71,
    "regency_id": 7172,
    "district_id": 717204,
    "value": "Pinangunian",
    "postal_code": "95529"
  },
  {
    "id": 717204,
    "province_id": 71,
    "regency_id": 7172,
    "district_id": 717204,
    "value": "Tandurusa (Tandu Rusa)",
    "postal_code": "95527"
  },
  {
    "id": 717204,
    "province_id": 71,
    "regency_id": 7172,
    "district_id": 717204,
    "value": "Winenet Dua (II)",
    "postal_code": "95525"
  },
  {
    "id": 717204,
    "province_id": 71,
    "regency_id": 7172,
    "district_id": 717204,
    "value": "Winenet Satu (I)",
    "postal_code": "95525"
  }
]