[
  {
    "id": 117107,
    "province_id": 11,
    "regency_id": 1171,
    "district_id": 117107,
    "value": "Geuceu Iniem",
    "postal_code": "23239"
  },
  {
    "id": 117107,
    "province_id": 11,
    "regency_id": 1171,
    "district_id": 117107,
    "value": "Geuceu Kayee Jato",
    "postal_code": "23239"
  },
  {
    "id": 117107,
    "province_id": 11,
    "regency_id": 1171,
    "district_id": 117107,
    "value": "Geuceu Komplek",
    "postal_code": "23239"
  },
  {
    "id": 117107,
    "province_id": 11,
    "regency_id": 1171,
    "district_id": 117107,
    "value": "Lam Ara",
    "postal_code": "23238"
  },
  {
    "id": 117107,
    "province_id": 11,
    "regency_id": 1171,
    "district_id": 117107,
    "value": "Lamlagang (Lam Lagang)",
    "postal_code": "23239"
  },
  {
    "id": 117107,
    "province_id": 11,
    "regency_id": 1171,
    "district_id": 117107,
    "value": "Lampeout (Lampuot)",
    "postal_code": "23238"
  },
  {
    "id": 117107,
    "province_id": 11,
    "regency_id": 1171,
    "district_id": 117107,
    "value": "Lhong Cut",
    "postal_code": "23238"
  },
  {
    "id": 117107,
    "province_id": 11,
    "regency_id": 1171,
    "district_id": 117107,
    "value": "Lhong Raya",
    "postal_code": "23238"
  },
  {
    "id": 117107,
    "province_id": 11,
    "regency_id": 1171,
    "district_id": 117107,
    "value": "Mibo",
    "postal_code": "23238"
  },
  {
    "id": 117107,
    "province_id": 11,
    "regency_id": 1171,
    "district_id": 117107,
    "value": "Peunyerat (Peunyeurat)",
    "postal_code": "23238"
  }
]