[
  {
    "id": 330204,
    "province_id": 33,
    "regency_id": 3302,
    "district_id": 330204,
    "value": "Banjarparakan",
    "postal_code": "53173"
  },
  {
    "id": 330204,
    "province_id": 33,
    "regency_id": 3302,
    "district_id": 330204,
    "value": "Losari",
    "postal_code": "53173"
  },
  {
    "id": 330204,
    "province_id": 33,
    "regency_id": 3302,
    "district_id": 330204,
    "value": "Menganti",
    "postal_code": "53173"
  },
  {
    "id": 330204,
    "province_id": 33,
    "regency_id": 3302,
    "district_id": 330204,
    "value": "Pesawahan",
    "postal_code": "53173"
  },
  {
    "id": 330204,
    "province_id": 33,
    "regency_id": 3302,
    "district_id": 330204,
    "value": "Rawalo",
    "postal_code": "53173"
  },
  {
    "id": 330204,
    "province_id": 33,
    "regency_id": 3302,
    "district_id": 330204,
    "value": "Sanggreman",
    "postal_code": "53173"
  },
  {
    "id": 330204,
    "province_id": 33,
    "regency_id": 3302,
    "district_id": 330204,
    "value": "Sidamulih",
    "postal_code": "53173"
  },
  {
    "id": 330204,
    "province_id": 33,
    "regency_id": 3302,
    "district_id": 330204,
    "value": "Tambaknegara",
    "postal_code": "53173"
  },
  {
    "id": 330204,
    "province_id": 33,
    "regency_id": 3302,
    "district_id": 330204,
    "value": "Tipar",
    "postal_code": "53173"
  }
]