[
  {
    "id": 911009,
    "province_id": 91,
    "regency_id": 9110,
    "district_id": 911009,
    "value": "Airoran",
    "postal_code": "99374"
  },
  {
    "id": 911009,
    "province_id": 91,
    "regency_id": 9110,
    "district_id": 911009,
    "value": "Aurimi",
    "postal_code": "99374"
  },
  {
    "id": 911009,
    "province_id": 91,
    "regency_id": 9110,
    "district_id": 911009,
    "value": "Bina",
    "postal_code": "99374"
  },
  {
    "id": 911009,
    "province_id": 91,
    "regency_id": 9110,
    "district_id": 911009,
    "value": "Kwawitania",
    "postal_code": "99374"
  },
  {
    "id": 911009,
    "province_id": 91,
    "regency_id": 9110,
    "district_id": 911009,
    "value": "Maniwa",
    "postal_code": "99374"
  },
  {
    "id": 911009,
    "province_id": 91,
    "regency_id": 9110,
    "district_id": 911009,
    "value": "Murara",
    "postal_code": "99374"
  },
  {
    "id": 911009,
    "province_id": 91,
    "regency_id": 9110,
    "district_id": 911009,
    "value": "Sasawapece",
    "postal_code": "99374"
  },
  {
    "id": 911009,
    "province_id": 91,
    "regency_id": 9110,
    "district_id": 911009,
    "value": "Surimania (Syurimania)",
    "postal_code": "99374"
  },
  {
    "id": 911009,
    "province_id": 91,
    "regency_id": 9110,
    "district_id": 911009,
    "value": "Tamaja (Tamaya)",
    "postal_code": "99374"
  },
  {
    "id": 911009,
    "province_id": 91,
    "regency_id": 9110,
    "district_id": 911009,
    "value": "Wamariri",
    "postal_code": "99374"
  }
]