[
  {
    "id": 950103,
    "province_id": 95,
    "regency_id": 9501,
    "district_id": 950103,
    "value": "Araboda",
    "postal_code": "99531"
  },
  {
    "id": 950103,
    "province_id": 95,
    "regency_id": 9501,
    "district_id": 950103,
    "value": "Kimbin (Kimbim)",
    "postal_code": "99531"
  },
  {
    "id": 950103,
    "province_id": 95,
    "regency_id": 9501,
    "district_id": 950103,
    "value": "Kombagwe",
    "postal_code": "99531"
  },
  {
    "id": 950103,
    "province_id": 95,
    "regency_id": 9501,
    "district_id": 950103,
    "value": "Logotpaga",
    "postal_code": "99531"
  },
  {
    "id": 950103,
    "province_id": 95,
    "regency_id": 9501,
    "district_id": 950103,
    "value": "Loki",
    "postal_code": "99531"
  },
  {
    "id": 950103,
    "province_id": 95,
    "regency_id": 9501,
    "district_id": 950103,
    "value": "Miligatnem",
    "postal_code": "99531"
  },
  {
    "id": 950103,
    "province_id": 95,
    "regency_id": 9501,
    "district_id": 950103,
    "value": "Tikawo",
    "postal_code": "99531"
  },
  {
    "id": 950103,
    "province_id": 95,
    "regency_id": 9501,
    "district_id": 950103,
    "value": "Walak",
    "postal_code": "99531"
  },
  {
    "id": 950103,
    "province_id": 95,
    "regency_id": 9501,
    "district_id": 950103,
    "value": "Wanggonoma",
    "postal_code": "99531"
  },
  {
    "id": 950103,
    "province_id": 95,
    "regency_id": 9501,
    "district_id": 950103,
    "value": "Wawanca",
    "postal_code": "99531"
  }
]