[
  {
    "id": 320103,
    "province_id": 32,
    "regency_id": 3201,
    "district_id": 320103,
    "value": "Citeureup",
    "postal_code": "16811"
  },
  {
    "id": 320103,
    "province_id": 32,
    "regency_id": 3201,
    "district_id": 320103,
    "value": "Gunungsari (Gunung Sari)",
    "postal_code": "16811"
  },
  {
    "id": 320103,
    "province_id": 32,
    "regency_id": 3201,
    "district_id": 320103,
    "value": "Hambalang",
    "postal_code": "16811"
  },
  {
    "id": 320103,
    "province_id": 32,
    "regency_id": 3201,
    "district_id": 320103,
    "value": "Karang Asem Barat",
    "postal_code": "16811"
  },
  {
    "id": 320103,
    "province_id": 32,
    "regency_id": 3201,
    "district_id": 320103,
    "value": "Karang Asem Timur",
    "postal_code": "16811"
  },
  {
    "id": 320103,
    "province_id": 32,
    "regency_id": 3201,
    "district_id": 320103,
    "value": "Leuwinutug",
    "postal_code": "16811"
  },
  {
    "id": 320103,
    "province_id": 32,
    "regency_id": 3201,
    "district_id": 320103,
    "value": "Pasirmukti (Pasir Mukti)",
    "postal_code": "16811"
  },
  {
    "id": 320103,
    "province_id": 32,
    "regency_id": 3201,
    "district_id": 320103,
    "value": "Puspanegara",
    "postal_code": "16811"
  },
  {
    "id": 320103,
    "province_id": 32,
    "regency_id": 3201,
    "district_id": 320103,
    "value": "Puspasari",
    "postal_code": "16811"
  },
  {
    "id": 320103,
    "province_id": 32,
    "regency_id": 3201,
    "district_id": 320103,
    "value": "Sanja",
    "postal_code": "16811"
  },
  {
    "id": 320103,
    "province_id": 32,
    "regency_id": 3201,
    "district_id": 320103,
    "value": "Sukahati",
    "postal_code": "16811"
  },
  {
    "id": 320103,
    "province_id": 32,
    "regency_id": 3201,
    "district_id": 320103,
    "value": "Tajur",
    "postal_code": "16811"
  },
  {
    "id": 320103,
    "province_id": 32,
    "regency_id": 3201,
    "district_id": 320103,
    "value": "Tangkil",
    "postal_code": "16811"
  },
  {
    "id": 320103,
    "province_id": 32,
    "regency_id": 3201,
    "district_id": 320103,
    "value": "Tarikolot",
    "postal_code": "16811"
  }
]