[
  {
    "id": 640108,
    "province_id": 64,
    "regency_id": 6401,
    "district_id": 640108,
    "value": "Bente Tualan (Bente / Tualan)",
    "postal_code": "76283"
  },
  {
    "id": 640108,
    "province_id": 64,
    "regency_id": 6401,
    "district_id": 640108,
    "value": "Gunung Putar (Gunungputar)",
    "postal_code": "76283"
  },
  {
    "id": 640108,
    "province_id": 64,
    "regency_id": 6401,
    "district_id": 640108,
    "value": "Kepala Telake",
    "postal_code": "76283"
  },
  {
    "id": 640108,
    "province_id": 64,
    "regency_id": 6401,
    "district_id": 640108,
    "value": "Long Kali",
    "postal_code": "76283"
  },
  {
    "id": 640108,
    "province_id": 64,
    "regency_id": 6401,
    "district_id": 640108,
    "value": "Makmur Jaya",
    "postal_code": "76283"
  },
  {
    "id": 640108,
    "province_id": 64,
    "regency_id": 6401,
    "district_id": 640108,
    "value": "Maruat",
    "postal_code": "76283"
  },
  {
    "id": 640108,
    "province_id": 64,
    "regency_id": 6401,
    "district_id": 640108,
    "value": "Mendik",
    "postal_code": "76283"
  },
  {
    "id": 640108,
    "province_id": 64,
    "regency_id": 6401,
    "district_id": 640108,
    "value": "Mendik Bhakti",
    "postal_code": "76283"
  },
  {
    "id": 640108,
    "province_id": 64,
    "regency_id": 6401,
    "district_id": 640108,
    "value": "Mendik Karya",
    "postal_code": "76283"
  },
  {
    "id": 640108,
    "province_id": 64,
    "regency_id": 6401,
    "district_id": 640108,
    "value": "Mendik Makmur",
    "postal_code": "76283"
  },
  {
    "id": 640108,
    "province_id": 64,
    "regency_id": 6401,
    "district_id": 640108,
    "value": "Muara Adang II (Muaraadang II)",
    "postal_code": "76283"
  },
  {
    "id": 640108,
    "province_id": 64,
    "regency_id": 6401,
    "district_id": 640108,
    "value": "Muara Lambakan",
    "postal_code": "76283"
  },
  {
    "id": 640108,
    "province_id": 64,
    "regency_id": 6401,
    "district_id": 640108,
    "value": "Muara Pias",
    "postal_code": "76283"
  },
  {
    "id": 640108,
    "province_id": 64,
    "regency_id": 6401,
    "district_id": 640108,
    "value": "Muara Telake",
    "postal_code": "76283"
  },
  {
    "id": 640108,
    "province_id": 64,
    "regency_id": 6401,
    "district_id": 640108,
    "value": "Muara Toyu",
    "postal_code": "76283"
  },
  {
    "id": 640108,
    "province_id": 64,
    "regency_id": 6401,
    "district_id": 640108,
    "value": "Munggu",
    "postal_code": "76283"
  },
  {
    "id": 640108,
    "province_id": 64,
    "regency_id": 6401,
    "district_id": 640108,
    "value": "Perkuwen (Perkuwin)",
    "postal_code": "76283"
  },
  {
    "id": 640108,
    "province_id": 64,
    "regency_id": 6401,
    "district_id": 640108,
    "value": "Petiku",
    "postal_code": "76283"
  },
  {
    "id": 640108,
    "province_id": 64,
    "regency_id": 6401,
    "district_id": 640108,
    "value": "Pinang Jatus",
    "postal_code": "76283"
  },
  {
    "id": 640108,
    "province_id": 64,
    "regency_id": 6401,
    "district_id": 640108,
    "value": "Putang",
    "postal_code": "76283"
  },
  {
    "id": 640108,
    "province_id": 64,
    "regency_id": 6401,
    "district_id": 640108,
    "value": "Sebakung",
    "postal_code": "76283"
  },
  {
    "id": 640108,
    "province_id": 64,
    "regency_id": 6401,
    "district_id": 640108,
    "value": "Sebakung Makmur",
    "postal_code": "76283"
  },
  {
    "id": 640108,
    "province_id": 64,
    "regency_id": 6401,
    "district_id": 640108,
    "value": "Sebakung Taka (Sebakung IV)",
    "postal_code": "76283"
  }
]