[
  {
    "id": 331409,
    "province_id": 33,
    "regency_id": 3314,
    "district_id": 331409,
    "value": "Guworejo",
    "postal_code": "57222"
  },
  {
    "id": 331409,
    "province_id": 33,
    "regency_id": 3314,
    "district_id": 331409,
    "value": "Jurangjero",
    "postal_code": "57222"
  },
  {
    "id": 331409,
    "province_id": 33,
    "regency_id": 3314,
    "district_id": 331409,
    "value": "Kedungwaduk (Kedung Waduk)",
    "postal_code": "57222"
  },
  {
    "id": 331409,
    "province_id": 33,
    "regency_id": 3314,
    "district_id": 331409,
    "value": "Kroyo",
    "postal_code": "57221"
  },
  {
    "id": 331409,
    "province_id": 33,
    "regency_id": 3314,
    "district_id": 331409,
    "value": "Mojorejo",
    "postal_code": "57222"
  },
  {
    "id": 331409,
    "province_id": 33,
    "regency_id": 3314,
    "district_id": 331409,
    "value": "Pelemgadung (Pelem Gadung)",
    "postal_code": "57222"
  },
  {
    "id": 331409,
    "province_id": 33,
    "regency_id": 3314,
    "district_id": 331409,
    "value": "Plosokerep",
    "postal_code": "57222"
  },
  {
    "id": 331409,
    "province_id": 33,
    "regency_id": 3314,
    "district_id": 331409,
    "value": "Plumbungan",
    "postal_code": "57222"
  },
  {
    "id": 331409,
    "province_id": 33,
    "regency_id": 3314,
    "district_id": 331409,
    "value": "Puro",
    "postal_code": "57222"
  },
  {
    "id": 331409,
    "province_id": 33,
    "regency_id": 3314,
    "district_id": 331409,
    "value": "Saradan",
    "postal_code": "57222"
  }
]