[
  {
    "id": 352309,
    "province_id": 35,
    "regency_id": 3523,
    "district_id": 352309,
    "value": "Brangkal",
    "postal_code": "62366"
  },
  {
    "id": 352309,
    "province_id": 35,
    "regency_id": 3523,
    "district_id": 352309,
    "value": "Cengkong",
    "postal_code": "62366"
  },
  {
    "id": 352309,
    "province_id": 35,
    "regency_id": 3523,
    "district_id": 352309,
    "value": "Dagangan",
    "postal_code": "62366"
  },
  {
    "id": 352309,
    "province_id": 35,
    "regency_id": 3523,
    "district_id": 352309,
    "value": "Kemlaten",
    "postal_code": "62366"
  },
  {
    "id": 352309,
    "province_id": 35,
    "regency_id": 3523,
    "district_id": 352309,
    "value": "Kumpulrejo",
    "postal_code": "62366"
  },
  {
    "id": 352309,
    "province_id": 35,
    "regency_id": 3523,
    "district_id": 352309,
    "value": "Margorejo (Mergorejo)",
    "postal_code": "62366"
  },
  {
    "id": 352309,
    "province_id": 35,
    "regency_id": 3523,
    "district_id": 352309,
    "value": "Mergoasri",
    "postal_code": "62366"
  },
  {
    "id": 352309,
    "province_id": 35,
    "regency_id": 3523,
    "district_id": 352309,
    "value": "Mojomalang",
    "postal_code": "62366"
  },
  {
    "id": 352309,
    "province_id": 35,
    "regency_id": 3523,
    "district_id": 352309,
    "value": "Ngawun",
    "postal_code": "62366"
  },
  {
    "id": 352309,
    "province_id": 35,
    "regency_id": 3523,
    "district_id": 352309,
    "value": "Pacing",
    "postal_code": "62366"
  },
  {
    "id": 352309,
    "province_id": 35,
    "regency_id": 3523,
    "district_id": 352309,
    "value": "Parangbatu",
    "postal_code": "62366"
  },
  {
    "id": 352309,
    "province_id": 35,
    "regency_id": 3523,
    "district_id": 352309,
    "value": "Selogabus",
    "postal_code": "62366"
  },
  {
    "id": 352309,
    "province_id": 35,
    "regency_id": 3523,
    "district_id": 352309,
    "value": "Sembung",
    "postal_code": "62366"
  },
  {
    "id": 352309,
    "province_id": 35,
    "regency_id": 3523,
    "district_id": 352309,
    "value": "Sendangrejo",
    "postal_code": "62366"
  },
  {
    "id": 352309,
    "province_id": 35,
    "regency_id": 3523,
    "district_id": 352309,
    "value": "Suciharjo",
    "postal_code": "62366"
  },
  {
    "id": 352309,
    "province_id": 35,
    "regency_id": 3523,
    "district_id": 352309,
    "value": "Sugihwaras",
    "postal_code": "62366"
  },
  {
    "id": 352309,
    "province_id": 35,
    "regency_id": 3523,
    "district_id": 352309,
    "value": "Sukorejo",
    "postal_code": "62366"
  },
  {
    "id": 352309,
    "province_id": 35,
    "regency_id": 3523,
    "district_id": 352309,
    "value": "Wukirharjo",
    "postal_code": "62366"
  }
]