[
  {
    "id": 950444,
    "province_id": 95,
    "regency_id": 9504,
    "district_id": 950444,
    "value": "Aburage",
    "postal_code": "99031"
  },
  {
    "id": 950444,
    "province_id": 95,
    "regency_id": 9504,
    "district_id": 950444,
    "value": "Bogome",
    "postal_code": "99031"
  },
  {
    "id": 950444,
    "province_id": 95,
    "regency_id": 9504,
    "district_id": 950444,
    "value": "Erimbur",
    "postal_code": "99031"
  },
  {
    "id": 950444,
    "province_id": 95,
    "regency_id": 9504,
    "district_id": 950444,
    "value": "Gubura",
    "postal_code": "99031"
  },
  {
    "id": 950444,
    "province_id": 95,
    "regency_id": 9504,
    "district_id": 950444,
    "value": "Kogoyapura",
    "postal_code": "99031"
  },
  {
    "id": 950444,
    "province_id": 95,
    "regency_id": 9504,
    "district_id": 950444,
    "value": "Leragawi/Megagirakuk",
    "postal_code": "99031"
  },
  {
    "id": 950444,
    "province_id": 95,
    "regency_id": 9504,
    "district_id": 950444,
    "value": "Longgoboma",
    "postal_code": "99031"
  },
  {
    "id": 950444,
    "province_id": 95,
    "regency_id": 9504,
    "district_id": 950444,
    "value": "Lubuk",
    "postal_code": "99031"
  },
  {
    "id": 950444,
    "province_id": 95,
    "regency_id": 9504,
    "district_id": 950444,
    "value": "Tingwi",
    "postal_code": "99031"
  },
  {
    "id": 950444,
    "province_id": 95,
    "regency_id": 9504,
    "district_id": 950444,
    "value": "Wiyaluk",
    "postal_code": "99031"
  }
]