[
  {
    "id": 740524,
    "province_id": 74,
    "regency_id": 7405,
    "district_id": 740524,
    "value": "Asaria",
    "postal_code": "93872"
  },
  {
    "id": 740524,
    "province_id": 74,
    "regency_id": 7405,
    "district_id": 740524,
    "value": "Karoonua",
    "postal_code": "93872"
  },
  {
    "id": 740524,
    "province_id": 74,
    "regency_id": 7405,
    "district_id": 740524,
    "value": "Sabulakoa",
    "postal_code": "93872"
  },
  {
    "id": 740524,
    "province_id": 74,
    "regency_id": 7405,
    "district_id": 740524,
    "value": "Talumbinga",
    "postal_code": "93872"
  },
  {
    "id": 740524,
    "province_id": 74,
    "regency_id": 7405,
    "district_id": 740524,
    "value": "Tetenggabo",
    "postal_code": "93872"
  },
  {
    "id": 740524,
    "province_id": 74,
    "regency_id": 7405,
    "district_id": 740524,
    "value": "Ulu Sabulakoa",
    "postal_code": "93872"
  },
  {
    "id": 740524,
    "province_id": 74,
    "regency_id": 7405,
    "district_id": 740524,
    "value": "Watu-Watu",
    "postal_code": "93872"
  },
  {
    "id": 740524,
    "province_id": 74,
    "regency_id": 7405,
    "district_id": 740524,
    "value": "Wawobende",
    "postal_code": "93872"
  }
]