[
  {
    "id": 110502,
    "province_id": 11,
    "regency_id": 1105,
    "district_id": 110502,
    "value": "Alue Lhee",
    "postal_code": "23681"
  },
  {
    "id": 110502,
    "province_id": 11,
    "regency_id": 1105,
    "district_id": 110502,
    "value": "Alue Lhok",
    "postal_code": "23681"
  },
  {
    "id": 110502,
    "province_id": 11,
    "regency_id": 1105,
    "district_id": 110502,
    "value": "Alue On",
    "postal_code": "23681"
  },
  {
    "id": 110502,
    "province_id": 11,
    "regency_id": 1105,
    "district_id": 110502,
    "value": "Alue Peudeung",
    "postal_code": "23681"
  },
  {
    "id": 110502,
    "province_id": 11,
    "regency_id": 1105,
    "district_id": 110502,
    "value": "Alue Tampak",
    "postal_code": "23681"
  },
  {
    "id": 110502,
    "province_id": 11,
    "regency_id": 1105,
    "district_id": 110502,
    "value": "Babah Meulaboh",
    "postal_code": "23681"
  },
  {
    "id": 110502,
    "province_id": 11,
    "regency_id": 1105,
    "district_id": 110502,
    "value": "Beureugang",
    "postal_code": "23681"
  },
  {
    "id": 110502,
    "province_id": 11,
    "regency_id": 1105,
    "district_id": 110502,
    "value": "Blang Dalam",
    "postal_code": "23681"
  },
  {
    "id": 110502,
    "province_id": 11,
    "regency_id": 1105,
    "district_id": 110502,
    "value": "Blang Geunang",
    "postal_code": "23681"
  },
  {
    "id": 110502,
    "province_id": 11,
    "regency_id": 1105,
    "district_id": 110502,
    "value": "Butu Jaya (Batu Jaya)",
    "postal_code": "23681"
  },
  {
    "id": 110502,
    "province_id": 11,
    "regency_id": 1105,
    "district_id": 110502,
    "value": "Drien Caleue (Drien Calee)",
    "postal_code": "23681"
  },
  {
    "id": 110502,
    "province_id": 11,
    "regency_id": 1105,
    "district_id": 110502,
    "value": "Kampung Masjid (Mesjid)",
    "postal_code": "23681"
  },
  {
    "id": 110502,
    "province_id": 11,
    "regency_id": 1105,
    "district_id": 110502,
    "value": "Keude Aron",
    "postal_code": "23681"
  },
  {
    "id": 110502,
    "province_id": 11,
    "regency_id": 1105,
    "district_id": 110502,
    "value": "Keude Tanjong",
    "postal_code": "23681"
  },
  {
    "id": 110502,
    "province_id": 11,
    "regency_id": 1105,
    "district_id": 110502,
    "value": "Keuramat",
    "postal_code": "23681"
  },
  {
    "id": 110502,
    "province_id": 11,
    "regency_id": 1105,
    "district_id": 110502,
    "value": "Marek",
    "postal_code": "23681"
  },
  {
    "id": 110502,
    "province_id": 11,
    "regency_id": 1105,
    "district_id": 110502,
    "value": "Meunasah Ara",
    "postal_code": "23681"
  },
  {
    "id": 110502,
    "province_id": 11,
    "regency_id": 1105,
    "district_id": 110502,
    "value": "Meunasah Buloh",
    "postal_code": "23681"
  },
  {
    "id": 110502,
    "province_id": 11,
    "regency_id": 1105,
    "district_id": 110502,
    "value": "Meunasah Gantung",
    "postal_code": "23681"
  },
  {
    "id": 110502,
    "province_id": 11,
    "regency_id": 1105,
    "district_id": 110502,
    "value": "Meunasah Rambot",
    "postal_code": "23681"
  },
  {
    "id": 110502,
    "province_id": 11,
    "regency_id": 1105,
    "district_id": 110502,
    "value": "Meunasah Rayeuk",
    "postal_code": "23681"
  },
  {
    "id": 110502,
    "province_id": 11,
    "regency_id": 1105,
    "district_id": 110502,
    "value": "Meunuang Tanjong (Menuang Tanjong)",
    "postal_code": "23681"
  },
  {
    "id": 110502,
    "province_id": 11,
    "regency_id": 1105,
    "district_id": 110502,
    "value": "Muko",
    "postal_code": "23681"
  },
  {
    "id": 110502,
    "province_id": 11,
    "regency_id": 1105,
    "district_id": 110502,
    "value": "Padang Mancang",
    "postal_code": "23681"
  },
  {
    "id": 110502,
    "province_id": 11,
    "regency_id": 1105,
    "district_id": 110502,
    "value": "Padang Sikabu",
    "postal_code": "23681"
  },
  {
    "id": 110502,
    "province_id": 11,
    "regency_id": 1105,
    "district_id": 110502,
    "value": "Palimbungan",
    "postal_code": "23681"
  },
  {
    "id": 110502,
    "province_id": 11,
    "regency_id": 1105,
    "district_id": 110502,
    "value": "Pasi Ara",
    "postal_code": "23681"
  },
  {
    "id": 110502,
    "province_id": 11,
    "regency_id": 1105,
    "district_id": 110502,
    "value": "Pasi Jambu",
    "postal_code": "23681"
  },
  {
    "id": 110502,
    "province_id": 11,
    "regency_id": 1105,
    "district_id": 110502,
    "value": "Pasi Jeumpa",
    "postal_code": "23681"
  },
  {
    "id": 110502,
    "province_id": 11,
    "regency_id": 1105,
    "district_id": 110502,
    "value": "Pasi Kumbang",
    "postal_code": "23681"
  },
  {
    "id": 110502,
    "province_id": 11,
    "regency_id": 1105,
    "district_id": 110502,
    "value": "Pasi Meugat",
    "postal_code": "23681"
  },
  {
    "id": 110502,
    "province_id": 11,
    "regency_id": 1105,
    "district_id": 110502,
    "value": "Pasi Teungoh",
    "postal_code": "23681"
  },
  {
    "id": 110502,
    "province_id": 11,
    "regency_id": 1105,
    "district_id": 110502,
    "value": "Peunia",
    "postal_code": "23681"
  },
  {
    "id": 110502,
    "province_id": 11,
    "regency_id": 1105,
    "district_id": 110502,
    "value": "Pucok Pungkie",
    "postal_code": "23681"
  },
  {
    "id": 110502,
    "province_id": 11,
    "regency_id": 1105,
    "district_id": 110502,
    "value": "Pungkie",
    "postal_code": "23681"
  },
  {
    "id": 110502,
    "province_id": 11,
    "regency_id": 1105,
    "district_id": 110502,
    "value": "Putim",
    "postal_code": "23681"
  },
  {
    "id": 110502,
    "province_id": 11,
    "regency_id": 1105,
    "district_id": 110502,
    "value": "Puuk",
    "postal_code": "23681"
  },
  {
    "id": 110502,
    "province_id": 11,
    "regency_id": 1105,
    "district_id": 110502,
    "value": "Sawang Teubei (Sawang Teubee)",
    "postal_code": "23681"
  },
  {
    "id": 110502,
    "province_id": 11,
    "regency_id": 1105,
    "district_id": 110502,
    "value": "Simpang",
    "postal_code": "23681"
  },
  {
    "id": 110502,
    "province_id": 11,
    "regency_id": 1105,
    "district_id": 110502,
    "value": "Tanjong Bungong (Tanjong Bunga)",
    "postal_code": "23681"
  },
  {
    "id": 110502,
    "province_id": 11,
    "regency_id": 1105,
    "district_id": 110502,
    "value": "Tanjong Meulaboh",
    "postal_code": "23681"
  },
  {
    "id": 110502,
    "province_id": 11,
    "regency_id": 1105,
    "district_id": 110502,
    "value": "Teladan (Teuladan)",
    "postal_code": "23681"
  },
  {
    "id": 110502,
    "province_id": 11,
    "regency_id": 1105,
    "district_id": 110502,
    "value": "Teupin Panah",
    "postal_code": "23681"
  },
  {
    "id": 110502,
    "province_id": 11,
    "regency_id": 1105,
    "district_id": 110502,
    "value": "Tumpok Ladang",
    "postal_code": "23681"
  }
]