[
  {
    "id": 1608092022,
    "province_id": 16,
    "regency_id": 1608,
    "district_id": 160809,
    "value": "Bangun Rejo",
    "postal_code": "32383"
  },
  {
    "id": 1608092023,
    "province_id": 16,
    "regency_id": 1608,
    "district_id": 160809,
    "value": "Batu Mas",
    "postal_code": "32383"
  },
  {
    "id": 1608092027,
    "province_id": 16,
    "regency_id": 1608,
    "district_id": 160809,
    "value": "Darma Buana",
    "postal_code": "32383"
  },
  {
    "id": 1608092020,
    "province_id": 16,
    "regency_id": 1608,
    "district_id": 160809,
    "value": "Karang Jaya",
    "postal_code": "32383"
  },
  {
    "id": 1608092016,
    "province_id": 16,
    "regency_id": 1608,
    "district_id": 160809,
    "value": "Karang Manik",
    "postal_code": "32383"
  },
  {
    "id": 1608092018,
    "province_id": 16,
    "regency_id": 1608,
    "district_id": 160809,
    "value": "Keli Rejo",
    "postal_code": "32383"
  },
  {
    "id": 1608092021,
    "province_id": 16,
    "regency_id": 1608,
    "district_id": 160809,
    "value": "Kemuning Jaya",
    "postal_code": "32383"
  },
  {
    "id": 1608092012,
    "province_id": 16,
    "regency_id": 1608,
    "district_id": 160809,
    "value": "Margo Mulyo",
    "postal_code": "32383"
  },
  {
    "id": 1608092029,
    "province_id": 16,
    "regency_id": 1608,
    "district_id": 160809,
    "value": "Purworejo",
    "postal_code": "32383"
  },
  {
    "id": 1608092015,
    "province_id": 16,
    "regency_id": 1608,
    "district_id": 160809,
    "value": "Purwosari",
    "postal_code": "32383"
  },
  {
    "id": 1608092005,
    "province_id": 16,
    "regency_id": 1608,
    "district_id": 160809,
    "value": "Raman Jaya",
    "postal_code": "32383"
  },
  {
    "id": 1608092028,
    "province_id": 16,
    "regency_id": 1608,
    "district_id": 160809,
    "value": "Rejo Mulyo",
    "postal_code": "32383"
  },
  {
    "id": 1608092010,
    "province_id": 16,
    "regency_id": 1608,
    "district_id": 160809,
    "value": "Sri Bantolo",
    "postal_code": "32383"
  },
  {
    "id": 1608092025,
    "province_id": 16,
    "regency_id": 1608,
    "district_id": 160809,
    "value": "Srijaya",
    "postal_code": "32383"
  },
  {
    "id": 1608092024,
    "province_id": 16,
    "regency_id": 1608,
    "district_id": 160809,
    "value": "Suka Jaya",
    "postal_code": "32383"
  },
  {
    "id": 1608092017,
    "province_id": 16,
    "regency_id": 1608,
    "district_id": 160809,
    "value": "Sumber Harapan",
    "postal_code": "32383"
  },
  {
    "id": 1608092006,
    "province_id": 16,
    "regency_id": 1608,
    "district_id": 160809,
    "value": "Sumber Jaya",
    "postal_code": "32383"
  },
  {
    "id": 1608092011,
    "province_id": 16,
    "regency_id": 1608,
    "district_id": 160809,
    "value": "Sumber Rahayu",
    "postal_code": "32383"
  },
  {
    "id": 1608092007,
    "province_id": 16,
    "regency_id": 1608,
    "district_id": 160809,
    "value": "Sumber Rejo",
    "postal_code": "32383"
  },
  {
    "id": 1608092008,
    "province_id": 16,
    "regency_id": 1608,
    "district_id": 160809,
    "value": "Sumber Sari",
    "postal_code": "32383"
  },
  {
    "id": 1608092004,
    "province_id": 16,
    "regency_id": 1608,
    "district_id": 160809,
    "value": "Tanjung Kemuning",
    "postal_code": "32383"
  },
  {
    "id": 1608092026,
    "province_id": 16,
    "regency_id": 1608,
    "district_id": 160809,
    "value": "Tegal Besar",
    "postal_code": "32383"
  },
  {
    "id": 1608092009,
    "province_id": 16,
    "regency_id": 1608,
    "district_id": 160809,
    "value": "Tegal Sari",
    "postal_code": "32383"
  },
  {
    "id": 1608092019,
    "province_id": 16,
    "regency_id": 1608,
    "district_id": 160809,
    "value": "Toto Rejo",
    "postal_code": "32383"
  }
]