[
  {
    "id": 110714,
    "province_id": 11,
    "regency_id": 1107,
    "district_id": 110714,
    "value": "Adang Beurabo (Adang)",
    "postal_code": "24161"
  },
  {
    "id": 110714,
    "province_id": 11,
    "regency_id": 1107,
    "district_id": 110714,
    "value": "Aron Bunot Gogo (Aron Beunot)",
    "postal_code": "24161"
  },
  {
    "id": 110714,
    "province_id": 11,
    "regency_id": 1107,
    "district_id": 110714,
    "value": "Balee Paloh (Balee)",
    "postal_code": "24161"
  },
  {
    "id": 110714,
    "province_id": 11,
    "regency_id": 1107,
    "district_id": 110714,
    "value": "Baro Beurabo",
    "postal_code": "24161"
  },
  {
    "id": 110714,
    "province_id": 11,
    "regency_id": 1107,
    "district_id": 110714,
    "value": "Baro Kunyet",
    "postal_code": "24161"
  },
  {
    "id": 110714,
    "province_id": 11,
    "regency_id": 1107,
    "district_id": 110714,
    "value": "Blang Geuleudieng",
    "postal_code": "24161"
  },
  {
    "id": 110714,
    "province_id": 11,
    "regency_id": 1107,
    "district_id": 110714,
    "value": "Blang Guci Kunyet (Blang Guci)",
    "postal_code": "24161"
  },
  {
    "id": 110714,
    "province_id": 11,
    "regency_id": 1107,
    "district_id": 110714,
    "value": "Buloh Gogo (Buloh)",
    "postal_code": "24161"
  },
  {
    "id": 110714,
    "province_id": 11,
    "regency_id": 1107,
    "district_id": 110714,
    "value": "Buloh Peudaya (Buloh Buni)",
    "postal_code": "24161"
  },
  {
    "id": 110714,
    "province_id": 11,
    "regency_id": 1107,
    "district_id": 110714,
    "value": "Buni Reulieng Peudaya (Buni Reuleung)",
    "postal_code": "24161"
  },
  {
    "id": 110714,
    "province_id": 11,
    "regency_id": 1107,
    "district_id": 110714,
    "value": "Capa Paloh (Capa)",
    "postal_code": "24161"
  },
  {
    "id": 110714,
    "province_id": 11,
    "regency_id": 1107,
    "district_id": 110714,
    "value": "Cot Keutapang Tanjong (Cot Keutapang)",
    "postal_code": "24161"
  },
  {
    "id": 110714,
    "province_id": 11,
    "regency_id": 1107,
    "district_id": 110714,
    "value": "Cut Paloh",
    "postal_code": "24161"
  },
  {
    "id": 110714,
    "province_id": 11,
    "regency_id": 1107,
    "district_id": 110714,
    "value": "Cut Peudaya (Cut)",
    "postal_code": "24161"
  },
  {
    "id": 110714,
    "province_id": 11,
    "regency_id": 1107,
    "district_id": 110714,
    "value": "Dayah Baroh Kunyet",
    "postal_code": "24161"
  },
  {
    "id": 110714,
    "province_id": 11,
    "regency_id": 1107,
    "district_id": 110714,
    "value": "Dayah Baroh Peudaya",
    "postal_code": "24161"
  },
  {
    "id": 110714,
    "province_id": 11,
    "regency_id": 1107,
    "district_id": 110714,
    "value": "Dayah Tanoh Kunyet (Dayah Tanoh)",
    "postal_code": "24161"
  },
  {
    "id": 110714,
    "province_id": 11,
    "regency_id": 1107,
    "district_id": 110714,
    "value": "Geulumpang Geuleudieng (Geulumpang)",
    "postal_code": "24161"
  },
  {
    "id": 110714,
    "province_id": 11,
    "regency_id": 1107,
    "district_id": 110714,
    "value": "Glee Gogo",
    "postal_code": "24161"
  },
  {
    "id": 110714,
    "province_id": 11,
    "regency_id": 1107,
    "district_id": 110714,
    "value": "Grong-Grong Gogo (Grong Grong)",
    "postal_code": "24161"
  },
  {
    "id": 110714,
    "province_id": 11,
    "regency_id": 1107,
    "district_id": 110714,
    "value": "Hagu Kunyet (Hagu)",
    "postal_code": "24161"
  },
  {
    "id": 110714,
    "province_id": 11,
    "regency_id": 1107,
    "district_id": 110714,
    "value": "Jok Tanjong (Jok)",
    "postal_code": "24161"
  },
  {
    "id": 110714,
    "province_id": 11,
    "regency_id": 1107,
    "district_id": 110714,
    "value": "Jurong Anoe Paloh (Jurong Anoe)",
    "postal_code": "24161"
  },
  {
    "id": 110714,
    "province_id": 11,
    "regency_id": 1107,
    "district_id": 110714,
    "value": "Jurong Gampong Cut Paloh (Gurong Cot)",
    "postal_code": "24161"
  },
  {
    "id": 110714,
    "province_id": 11,
    "regency_id": 1107,
    "district_id": 110714,
    "value": "Kambuk Nicah Kunyet (Kambuk Nicah)",
    "postal_code": "24161"
  },
  {
    "id": 110714,
    "province_id": 11,
    "regency_id": 1107,
    "district_id": 110714,
    "value": "Kambuk Payapi Kunyet (Kambuk Payapi)",
    "postal_code": "24161"
  },
  {
    "id": 110714,
    "province_id": 11,
    "regency_id": 1107,
    "district_id": 110714,
    "value": "Keupula Tanjong",
    "postal_code": "24161"
  },
  {
    "id": 110714,
    "province_id": 11,
    "regency_id": 1107,
    "district_id": 110714,
    "value": "Khang Tanjong",
    "postal_code": "24161"
  },
  {
    "id": 110714,
    "province_id": 11,
    "regency_id": 1107,
    "district_id": 110714,
    "value": "Kreet Paloh",
    "postal_code": "24161"
  },
  {
    "id": 110714,
    "province_id": 11,
    "regency_id": 1107,
    "district_id": 110714,
    "value": "Kumbang Gogo (Kumbang)",
    "postal_code": "24161"
  },
  {
    "id": 110714,
    "province_id": 11,
    "regency_id": 1107,
    "district_id": 110714,
    "value": "Leuhob Paloh (Leuhob)",
    "postal_code": "24161"
  },
  {
    "id": 110714,
    "province_id": 11,
    "regency_id": 1107,
    "district_id": 110714,
    "value": "Leun Tanjong (Leuen)",
    "postal_code": "24161"
  },
  {
    "id": 110714,
    "province_id": 11,
    "regency_id": 1107,
    "district_id": 110714,
    "value": "Mesjid Beurabo",
    "postal_code": "24161"
  },
  {
    "id": 110714,
    "province_id": 11,
    "regency_id": 1107,
    "district_id": 110714,
    "value": "Mesjid Geuleudieng",
    "postal_code": "24161"
  },
  {
    "id": 110714,
    "province_id": 11,
    "regency_id": 1107,
    "district_id": 110714,
    "value": "Mesjid Gogo",
    "postal_code": "24161"
  },
  {
    "id": 110714,
    "province_id": 11,
    "regency_id": 1107,
    "district_id": 110714,
    "value": "Mesjid Kunyet",
    "postal_code": "24161"
  },
  {
    "id": 110714,
    "province_id": 11,
    "regency_id": 1107,
    "district_id": 110714,
    "value": "Mesjid Paloh",
    "postal_code": "24161"
  },
  {
    "id": 110714,
    "province_id": 11,
    "regency_id": 1107,
    "district_id": 110714,
    "value": "Mesjid Peudaya",
    "postal_code": "24161"
  },
  {
    "id": 110714,
    "province_id": 11,
    "regency_id": 1107,
    "district_id": 110714,
    "value": "Mesjid Tanjong",
    "postal_code": "24161"
  },
  {
    "id": 110714,
    "province_id": 11,
    "regency_id": 1107,
    "district_id": 110714,
    "value": "Meuke Beurabo",
    "postal_code": "24161"
  },
  {
    "id": 110714,
    "province_id": 11,
    "regency_id": 1107,
    "district_id": 110714,
    "value": "Meuke Gogo",
    "postal_code": "24161"
  },
  {
    "id": 110714,
    "province_id": 11,
    "regency_id": 1107,
    "district_id": 110714,
    "value": "Meuriya Tanjong (Meurinya)",
    "postal_code": "24161"
  },
  {
    "id": 110714,
    "province_id": 11,
    "regency_id": 1107,
    "district_id": 110714,
    "value": "Paloh Jeurat Beurabo (Paloh Jeurat)",
    "postal_code": "24161"
  },
  {
    "id": 110714,
    "province_id": 11,
    "regency_id": 1107,
    "district_id": 110714,
    "value": "Pante Cermen Paloh (Pante Cermen)",
    "postal_code": "24161"
  },
  {
    "id": 110714,
    "province_id": 11,
    "regency_id": 1107,
    "district_id": 110714,
    "value": "Pante Crung Tanjong",
    "postal_code": "24161"
  },
  {
    "id": 110714,
    "province_id": 11,
    "regency_id": 1107,
    "district_id": 110714,
    "value": "Pasar Paloh (Pasar)",
    "postal_code": "24161"
  },
  {
    "id": 110714,
    "province_id": 11,
    "regency_id": 1107,
    "district_id": 110714,
    "value": "Perlak Peudaya (Perlak)",
    "postal_code": "24161"
  },
  {
    "id": 110714,
    "province_id": 11,
    "regency_id": 1107,
    "district_id": 110714,
    "value": "Piala Kunyet",
    "postal_code": "24161"
  },
  {
    "id": 110714,
    "province_id": 11,
    "regency_id": 1107,
    "district_id": 110714,
    "value": "Pulo Hagu Tanjong (Pulo Hagu)",
    "postal_code": "24161"
  },
  {
    "id": 110714,
    "province_id": 11,
    "regency_id": 1107,
    "district_id": 110714,
    "value": "Raya Gogo (Raya)",
    "postal_code": "24161"
  },
  {
    "id": 110714,
    "province_id": 11,
    "regency_id": 1107,
    "district_id": 110714,
    "value": "Seukembrok Beurabo (Sekeumbrok)",
    "postal_code": "24161"
  },
  {
    "id": 110714,
    "province_id": 11,
    "regency_id": 1107,
    "district_id": 110714,
    "value": "Seuleunggieng Beurabo (Seuleunggieng)",
    "postal_code": "24161"
  },
  {
    "id": 110714,
    "province_id": 11,
    "regency_id": 1107,
    "district_id": 110714,
    "value": "Seunadeu Kunyet (Seunadeu)",
    "postal_code": "24161"
  },
  {
    "id": 110714,
    "province_id": 11,
    "regency_id": 1107,
    "district_id": 110714,
    "value": "Siron Paloh (Siron)",
    "postal_code": "24161"
  },
  {
    "id": 110714,
    "province_id": 11,
    "regency_id": 1107,
    "district_id": 110714,
    "value": "Siron Tanjong",
    "postal_code": "24161"
  },
  {
    "id": 110714,
    "province_id": 11,
    "regency_id": 1107,
    "district_id": 110714,
    "value": "Sukon Peudaya (Sukon)",
    "postal_code": "24161"
  },
  {
    "id": 110714,
    "province_id": 11,
    "regency_id": 1107,
    "district_id": 110714,
    "value": "Suyo Paloh (Suyo)",
    "postal_code": "24161"
  },
  {
    "id": 110714,
    "province_id": 11,
    "regency_id": 1107,
    "district_id": 110714,
    "value": "Teungoh Drien Gogo (Teungoh Drien)",
    "postal_code": "24161"
  },
  {
    "id": 110714,
    "province_id": 11,
    "regency_id": 1107,
    "district_id": 110714,
    "value": "Teungoh Peudaya (Teungoh)",
    "postal_code": "24161"
  },
  {
    "id": 110714,
    "province_id": 11,
    "regency_id": 1107,
    "district_id": 110714,
    "value": "Trieng Paloh (Trieng)",
    "postal_code": "24161"
  },
  {
    "id": 110714,
    "province_id": 11,
    "regency_id": 1107,
    "district_id": 110714,
    "value": "Tuha Gogo",
    "postal_code": "24161"
  },
  {
    "id": 110714,
    "province_id": 11,
    "regency_id": 1107,
    "district_id": 110714,
    "value": "Tuha Peudaya (Tuha)",
    "postal_code": "24161"
  },
  {
    "id": 110714,
    "province_id": 11,
    "regency_id": 1107,
    "district_id": 110714,
    "value": "Tunong Peudaya",
    "postal_code": "24161"
  },
  {
    "id": 110714,
    "province_id": 11,
    "regency_id": 1107,
    "district_id": 110714,
    "value": "Tunong Tanjong",
    "postal_code": "24161"
  }
]