[
  {
    "id": 930110,
    "province_id": 93,
    "regency_id": 9301,
    "district_id": 930110,
    "value": "Bouwer",
    "postal_code": "99633"
  },
  {
    "id": 930110,
    "province_id": 93,
    "regency_id": 9301,
    "district_id": 930110,
    "value": "Bumun",
    "postal_code": "99633"
  },
  {
    "id": 930110,
    "province_id": 93,
    "regency_id": 9301,
    "district_id": 930110,
    "value": "Bunggay",
    "postal_code": "99633"
  },
  {
    "id": 930110,
    "province_id": 93,
    "regency_id": 9301,
    "district_id": 930110,
    "value": "Bupul",
    "postal_code": "99633"
  },
  {
    "id": 930110,
    "province_id": 93,
    "regency_id": 9301,
    "district_id": 930110,
    "value": "Bupul Indah",
    "postal_code": "99633"
  },
  {
    "id": 930110,
    "province_id": 93,
    "regency_id": 9301,
    "district_id": 930110,
    "value": "Enggal Jaya",
    "postal_code": "99633"
  },
  {
    "id": 930110,
    "province_id": 93,
    "regency_id": 9301,
    "district_id": 930110,
    "value": "Gerisar (Geriser)",
    "postal_code": "99633"
  },
  {
    "id": 930110,
    "province_id": 93,
    "regency_id": 9301,
    "district_id": 930110,
    "value": "Kweel",
    "postal_code": "99633"
  },
  {
    "id": 930110,
    "province_id": 93,
    "regency_id": 9301,
    "district_id": 930110,
    "value": "Metaat Makmur (Mantaat Makmur)",
    "postal_code": "99633"
  },
  {
    "id": 930110,
    "province_id": 93,
    "regency_id": 9301,
    "district_id": 930110,
    "value": "Sipias",
    "postal_code": "99633"
  },
  {
    "id": 930110,
    "province_id": 93,
    "regency_id": 9301,
    "district_id": 930110,
    "value": "Tanas (Tanaas)",
    "postal_code": "99633"
  },
  {
    "id": 930110,
    "province_id": 93,
    "regency_id": 9301,
    "district_id": 930110,
    "value": "Tof-Tof (Taftof)",
    "postal_code": "99633"
  }
]