[
  {
    "id": 1407142009,
    "province_id": 14,
    "regency_id": 1407,
    "district_id": 140714,
    "value": "Karyo Mulyo Sari",
    "postal_code": "28913"
  },
  {
    "id": 1407142008,
    "province_id": 14,
    "regency_id": 1407,
    "district_id": 140714,
    "value": "Kubu I",
    "postal_code": "28913"
  },
  {
    "id": 1407142001,
    "province_id": 14,
    "regency_id": 1407,
    "district_id": 140714,
    "value": "Pedamaran",
    "postal_code": "28913"
  },
  {
    "id": 1407142006,
    "province_id": 14,
    "regency_id": 1407,
    "district_id": 140714,
    "value": "Pekaitan",
    "postal_code": "28913"
  },
  {
    "id": 1407142002,
    "province_id": 14,
    "regency_id": 1407,
    "district_id": 140714,
    "value": "Rokan Baru",
    "postal_code": "28913"
  },
  {
    "id": 1407142010,
    "province_id": 14,
    "regency_id": 1407,
    "district_id": 140714,
    "value": "Rokan Baru Pesisir",
    "postal_code": "28913"
  },
  {
    "id": 1407142003,
    "province_id": 14,
    "regency_id": 1407,
    "district_id": 140714,
    "value": "Sei Besar",
    "postal_code": "28913"
  },
  {
    "id": 1407142007,
    "province_id": 14,
    "regency_id": 1407,
    "district_id": 140714,
    "value": "Suak Air Hitam",
    "postal_code": "28913"
  },
  {
    "id": 1407142004,
    "province_id": 14,
    "regency_id": 1407,
    "district_id": 140714,
    "value": "Suak Temenggung",
    "postal_code": "28913"
  },
  {
    "id": 1407142005,
    "province_id": 14,
    "regency_id": 1407,
    "district_id": 140714,
    "value": "Teluk Bano II (Telukbano II)",
    "postal_code": "28913"
  }
]