[
  {
    "id": 610709,
    "province_id": 61,
    "regency_id": 6107,
    "district_id": 610709,
    "value": "Ampar Benteng",
    "postal_code": "79214"
  },
  {
    "id": 610709,
    "province_id": 61,
    "regency_id": 6107,
    "district_id": 610709,
    "value": "Bana",
    "postal_code": "79214"
  },
  {
    "id": 610709,
    "province_id": 61,
    "regency_id": 6107,
    "district_id": 610709,
    "value": "Bangun Sari",
    "postal_code": "79214"
  },
  {
    "id": 610709,
    "province_id": 61,
    "regency_id": 6107,
    "district_id": 610709,
    "value": "Benteng",
    "postal_code": "79214"
  },
  {
    "id": 610709,
    "province_id": 61,
    "regency_id": 6107,
    "district_id": 610709,
    "value": "Dharma Bhakti",
    "postal_code": "79214"
  },
  {
    "id": 610709,
    "province_id": 61,
    "regency_id": 6107,
    "district_id": 610709,
    "value": "Lulang",
    "postal_code": "79214"
  },
  {
    "id": 610709,
    "province_id": 61,
    "regency_id": 6107,
    "district_id": 610709,
    "value": "Malo Jelayan",
    "postal_code": "79214"
  },
  {
    "id": 610709,
    "province_id": 61,
    "regency_id": 6107,
    "district_id": 610709,
    "value": "Puteng",
    "postal_code": "79214"
  },
  {
    "id": 610709,
    "province_id": 61,
    "regency_id": 6107,
    "district_id": 610709,
    "value": "Sebente",
    "postal_code": "79214"
  },
  {
    "id": 610709,
    "province_id": 61,
    "regency_id": 6107,
    "district_id": 610709,
    "value": "Sebetung Menyala",
    "postal_code": "79214"
  },
  {
    "id": 610709,
    "province_id": 61,
    "regency_id": 6107,
    "district_id": 610709,
    "value": "Sekaruh",
    "postal_code": "79214"
  },
  {
    "id": 610709,
    "province_id": 61,
    "regency_id": 6107,
    "district_id": 610709,
    "value": "Setia Jaya",
    "postal_code": "79214"
  },
  {
    "id": 610709,
    "province_id": 61,
    "regency_id": 6107,
    "district_id": 610709,
    "value": "Sumber Karya",
    "postal_code": "79214"
  },
  {
    "id": 610709,
    "province_id": 61,
    "regency_id": 6107,
    "district_id": 610709,
    "value": "Tanjung",
    "postal_code": "79214"
  },
  {
    "id": 610709,
    "province_id": 61,
    "regency_id": 6107,
    "district_id": 610709,
    "value": "Telidik",
    "postal_code": "79214"
  },
  {
    "id": 610709,
    "province_id": 61,
    "regency_id": 6107,
    "district_id": 610709,
    "value": "Temia Sio",
    "postal_code": "79214"
  },
  {
    "id": 610709,
    "province_id": 61,
    "regency_id": 6107,
    "district_id": 610709,
    "value": "Teriak",
    "postal_code": "79214"
  },
  {
    "id": 610709,
    "province_id": 61,
    "regency_id": 6107,
    "district_id": 610709,
    "value": "Tubajur",
    "postal_code": "79214"
  }
]