[
  {
    "id": 740811,
    "province_id": 74,
    "regency_id": 7408,
    "district_id": 740811,
    "value": "Amoe",
    "postal_code": "93952"
  },
  {
    "id": 740811,
    "province_id": 74,
    "regency_id": 7408,
    "district_id": 740811,
    "value": "Kalo",
    "postal_code": "93952"
  },
  {
    "id": 740811,
    "province_id": 74,
    "regency_id": 7408,
    "district_id": 740811,
    "value": "Lawata",
    "postal_code": "93952"
  },
  {
    "id": 740811,
    "province_id": 74,
    "regency_id": 7408,
    "district_id": 740811,
    "value": "Lengkong Batu",
    "postal_code": "93952"
  },
  {
    "id": 740811,
    "province_id": 74,
    "regency_id": 7408,
    "district_id": 740811,
    "value": "Mataleuno",
    "postal_code": "93952"
  },
  {
    "id": 740811,
    "province_id": 74,
    "regency_id": 7408,
    "district_id": 740811,
    "value": "Pakue",
    "postal_code": "93952"
  },
  {
    "id": 740811,
    "province_id": 74,
    "regency_id": 7408,
    "district_id": 740811,
    "value": "Puundoho",
    "postal_code": "93952"
  },
  {
    "id": 740811,
    "province_id": 74,
    "regency_id": 7408,
    "district_id": 740811,
    "value": "Saludongka",
    "postal_code": "93952"
  },
  {
    "id": 740811,
    "province_id": 74,
    "regency_id": 7408,
    "district_id": 740811,
    "value": "Teposua",
    "postal_code": "93952"
  }
]