[
  {
    "id": 3510161013,
    "province_id": 35,
    "regency_id": 3510,
    "district_id": 351016,
    "value": "Kampungmandar (Kampung Mandar)",
    "postal_code": "68419"
  },
  {
    "id": 3510161012,
    "province_id": 35,
    "regency_id": 3510,
    "district_id": 351016,
    "value": "Kampungmelayu (Kampung Melayu)",
    "postal_code": "68412"
  },
  {
    "id": 3510161007,
    "province_id": 35,
    "regency_id": 3510,
    "district_id": 351016,
    "value": "Karangrejo",
    "postal_code": "68411"
  },
  {
    "id": 3510161003,
    "province_id": 35,
    "regency_id": 3510,
    "district_id": 351016,
    "value": "Kebalenan",
    "postal_code": "68417"
  },
  {
    "id": 3510161008,
    "province_id": 35,
    "regency_id": 3510,
    "district_id": 351016,
    "value": "Kepatihan",
    "postal_code": "68411"
  },
  {
    "id": 3510161006,
    "province_id": 35,
    "regency_id": 3510,
    "district_id": 351016,
    "value": "Kertosari",
    "postal_code": "68418"
  },
  {
    "id": 3510161014,
    "province_id": 35,
    "regency_id": 3510,
    "district_id": 351016,
    "value": "Lateng",
    "postal_code": "68413"
  },
  {
    "id": 3510161001,
    "province_id": 35,
    "regency_id": 3510,
    "district_id": 351016,
    "value": "Pakis",
    "postal_code": "68419"
  },
  {
    "id": 3510161009,
    "province_id": 35,
    "regency_id": 3510,
    "district_id": 351016,
    "value": "Panderejo",
    "postal_code": "68415"
  },
  {
    "id": 3510161004,
    "province_id": 35,
    "regency_id": 3510,
    "district_id": 351016,
    "value": "Penganjuran",
    "postal_code": "68416"
  },
  {
    "id": 3510161016,
    "province_id": 35,
    "regency_id": 3510,
    "district_id": 351016,
    "value": "Pengantigan",
    "postal_code": "68414"
  },
  {
    "id": 3510161010,
    "province_id": 35,
    "regency_id": 3510,
    "district_id": 351016,
    "value": "Singonegaran",
    "postal_code": "68415"
  },
  {
    "id": 3510161015,
    "province_id": 35,
    "regency_id": 3510,
    "district_id": 351016,
    "value": "Singotrunan",
    "postal_code": "68414"
  },
  {
    "id": 3510161002,
    "province_id": 35,
    "regency_id": 3510,
    "district_id": 351016,
    "value": "Sobo",
    "postal_code": "68418"
  },
  {
    "id": 3510161018,
    "province_id": 35,
    "regency_id": 3510,
    "district_id": 351016,
    "value": "Sumberrejo",
    "postal_code": "68419"
  },
  {
    "id": 3510161017,
    "province_id": 35,
    "regency_id": 3510,
    "district_id": 351016,
    "value": "Tamanbaru",
    "postal_code": "68416"
  },
  {
    "id": 3510161011,
    "province_id": 35,
    "regency_id": 3510,
    "district_id": 351016,
    "value": "Temenggungan",
    "postal_code": "68412"
  },
  {
    "id": 3510161005,
    "province_id": 35,
    "regency_id": 3510,
    "district_id": 351016,
    "value": "Tukangkayu",
    "postal_code": "68416"
  }
]