[
  {
    "id": 9504152003,
    "province_id": 95,
    "regency_id": 9504,
    "district_id": 950415,
    "value": "Abimbak",
    "postal_code": "99013"
  },
  {
    "id": 9504152001,
    "province_id": 95,
    "regency_id": 9504,
    "district_id": 950415,
    "value": "Bokoneri",
    "postal_code": "99013"
  },
  {
    "id": 9504152010,
    "province_id": 95,
    "regency_id": 9504,
    "district_id": 950415,
    "value": "Bolly",
    "postal_code": "99013"
  },
  {
    "id": 9504152002,
    "province_id": 95,
    "regency_id": 9504,
    "district_id": 950415,
    "value": "Donggem",
    "postal_code": "99013"
  },
  {
    "id": 9504152008,
    "province_id": 95,
    "regency_id": 9504,
    "district_id": 950415,
    "value": "Durima",
    "postal_code": "99013"
  },
  {
    "id": 9504152016,
    "province_id": 95,
    "regency_id": 9504,
    "district_id": 950415,
    "value": "Kanere",
    "postal_code": "99013"
  },
  {
    "id": 9504152005,
    "province_id": 95,
    "regency_id": 9504,
    "district_id": 950415,
    "value": "Kanewunuk",
    "postal_code": "99013"
  },
  {
    "id": 9504152007,
    "province_id": 95,
    "regency_id": 9504,
    "district_id": 950415,
    "value": "Kurewunuk",
    "postal_code": "99013"
  },
  {
    "id": 9504152009,
    "province_id": 95,
    "regency_id": 9504,
    "district_id": 950415,
    "value": "Lerewere",
    "postal_code": "99013"
  },
  {
    "id": 9504152004,
    "province_id": 95,
    "regency_id": 9504,
    "district_id": 950415,
    "value": "Munagame",
    "postal_code": "99013"
  },
  {
    "id": 9504152006,
    "province_id": 95,
    "regency_id": 9504,
    "district_id": 950415,
    "value": "Nanggurilime",
    "postal_code": "99013"
  },
  {
    "id": 9504152017,
    "province_id": 95,
    "regency_id": 9504,
    "district_id": 950415,
    "value": "Nunggalo",
    "postal_code": "99013"
  },
  {
    "id": 9504152011,
    "province_id": 95,
    "regency_id": 9504,
    "district_id": 950415,
    "value": "Omuk",
    "postal_code": "99013"
  },
  {
    "id": 9504152015,
    "province_id": 95,
    "regency_id": 9504,
    "district_id": 950415,
    "value": "Tanabume",
    "postal_code": "99013"
  },
  {
    "id": 9504152014,
    "province_id": 95,
    "regency_id": 9504,
    "district_id": 950415,
    "value": "Waringga",
    "postal_code": "99013"
  },
  {
    "id": 9504152018,
    "province_id": 95,
    "regency_id": 9504,
    "district_id": 950415,
    "value": "Weri",
    "postal_code": "99013"
  },
  {
    "id": 9504152013,
    "province_id": 95,
    "regency_id": 9504,
    "district_id": 950415,
    "value": "Wonaga",
    "postal_code": "99013"
  }
]