[
  {
    "id": 910314,
    "province_id": 91,
    "regency_id": 9103,
    "district_id": 910314,
    "value": "Besum",
    "postal_code": "99360"
  },
  {
    "id": 910314,
    "province_id": 91,
    "regency_id": 9103,
    "district_id": 910314,
    "value": "Hanggaiy Hamong",
    "postal_code": "99360"
  },
  {
    "id": 910314,
    "province_id": 91,
    "regency_id": 9103,
    "district_id": 910314,
    "value": "Imestum (Imustum)",
    "postal_code": "99360"
  },
  {
    "id": 910314,
    "province_id": 91,
    "regency_id": 9103,
    "district_id": 910314,
    "value": "Karya Bumi",
    "postal_code": "99360"
  },
  {
    "id": 910314,
    "province_id": 91,
    "regency_id": 9103,
    "district_id": 910314,
    "value": "Sanggai",
    "postal_code": "99360"
  },
  {
    "id": 910314,
    "province_id": 91,
    "regency_id": 9103,
    "district_id": 910314,
    "value": "Sarmai Atas",
    "postal_code": "99360"
  },
  {
    "id": 910314,
    "province_id": 91,
    "regency_id": 9103,
    "district_id": 910314,
    "value": "Sarmai Bawah",
    "postal_code": "99360"
  },
  {
    "id": 910314,
    "province_id": 91,
    "regency_id": 9103,
    "district_id": 910314,
    "value": "Sumbe",
    "postal_code": "99360"
  },
  {
    "id": 910314,
    "province_id": 91,
    "regency_id": 9103,
    "district_id": 910314,
    "value": "Yakasib (Yakasip/Yokasib)",
    "postal_code": "99360"
  }
]