[
  {
    "id": 7301032007,
    "province_id": 73,
    "regency_id": 7301,
    "district_id": 730103,
    "value": "Barat Lambongan",
    "postal_code": "92854"
  },
  {
    "id": 7301031001,
    "province_id": 73,
    "regency_id": 7301,
    "district_id": 730103,
    "value": "Batangmata",
    "postal_code": "92854"
  },
  {
    "id": 7301031002,
    "province_id": 73,
    "regency_id": 7301,
    "district_id": 730103,
    "value": "Batangmata Sapo",
    "postal_code": "92854"
  },
  {
    "id": 7301032008,
    "province_id": 73,
    "regency_id": 7301,
    "district_id": 730103,
    "value": "Bontona Saluk (Bontonasaluk)",
    "postal_code": "92854"
  },
  {
    "id": 7301032005,
    "province_id": 73,
    "regency_id": 7301,
    "district_id": 730103,
    "value": "Bungaiya",
    "postal_code": "92854"
  },
  {
    "id": 7301032006,
    "province_id": 73,
    "regency_id": 7301,
    "district_id": 730103,
    "value": "Kayu Bauk",
    "postal_code": "92854"
  },
  {
    "id": 7301032010,
    "province_id": 73,
    "regency_id": 7301,
    "district_id": 730103,
    "value": "Maharaya (Maharayya)",
    "postal_code": "92854"
  },
  {
    "id": 7301032011,
    "province_id": 73,
    "regency_id": 7301,
    "district_id": 730103,
    "value": "Menara Indah",
    "postal_code": "92854"
  },
  {
    "id": 7301032009,
    "province_id": 73,
    "regency_id": 7301,
    "district_id": 730103,
    "value": "Onto",
    "postal_code": "92854"
  },
  {
    "id": 7301032003,
    "province_id": 73,
    "regency_id": 7301,
    "district_id": 730103,
    "value": "Pamatata",
    "postal_code": "92854"
  },
  {
    "id": 7301032015,
    "province_id": 73,
    "regency_id": 7301,
    "district_id": 730103,
    "value": "Tamalanrea",
    "postal_code": "92854"
  },
  {
    "id": 7301032004,
    "province_id": 73,
    "regency_id": 7301,
    "district_id": 730103,
    "value": "Tanete",
    "postal_code": "92854"
  }
]