[
  {
    "id": 331111,
    "province_id": 33,
    "regency_id": 3311,
    "district_id": 331111,
    "value": "Blimbing",
    "postal_code": "57557"
  },
  {
    "id": 331111,
    "province_id": 33,
    "regency_id": 3311,
    "district_id": 331111,
    "value": "Geneng",
    "postal_code": "57557"
  },
  {
    "id": 331111,
    "province_id": 33,
    "regency_id": 3311,
    "district_id": 331111,
    "value": "Jati",
    "postal_code": "57557"
  },
  {
    "id": 331111,
    "province_id": 33,
    "regency_id": 3311,
    "district_id": 331111,
    "value": "Kagokan",
    "postal_code": "57557"
  },
  {
    "id": 331111,
    "province_id": 33,
    "regency_id": 3311,
    "district_id": 331111,
    "value": "Klaseman",
    "postal_code": "57557"
  },
  {
    "id": 331111,
    "province_id": 33,
    "regency_id": 3311,
    "district_id": 331111,
    "value": "Krajan",
    "postal_code": "57557"
  },
  {
    "id": 331111,
    "province_id": 33,
    "regency_id": 3311,
    "district_id": 331111,
    "value": "Luwang",
    "postal_code": "57557"
  },
  {
    "id": 331111,
    "province_id": 33,
    "regency_id": 3311,
    "district_id": 331111,
    "value": "Mayang",
    "postal_code": "57557"
  },
  {
    "id": 331111,
    "province_id": 33,
    "regency_id": 3311,
    "district_id": 331111,
    "value": "Sanggung",
    "postal_code": "57557"
  },
  {
    "id": 331111,
    "province_id": 33,
    "regency_id": 3311,
    "district_id": 331111,
    "value": "Sraten",
    "postal_code": "57557"
  },
  {
    "id": 331111,
    "province_id": 33,
    "regency_id": 3311,
    "district_id": 331111,
    "value": "Tempel",
    "postal_code": "57557"
  },
  {
    "id": 331111,
    "province_id": 33,
    "regency_id": 3311,
    "district_id": 331111,
    "value": "Trangsan",
    "postal_code": "57557"
  },
  {
    "id": 331111,
    "province_id": 33,
    "regency_id": 3311,
    "district_id": 331111,
    "value": "Trosemi",
    "postal_code": "57557"
  },
  {
    "id": 331111,
    "province_id": 33,
    "regency_id": 3311,
    "district_id": 331111,
    "value": "Wironanggan",
    "postal_code": "57557"
  }
]