[
  {
    "id": 120606,
    "province_id": 12,
    "regency_id": 1206,
    "district_id": 120606,
    "value": "Bandar Meriah",
    "postal_code": "22161"
  },
  {
    "id": 120606,
    "province_id": 12,
    "regency_id": 1206,
    "district_id": 120606,
    "value": "Barung Kersap",
    "postal_code": "22161"
  },
  {
    "id": 120606,
    "province_id": 12,
    "regency_id": 1206,
    "district_id": 120606,
    "value": "Biaknampe (Biak Nampe)",
    "postal_code": "22161"
  },
  {
    "id": 120606,
    "province_id": 12,
    "regency_id": 1206,
    "district_id": 120606,
    "value": "Buluhnaman (Buluh Naman)",
    "postal_code": "22161"
  },
  {
    "id": 120606,
    "province_id": 12,
    "regency_id": 1206,
    "district_id": 120606,
    "value": "Gunung Manumpak",
    "postal_code": "22161"
  },
  {
    "id": 120606,
    "province_id": 12,
    "regency_id": 1206,
    "district_id": 120606,
    "value": "Gunung Saribu",
    "postal_code": "22161"
  },
  {
    "id": 120606,
    "province_id": 12,
    "regency_id": 1206,
    "district_id": 120606,
    "value": "Gurubenua",
    "postal_code": "22161"
  },
  {
    "id": 120606,
    "province_id": 12,
    "regency_id": 1206,
    "district_id": 120606,
    "value": "Kaban Tua (Kabantua)",
    "postal_code": "22161"
  },
  {
    "id": 120606,
    "province_id": 12,
    "regency_id": 1206,
    "district_id": 120606,
    "value": "Kineppen",
    "postal_code": "22161"
  },
  {
    "id": 120606,
    "province_id": 12,
    "regency_id": 1206,
    "district_id": 120606,
    "value": "Kuta Gerat (Kutagerat)",
    "postal_code": "22161"
  },
  {
    "id": 120606,
    "province_id": 12,
    "regency_id": 1206,
    "district_id": 120606,
    "value": "Kuta Suah (Kutasuah)",
    "postal_code": "22161"
  },
  {
    "id": 120606,
    "province_id": 12,
    "regency_id": 1206,
    "district_id": 120606,
    "value": "Kutambaru",
    "postal_code": "22161"
  },
  {
    "id": 120606,
    "province_id": 12,
    "regency_id": 1206,
    "district_id": 120606,
    "value": "Munte (Munthe)",
    "postal_code": "22161"
  },
  {
    "id": 120606,
    "province_id": 12,
    "regency_id": 1206,
    "district_id": 120606,
    "value": "Nageri",
    "postal_code": "22161"
  },
  {
    "id": 120606,
    "province_id": 12,
    "regency_id": 1206,
    "district_id": 120606,
    "value": "Parimbalang",
    "postal_code": "22161"
  },
  {
    "id": 120606,
    "province_id": 12,
    "regency_id": 1206,
    "district_id": 120606,
    "value": "Pertumbungen",
    "postal_code": "22161"
  },
  {
    "id": 120606,
    "province_id": 12,
    "regency_id": 1206,
    "district_id": 120606,
    "value": "Sarimunte",
    "postal_code": "22161"
  },
  {
    "id": 120606,
    "province_id": 12,
    "regency_id": 1206,
    "district_id": 120606,
    "value": "Sarinembah",
    "postal_code": "22161"
  },
  {
    "id": 120606,
    "province_id": 12,
    "regency_id": 1206,
    "district_id": 120606,
    "value": "Selakkar",
    "postal_code": "22161"
  },
  {
    "id": 120606,
    "province_id": 12,
    "regency_id": 1206,
    "district_id": 120606,
    "value": "Singgamanik",
    "postal_code": "22161"
  },
  {
    "id": 120606,
    "province_id": 12,
    "regency_id": 1206,
    "district_id": 120606,
    "value": "Sukarame",
    "postal_code": "22161"
  },
  {
    "id": 120606,
    "province_id": 12,
    "regency_id": 1206,
    "district_id": 120606,
    "value": "Tanjung Beringin",
    "postal_code": "22161"
  }
]