[
  {
    "id": 3316112006,
    "province_id": 33,
    "regency_id": 3316,
    "district_id": 331611,
    "value": "Bacem",
    "postal_code": "58253"
  },
  {
    "id": 3316112014,
    "province_id": 33,
    "regency_id": 3316,
    "district_id": 331611,
    "value": "Balongrejo",
    "postal_code": "58253"
  },
  {
    "id": 3316112005,
    "province_id": 33,
    "regency_id": 3316,
    "district_id": 331611,
    "value": "Balongsari",
    "postal_code": "58253"
  },
  {
    "id": 3316112009,
    "province_id": 33,
    "regency_id": 3316,
    "district_id": 331611,
    "value": "Banjarejo",
    "postal_code": "58253"
  },
  {
    "id": 3316112020,
    "province_id": 33,
    "regency_id": 3316,
    "district_id": 331611,
    "value": "Buluroto",
    "postal_code": "58253"
  },
  {
    "id": 3316112012,
    "province_id": 33,
    "regency_id": 3316,
    "district_id": 331611,
    "value": "Gedongsari",
    "postal_code": "58253"
  },
  {
    "id": 3316112002,
    "province_id": 33,
    "regency_id": 3316,
    "district_id": 331611,
    "value": "Jatiklampok",
    "postal_code": "58253"
  },
  {
    "id": 3316112001,
    "province_id": 33,
    "regency_id": 3316,
    "district_id": 331611,
    "value": "Jatisari",
    "postal_code": "58253"
  },
  {
    "id": 3316112015,
    "province_id": 33,
    "regency_id": 3316,
    "district_id": 331611,
    "value": "Karangtalun",
    "postal_code": "58253"
  },
  {
    "id": 3316112016,
    "province_id": 33,
    "regency_id": 3316,
    "district_id": 331611,
    "value": "Kebonrejo",
    "postal_code": "58253"
  },
  {
    "id": 3316112017,
    "province_id": 33,
    "regency_id": 3316,
    "district_id": 331611,
    "value": "Kembang",
    "postal_code": "58253"
  },
  {
    "id": 3316112003,
    "province_id": 33,
    "regency_id": 3316,
    "district_id": 331611,
    "value": "Klopoduwur",
    "postal_code": "58253"
  },
  {
    "id": 3316112010,
    "province_id": 33,
    "regency_id": 3316,
    "district_id": 331611,
    "value": "Mojowetan",
    "postal_code": "58253"
  },
  {
    "id": 3316112019,
    "province_id": 33,
    "regency_id": 3316,
    "district_id": 331611,
    "value": "Plosorejo",
    "postal_code": "58253"
  },
  {
    "id": 3316112018,
    "province_id": 33,
    "regency_id": 3316,
    "district_id": 331611,
    "value": "Sembongin",
    "postal_code": "58253"
  },
  {
    "id": 3316112008,
    "province_id": 33,
    "regency_id": 3316,
    "district_id": 331611,
    "value": "Sendanggayam",
    "postal_code": "58253"
  },
  {
    "id": 3316112013,
    "province_id": 33,
    "regency_id": 3316,
    "district_id": 331611,
    "value": "Sendangwungu",
    "postal_code": "58253"
  },
  {
    "id": 3316112004,
    "province_id": 33,
    "regency_id": 3316,
    "district_id": 331611,
    "value": "Sidomulyo",
    "postal_code": "58253"
  },
  {
    "id": 3316112011,
    "province_id": 33,
    "regency_id": 3316,
    "district_id": 331611,
    "value": "Sumberagung",
    "postal_code": "58253"
  },
  {
    "id": 3316112007,
    "province_id": 33,
    "regency_id": 3316,
    "district_id": 331611,
    "value": "Wonosemi",
    "postal_code": "58253"
  }
]