[
  {
    "id": 5205062004,
    "province_id": 52,
    "regency_id": 5205,
    "district_id": 520506,
    "value": "Beringin Jaya",
    "postal_code": "84260"
  },
  {
    "id": 5205062012,
    "province_id": 52,
    "regency_id": 5205,
    "district_id": 520506,
    "value": "Calabai",
    "postal_code": "84260"
  },
  {
    "id": 5205062007,
    "province_id": 52,
    "regency_id": 5205,
    "district_id": 520506,
    "value": "Doro Peti",
    "postal_code": "84260"
  },
  {
    "id": 5205062003,
    "province_id": 52,
    "regency_id": 5205,
    "district_id": 520506,
    "value": "Kadindi",
    "postal_code": "84260"
  },
  {
    "id": 5205062009,
    "province_id": 52,
    "regency_id": 5205,
    "district_id": 520506,
    "value": "Kadindi Barat",
    "postal_code": "84260"
  },
  {
    "id": 5205062008,
    "province_id": 52,
    "regency_id": 5205,
    "district_id": 520506,
    "value": "Karombo",
    "postal_code": "84260"
  },
  {
    "id": 5205062010,
    "province_id": 52,
    "regency_id": 5205,
    "district_id": 520506,
    "value": "Nangakara",
    "postal_code": "84260"
  },
  {
    "id": 5205062002,
    "province_id": 52,
    "regency_id": 5205,
    "district_id": 520506,
    "value": "Nangamiro",
    "postal_code": "84260"
  },
  {
    "id": 5205062001,
    "province_id": 52,
    "regency_id": 5205,
    "district_id": 520506,
    "value": "Pekat",
    "postal_code": "84260"
  },
  {
    "id": 5205062005,
    "province_id": 52,
    "regency_id": 5205,
    "district_id": 520506,
    "value": "Sori Nomo",
    "postal_code": "84260"
  },
  {
    "id": 5205062011,
    "province_id": 52,
    "regency_id": 5205,
    "district_id": 520506,
    "value": "Sori Tatanga",
    "postal_code": "84260"
  },
  {
    "id": 5205062006,
    "province_id": 52,
    "regency_id": 5205,
    "district_id": 520506,
    "value": "Tambora",
    "postal_code": "84260"
  }
]