[
  {
    "id": 950728,
    "province_id": 95,
    "regency_id": 9507,
    "district_id": 950728,
    "value": "Ambena",
    "postal_code": "99563"
  },
  {
    "id": 950728,
    "province_id": 95,
    "regency_id": 9507,
    "district_id": 950728,
    "value": "Gunumbur",
    "postal_code": "99563"
  },
  {
    "id": 950728,
    "province_id": 95,
    "regency_id": 9507,
    "district_id": 950728,
    "value": "Kolayak",
    "postal_code": "99563"
  },
  {
    "id": 950728,
    "province_id": 95,
    "regency_id": 9507,
    "district_id": 950728,
    "value": "Kolunggu",
    "postal_code": "99563"
  },
  {
    "id": 950728,
    "province_id": 95,
    "regency_id": 9507,
    "district_id": 950728,
    "value": "Kondena",
    "postal_code": "99563"
  },
  {
    "id": 950728,
    "province_id": 95,
    "regency_id": 9507,
    "district_id": 950728,
    "value": "Labora",
    "postal_code": "99563"
  },
  {
    "id": 950728,
    "province_id": 95,
    "regency_id": 9507,
    "district_id": 950728,
    "value": "Lalugume",
    "postal_code": "99563"
  },
  {
    "id": 950728,
    "province_id": 95,
    "regency_id": 9507,
    "district_id": 950728,
    "value": "Timotius",
    "postal_code": "99563"
  },
  {
    "id": 950728,
    "province_id": 95,
    "regency_id": 9507,
    "district_id": 950728,
    "value": "Wanuga",
    "postal_code": "99563"
  },
  {
    "id": 950728,
    "province_id": 95,
    "regency_id": 9507,
    "district_id": 950728,
    "value": "Yagarikme",
    "postal_code": "99563"
  }
]