[
  {
    "id": 332402,
    "province_id": 33,
    "regency_id": 3324,
    "district_id": 332402,
    "value": "Bangunsari",
    "postal_code": "51361"
  },
  {
    "id": 332402,
    "province_id": 33,
    "regency_id": 3324,
    "district_id": 332402,
    "value": "Gebangan",
    "postal_code": "51361"
  },
  {
    "id": 332402,
    "province_id": 33,
    "regency_id": 3324,
    "district_id": 332402,
    "value": "Getasblawong (Getas Blawong)",
    "postal_code": "51361"
  },
  {
    "id": 332402,
    "province_id": 33,
    "regency_id": 3324,
    "district_id": 332402,
    "value": "Gondoharum",
    "postal_code": "51361"
  },
  {
    "id": 332402,
    "province_id": 33,
    "regency_id": 3324,
    "district_id": 332402,
    "value": "Kebongembong",
    "postal_code": "51361"
  },
  {
    "id": 332402,
    "province_id": 33,
    "regency_id": 3324,
    "district_id": 332402,
    "value": "Krikil",
    "postal_code": "51361"
  },
  {
    "id": 332402,
    "province_id": 33,
    "regency_id": 3324,
    "district_id": 332402,
    "value": "Pagergunung",
    "postal_code": "51361"
  },
  {
    "id": 332402,
    "province_id": 33,
    "regency_id": 3324,
    "district_id": 332402,
    "value": "Pageruyung",
    "postal_code": "51361"
  },
  {
    "id": 332402,
    "province_id": 33,
    "regency_id": 3324,
    "district_id": 332402,
    "value": "Parakan Sebaran",
    "postal_code": "51361"
  },
  {
    "id": 332402,
    "province_id": 33,
    "regency_id": 3324,
    "district_id": 332402,
    "value": "Petung",
    "postal_code": "51361"
  },
  {
    "id": 332402,
    "province_id": 33,
    "regency_id": 3324,
    "district_id": 332402,
    "value": "Pucakwangi",
    "postal_code": "51361"
  },
  {
    "id": 332402,
    "province_id": 33,
    "regency_id": 3324,
    "district_id": 332402,
    "value": "Surokonto Kulon",
    "postal_code": "51361"
  },
  {
    "id": 332402,
    "province_id": 33,
    "regency_id": 3324,
    "district_id": 332402,
    "value": "Surokonto Wetan",
    "postal_code": "51361"
  },
  {
    "id": 332402,
    "province_id": 33,
    "regency_id": 3324,
    "district_id": 332402,
    "value": "Tambahrejo",
    "postal_code": "51361"
  }
]