[
  {
    "id": 740520,
    "province_id": 74,
    "regency_id": 7405,
    "district_id": 740520,
    "value": "Ahuangguluri",
    "postal_code": "93883"
  },
  {
    "id": 740520,
    "province_id": 74,
    "regency_id": 7405,
    "district_id": 740520,
    "value": "Amosara (Amasara)",
    "postal_code": "93883"
  },
  {
    "id": 740520,
    "province_id": 74,
    "regency_id": 7405,
    "district_id": 740520,
    "value": "Baito",
    "postal_code": "93883"
  },
  {
    "id": 740520,
    "province_id": 74,
    "regency_id": 7405,
    "district_id": 740520,
    "value": "Matabubu",
    "postal_code": "93883"
  },
  {
    "id": 740520,
    "province_id": 74,
    "regency_id": 7405,
    "district_id": 740520,
    "value": "Mekar Jaya",
    "postal_code": "93883"
  },
  {
    "id": 740520,
    "province_id": 74,
    "regency_id": 7405,
    "district_id": 740520,
    "value": "Sambahule",
    "postal_code": "93883"
  },
  {
    "id": 740520,
    "province_id": 74,
    "regency_id": 7405,
    "district_id": 740520,
    "value": "Tolihe",
    "postal_code": "93883"
  },
  {
    "id": 740520,
    "province_id": 74,
    "regency_id": 7405,
    "district_id": 740520,
    "value": "Wonua/Wanua Raya",
    "postal_code": "93883"
  }
]