[
  {
    "id": 741101,
    "province_id": 74,
    "regency_id": 7411,
    "district_id": 741101,
    "value": "Karemotingge",
    "postal_code": "93582"
  },
  {
    "id": 741101,
    "province_id": 74,
    "regency_id": 7411,
    "district_id": 741101,
    "value": "Lalingato",
    "postal_code": "93582"
  },
  {
    "id": 741101,
    "province_id": 74,
    "regency_id": 7411,
    "district_id": 741101,
    "value": "Lara",
    "postal_code": "93582"
  },
  {
    "id": 741101,
    "province_id": 74,
    "regency_id": 7411,
    "district_id": 741101,
    "value": "Loka",
    "postal_code": "93582"
  },
  {
    "id": 741101,
    "province_id": 74,
    "regency_id": 7411,
    "district_id": 741101,
    "value": "Matabondu",
    "postal_code": "93582"
  },
  {
    "id": 741101,
    "province_id": 74,
    "regency_id": 7411,
    "district_id": 741101,
    "value": "Orawa",
    "postal_code": "93582"
  },
  {
    "id": 741101,
    "province_id": 74,
    "regency_id": 7411,
    "district_id": 741101,
    "value": "Poni Poniki",
    "postal_code": "93582"
  },
  {
    "id": 741101,
    "province_id": 74,
    "regency_id": 7411,
    "district_id": 741101,
    "value": "Rate Rate",
    "postal_code": "93582"
  },
  {
    "id": 741101,
    "province_id": 74,
    "regency_id": 7411,
    "district_id": 741101,
    "value": "Roko Roko",
    "postal_code": "93582"
  },
  {
    "id": 741101,
    "province_id": 74,
    "regency_id": 7411,
    "district_id": 741101,
    "value": "Simbune",
    "postal_code": "93582"
  },
  {
    "id": 741101,
    "province_id": 74,
    "regency_id": 7411,
    "district_id": 741101,
    "value": "Tababu",
    "postal_code": "93582"
  },
  {
    "id": 741101,
    "province_id": 74,
    "regency_id": 7411,
    "district_id": 741101,
    "value": "Tasahea",
    "postal_code": "93582"
  },
  {
    "id": 741101,
    "province_id": 74,
    "regency_id": 7411,
    "district_id": 741101,
    "value": "Tawainalu",
    "postal_code": "93582"
  },
  {
    "id": 741101,
    "province_id": 74,
    "regency_id": 7411,
    "district_id": 741101,
    "value": "Tirawuta",
    "postal_code": "93582"
  },
  {
    "id": 741101,
    "province_id": 74,
    "regency_id": 7411,
    "district_id": 741101,
    "value": "Tumbudadio",
    "postal_code": "93582"
  },
  {
    "id": 741101,
    "province_id": 74,
    "regency_id": 7411,
    "district_id": 741101,
    "value": "Woiha",
    "postal_code": "93582"
  }
]