[
  {
    "id": 3309122009,
    "province_id": 33,
    "regency_id": 3309,
    "district_id": 330912,
    "value": "Bendo",
    "postal_code": "57378"
  },
  {
    "id": 3309122012,
    "province_id": 33,
    "regency_id": 3309,
    "district_id": 330912,
    "value": "Glonggong",
    "postal_code": "57378"
  },
  {
    "id": 3309122007,
    "province_id": 33,
    "regency_id": 3309,
    "district_id": 330912,
    "value": "Guli",
    "postal_code": "57378"
  },
  {
    "id": 3309122004,
    "province_id": 33,
    "regency_id": 3309,
    "district_id": 330912,
    "value": "Jeron",
    "postal_code": "57378"
  },
  {
    "id": 3309122001,
    "province_id": 33,
    "regency_id": 3309,
    "district_id": 330912,
    "value": "Kenteng",
    "postal_code": "57378"
  },
  {
    "id": 3309122005,
    "province_id": 33,
    "regency_id": 3309,
    "district_id": 330912,
    "value": "Ketitang",
    "postal_code": "57378"
  },
  {
    "id": 3309122010,
    "province_id": 33,
    "regency_id": 3309,
    "district_id": 330912,
    "value": "Keyongan",
    "postal_code": "57378"
  },
  {
    "id": 3309122011,
    "province_id": 33,
    "regency_id": 3309,
    "district_id": 330912,
    "value": "Pojok",
    "postal_code": "57378"
  },
  {
    "id": 3309122002,
    "province_id": 33,
    "regency_id": 3309,
    "district_id": 330912,
    "value": "Potronayan",
    "postal_code": "57378"
  },
  {
    "id": 3309122013,
    "province_id": 33,
    "regency_id": 3309,
    "district_id": 330912,
    "value": "Pulutan",
    "postal_code": "57378"
  },
  {
    "id": 3309122006,
    "province_id": 33,
    "regency_id": 3309,
    "district_id": 330912,
    "value": "Rembun",
    "postal_code": "57378"
  },
  {
    "id": 3309122003,
    "province_id": 33,
    "regency_id": 3309,
    "district_id": 330912,
    "value": "Sembungan",
    "postal_code": "57378"
  },
  {
    "id": 3309122008,
    "province_id": 33,
    "regency_id": 3309,
    "district_id": 330912,
    "value": "Tegalgiri",
    "postal_code": "57378"
  }
]