[
  {
    "id": 3326122004,
    "province_id": 33,
    "regency_id": 3326,
    "district_id": 332612,
    "value": "Galangpengampon (Galang Pengampon Gede)",
    "postal_code": "51181"
  },
  {
    "id": 3326122006,
    "province_id": 33,
    "regency_id": 3326,
    "district_id": 332612,
    "value": "Getas",
    "postal_code": "51181"
  },
  {
    "id": 3326122011,
    "province_id": 33,
    "regency_id": 3326,
    "district_id": 332612,
    "value": "Gondang",
    "postal_code": "51181"
  },
  {
    "id": 3326122001,
    "province_id": 33,
    "regency_id": 3326,
    "district_id": 332612,
    "value": "Jetakkidul (Jetak Kidul)",
    "postal_code": "51181"
  },
  {
    "id": 3326122012,
    "province_id": 33,
    "regency_id": 3326,
    "district_id": 332612,
    "value": "Jetaklengkong (Jetak Lengkong)",
    "postal_code": "51181"
  },
  {
    "id": 3326122005,
    "province_id": 33,
    "regency_id": 3326,
    "district_id": 332612,
    "value": "Kwagean",
    "postal_code": "51181"
  },
  {
    "id": 3326122003,
    "province_id": 33,
    "regency_id": 3326,
    "district_id": 332612,
    "value": "Legokgunung (Legok Gunung)",
    "postal_code": "51181"
  },
  {
    "id": 3326122013,
    "province_id": 33,
    "regency_id": 3326,
    "district_id": 332612,
    "value": "Pengadentengah (Pegaden Tengah)",
    "postal_code": "51181"
  },
  {
    "id": 3326122007,
    "province_id": 33,
    "regency_id": 3326,
    "district_id": 332612,
    "value": "Rowokembu",
    "postal_code": "51181"
  },
  {
    "id": 3326122009,
    "province_id": 33,
    "regency_id": 3326,
    "district_id": 332612,
    "value": "Sampih",
    "postal_code": "51181"
  },
  {
    "id": 3326122002,
    "province_id": 33,
    "regency_id": 3326,
    "district_id": 332612,
    "value": "Sastrodirjan",
    "postal_code": "51181"
  },
  {
    "id": 3326122014,
    "province_id": 33,
    "regency_id": 3326,
    "district_id": 332612,
    "value": "Surobayan (Surabayan)",
    "postal_code": "51181"
  },
  {
    "id": 3326122008,
    "province_id": 33,
    "regency_id": 3326,
    "district_id": 332612,
    "value": "Wonopringgo",
    "postal_code": "51181"
  },
  {
    "id": 3326122010,
    "province_id": 33,
    "regency_id": 3326,
    "district_id": 332612,
    "value": "Wonorejo",
    "postal_code": "51181"
  }
]