[
  {
    "id": 950434,
    "province_id": 95,
    "regency_id": 9504,
    "district_id": 950434,
    "value": "Dimbara",
    "postal_code": "99054"
  },
  {
    "id": 950434,
    "province_id": 95,
    "regency_id": 9504,
    "district_id": 950434,
    "value": "Geka",
    "postal_code": "99054"
  },
  {
    "id": 950434,
    "province_id": 95,
    "regency_id": 9504,
    "district_id": 950434,
    "value": "Gelok",
    "postal_code": "99054"
  },
  {
    "id": 950434,
    "province_id": 95,
    "regency_id": 9504,
    "district_id": 950434,
    "value": "Kwa",
    "postal_code": "99054"
  },
  {
    "id": 950434,
    "province_id": 95,
    "regency_id": 9504,
    "district_id": 950434,
    "value": "Makido",
    "postal_code": "99054"
  },
  {
    "id": 950434,
    "province_id": 95,
    "regency_id": 9504,
    "district_id": 950434,
    "value": "Membramonggen",
    "postal_code": "99054"
  },
  {
    "id": 950434,
    "province_id": 95,
    "regency_id": 9504,
    "district_id": 950434,
    "value": "Tabunakme",
    "postal_code": "99054"
  },
  {
    "id": 950434,
    "province_id": 95,
    "regency_id": 9504,
    "district_id": 950434,
    "value": "Wanuwi",
    "postal_code": "99054"
  },
  {
    "id": 950434,
    "province_id": 95,
    "regency_id": 9504,
    "district_id": 950434,
    "value": "Wenigi",
    "postal_code": "99054"
  },
  {
    "id": 950434,
    "province_id": 95,
    "regency_id": 9504,
    "district_id": 950434,
    "value": "Yinuwanu",
    "postal_code": "99054"
  }
]