[
  {
    "id": 350617,
    "province_id": 35,
    "regency_id": 3506,
    "district_id": 350617,
    "value": "Bendo",
    "postal_code": "64225"
  },
  {
    "id": 350617,
    "province_id": 35,
    "regency_id": 3506,
    "district_id": 350617,
    "value": "Darungan",
    "postal_code": "64227"
  },
  {
    "id": 350617,
    "province_id": 35,
    "regency_id": 3506,
    "district_id": 350617,
    "value": "Gedangsewu",
    "postal_code": "64214"
  },
  {
    "id": 350617,
    "province_id": 35,
    "regency_id": 3506,
    "district_id": 350617,
    "value": "Pare",
    "postal_code": "64211"
  },
  {
    "id": 350617,
    "province_id": 35,
    "regency_id": 3506,
    "district_id": 350617,
    "value": "Pelem",
    "postal_code": "64213"
  },
  {
    "id": 350617,
    "province_id": 35,
    "regency_id": 3506,
    "district_id": 350617,
    "value": "Sambirejo",
    "postal_code": "64226"
  },
  {
    "id": 350617,
    "province_id": 35,
    "regency_id": 3506,
    "district_id": 350617,
    "value": "Sidorejo",
    "postal_code": "64229"
  },
  {
    "id": 350617,
    "province_id": 35,
    "regency_id": 3506,
    "district_id": 350617,
    "value": "Sumberbendo",
    "postal_code": "64228"
  },
  {
    "id": 350617,
    "province_id": 35,
    "regency_id": 3506,
    "district_id": 350617,
    "value": "Tertek",
    "postal_code": "64215"
  },
  {
    "id": 350617,
    "province_id": 35,
    "regency_id": 3506,
    "district_id": 350617,
    "value": "Tulungrejo",
    "postal_code": "64212"
  }
]