[
  {
    "id": 331805,
    "province_id": 33,
    "regency_id": 3318,
    "district_id": 331805,
    "value": "Bodeh",
    "postal_code": "59183"
  },
  {
    "id": 331805,
    "province_id": 33,
    "regency_id": 3318,
    "district_id": 331805,
    "value": "Grogolsari",
    "postal_code": "59183"
  },
  {
    "id": 331805,
    "province_id": 33,
    "regency_id": 3318,
    "district_id": 331805,
    "value": "Jetak",
    "postal_code": "59183"
  },
  {
    "id": 331805,
    "province_id": 33,
    "regency_id": 3318,
    "district_id": 331805,
    "value": "Karangrejo",
    "postal_code": "59183"
  },
  {
    "id": 331805,
    "province_id": 33,
    "regency_id": 3318,
    "district_id": 331805,
    "value": "Karangwotan",
    "postal_code": "59183"
  },
  {
    "id": 331805,
    "province_id": 33,
    "regency_id": 3318,
    "district_id": 331805,
    "value": "Kepohkencono",
    "postal_code": "59183"
  },
  {
    "id": 331805,
    "province_id": 33,
    "regency_id": 3318,
    "district_id": 331805,
    "value": "Kletek",
    "postal_code": "59183"
  },
  {
    "id": 331805,
    "province_id": 33,
    "regency_id": 3318,
    "district_id": 331805,
    "value": "Lumbungmas",
    "postal_code": "59183"
  },
  {
    "id": 331805,
    "province_id": 33,
    "regency_id": 3318,
    "district_id": 331805,
    "value": "Mencon",
    "postal_code": "59183"
  },
  {
    "id": 331805,
    "province_id": 33,
    "regency_id": 3318,
    "district_id": 331805,
    "value": "Mojoagung",
    "postal_code": "59183"
  },
  {
    "id": 331805,
    "province_id": 33,
    "regency_id": 3318,
    "district_id": 331805,
    "value": "Pelemgede",
    "postal_code": "59183"
  },
  {
    "id": 331805,
    "province_id": 33,
    "regency_id": 3318,
    "district_id": 331805,
    "value": "Plosorejo",
    "postal_code": "59183"
  },
  {
    "id": 331805,
    "province_id": 33,
    "regency_id": 3318,
    "district_id": 331805,
    "value": "Puncakwangi (Pucakwangi)",
    "postal_code": "59183"
  },
  {
    "id": 331805,
    "province_id": 33,
    "regency_id": 3318,
    "district_id": 331805,
    "value": "Sitimulyo",
    "postal_code": "59183"
  },
  {
    "id": 331805,
    "province_id": 33,
    "regency_id": 3318,
    "district_id": 331805,
    "value": "Sokopuluhan",
    "postal_code": "59183"
  },
  {
    "id": 331805,
    "province_id": 33,
    "regency_id": 3318,
    "district_id": 331805,
    "value": "Tanjungsekar",
    "postal_code": "59183"
  },
  {
    "id": 331805,
    "province_id": 33,
    "regency_id": 3318,
    "district_id": 331805,
    "value": "Tegalwero",
    "postal_code": "59183"
  },
  {
    "id": 331805,
    "province_id": 33,
    "regency_id": 3318,
    "district_id": 331805,
    "value": "Terteg",
    "postal_code": "59183"
  },
  {
    "id": 331805,
    "province_id": 33,
    "regency_id": 3318,
    "district_id": 331805,
    "value": "Triguno",
    "postal_code": "59183"
  },
  {
    "id": 331805,
    "province_id": 33,
    "regency_id": 3318,
    "district_id": 331805,
    "value": "Wateshaji",
    "postal_code": "59183"
  }
]