[
  {
    "id": 360333,
    "province_id": 36,
    "regency_id": 3603,
    "district_id": 360333,
    "value": "Cijeruk",
    "postal_code": "15551"
  },
  {
    "id": 360333,
    "province_id": 36,
    "regency_id": 3603,
    "district_id": 360333,
    "value": "Gandaria (Ganda Ria)",
    "postal_code": "15551"
  },
  {
    "id": 360333,
    "province_id": 36,
    "regency_id": 3603,
    "district_id": 360333,
    "value": "Jenggot",
    "postal_code": "15551"
  },
  {
    "id": 360333,
    "province_id": 36,
    "regency_id": 3603,
    "district_id": 360333,
    "value": "Kedaung",
    "postal_code": "15551"
  },
  {
    "id": 360333,
    "province_id": 36,
    "regency_id": 3603,
    "district_id": 360333,
    "value": "Klutuk",
    "postal_code": "15551"
  },
  {
    "id": 360333,
    "province_id": 36,
    "regency_id": 3603,
    "district_id": 360333,
    "value": "Kosambi Dalam",
    "postal_code": "15551"
  },
  {
    "id": 360333,
    "province_id": 36,
    "regency_id": 3603,
    "district_id": 360333,
    "value": "Mekar Baru",
    "postal_code": "15551"
  },
  {
    "id": 360333,
    "province_id": 36,
    "regency_id": 3603,
    "district_id": 360333,
    "value": "Waliwis",
    "postal_code": "15551"
  }
]