[
  {
    "id": 1901032008,
    "province_id": 19,
    "regency_id": 1901,
    "district_id": 190103,
    "value": "Air Anyir",
    "postal_code": "33172"
  },
  {
    "id": 1901032002,
    "province_id": 19,
    "regency_id": 1901,
    "district_id": 190103,
    "value": "Balun Ijuk",
    "postal_code": "33172"
  },
  {
    "id": 1901032001,
    "province_id": 19,
    "regency_id": 1901,
    "district_id": 190103,
    "value": "Batu Rusa (Baturusa)",
    "postal_code": "33172"
  },
  {
    "id": 1901032009,
    "province_id": 19,
    "regency_id": 1901,
    "district_id": 190103,
    "value": "Dwi Makmur",
    "postal_code": "33172"
  },
  {
    "id": 1901032010,
    "province_id": 19,
    "regency_id": 1901,
    "district_id": 190103,
    "value": "Jada Bahrin",
    "postal_code": "33172"
  },
  {
    "id": 1901032004,
    "province_id": 19,
    "regency_id": 1901,
    "district_id": 190103,
    "value": "Jurung",
    "postal_code": "33172"
  },
  {
    "id": 1901032005,
    "province_id": 19,
    "regency_id": 1901,
    "district_id": 190103,
    "value": "Kimak",
    "postal_code": "33172"
  },
  {
    "id": 1901032007,
    "province_id": 19,
    "regency_id": 1901,
    "district_id": 190103,
    "value": "Merawang",
    "postal_code": "33172"
  },
  {
    "id": 1901032006,
    "province_id": 19,
    "regency_id": 1901,
    "district_id": 190103,
    "value": "Pagarawan",
    "postal_code": "33172"
  },
  {
    "id": 1901032003,
    "province_id": 19,
    "regency_id": 1901,
    "district_id": 190103,
    "value": "Riding Panjang",
    "postal_code": "33172"
  }
]