[
  {
    "id": 352224,
    "province_id": 35,
    "regency_id": 3522,
    "district_id": 352224,
    "value": "Duyungan",
    "postal_code": "62185"
  },
  {
    "id": 352224,
    "province_id": 35,
    "regency_id": 3522,
    "district_id": 352224,
    "value": "Jumput",
    "postal_code": "62185"
  },
  {
    "id": 352224,
    "province_id": 35,
    "regency_id": 3522,
    "district_id": 352224,
    "value": "Kalicilik",
    "postal_code": "62185"
  },
  {
    "id": 352224,
    "province_id": 35,
    "regency_id": 3522,
    "district_id": 352224,
    "value": "Klepek",
    "postal_code": "62185"
  },
  {
    "id": 352224,
    "province_id": 35,
    "regency_id": 3522,
    "district_id": 352224,
    "value": "Pacing",
    "postal_code": "62185"
  },
  {
    "id": 352224,
    "province_id": 35,
    "regency_id": 3522,
    "district_id": 352224,
    "value": "Purwoasri",
    "postal_code": "62185"
  },
  {
    "id": 352224,
    "province_id": 35,
    "regency_id": 3522,
    "district_id": 352224,
    "value": "Semawot",
    "postal_code": "62185"
  },
  {
    "id": 352224,
    "province_id": 35,
    "regency_id": 3522,
    "district_id": 352224,
    "value": "Semenkidul (Semen Kidul)",
    "postal_code": "62185"
  },
  {
    "id": 352224,
    "province_id": 35,
    "regency_id": 3522,
    "district_id": 352224,
    "value": "Sidodadi",
    "postal_code": "62185"
  },
  {
    "id": 352224,
    "province_id": 35,
    "regency_id": 3522,
    "district_id": 352224,
    "value": "Sidorejo",
    "postal_code": "62185"
  },
  {
    "id": 352224,
    "province_id": 35,
    "regency_id": 3522,
    "district_id": 352224,
    "value": "Sitiaji",
    "postal_code": "62185"
  },
  {
    "id": 352224,
    "province_id": 35,
    "regency_id": 3522,
    "district_id": 352224,
    "value": "Sukosewu",
    "postal_code": "62185"
  },
  {
    "id": 352224,
    "province_id": 35,
    "regency_id": 3522,
    "district_id": 352224,
    "value": "Sumberejo Kidul",
    "postal_code": "62185"
  },
  {
    "id": 352224,
    "province_id": 35,
    "regency_id": 3522,
    "district_id": 352224,
    "value": "Tegalkodo",
    "postal_code": "62185"
  }
]