[
  {
    "id": 5310032029,
    "province_id": 53,
    "regency_id": 5310,
    "district_id": 531003,
    "value": "Bangka Lao",
    "postal_code": "86523"
  },
  {
    "id": 5310032031,
    "province_id": 53,
    "regency_id": 5310,
    "district_id": 531003,
    "value": "Bea Kakor (Beokakor)",
    "postal_code": "86523"
  },
  {
    "id": 5310032022,
    "province_id": 53,
    "regency_id": 5310,
    "district_id": 531003,
    "value": "Belang Turi",
    "postal_code": "86523"
  },
  {
    "id": 5310032021,
    "province_id": 53,
    "regency_id": 5310,
    "district_id": 531003,
    "value": "Benteng Kuwu",
    "postal_code": "86523"
  },
  {
    "id": 5310032011,
    "province_id": 53,
    "regency_id": 5310,
    "district_id": 531003,
    "value": "Beo Rahong",
    "postal_code": "86523"
  },
  {
    "id": 5310032006,
    "province_id": 53,
    "regency_id": 5310,
    "district_id": 531003,
    "value": "Bulan",
    "postal_code": "86523"
  },
  {
    "id": 5310032030,
    "province_id": 53,
    "regency_id": 5310,
    "district_id": 531003,
    "value": "Compang Dalo",
    "postal_code": "86523"
  },
  {
    "id": 5310032032,
    "province_id": 53,
    "regency_id": 5310,
    "district_id": 531003,
    "value": "Compang Namut",
    "postal_code": "86523"
  },
  {
    "id": 5310032002,
    "province_id": 53,
    "regency_id": 5310,
    "district_id": 531003,
    "value": "Cumbi",
    "postal_code": "86523"
  },
  {
    "id": 5310032019,
    "province_id": 53,
    "regency_id": 5310,
    "district_id": 531003,
    "value": "Golo Worok",
    "postal_code": "86523"
  },
  {
    "id": 5310032003,
    "province_id": 53,
    "regency_id": 5310,
    "district_id": 531003,
    "value": "Kakor",
    "postal_code": "86523"
  },
  {
    "id": 5310032020,
    "province_id": 53,
    "regency_id": 5310,
    "district_id": 531003,
    "value": "Meler",
    "postal_code": "86523"
  },
  {
    "id": 5310032025,
    "province_id": 53,
    "regency_id": 5310,
    "district_id": 531003,
    "value": "Poco Likang (Poco Liking)",
    "postal_code": "86523"
  },
  {
    "id": 5310032033,
    "province_id": 53,
    "regency_id": 5310,
    "district_id": 531003,
    "value": "Pong Lale",
    "postal_code": "86523"
  },
  {
    "id": 5310032010,
    "province_id": 53,
    "regency_id": 5310,
    "district_id": 531003,
    "value": "Pong Lao",
    "postal_code": "86523"
  },
  {
    "id": 5310032023,
    "province_id": 53,
    "regency_id": 5310,
    "district_id": 531003,
    "value": "Pong Leko",
    "postal_code": "86523"
  },
  {
    "id": 5310032004,
    "province_id": 53,
    "regency_id": 5310,
    "district_id": 531003,
    "value": "Pong Murung",
    "postal_code": "86523"
  },
  {
    "id": 5310032024,
    "province_id": 53,
    "regency_id": 5310,
    "district_id": 531003,
    "value": "Rai",
    "postal_code": "86523"
  },
  {
    "id": 5310031005,
    "province_id": 53,
    "regency_id": 5310,
    "district_id": 531003,
    "value": "Wae Belang",
    "postal_code": "86523"
  }
]