[
  {
    "id": 5310132005,
    "province_id": 53,
    "regency_id": 5310,
    "district_id": 531013,
    "value": "Bea Kondo",
    "postal_code": "86560"
  },
  {
    "id": 5310132019,
    "province_id": 53,
    "regency_id": 5310,
    "district_id": 531013,
    "value": "Borik",
    "postal_code": "86560"
  },
  {
    "id": 5310132021,
    "province_id": 53,
    "regency_id": 5310,
    "district_id": 531013,
    "value": "Cambir Leca",
    "postal_code": "86560"
  },
  {
    "id": 5310132014,
    "province_id": 53,
    "regency_id": 5310,
    "district_id": 531013,
    "value": "Ceka Luju",
    "postal_code": "86560"
  },
  {
    "id": 5310132012,
    "province_id": 53,
    "regency_id": 5310,
    "district_id": 531013,
    "value": "Golo Ropong",
    "postal_code": "86560"
  },
  {
    "id": 5310132002,
    "province_id": 53,
    "regency_id": 5310,
    "district_id": 531013,
    "value": "Hilihintir",
    "postal_code": "86560"
  },
  {
    "id": 5310132018,
    "province_id": 53,
    "regency_id": 5310,
    "district_id": 531013,
    "value": "Nuca Molas",
    "postal_code": "86560"
  },
  {
    "id": 5310132016,
    "province_id": 53,
    "regency_id": 5310,
    "district_id": 531013,
    "value": "Satar Lenda",
    "postal_code": "86560"
  },
  {
    "id": 5310132015,
    "province_id": 53,
    "regency_id": 5310,
    "district_id": 531013,
    "value": "Satar Luju",
    "postal_code": "86560"
  },
  {
    "id": 5310132017,
    "province_id": 53,
    "regency_id": 5310,
    "district_id": 531013,
    "value": "Satar Ruwuk",
    "postal_code": "86560"
  },
  {
    "id": 5310132013,
    "province_id": 53,
    "regency_id": 5310,
    "district_id": 531013,
    "value": "Terong",
    "postal_code": "86560"
  },
  {
    "id": 5310132022,
    "province_id": 53,
    "regency_id": 5310,
    "district_id": 531013,
    "value": "Wongka",
    "postal_code": "86560"
  }
]