[
  {
    "id": 640101,
    "province_id": 64,
    "regency_id": 6401,
    "district_id": 640101,
    "value": "Batu Kajang (Batu Sopang)",
    "postal_code": "76252"
  },
  {
    "id": 640101,
    "province_id": 64,
    "regency_id": 6401,
    "district_id": 640101,
    "value": "Busui",
    "postal_code": "76252"
  },
  {
    "id": 640101,
    "province_id": 64,
    "regency_id": 6401,
    "district_id": 640101,
    "value": "Kasungai",
    "postal_code": "76252"
  },
  {
    "id": 640101,
    "province_id": 64,
    "regency_id": 6401,
    "district_id": 640101,
    "value": "Legai",
    "postal_code": "76252"
  },
  {
    "id": 640101,
    "province_id": 64,
    "regency_id": 6401,
    "district_id": 640101,
    "value": "Rantau Buta",
    "postal_code": "76252"
  },
  {
    "id": 640101,
    "province_id": 64,
    "regency_id": 6401,
    "district_id": 640101,
    "value": "Rantau Layung",
    "postal_code": "76252"
  },
  {
    "id": 640101,
    "province_id": 64,
    "regency_id": 6401,
    "district_id": 640101,
    "value": "Samuranggau (Samurangau)",
    "postal_code": "76252"
  },
  {
    "id": 640101,
    "province_id": 64,
    "regency_id": 6401,
    "district_id": 640101,
    "value": "Sei/Sungai Terik",
    "postal_code": "76252"
  },
  {
    "id": 640101,
    "province_id": 64,
    "regency_id": 6401,
    "district_id": 640101,
    "value": "Songka",
    "postal_code": "76252"
  }
]