[
  {
    "id": 8202052008,
    "province_id": 82,
    "regency_id": 8202,
    "district_id": 820205,
    "value": "Air Salobar",
    "postal_code": "97851"
  },
  {
    "id": 8202052005,
    "province_id": 82,
    "regency_id": 8202,
    "district_id": 820205,
    "value": "Kluting Jaya",
    "postal_code": "97851"
  },
  {
    "id": 8202052006,
    "province_id": 82,
    "regency_id": 8202,
    "district_id": 820205,
    "value": "Lembah Asri",
    "postal_code": "97851"
  },
  {
    "id": 8202052003,
    "province_id": 82,
    "regency_id": 8202,
    "district_id": 820205,
    "value": "Loleo",
    "postal_code": "97851"
  },
  {
    "id": 8202052002,
    "province_id": 82,
    "regency_id": 8202,
    "district_id": 820205,
    "value": "Sosowomo",
    "postal_code": "97851"
  },
  {
    "id": 8202052007,
    "province_id": 82,
    "regency_id": 8202,
    "district_id": 820205,
    "value": "Sumber Sari",
    "postal_code": "97851"
  },
  {
    "id": 8202052001,
    "province_id": 82,
    "regency_id": 8202,
    "district_id": 820205,
    "value": "Tilope (Tiloppe)",
    "postal_code": "97851"
  },
  {
    "id": 8202052004,
    "province_id": 82,
    "regency_id": 8202,
    "district_id": 820205,
    "value": "Wairoro Indah",
    "postal_code": "97851"
  }
]