[
  {
    "id": 111702,
    "province_id": 11,
    "regency_id": 1117,
    "district_id": 111702,
    "value": "Ayu Ara",
    "postal_code": "24585"
  },
  {
    "id": 111702,
    "province_id": 11,
    "regency_id": 1117,
    "district_id": 111702,
    "value": "Bale Musara",
    "postal_code": "24585"
  },
  {
    "id": 111702,
    "province_id": 11,
    "regency_id": 1117,
    "district_id": 111702,
    "value": "Bale Purnama",
    "postal_code": "24585"
  },
  {
    "id": 111702,
    "province_id": 11,
    "regency_id": 1117,
    "district_id": 111702,
    "value": "Bener Pepanyi",
    "postal_code": "24585"
  },
  {
    "id": 111702,
    "province_id": 11,
    "regency_id": 1117,
    "district_id": 111702,
    "value": "Bintang Bener",
    "postal_code": "24585"
  },
  {
    "id": 111702,
    "province_id": 11,
    "regency_id": 1117,
    "district_id": 111702,
    "value": "Bintang Permata",
    "postal_code": "24585"
  },
  {
    "id": 111702,
    "province_id": 11,
    "regency_id": 1117,
    "district_id": 111702,
    "value": "Buntul Fitri (Peteri)",
    "postal_code": "24585"
  },
  {
    "id": 111702,
    "province_id": 11,
    "regency_id": 1117,
    "district_id": 111702,
    "value": "Burni Pase",
    "postal_code": "24585"
  },
  {
    "id": 111702,
    "province_id": 11,
    "regency_id": 1117,
    "district_id": 111702,
    "value": "Ceding Ayu",
    "postal_code": "24585"
  },
  {
    "id": 111702,
    "province_id": 11,
    "regency_id": 1117,
    "district_id": 111702,
    "value": "Darul Aman (Darul Aman Ramu)",
    "postal_code": "24585"
  },
  {
    "id": 111702,
    "province_id": 11,
    "regency_id": 1117,
    "district_id": 111702,
    "value": "Gelampang Wih Tenang Uken",
    "postal_code": "24585"
  },
  {
    "id": 111702,
    "province_id": 11,
    "regency_id": 1117,
    "district_id": 111702,
    "value": "Jelobok",
    "postal_code": "24585"
  },
  {
    "id": 111702,
    "province_id": 11,
    "regency_id": 1117,
    "district_id": 111702,
    "value": "Jungke",
    "postal_code": "24585"
  },
  {
    "id": 111702,
    "province_id": 11,
    "regency_id": 1117,
    "district_id": 111702,
    "value": "Kepie / Kepies",
    "postal_code": "24585"
  },
  {
    "id": 111702,
    "province_id": 11,
    "regency_id": 1117,
    "district_id": 111702,
    "value": "Pantan Tengah Jaya",
    "postal_code": "24585"
  },
  {
    "id": 111702,
    "province_id": 11,
    "regency_id": 1117,
    "district_id": 111702,
    "value": "Pemango (Pemanggo)",
    "postal_code": "24585"
  },
  {
    "id": 111702,
    "province_id": 11,
    "regency_id": 1117,
    "district_id": 111702,
    "value": "Penosan Jaya",
    "postal_code": "24585"
  },
  {
    "id": 111702,
    "province_id": 11,
    "regency_id": 1117,
    "district_id": 111702,
    "value": "Ramung Jaya",
    "postal_code": "24585"
  },
  {
    "id": 111702,
    "province_id": 11,
    "regency_id": 1117,
    "district_id": 111702,
    "value": "Rikit Musara",
    "postal_code": "24585"
  },
  {
    "id": 111702,
    "province_id": 11,
    "regency_id": 1117,
    "district_id": 111702,
    "value": "Seni Antara",
    "postal_code": "24585"
  },
  {
    "id": 111702,
    "province_id": 11,
    "regency_id": 1117,
    "district_id": 111702,
    "value": "Suku Sara Tangke",
    "postal_code": "24585"
  },
  {
    "id": 111702,
    "province_id": 11,
    "regency_id": 1117,
    "district_id": 111702,
    "value": "Tawar Bengi",
    "postal_code": "24585"
  },
  {
    "id": 111702,
    "province_id": 11,
    "regency_id": 1117,
    "district_id": 111702,
    "value": "Temas Mumanang",
    "postal_code": "24585"
  },
  {
    "id": 111702,
    "province_id": 11,
    "regency_id": 1117,
    "district_id": 111702,
    "value": "Timur Jaya",
    "postal_code": "24585"
  },
  {
    "id": 111702,
    "province_id": 11,
    "regency_id": 1117,
    "district_id": 111702,
    "value": "Uning Sejuk",
    "postal_code": "24585"
  },
  {
    "id": 111702,
    "province_id": 11,
    "regency_id": 1117,
    "district_id": 111702,
    "value": "Weh Tenang Uken (Wih Tenang Uken)",
    "postal_code": "24585"
  },
  {
    "id": 111702,
    "province_id": 11,
    "regency_id": 1117,
    "district_id": 111702,
    "value": "Wih Tenang Toa",
    "postal_code": "24585"
  }
]