[
  {
    "id": 351714,
    "province_id": 35,
    "regency_id": 3517,
    "district_id": 351714,
    "value": "Bawangan",
    "postal_code": "61453"
  },
  {
    "id": 351714,
    "province_id": 35,
    "regency_id": 3517,
    "district_id": 351714,
    "value": "Daditunggal (Dadi Tunggal)",
    "postal_code": "61453"
  },
  {
    "id": 351714,
    "province_id": 35,
    "regency_id": 3517,
    "district_id": 351714,
    "value": "Gedungombo (Gedongombo)",
    "postal_code": "61453"
  },
  {
    "id": 351714,
    "province_id": 35,
    "regency_id": 3517,
    "district_id": 351714,
    "value": "Jatibanjar",
    "postal_code": "61453"
  },
  {
    "id": 351714,
    "province_id": 35,
    "regency_id": 3517,
    "district_id": 351714,
    "value": "Jatigedong",
    "postal_code": "61453"
  },
  {
    "id": 351714,
    "province_id": 35,
    "regency_id": 3517,
    "district_id": 351714,
    "value": "Kebonagung (Kebon Agung)",
    "postal_code": "61453"
  },
  {
    "id": 351714,
    "province_id": 35,
    "regency_id": 3517,
    "district_id": 351714,
    "value": "Kedungdowo",
    "postal_code": "61453"
  },
  {
    "id": 351714,
    "province_id": 35,
    "regency_id": 3517,
    "district_id": 351714,
    "value": "Losari",
    "postal_code": "61453"
  },
  {
    "id": 351714,
    "province_id": 35,
    "regency_id": 3517,
    "district_id": 351714,
    "value": "Pagertanjung (Pager Tanjung)",
    "postal_code": "61453"
  },
  {
    "id": 351714,
    "province_id": 35,
    "regency_id": 3517,
    "district_id": 351714,
    "value": "Pandanblole (Pandan Blole)",
    "postal_code": "61453"
  },
  {
    "id": 351714,
    "province_id": 35,
    "regency_id": 3517,
    "district_id": 351714,
    "value": "Ploso",
    "postal_code": "61453"
  },
  {
    "id": 351714,
    "province_id": 35,
    "regency_id": 3517,
    "district_id": 351714,
    "value": "Rejoagung",
    "postal_code": "61453"
  },
  {
    "id": 351714,
    "province_id": 35,
    "regency_id": 3517,
    "district_id": 351714,
    "value": "Tanggungkramat (Tanggung Kramat)",
    "postal_code": "61453"
  }
]