[
  {
    "id": 360406,
    "province_id": 36,
    "regency_id": 3604,
    "district_id": 360406,
    "value": "Binangun",
    "postal_code": "42453"
  },
  {
    "id": 360406,
    "province_id": 36,
    "regency_id": 3604,
    "district_id": 360406,
    "value": "Cokopsulanjana",
    "postal_code": "42453"
  },
  {
    "id": 360406,
    "province_id": 36,
    "regency_id": 3604,
    "district_id": 360406,
    "value": "Kemuning",
    "postal_code": "42453"
  },
  {
    "id": 360406,
    "province_id": 36,
    "regency_id": 3604,
    "district_id": 360406,
    "value": "Melati",
    "postal_code": "42453"
  },
  {
    "id": 360406,
    "province_id": 36,
    "regency_id": 3604,
    "district_id": 360406,
    "value": "Sambilawang",
    "postal_code": "42453"
  },
  {
    "id": 360406,
    "province_id": 36,
    "regency_id": 3604,
    "district_id": 360406,
    "value": "Sampir",
    "postal_code": "42453"
  },
  {
    "id": 360406,
    "province_id": 36,
    "regency_id": 3604,
    "district_id": 360406,
    "value": "Sasahan",
    "postal_code": "42453"
  },
  {
    "id": 360406,
    "province_id": 36,
    "regency_id": 3604,
    "district_id": 360406,
    "value": "Suka Dalem (Sukadalem)",
    "postal_code": "42453"
  },
  {
    "id": 360406,
    "province_id": 36,
    "regency_id": 3604,
    "district_id": 360406,
    "value": "Sukabares",
    "postal_code": "42453"
  },
  {
    "id": 360406,
    "province_id": 36,
    "regency_id": 3604,
    "district_id": 360406,
    "value": "Talaga Luhur (Telaga Luhur)",
    "postal_code": "42453"
  },
  {
    "id": 360406,
    "province_id": 36,
    "regency_id": 3604,
    "district_id": 360406,
    "value": "Waringinkurung",
    "postal_code": "42453"
  }
]