[
  {
    "id": 1809022017,
    "province_id": 18,
    "regency_id": 1809,
    "district_id": 180902,
    "value": "Bangun Sari",
    "postal_code": "35353"
  },
  {
    "id": 1809022021,
    "province_id": 18,
    "regency_id": 1809,
    "district_id": 180902,
    "value": "Grujugan Baru",
    "postal_code": "35353"
  },
  {
    "id": 1809022007,
    "province_id": 18,
    "regency_id": 1809,
    "district_id": 180902,
    "value": "Halangan Ratu",
    "postal_code": "35353"
  },
  {
    "id": 1809022001,
    "province_id": 18,
    "regency_id": 1809,
    "district_id": 180902,
    "value": "Kagungan Ratu",
    "postal_code": "35353"
  },
  {
    "id": 1809022002,
    "province_id": 18,
    "regency_id": 1809,
    "district_id": 180902,
    "value": "Kali Rejo (Kalirejo)",
    "postal_code": "35353"
  },
  {
    "id": 1809022018,
    "province_id": 18,
    "regency_id": 1809,
    "district_id": 180902,
    "value": "Karang Rejo",
    "postal_code": "35353"
  },
  {
    "id": 1809022015,
    "province_id": 18,
    "regency_id": 1809,
    "district_id": 180902,
    "value": "Lumbirejo (Lumbi Rejo)",
    "postal_code": "35353"
  },
  {
    "id": 1809022009,
    "province_id": 18,
    "regency_id": 1809,
    "district_id": 180902,
    "value": "Negara Saka (Negarasaka)",
    "postal_code": "35353"
  },
  {
    "id": 1809022005,
    "province_id": 18,
    "regency_id": 1809,
    "district_id": 180902,
    "value": "Negeri Katon/Katun",
    "postal_code": "35353"
  },
  {
    "id": 1809022019,
    "province_id": 18,
    "regency_id": 1809,
    "district_id": 180902,
    "value": "Negeri Ulangan Jaya",
    "postal_code": "35353"
  },
  {
    "id": 1809022008,
    "province_id": 18,
    "regency_id": 1809,
    "district_id": 180902,
    "value": "Pejambon",
    "postal_code": "35353"
  },
  {
    "id": 1809022006,
    "province_id": 18,
    "regency_id": 1809,
    "district_id": 180902,
    "value": "Ponco Kresno (Poncokresno)",
    "postal_code": "35353"
  },
  {
    "id": 1809022004,
    "province_id": 18,
    "regency_id": 1809,
    "district_id": 180902,
    "value": "Pujo Rahayu (Pujorahayu)",
    "postal_code": "35353"
  },
  {
    "id": 1809022020,
    "province_id": 18,
    "regency_id": 1809,
    "district_id": 180902,
    "value": "Pujodadi",
    "postal_code": "35353"
  },
  {
    "id": 1809022003,
    "province_id": 18,
    "regency_id": 1809,
    "district_id": 180902,
    "value": "Purworejo",
    "postal_code": "35353"
  },
  {
    "id": 1809022012,
    "province_id": 18,
    "regency_id": 1809,
    "district_id": 180902,
    "value": "Rowo Rejo (Roworejo)",
    "postal_code": "35353"
  },
  {
    "id": 1809022014,
    "province_id": 18,
    "regency_id": 1809,
    "district_id": 180902,
    "value": "Sidomulyo",
    "postal_code": "35353"
  },
  {
    "id": 1809022010,
    "province_id": 18,
    "regency_id": 1809,
    "district_id": 180902,
    "value": "Sinar Bandung (Sinarbandung)",
    "postal_code": "35353"
  },
  {
    "id": 1809022011,
    "province_id": 18,
    "regency_id": 1809,
    "district_id": 180902,
    "value": "Tanjung Rejo",
    "postal_code": "35353"
  },
  {
    "id": 1809022013,
    "province_id": 18,
    "regency_id": 1809,
    "district_id": 180902,
    "value": "Tresno Maju (Trisno Maju)",
    "postal_code": "35353"
  },
  {
    "id": 1809022016,
    "province_id": 18,
    "regency_id": 1809,
    "district_id": 180902,
    "value": "Tri Rahayu",
    "postal_code": "35353"
  }
]