[
  {
    "id": 930412,
    "province_id": 93,
    "regency_id": 9304,
    "district_id": 930412,
    "value": "Aoap",
    "postal_code": "99778"
  },
  {
    "id": 930412,
    "province_id": 93,
    "regency_id": 9304,
    "district_id": 930412,
    "value": "Aou",
    "postal_code": "99778"
  },
  {
    "id": 930412,
    "province_id": 93,
    "regency_id": 9304,
    "district_id": 930412,
    "value": "As",
    "postal_code": "99778"
  },
  {
    "id": 930412,
    "province_id": 93,
    "regency_id": 9304,
    "district_id": 930412,
    "value": "Atat",
    "postal_code": "99778"
  },
  {
    "id": 930412,
    "province_id": 93,
    "regency_id": 9304,
    "district_id": 930412,
    "value": "Eroko",
    "postal_code": "99778"
  },
  {
    "id": 930412,
    "province_id": 93,
    "regency_id": 9304,
    "district_id": 930412,
    "value": "Esmapan",
    "postal_code": "99778"
  },
  {
    "id": 930412,
    "province_id": 93,
    "regency_id": 9304,
    "district_id": 930412,
    "value": "Fumereipits",
    "postal_code": "99778"
  },
  {
    "id": 930412,
    "province_id": 93,
    "regency_id": 9304,
    "district_id": 930412,
    "value": "Kapi",
    "postal_code": "99778"
  },
  {
    "id": 930412,
    "province_id": 93,
    "regency_id": 9304,
    "district_id": 930412,
    "value": "Nakai",
    "postal_code": "99778"
  },
  {
    "id": 930412,
    "province_id": 93,
    "regency_id": 9304,
    "district_id": 930412,
    "value": "Weo",
    "postal_code": "99778"
  },
  {
    "id": 930412,
    "province_id": 93,
    "regency_id": 9304,
    "district_id": 930412,
    "value": "Yakapis",
    "postal_code": "99778"
  }
]