[
  {
    "id": 330921,
    "province_id": 33,
    "regency_id": 3309,
    "district_id": 330921,
    "value": "Dragan",
    "postal_code": "57331"
  },
  {
    "id": 330921,
    "province_id": 33,
    "regency_id": 3309,
    "district_id": 330921,
    "value": "Jemowo",
    "postal_code": "57331"
  },
  {
    "id": 330921,
    "province_id": 33,
    "regency_id": 3309,
    "district_id": 330921,
    "value": "Karanganyar",
    "postal_code": "57331"
  },
  {
    "id": 330921,
    "province_id": 33,
    "regency_id": 3309,
    "district_id": 330921,
    "value": "Karangkendal",
    "postal_code": "57331"
  },
  {
    "id": 330921,
    "province_id": 33,
    "regency_id": 3309,
    "district_id": 330921,
    "value": "Keposong",
    "postal_code": "57331"
  },
  {
    "id": 330921,
    "province_id": 33,
    "regency_id": 3309,
    "district_id": 330921,
    "value": "Lampar",
    "postal_code": "57331"
  },
  {
    "id": 330921,
    "province_id": 33,
    "regency_id": 3309,
    "district_id": 330921,
    "value": "Lanjaran",
    "postal_code": "57331"
  },
  {
    "id": 330921,
    "province_id": 33,
    "regency_id": 3309,
    "district_id": 330921,
    "value": "Mriyan",
    "postal_code": "57331"
  },
  {
    "id": 330921,
    "province_id": 33,
    "regency_id": 3309,
    "district_id": 330921,
    "value": "Sangup",
    "postal_code": "57331"
  },
  {
    "id": 330921,
    "province_id": 33,
    "regency_id": 3309,
    "district_id": 330921,
    "value": "Sumur",
    "postal_code": "57331"
  }
]