[
  {
    "id": 911514,
    "province_id": 91,
    "regency_id": 9115,
    "district_id": 911514,
    "value": "Bakadaro",
    "postal_code": "98676"
  },
  {
    "id": 911514,
    "province_id": 91,
    "regency_id": 9115,
    "district_id": 911514,
    "value": "Borumei",
    "postal_code": "98676"
  },
  {
    "id": 911514,
    "province_id": 91,
    "regency_id": 9115,
    "district_id": 911514,
    "value": "Fimore",
    "postal_code": "98676"
  },
  {
    "id": 911514,
    "province_id": 91,
    "regency_id": 9115,
    "district_id": 911514,
    "value": "Gheroi",
    "postal_code": "98676"
  },
  {
    "id": 911514,
    "province_id": 91,
    "regency_id": 9115,
    "district_id": 911514,
    "value": "Ghoiwi Samberi",
    "postal_code": "98676"
  },
  {
    "id": 911514,
    "province_id": 91,
    "regency_id": 9115,
    "district_id": 911514,
    "value": "Moyufuri",
    "postal_code": "98676"
  },
  {
    "id": 911514,
    "province_id": 91,
    "regency_id": 9115,
    "district_id": 911514,
    "value": "Odase",
    "postal_code": "98676"
  },
  {
    "id": 911514,
    "province_id": 91,
    "regency_id": 9115,
    "district_id": 911514,
    "value": "Sifuisera",
    "postal_code": "98676"
  },
  {
    "id": 911514,
    "province_id": 91,
    "regency_id": 9115,
    "district_id": 911514,
    "value": "Wanda",
    "postal_code": "98676"
  },
  {
    "id": 911514,
    "province_id": 91,
    "regency_id": 9115,
    "district_id": 911514,
    "value": "Wonti Kai",
    "postal_code": "98676"
  }
]