[
  {
    "id": 940508,
    "province_id": 94,
    "regency_id": 9405,
    "district_id": 940508,
    "value": "Agiyome",
    "postal_code": "98963"
  },
  {
    "id": 940508,
    "province_id": 94,
    "regency_id": 9405,
    "district_id": 940508,
    "value": "Gome",
    "postal_code": "98963"
  },
  {
    "id": 940508,
    "province_id": 94,
    "regency_id": 9405,
    "district_id": 940508,
    "value": "Kelanungin",
    "postal_code": "98963"
  },
  {
    "id": 940508,
    "province_id": 94,
    "regency_id": 9405,
    "district_id": 940508,
    "value": "Misimaga",
    "postal_code": "98963"
  },
  {
    "id": 940508,
    "province_id": 94,
    "regency_id": 9405,
    "district_id": 940508,
    "value": "Ninggabuma",
    "postal_code": "98963"
  },
  {
    "id": 940508,
    "province_id": 94,
    "regency_id": 9405,
    "district_id": 940508,
    "value": "Tegelobak",
    "postal_code": "98963"
  },
  {
    "id": 940508,
    "province_id": 94,
    "regency_id": 9405,
    "district_id": 940508,
    "value": "Upaga",
    "postal_code": "98963"
  },
  {
    "id": 940508,
    "province_id": 94,
    "regency_id": 9405,
    "district_id": 940508,
    "value": "Wako",
    "postal_code": "98963"
  },
  {
    "id": 940508,
    "province_id": 94,
    "regency_id": 9405,
    "district_id": 940508,
    "value": "Yenggernok",
    "postal_code": "98963"
  },
  {
    "id": 940508,
    "province_id": 94,
    "regency_id": 9405,
    "district_id": 940508,
    "value": "Yonggolawi",
    "postal_code": "98963"
  }
]