[
  {
    "id": 150204,
    "province_id": 15,
    "regency_id": 1502,
    "district_id": 150204,
    "value": "Benteng",
    "postal_code": "37363"
  },
  {
    "id": 150204,
    "province_id": 15,
    "regency_id": 1502,
    "district_id": 150204,
    "value": "Bukit Batu",
    "postal_code": "37363"
  },
  {
    "id": 150204,
    "province_id": 15,
    "regency_id": 1502,
    "district_id": 150204,
    "value": "Durian Lecah",
    "postal_code": "37363"
  },
  {
    "id": 150204,
    "province_id": 15,
    "regency_id": 1502,
    "district_id": 150204,
    "value": "Gelanggang",
    "postal_code": "37363"
  },
  {
    "id": 150204,
    "province_id": 15,
    "regency_id": 1502,
    "district_id": 150204,
    "value": "Palipan",
    "postal_code": "37363"
  },
  {
    "id": 150204,
    "province_id": 15,
    "regency_id": 1502,
    "district_id": 150204,
    "value": "Saringat/Seringat",
    "postal_code": "37363"
  },
  {
    "id": 150204,
    "province_id": 15,
    "regency_id": 1502,
    "district_id": 150204,
    "value": "Sungai Manau",
    "postal_code": "37363"
  },
  {
    "id": 150204,
    "province_id": 15,
    "regency_id": 1502,
    "district_id": 150204,
    "value": "Sungai Nilau",
    "postal_code": "37363"
  },
  {
    "id": 150204,
    "province_id": 15,
    "regency_id": 1502,
    "district_id": 150204,
    "value": "Sungai/Sei Pinang",
    "postal_code": "37363"
  },
  {
    "id": 150204,
    "province_id": 15,
    "regency_id": 1502,
    "district_id": 150204,
    "value": "Tiangko",
    "postal_code": "37363"
  }
]