[
  {
    "id": 3201362004,
    "province_id": 32,
    "regency_id": 3201,
    "district_id": 320136,
    "value": "Antajaya",
    "postal_code": "16841"
  },
  {
    "id": 3201362009,
    "province_id": 32,
    "regency_id": 3201,
    "district_id": 320136,
    "value": "Buanajaya",
    "postal_code": "16841"
  },
  {
    "id": 3201362006,
    "province_id": 32,
    "regency_id": 3201,
    "district_id": 320136,
    "value": "Cibadak",
    "postal_code": "16841"
  },
  {
    "id": 3201362005,
    "province_id": 32,
    "regency_id": 3201,
    "district_id": 320136,
    "value": "Pasir Tanjung",
    "postal_code": "16841"
  },
  {
    "id": 3201362002,
    "province_id": 32,
    "regency_id": 3201,
    "district_id": 320136,
    "value": "Selawangi",
    "postal_code": "16841"
  },
  {
    "id": 3201362010,
    "province_id": 32,
    "regency_id": 3201,
    "district_id": 320136,
    "value": "Sirnarasa",
    "postal_code": "16841"
  },
  {
    "id": 3201362008,
    "province_id": 32,
    "regency_id": 3201,
    "district_id": 320136,
    "value": "Sirnasari",
    "postal_code": "16841"
  },
  {
    "id": 3201362007,
    "province_id": 32,
    "regency_id": 3201,
    "district_id": 320136,
    "value": "Sukarasa",
    "postal_code": "16841"
  },
  {
    "id": 3201362003,
    "province_id": 32,
    "regency_id": 3201,
    "district_id": 320136,
    "value": "Tanjungrasa",
    "postal_code": "16841"
  },
  {
    "id": 3201362001,
    "province_id": 32,
    "regency_id": 3201,
    "district_id": 320136,
    "value": "Tanjungsari",
    "postal_code": "16841"
  }
]