[
  {
    "id": 1214322010,
    "province_id": 12,
    "regency_id": 1214,
    "district_id": 121432,
    "value": "Bawomaenamolo",
    "postal_code": "22868"
  },
  {
    "id": 1214322007,
    "province_id": 12,
    "regency_id": 1214,
    "district_id": 121432,
    "value": "Botohili Silambo",
    "postal_code": "22868"
  },
  {
    "id": 1214322008,
    "province_id": 12,
    "regency_id": 1214,
    "district_id": 121432,
    "value": "Botohili Sorake",
    "postal_code": "22868"
  },
  {
    "id": 1214322002,
    "province_id": 12,
    "regency_id": 1214,
    "district_id": 121432,
    "value": "Botohilisalo'o",
    "postal_code": "22868"
  },
  {
    "id": 1214322001,
    "province_id": 12,
    "regency_id": 1214,
    "district_id": 121432,
    "value": "Botohilitano",
    "postal_code": "22868"
  },
  {
    "id": 1214322005,
    "province_id": 12,
    "regency_id": 1214,
    "district_id": 121432,
    "value": "Hiliamaetaniha",
    "postal_code": "22868"
  },
  {
    "id": 1214322009,
    "province_id": 12,
    "regency_id": 1214,
    "district_id": 121432,
    "value": "Hilimaenamolo",
    "postal_code": "22868"
  },
  {
    "id": 1214322003,
    "province_id": 12,
    "regency_id": 1214,
    "district_id": 121432,
    "value": "Lagundri",
    "postal_code": "22868"
  },
  {
    "id": 1214322004,
    "province_id": 12,
    "regency_id": 1214,
    "district_id": 121432,
    "value": "Orahili Faomasi",
    "postal_code": "22868"
  },
  {
    "id": 1214322006,
    "province_id": 12,
    "regency_id": 1214,
    "district_id": 121432,
    "value": "Sondregeasi",
    "postal_code": "22868"
  }
]