[
  {
    "id": 920923,
    "province_id": 92,
    "regency_id": 9209,
    "district_id": 920923,
    "value": "Arampak",
    "postal_code": "98393"
  },
  {
    "id": 920923,
    "province_id": 92,
    "regency_id": 9209,
    "district_id": 920923,
    "value": "Arumi",
    "postal_code": "98393"
  },
  {
    "id": 920923,
    "province_id": 92,
    "regency_id": 9209,
    "district_id": 920923,
    "value": "Barona (Wasabiti)",
    "postal_code": "98393"
  },
  {
    "id": 920923,
    "province_id": 92,
    "regency_id": 9209,
    "district_id": 920923,
    "value": "Inam",
    "postal_code": "98393"
  },
  {
    "id": 920923,
    "province_id": 92,
    "regency_id": 9209,
    "district_id": 920923,
    "value": "Inambuari",
    "postal_code": "98393"
  },
  {
    "id": 920923,
    "province_id": 92,
    "regency_id": 9209,
    "district_id": 920923,
    "value": "Jandurauw",
    "postal_code": "98393"
  },
  {
    "id": 920923,
    "province_id": 92,
    "regency_id": 9209,
    "district_id": 920923,
    "value": "Karawi",
    "postal_code": "98393"
  },
  {
    "id": 920923,
    "province_id": 92,
    "regency_id": 9209,
    "district_id": 920923,
    "value": "Nabisai",
    "postal_code": "98393"
  },
  {
    "id": 920923,
    "province_id": 92,
    "regency_id": 9209,
    "district_id": 920923,
    "value": "Sitori",
    "postal_code": "98393"
  },
  {
    "id": 920923,
    "province_id": 92,
    "regency_id": 9209,
    "district_id": 920923,
    "value": "Untorey",
    "postal_code": "98393"
  }
]