[
  {
    "id": 167306,
    "province_id": 16,
    "regency_id": 1673,
    "district_id": 167306,
    "value": "Bandung Kanan",
    "postal_code": "31611"
  },
  {
    "id": 167306,
    "province_id": 16,
    "regency_id": 1673,
    "district_id": 167306,
    "value": "Keputraan",
    "postal_code": "31611"
  },
  {
    "id": 167306,
    "province_id": 16,
    "regency_id": 1673,
    "district_id": 167306,
    "value": "Lubuklinggau Ilir (Lubuk Linggau Ilir)",
    "postal_code": "31611"
  },
  {
    "id": 167306,
    "province_id": 16,
    "regency_id": 1673,
    "district_id": 167306,
    "value": "Lubuklinggau Ulu (Lubuk Linggau Ulu)",
    "postal_code": "31611"
  },
  {
    "id": 167306,
    "province_id": 16,
    "regency_id": 1673,
    "district_id": 167306,
    "value": "Pasar Permiri",
    "postal_code": "31611"
  },
  {
    "id": 167306,
    "province_id": 16,
    "regency_id": 1673,
    "district_id": 167306,
    "value": "Sidorejo",
    "postal_code": "31616"
  },
  {
    "id": 167306,
    "province_id": 16,
    "regency_id": 1673,
    "district_id": 167306,
    "value": "Tapak Lebar",
    "postal_code": "31611"
  },
  {
    "id": 167306,
    "province_id": 16,
    "regency_id": 1673,
    "district_id": 167306,
    "value": "Ulak Lebar",
    "postal_code": "31611"
  }
]