[
  {
    "id": 3503022011,
    "province_id": 35,
    "regency_id": 3503,
    "district_id": 350302,
    "value": "Bangun",
    "postal_code": "66365"
  },
  {
    "id": 3503022010,
    "province_id": 35,
    "regency_id": 3503,
    "district_id": 350302,
    "value": "Bendoroto",
    "postal_code": "66365"
  },
  {
    "id": 3503022009,
    "province_id": 35,
    "regency_id": 3503,
    "district_id": 350302,
    "value": "Besuki",
    "postal_code": "66365"
  },
  {
    "id": 3503022004,
    "province_id": 35,
    "regency_id": 3503,
    "district_id": 350302,
    "value": "Craken",
    "postal_code": "66365"
  },
  {
    "id": 3503022007,
    "province_id": 35,
    "regency_id": 3503,
    "district_id": 350302,
    "value": "Karangturi",
    "postal_code": "66365"
  },
  {
    "id": 3503022005,
    "province_id": 35,
    "regency_id": 3503,
    "district_id": 350302,
    "value": "Masaran",
    "postal_code": "66365"
  },
  {
    "id": 3503022008,
    "province_id": 35,
    "regency_id": 3503,
    "district_id": 350302,
    "value": "Munjungan",
    "postal_code": "66365"
  },
  {
    "id": 3503022001,
    "province_id": 35,
    "regency_id": 3503,
    "district_id": 350302,
    "value": "Ngulungkulon",
    "postal_code": "66365"
  },
  {
    "id": 3503022003,
    "province_id": 35,
    "regency_id": 3503,
    "district_id": 350302,
    "value": "Ngulungwetan",
    "postal_code": "66365"
  },
  {
    "id": 3503022002,
    "province_id": 35,
    "regency_id": 3503,
    "district_id": 350302,
    "value": "Sobo",
    "postal_code": "66365"
  },
  {
    "id": 3503022006,
    "province_id": 35,
    "regency_id": 3503,
    "district_id": 350302,
    "value": "Tawing",
    "postal_code": "66365"
  }
]