[
  {
    "id": 111307,
    "province_id": 11,
    "regency_id": 1113,
    "district_id": 111307,
    "value": "Gumpang",
    "postal_code": "24658"
  },
  {
    "id": 111307,
    "province_id": 11,
    "regency_id": 1113,
    "district_id": 111307,
    "value": "Gumpang Lempuh",
    "postal_code": "24658"
  },
  {
    "id": 111307,
    "province_id": 11,
    "regency_id": 1113,
    "district_id": 111307,
    "value": "Kutelengat Sepakat",
    "postal_code": "24658"
  },
  {
    "id": 111307,
    "province_id": 11,
    "regency_id": 1113,
    "district_id": 111307,
    "value": "Marpunge Gabungan (Marpunge)",
    "postal_code": "24658"
  },
  {
    "id": 111307,
    "province_id": 11,
    "regency_id": 1113,
    "district_id": 111307,
    "value": "Meloak Sepakat",
    "postal_code": "24658"
  },
  {
    "id": 111307,
    "province_id": 11,
    "regency_id": 1113,
    "district_id": 111307,
    "value": "Putri Betung",
    "postal_code": "24658"
  },
  {
    "id": 111307,
    "province_id": 11,
    "regency_id": 1113,
    "district_id": 111307,
    "value": "Ramung Musara",
    "postal_code": "24658"
  },
  {
    "id": 111307,
    "province_id": 11,
    "regency_id": 1113,
    "district_id": 111307,
    "value": "Singah Mulo",
    "postal_code": "24658"
  },
  {
    "id": 111307,
    "province_id": 11,
    "regency_id": 1113,
    "district_id": 111307,
    "value": "Uning Pune",
    "postal_code": "24658"
  }
]