[
  {
    "id": 740238,
    "province_id": 74,
    "regency_id": 7402,
    "district_id": 740238,
    "value": "Aleuti",
    "postal_code": "93442"
  },
  {
    "id": 740238,
    "province_id": 74,
    "regency_id": 7402,
    "district_id": 740238,
    "value": "Alosika",
    "postal_code": "93442"
  },
  {
    "id": 740238,
    "province_id": 74,
    "regency_id": 7402,
    "district_id": 740238,
    "value": "Atodopi",
    "postal_code": "93442"
  },
  {
    "id": 740238,
    "province_id": 74,
    "regency_id": 7402,
    "district_id": 740238,
    "value": "Garuda",
    "postal_code": "93442"
  },
  {
    "id": 740238,
    "province_id": 74,
    "regency_id": 7402,
    "district_id": 740238,
    "value": "Langgea",
    "postal_code": "93442"
  },
  {
    "id": 740238,
    "province_id": 74,
    "regency_id": 7402,
    "district_id": 740238,
    "value": "Matahori",
    "postal_code": "93442"
  },
  {
    "id": 740238,
    "province_id": 74,
    "regency_id": 7402,
    "district_id": 740238,
    "value": "Matanggorai",
    "postal_code": "93442"
  },
  {
    "id": 740238,
    "province_id": 74,
    "regency_id": 7402,
    "district_id": 740238,
    "value": "Mekar Jaya",
    "postal_code": "93442"
  },
  {
    "id": 740238,
    "province_id": 74,
    "regency_id": 7402,
    "district_id": 740238,
    "value": "Padang Mekar",
    "postal_code": "93442"
  },
  {
    "id": 740238,
    "province_id": 74,
    "regency_id": 7402,
    "district_id": 740238,
    "value": "Padangguni",
    "postal_code": "93442"
  },
  {
    "id": 740238,
    "province_id": 74,
    "regency_id": 7402,
    "district_id": 740238,
    "value": "Sambaosu",
    "postal_code": "93442"
  }
]