[
  {
    "id": 9105062008,
    "province_id": 91,
    "regency_id": 9105,
    "district_id": 910506,
    "value": "Ambaidiru",
    "postal_code": "98632"
  },
  {
    "id": 9105062006,
    "province_id": 91,
    "regency_id": 9105,
    "district_id": 910506,
    "value": "Ariepi",
    "postal_code": "98632"
  },
  {
    "id": 9105062014,
    "province_id": 91,
    "regency_id": 9105,
    "district_id": 910506,
    "value": "Ariepi Dua",
    "postal_code": "98632"
  },
  {
    "id": 9105062002,
    "province_id": 91,
    "regency_id": 9105,
    "district_id": 910506,
    "value": "Aromarea",
    "postal_code": "98632"
  },
  {
    "id": 9105062001,
    "province_id": 91,
    "regency_id": 9105,
    "district_id": 910506,
    "value": "Kamanap",
    "postal_code": "98632"
  },
  {
    "id": 9105062004,
    "province_id": 91,
    "regency_id": 9105,
    "district_id": 910506,
    "value": "Kanawa",
    "postal_code": "98632"
  },
  {
    "id": 9105062009,
    "province_id": 91,
    "regency_id": 9105,
    "district_id": 910506,
    "value": "Mambo",
    "postal_code": "98632"
  },
  {
    "id": 9105062010,
    "province_id": 91,
    "regency_id": 9105,
    "district_id": 910506,
    "value": "Manainin",
    "postal_code": "98632"
  },
  {
    "id": 9105062003,
    "province_id": 91,
    "regency_id": 9105,
    "district_id": 910506,
    "value": "Maria Rotu (Mariarotu / Mariar Rotu)",
    "postal_code": "98632"
  },
  {
    "id": 9105062011,
    "province_id": 91,
    "regency_id": 9105,
    "district_id": 910506,
    "value": "Numaman",
    "postal_code": "98632"
  },
  {
    "id": 9105062015,
    "province_id": 91,
    "regency_id": 9105,
    "district_id": 910506,
    "value": "Panduami (Pandoami/Panduani)",
    "postal_code": "98632"
  },
  {
    "id": 9105062012,
    "province_id": 91,
    "regency_id": 9105,
    "district_id": 910506,
    "value": "Ramangkurani",
    "postal_code": "98632"
  },
  {
    "id": 9105062007,
    "province_id": 91,
    "regency_id": 9105,
    "district_id": 910506,
    "value": "Sarawandori",
    "postal_code": "98632"
  },
  {
    "id": 9105062013,
    "province_id": 91,
    "regency_id": 9105,
    "district_id": 910506,
    "value": "Sarawandori Dua",
    "postal_code": "98632"
  },
  {
    "id": 9105062005,
    "province_id": 91,
    "regency_id": 9105,
    "district_id": 910506,
    "value": "Tatui",
    "postal_code": "98632"
  }
]