[
  {
    "id": 352018,
    "province_id": 35,
    "regency_id": 3520,
    "district_id": 352018,
    "value": "Campursari",
    "postal_code": "63319"
  },
  {
    "id": 352018,
    "province_id": 35,
    "regency_id": 3520,
    "district_id": 352018,
    "value": "Durenan",
    "postal_code": "63361"
  },
  {
    "id": 352018,
    "province_id": 35,
    "regency_id": 3520,
    "district_id": 352018,
    "value": "Getasanyar",
    "postal_code": "63361"
  },
  {
    "id": 352018,
    "province_id": 35,
    "regency_id": 3520,
    "district_id": 352018,
    "value": "Kalang",
    "postal_code": "63319"
  },
  {
    "id": 352018,
    "province_id": 35,
    "regency_id": 3520,
    "district_id": 352018,
    "value": "Sambirobyong",
    "postal_code": "63319"
  },
  {
    "id": 352018,
    "province_id": 35,
    "regency_id": 3520,
    "district_id": 352018,
    "value": "Sidokerto",
    "postal_code": "63352"
  },
  {
    "id": 352018,
    "province_id": 35,
    "regency_id": 3520,
    "district_id": 352018,
    "value": "Sidomulyo",
    "postal_code": "63361"
  },
  {
    "id": 352018,
    "province_id": 35,
    "regency_id": 3520,
    "district_id": 352018,
    "value": "Sidorejo",
    "postal_code": "63361"
  },
  {
    "id": 352018,
    "province_id": 35,
    "regency_id": 3520,
    "district_id": 352018,
    "value": "Sumbersawit",
    "postal_code": "63352"
  },
  {
    "id": 352018,
    "province_id": 35,
    "regency_id": 3520,
    "district_id": 352018,
    "value": "Widorokandang",
    "postal_code": "63352"
  }
]