[
  {
    "id": 121817,
    "province_id": 12,
    "regency_id": 1218,
    "district_id": 121817,
    "value": "Bandar Magodang (Bandar Magondang / Nagodang)",
    "postal_code": "20984"
  },
  {
    "id": 121817,
    "province_id": 12,
    "regency_id": 1218,
    "district_id": 121817,
    "value": "Bandar Negeri",
    "postal_code": "20984"
  },
  {
    "id": 121817,
    "province_id": 12,
    "regency_id": 1218,
    "district_id": 121817,
    "value": "Bandar Pinang Kebun/Kebon",
    "postal_code": "20984"
  },
  {
    "id": 121817,
    "province_id": 12,
    "regency_id": 1218,
    "district_id": 121817,
    "value": "Bandar Pinang Rambe",
    "postal_code": "20984"
  },
  {
    "id": 121817,
    "province_id": 12,
    "regency_id": 1218,
    "district_id": 121817,
    "value": "Bintang Bayu",
    "postal_code": "20984"
  },
  {
    "id": 121817,
    "province_id": 12,
    "regency_id": 1218,
    "district_id": 121817,
    "value": "Damak Tolong Buho",
    "postal_code": "20984"
  },
  {
    "id": 121817,
    "province_id": 12,
    "regency_id": 1218,
    "district_id": 121817,
    "value": "Dolok Masango",
    "postal_code": "20984"
  },
  {
    "id": 121817,
    "province_id": 12,
    "regency_id": 1218,
    "district_id": 121817,
    "value": "Gudang Garam",
    "postal_code": "20984"
  },
  {
    "id": 121817,
    "province_id": 12,
    "regency_id": 1218,
    "district_id": 121817,
    "value": "Huta Durian",
    "postal_code": "20984"
  },
  {
    "id": 121817,
    "province_id": 12,
    "regency_id": 1218,
    "district_id": 121817,
    "value": "Kampung Kristen",
    "postal_code": "20984"
  },
  {
    "id": 121817,
    "province_id": 12,
    "regency_id": 1218,
    "district_id": 121817,
    "value": "Marihat Dolok",
    "postal_code": "20984"
  },
  {
    "id": 121817,
    "province_id": 12,
    "regency_id": 1218,
    "district_id": 121817,
    "value": "Panombean",
    "postal_code": "20984"
  },
  {
    "id": 121817,
    "province_id": 12,
    "regency_id": 1218,
    "district_id": 121817,
    "value": "Pergajahan/Pegajahan Hulu",
    "postal_code": "20984"
  },
  {
    "id": 121817,
    "province_id": 12,
    "regency_id": 1218,
    "district_id": 121817,
    "value": "Pergajahan/Pegajahan Kahan",
    "postal_code": "20984"
  },
  {
    "id": 121817,
    "province_id": 12,
    "regency_id": 1218,
    "district_id": 121817,
    "value": "Sarang Ginting Hulu",
    "postal_code": "20984"
  },
  {
    "id": 121817,
    "province_id": 12,
    "regency_id": 1218,
    "district_id": 121817,
    "value": "Sarang Ginting Kahan",
    "postal_code": "20984"
  },
  {
    "id": 121817,
    "province_id": 12,
    "regency_id": 1218,
    "district_id": 121817,
    "value": "Siahap",
    "postal_code": "20984"
  },
  {
    "id": 121817,
    "province_id": 12,
    "regency_id": 1218,
    "district_id": 121817,
    "value": "Ujung Negeri Hulu",
    "postal_code": "20984"
  },
  {
    "id": 121817,
    "province_id": 12,
    "regency_id": 1218,
    "district_id": 121817,
    "value": "Ujung Negeri Kahan",
    "postal_code": "20984"
  }
]