[
  {
    "id": 3503092008,
    "province_id": 35,
    "regency_id": 3503,
    "district_id": 350309,
    "value": "Botoputih",
    "postal_code": "66351"
  },
  {
    "id": 3503092007,
    "province_id": 35,
    "regency_id": 3503,
    "district_id": 350309,
    "value": "Depok",
    "postal_code": "66351"
  },
  {
    "id": 3503092006,
    "province_id": 35,
    "regency_id": 3503,
    "district_id": 350309,
    "value": "Dompyong",
    "postal_code": "66351"
  },
  {
    "id": 3503092001,
    "province_id": 35,
    "regency_id": 3503,
    "district_id": 350309,
    "value": "Masaran",
    "postal_code": "66351"
  },
  {
    "id": 3503092002,
    "province_id": 35,
    "regency_id": 3503,
    "district_id": 350309,
    "value": "Sengon",
    "postal_code": "66351"
  },
  {
    "id": 3503092005,
    "province_id": 35,
    "regency_id": 3503,
    "district_id": 350309,
    "value": "Srabah",
    "postal_code": "66351"
  },
  {
    "id": 3503092004,
    "province_id": 35,
    "regency_id": 3503,
    "district_id": 350309,
    "value": "Sumurup",
    "postal_code": "66351"
  },
  {
    "id": 3503092003,
    "province_id": 35,
    "regency_id": 3503,
    "district_id": 350309,
    "value": "Surenlor",
    "postal_code": "66351"
  }
]