[
  {
    "id": 9407032003,
    "province_id": 94,
    "regency_id": 9407,
    "district_id": 940703,
    "value": "Debasiga",
    "postal_code": "98785"
  },
  {
    "id": 9407032004,
    "province_id": 94,
    "regency_id": 9407,
    "district_id": 940703,
    "value": "Debasiga Dua",
    "postal_code": "98785"
  },
  {
    "id": 9407032002,
    "province_id": 94,
    "regency_id": 9407,
    "district_id": 940703,
    "value": "Dubandoga (Dubasiga)",
    "postal_code": "98785"
  },
  {
    "id": 9407032009,
    "province_id": 94,
    "regency_id": 9407,
    "district_id": 940703,
    "value": "Hulapuga",
    "postal_code": "98785"
  },
  {
    "id": 9407032005,
    "province_id": 94,
    "regency_id": 9407,
    "district_id": 940703,
    "value": "Isandoga",
    "postal_code": "98785"
  },
  {
    "id": 9407032007,
    "province_id": 94,
    "regency_id": 9407,
    "district_id": 940703,
    "value": "Jae",
    "postal_code": "98785"
  },
  {
    "id": 9407032008,
    "province_id": 94,
    "regency_id": 9407,
    "district_id": 940703,
    "value": "Mbugulo",
    "postal_code": "98785"
  },
  {
    "id": 9407032006,
    "province_id": 94,
    "regency_id": 9407,
    "district_id": 940703,
    "value": "Mogalo",
    "postal_code": "98785"
  },
  {
    "id": 9407032001,
    "province_id": 94,
    "regency_id": 9407,
    "district_id": 940703,
    "value": "Sabisa",
    "postal_code": "98785"
  }
]