[
  {
    "id": 1504042004,
    "province_id": 15,
    "regency_id": 1504,
    "district_id": 150404,
    "value": "Aur Gading",
    "postal_code": "36656"
  },
  {
    "id": 1504042015,
    "province_id": 15,
    "regency_id": 1504,
    "district_id": 150404,
    "value": "Bulian Baru",
    "postal_code": "36656"
  },
  {
    "id": 1504041003,
    "province_id": 15,
    "regency_id": 1504,
    "district_id": 150404,
    "value": "Durian Luncuk",
    "postal_code": "36656"
  },
  {
    "id": 1504042006,
    "province_id": 15,
    "regency_id": 1504,
    "district_id": 150404,
    "value": "Hajran",
    "postal_code": "36656"
  },
  {
    "id": 1504042008,
    "province_id": 15,
    "regency_id": 1504,
    "district_id": 150404,
    "value": "Jangga",
    "postal_code": "36656"
  },
  {
    "id": 1504042013,
    "province_id": 15,
    "regency_id": 1504,
    "district_id": 150404,
    "value": "Jangga Baru",
    "postal_code": "36656"
  },
  {
    "id": 1504042001,
    "province_id": 15,
    "regency_id": 1504,
    "district_id": 150404,
    "value": "Jelutih",
    "postal_code": "36656"
  },
  {
    "id": 1504042011,
    "province_id": 15,
    "regency_id": 1504,
    "district_id": 150404,
    "value": "Karmeo",
    "postal_code": "36656"
  },
  {
    "id": 1504042009,
    "province_id": 15,
    "regency_id": 1504,
    "district_id": 150404,
    "value": "Koto Boyo",
    "postal_code": "36656"
  },
  {
    "id": 1504042007,
    "province_id": 15,
    "regency_id": 1504,
    "district_id": 150404,
    "value": "Mata Gual",
    "postal_code": "36656"
  },
  {
    "id": 1504041012,
    "province_id": 15,
    "regency_id": 1504,
    "district_id": 150404,
    "value": "Muara Jangga",
    "postal_code": "36656"
  },
  {
    "id": 1504042002,
    "province_id": 15,
    "regency_id": 1504,
    "district_id": 150404,
    "value": "Olak Besar",
    "postal_code": "36656"
  },
  {
    "id": 1504042005,
    "province_id": 15,
    "regency_id": 1504,
    "district_id": 150404,
    "value": "Paku Aji",
    "postal_code": "36656"
  },
  {
    "id": 1504042017,
    "province_id": 15,
    "regency_id": 1504,
    "district_id": 150404,
    "value": "Simpang Aur Gading",
    "postal_code": "36656"
  },
  {
    "id": 1504042016,
    "province_id": 15,
    "regency_id": 1504,
    "district_id": 150404,
    "value": "Simpang Jelutih",
    "postal_code": "36656"
  },
  {
    "id": 1504042010,
    "province_id": 15,
    "regency_id": 1504,
    "district_id": 150404,
    "value": "Simpang Karmeo",
    "postal_code": "36656"
  },
  {
    "id": 1504042014,
    "province_id": 15,
    "regency_id": 1504,
    "district_id": 150404,
    "value": "Terentang Baru",
    "postal_code": "36656"
  }
]