[
  {
    "id": 717401,
    "province_id": 71,
    "regency_id": 7174,
    "district_id": 717401,
    "value": "Biga",
    "postal_code": "95713"
  },
  {
    "id": 717401,
    "province_id": 71,
    "regency_id": 7174,
    "district_id": 717401,
    "value": "Bilalang Dua (Bilalang II)",
    "postal_code": "95714"
  },
  {
    "id": 717401,
    "province_id": 71,
    "regency_id": 7174,
    "district_id": 717401,
    "value": "Bilalang Satu (Bilalang I)",
    "postal_code": "95714"
  },
  {
    "id": 717401,
    "province_id": 71,
    "regency_id": 7174,
    "district_id": 717401,
    "value": "Genggulang",
    "postal_code": "95714"
  },
  {
    "id": 717401,
    "province_id": 71,
    "regency_id": 7174,
    "district_id": 717401,
    "value": "Pontodon",
    "postal_code": "95714"
  },
  {
    "id": 717401,
    "province_id": 71,
    "regency_id": 7174,
    "district_id": 717401,
    "value": "Pontodon Timur",
    "postal_code": "95714"
  },
  {
    "id": 717401,
    "province_id": 71,
    "regency_id": 7174,
    "district_id": 717401,
    "value": "Sia",
    "postal_code": "95714"
  },
  {
    "id": 717401,
    "province_id": 71,
    "regency_id": 7174,
    "district_id": 717401,
    "value": "Upai",
    "postal_code": "95714"
  }
]