[
  {
    "id": 360118,
    "province_id": 36,
    "regency_id": 3601,
    "district_id": 360118,
    "value": "Batubantar",
    "postal_code": "42270"
  },
  {
    "id": 360118,
    "province_id": 36,
    "regency_id": 3601,
    "district_id": 360118,
    "value": "Cimanuk",
    "postal_code": "42270"
  },
  {
    "id": 360118,
    "province_id": 36,
    "regency_id": 3601,
    "district_id": 360118,
    "value": "Dalembalar",
    "postal_code": "42270"
  },
  {
    "id": 360118,
    "province_id": 36,
    "regency_id": 3601,
    "district_id": 360118,
    "value": "Gunungcupu",
    "postal_code": "42270"
  },
  {
    "id": 360118,
    "province_id": 36,
    "regency_id": 3601,
    "district_id": 360118,
    "value": "Gunungdatar",
    "postal_code": "42270"
  },
  {
    "id": 360118,
    "province_id": 36,
    "regency_id": 3601,
    "district_id": 360118,
    "value": "Kadubungbang",
    "postal_code": "42270"
  },
  {
    "id": 360118,
    "province_id": 36,
    "regency_id": 3601,
    "district_id": 360118,
    "value": "Kadudodol",
    "postal_code": "42270"
  },
  {
    "id": 360118,
    "province_id": 36,
    "regency_id": 3601,
    "district_id": 360118,
    "value": "Kadumadang",
    "postal_code": "42270"
  },
  {
    "id": 360118,
    "province_id": 36,
    "regency_id": 3601,
    "district_id": 360118,
    "value": "Kupahandap",
    "postal_code": "42270"
  },
  {
    "id": 360118,
    "province_id": 36,
    "regency_id": 3601,
    "district_id": 360118,
    "value": "Rocek",
    "postal_code": "42270"
  },
  {
    "id": 360118,
    "province_id": 36,
    "regency_id": 3601,
    "district_id": 360118,
    "value": "Sekong",
    "postal_code": "42270"
  }
]