[
  {
    "id": 911003,
    "province_id": 91,
    "regency_id": 9110,
    "district_id": 911003,
    "value": "Arbais",
    "postal_code": "99375"
  },
  {
    "id": 911003,
    "province_id": 91,
    "regency_id": 9110,
    "district_id": 911003,
    "value": "Aruswar",
    "postal_code": "99375"
  },
  {
    "id": 911003,
    "province_id": 91,
    "regency_id": 9110,
    "district_id": 911003,
    "value": "Burgena",
    "postal_code": "99375"
  },
  {
    "id": 911003,
    "province_id": 91,
    "regency_id": 9110,
    "district_id": 911003,
    "value": "Kamenawari",
    "postal_code": "99375"
  },
  {
    "id": 911003,
    "province_id": 91,
    "regency_id": 9110,
    "district_id": 911003,
    "value": "Kapeso",
    "postal_code": "99375"
  },
  {
    "id": 911003,
    "province_id": 91,
    "regency_id": 9110,
    "district_id": 911003,
    "value": "Karfasia",
    "postal_code": "99375"
  },
  {
    "id": 911003,
    "province_id": 91,
    "regency_id": 9110,
    "district_id": 911003,
    "value": "Masep",
    "postal_code": "99375"
  },
  {
    "id": 911003,
    "province_id": 91,
    "regency_id": 9110,
    "district_id": 911003,
    "value": "Mertewar (Martewar)",
    "postal_code": "99375"
  },
  {
    "id": 911003,
    "province_id": 91,
    "regency_id": 9110,
    "district_id": 911003,
    "value": "Nisro",
    "postal_code": "99375"
  },
  {
    "id": 911003,
    "province_id": 91,
    "regency_id": 9110,
    "district_id": 911003,
    "value": "Niwerawar",
    "postal_code": "99375"
  },
  {
    "id": 911003,
    "province_id": 91,
    "regency_id": 9110,
    "district_id": 911003,
    "value": "Samorkena",
    "postal_code": "99375"
  },
  {
    "id": 911003,
    "province_id": 91,
    "regency_id": 9110,
    "district_id": 911003,
    "value": "Siantoa",
    "postal_code": "99375"
  },
  {
    "id": 911003,
    "province_id": 91,
    "regency_id": 9110,
    "district_id": 911003,
    "value": "Subu",
    "postal_code": "99375"
  },
  {
    "id": 911003,
    "province_id": 91,
    "regency_id": 9110,
    "district_id": 911003,
    "value": "Waim",
    "postal_code": "99375"
  },
  {
    "id": 911003,
    "province_id": 91,
    "regency_id": 9110,
    "district_id": 911003,
    "value": "Wari",
    "postal_code": "99375"
  },
  {
    "id": 911003,
    "province_id": 91,
    "regency_id": 9110,
    "district_id": 911003,
    "value": "Webro",
    "postal_code": "99375"
  }
]