[
  {
    "id": 730906,
    "province_id": 73,
    "regency_id": 7309,
    "district_id": 730906,
    "value": "Barugae",
    "postal_code": "90563"
  },
  {
    "id": 730906,
    "province_id": 73,
    "regency_id": 7309,
    "district_id": 730906,
    "value": "Batu Putih",
    "postal_code": "90563"
  },
  {
    "id": 730906,
    "province_id": 73,
    "regency_id": 7309,
    "district_id": 730906,
    "value": "Bentenge",
    "postal_code": "90563"
  },
  {
    "id": 730906,
    "province_id": 73,
    "regency_id": 7309,
    "district_id": 730906,
    "value": "Gatarang Matinggi (Gattareng Matinggi)",
    "postal_code": "90563"
  },
  {
    "id": 730906,
    "province_id": 73,
    "regency_id": 7309,
    "district_id": 730906,
    "value": "Matampapole",
    "postal_code": "90563"
  },
  {
    "id": 730906,
    "province_id": 73,
    "regency_id": 7309,
    "district_id": 730906,
    "value": "Padaelo",
    "postal_code": "90563"
  },
  {
    "id": 730906,
    "province_id": 73,
    "regency_id": 7309,
    "district_id": 730906,
    "value": "Sabila",
    "postal_code": "90563"
  },
  {
    "id": 730906,
    "province_id": 73,
    "regency_id": 7309,
    "district_id": 730906,
    "value": "Samaenre",
    "postal_code": "90563"
  },
  {
    "id": 730906,
    "province_id": 73,
    "regency_id": 7309,
    "district_id": 730906,
    "value": "Tellupanuae",
    "postal_code": "90563"
  },
  {
    "id": 730906,
    "province_id": 73,
    "regency_id": 7309,
    "district_id": 730906,
    "value": "Uludaya",
    "postal_code": "90563"
  },
  {
    "id": 730906,
    "province_id": 73,
    "regency_id": 7309,
    "district_id": 730906,
    "value": "Wanua Waru",
    "postal_code": "90563"
  }
]