[
  {
    "id": 1312102003,
    "province_id": 13,
    "regency_id": 1312,
    "district_id": 131210,
    "value": "Giri Maju",
    "postal_code": "26568"
  },
  {
    "id": 1312102008,
    "province_id": 13,
    "regency_id": 1312,
    "district_id": 131210,
    "value": "Jambak Selatan",
    "postal_code": "26568"
  },
  {
    "id": 1312102002,
    "province_id": 13,
    "regency_id": 1312,
    "district_id": 131210,
    "value": "Kapa (Kapar)",
    "postal_code": "26568"
  },
  {
    "id": 1312102001,
    "province_id": 13,
    "regency_id": 1312,
    "district_id": 131210,
    "value": "Koto Baru",
    "postal_code": "26568"
  },
  {
    "id": 1312102005,
    "province_id": 13,
    "regency_id": 1312,
    "district_id": 131210,
    "value": "Mahakarya",
    "postal_code": "26568"
  },
  {
    "id": 1312102004,
    "province_id": 13,
    "regency_id": 1312,
    "district_id": 131210,
    "value": "Ophir",
    "postal_code": "26568"
  },
  {
    "id": 1312102009,
    "province_id": 13,
    "regency_id": 1312,
    "district_id": 131210,
    "value": "Pujorahayu",
    "postal_code": "26568"
  },
  {
    "id": 1312102006,
    "province_id": 13,
    "regency_id": 1312,
    "district_id": 131210,
    "value": "Sariak",
    "postal_code": "26568"
  },
  {
    "id": 1312102007,
    "province_id": 13,
    "regency_id": 1312,
    "district_id": 131210,
    "value": "Sungai Talang",
    "postal_code": "26568"
  }
]