[
  {
    "id": 6301042003,
    "province_id": 63,
    "regency_id": 6301,
    "district_id": 630104,
    "value": "Bawah Layung",
    "postal_code": "70851"
  },
  {
    "id": 6301042006,
    "province_id": 63,
    "regency_id": 6301,
    "district_id": 630104,
    "value": "Handil Negara",
    "postal_code": "70851"
  },
  {
    "id": 6301042005,
    "province_id": 63,
    "regency_id": 6301,
    "district_id": 630104,
    "value": "Kali Besar",
    "postal_code": "70851"
  },
  {
    "id": 6301042008,
    "province_id": 63,
    "regency_id": 6301,
    "district_id": 630104,
    "value": "Kurau",
    "postal_code": "70851"
  },
  {
    "id": 6301042002,
    "province_id": 63,
    "regency_id": 6301,
    "district_id": 630104,
    "value": "Maluka Baulin (Maluka Bualin)",
    "postal_code": "70851"
  },
  {
    "id": 6301042007,
    "province_id": 63,
    "regency_id": 6301,
    "district_id": 630104,
    "value": "Padang Luas",
    "postal_code": "70851"
  },
  {
    "id": 6301042018,
    "province_id": 63,
    "regency_id": 6301,
    "district_id": 630104,
    "value": "Raden",
    "postal_code": "70851"
  },
  {
    "id": 6301042019,
    "province_id": 63,
    "regency_id": 6301,
    "district_id": 630104,
    "value": "Sarikandi",
    "postal_code": "70851"
  },
  {
    "id": 6301042001,
    "province_id": 63,
    "regency_id": 6301,
    "district_id": 630104,
    "value": "Sungai Bakau (Sei Bakau)",
    "postal_code": "70851"
  },
  {
    "id": 6301042017,
    "province_id": 63,
    "regency_id": 6301,
    "district_id": 630104,
    "value": "Tambak Karya",
    "postal_code": "70851"
  },
  {
    "id": 6301042004,
    "province_id": 63,
    "regency_id": 6301,
    "district_id": 630104,
    "value": "Tambak Sarinan/Sarinah",
    "postal_code": "70851"
  }
]