[
  {
    "id": 5203012005,
    "province_id": 52,
    "regency_id": 5203,
    "district_id": 520301,
    "value": "Batu Putik",
    "postal_code": "83673"
  },
  {
    "id": 5203012010,
    "province_id": 52,
    "regency_id": 5203,
    "district_id": 520301,
    "value": "Dane Rase",
    "postal_code": "83673"
  },
  {
    "id": 5203012007,
    "province_id": 52,
    "regency_id": 5203,
    "district_id": 520301,
    "value": "Keruak",
    "postal_code": "83673"
  },
  {
    "id": 5203012011,
    "province_id": 52,
    "regency_id": 5203,
    "district_id": 520301,
    "value": "Ketangga Jeraeng",
    "postal_code": "83673"
  },
  {
    "id": 5203012008,
    "province_id": 52,
    "regency_id": 5203,
    "district_id": 520301,
    "value": "Ketapang Raya",
    "postal_code": "83673"
  },
  {
    "id": 5203012012,
    "province_id": 52,
    "regency_id": 5203,
    "district_id": 520301,
    "value": "Mendana Raya",
    "postal_code": "83673"
  },
  {
    "id": 5203012014,
    "province_id": 52,
    "regency_id": 5203,
    "district_id": 520301,
    "value": "Montong Belae",
    "postal_code": "83673"
  },
  {
    "id": 5203012002,
    "province_id": 52,
    "regency_id": 5203,
    "district_id": 520301,
    "value": "Pijot",
    "postal_code": "83673"
  },
  {
    "id": 5203012009,
    "province_id": 52,
    "regency_id": 5203,
    "district_id": 520301,
    "value": "Pijot Utara",
    "postal_code": "83673"
  },
  {
    "id": 5203012015,
    "province_id": 52,
    "regency_id": 5203,
    "district_id": 520301,
    "value": "Pulau Maringkik",
    "postal_code": "83673"
  },
  {
    "id": 5203012003,
    "province_id": 52,
    "regency_id": 5203,
    "district_id": 520301,
    "value": "Selebung Ketangga",
    "postal_code": "83673"
  },
  {
    "id": 5203012006,
    "province_id": 52,
    "regency_id": 5203,
    "district_id": 520301,
    "value": "Senyiur",
    "postal_code": "83673"
  },
  {
    "id": 5203012004,
    "province_id": 52,
    "regency_id": 5203,
    "district_id": 520301,
    "value": "Sepit",
    "postal_code": "83673"
  },
  {
    "id": 5203012013,
    "province_id": 52,
    "regency_id": 5203,
    "district_id": 520301,
    "value": "Setungkep Lingsar",
    "postal_code": "83673"
  },
  {
    "id": 5203012001,
    "province_id": 52,
    "regency_id": 5203,
    "district_id": 520301,
    "value": "Tanjung Luar",
    "postal_code": "83673"
  }
]