[
  {
    "id": 150710,
    "province_id": 15,
    "regency_id": 1507,
    "district_id": 150710,
    "value": "Kota Baru",
    "postal_code": "36764"
  },
  {
    "id": 150710,
    "province_id": 15,
    "regency_id": 1507,
    "district_id": 150710,
    "value": "Lagan Tengah",
    "postal_code": "36764"
  },
  {
    "id": 150710,
    "province_id": 15,
    "regency_id": 1507,
    "district_id": 150710,
    "value": "Lagan Ulu",
    "postal_code": "36764"
  },
  {
    "id": 150710,
    "province_id": 15,
    "regency_id": 1507,
    "district_id": 150710,
    "value": "Pandan Jaya",
    "postal_code": "36764"
  },
  {
    "id": 150710,
    "province_id": 15,
    "regency_id": 1507,
    "district_id": 150710,
    "value": "Pandan Lagan/Logan",
    "postal_code": "36764"
  },
  {
    "id": 150710,
    "province_id": 15,
    "regency_id": 1507,
    "district_id": 150710,
    "value": "Pandan Makmur",
    "postal_code": "36764"
  },
  {
    "id": 150710,
    "province_id": 15,
    "regency_id": 1507,
    "district_id": 150710,
    "value": "Pandan Sejahtera",
    "postal_code": "36764"
  },
  {
    "id": 150710,
    "province_id": 15,
    "regency_id": 1507,
    "district_id": 150710,
    "value": "Rantau Karya",
    "postal_code": "36764"
  },
  {
    "id": 150710,
    "province_id": 15,
    "regency_id": 1507,
    "district_id": 150710,
    "value": "Suka Maju",
    "postal_code": "36764"
  }
]