[
  {
    "id": 6307092002,
    "province_id": 63,
    "regency_id": 6307,
    "district_id": 630709,
    "value": "Alat",
    "postal_code": "71372"
  },
  {
    "id": 6307092005,
    "province_id": 63,
    "regency_id": 6307,
    "district_id": 630709,
    "value": "Batu Tunggal",
    "postal_code": "71372"
  },
  {
    "id": 6307092004,
    "province_id": 63,
    "regency_id": 6307,
    "district_id": 630709,
    "value": "Bulayak",
    "postal_code": "71372"
  },
  {
    "id": 6307092010,
    "province_id": 63,
    "regency_id": 6307,
    "district_id": 630709,
    "value": "Datar Ajab",
    "postal_code": "71372"
  },
  {
    "id": 6307092001,
    "province_id": 63,
    "regency_id": 6307,
    "district_id": 630709,
    "value": "Hantakan",
    "postal_code": "71372"
  },
  {
    "id": 6307092008,
    "province_id": 63,
    "regency_id": 6307,
    "district_id": 630709,
    "value": "Haruyan Dayak",
    "postal_code": "71372"
  },
  {
    "id": 6307092011,
    "province_id": 63,
    "regency_id": 6307,
    "district_id": 630709,
    "value": "Hinas Kanan",
    "postal_code": "71372"
  },
  {
    "id": 6307092009,
    "province_id": 63,
    "regency_id": 6307,
    "district_id": 630709,
    "value": "Kindingan",
    "postal_code": "71372"
  },
  {
    "id": 6307092003,
    "province_id": 63,
    "regency_id": 6307,
    "district_id": 630709,
    "value": "Murung B",
    "postal_code": "71372"
  },
  {
    "id": 6307092006,
    "province_id": 63,
    "regency_id": 6307,
    "district_id": 630709,
    "value": "Pasting",
    "postal_code": "71372"
  },
  {
    "id": 6307092012,
    "province_id": 63,
    "regency_id": 6307,
    "district_id": 630709,
    "value": "Patikalain",
    "postal_code": "71372"
  },
  {
    "id": 6307092007,
    "province_id": 63,
    "regency_id": 6307,
    "district_id": 630709,
    "value": "Tilahan",
    "postal_code": "71372"
  }
]