[
  {
    "id": 3524122007,
    "province_id": 35,
    "regency_id": 3524,
    "district_id": 352412,
    "value": "Bakalrejo",
    "postal_code": "62256"
  },
  {
    "id": 3524122006,
    "province_id": 35,
    "regency_id": 3524,
    "district_id": 352412,
    "value": "Bedingin",
    "postal_code": "62256"
  },
  {
    "id": 3524122016,
    "province_id": 35,
    "regency_id": 3524,
    "district_id": 352412,
    "value": "Daliwangun",
    "postal_code": "62256"
  },
  {
    "id": 3524122013,
    "province_id": 35,
    "regency_id": 3524,
    "district_id": 352412,
    "value": "Deketagung",
    "postal_code": "62256"
  },
  {
    "id": 3524122020,
    "province_id": 35,
    "regency_id": 3524,
    "district_id": 352412,
    "value": "German",
    "postal_code": "62256"
  },
  {
    "id": 3524122008,
    "province_id": 35,
    "regency_id": 3524,
    "district_id": 352412,
    "value": "Gondanglor (Gondang Lor)",
    "postal_code": "62256"
  },
  {
    "id": 3524122017,
    "province_id": 35,
    "regency_id": 3524,
    "district_id": 352412,
    "value": "Jubelkidul (Jubel Kidul)",
    "postal_code": "62256"
  },
  {
    "id": 3524122014,
    "province_id": 35,
    "regency_id": 3524,
    "district_id": 352412,
    "value": "Jubellor (Jubel Lor)",
    "postal_code": "62256"
  },
  {
    "id": 3524122019,
    "province_id": 35,
    "regency_id": 3524,
    "district_id": 352412,
    "value": "Kalipang",
    "postal_code": "62256"
  },
  {
    "id": 3524122002,
    "province_id": 35,
    "regency_id": 3524,
    "district_id": 352412,
    "value": "Kalitengah",
    "postal_code": "62256"
  },
  {
    "id": 3524122010,
    "province_id": 35,
    "regency_id": 3524,
    "district_id": 352412,
    "value": "Karangsambigalih (Karang Sambigalih)",
    "postal_code": "62256"
  },
  {
    "id": 3524122005,
    "province_id": 35,
    "regency_id": 3524,
    "district_id": 352412,
    "value": "Kedungbanjar",
    "postal_code": "62256"
  },
  {
    "id": 3524122003,
    "province_id": 35,
    "regency_id": 3524,
    "district_id": 352412,
    "value": "Kedungdadi",
    "postal_code": "62256"
  },
  {
    "id": 3524122018,
    "province_id": 35,
    "regency_id": 3524,
    "district_id": 352412,
    "value": "Lawanganagung (Lawangan Agung)",
    "postal_code": "62256"
  },
  {
    "id": 3524122012,
    "province_id": 35,
    "regency_id": 3524,
    "district_id": 352412,
    "value": "Lebakadi",
    "postal_code": "62256"
  },
  {
    "id": 3524122009,
    "province_id": 35,
    "regency_id": 3524,
    "district_id": 352412,
    "value": "Pangkatrejo",
    "postal_code": "62256"
  },
  {
    "id": 3524122021,
    "province_id": 35,
    "regency_id": 3524,
    "district_id": 352412,
    "value": "Sekarbagus",
    "postal_code": "62256"
  },
  {
    "id": 3524122001,
    "province_id": 35,
    "regency_id": 3524,
    "district_id": 352412,
    "value": "Sidobogem",
    "postal_code": "62256"
  },
  {
    "id": 3524122004,
    "province_id": 35,
    "regency_id": 3524,
    "district_id": 352412,
    "value": "Sidorejo",
    "postal_code": "62256"
  },
  {
    "id": 3524122015,
    "province_id": 35,
    "regency_id": 3524,
    "district_id": 352412,
    "value": "Sugio",
    "postal_code": "62256"
  },
  {
    "id": 3524122011,
    "province_id": 35,
    "regency_id": 3524,
    "district_id": 352412,
    "value": "Supenuh",
    "postal_code": "62256"
  }
]