[
  {
    "id": 3602192001,
    "province_id": 36,
    "regency_id": 3602,
    "district_id": 360219,
    "value": "Cibeber",
    "postal_code": "42394"
  },
  {
    "id": 3602192018,
    "province_id": 36,
    "regency_id": 3602,
    "district_id": 360219,
    "value": "Cihambali",
    "postal_code": "42394"
  },
  {
    "id": 3602192023,
    "province_id": 36,
    "regency_id": 3602,
    "district_id": 360219,
    "value": "Ciherang",
    "postal_code": "42394"
  },
  {
    "id": 3602192016,
    "province_id": 36,
    "regency_id": 3602,
    "district_id": 360219,
    "value": "Cikadu",
    "postal_code": "42394"
  },
  {
    "id": 3602192008,
    "province_id": 36,
    "regency_id": 3602,
    "district_id": 360219,
    "value": "Cikotok",
    "postal_code": "42394"
  },
  {
    "id": 3602192003,
    "province_id": 36,
    "regency_id": 3602,
    "district_id": 360219,
    "value": "Cisungsang",
    "postal_code": "42394"
  },
  {
    "id": 3602192019,
    "province_id": 36,
    "regency_id": 3602,
    "district_id": 360219,
    "value": "Citorek Barat",
    "postal_code": "42394"
  },
  {
    "id": 3602192015,
    "province_id": 36,
    "regency_id": 3602,
    "district_id": 360219,
    "value": "Citorek Kidul (Ciusul)",
    "postal_code": "42394"
  },
  {
    "id": 3602192022,
    "province_id": 36,
    "regency_id": 3602,
    "district_id": 360219,
    "value": "Citorek Sabrang (Girimukti)",
    "postal_code": "42394"
  },
  {
    "id": 3602192002,
    "province_id": 36,
    "regency_id": 3602,
    "district_id": 360219,
    "value": "Citorek Tengah",
    "postal_code": "42394"
  },
  {
    "id": 3602192010,
    "province_id": 36,
    "regency_id": 3602,
    "district_id": 360219,
    "value": "Citorek Timur (Ciparay)",
    "postal_code": "42394"
  },
  {
    "id": 3602192020,
    "province_id": 36,
    "regency_id": 3602,
    "district_id": 360219,
    "value": "Gunungwangun",
    "postal_code": "42394"
  },
  {
    "id": 3602192013,
    "province_id": 36,
    "regency_id": 3602,
    "district_id": 360219,
    "value": "Hegarmanah",
    "postal_code": "42394"
  },
  {
    "id": 3602192004,
    "province_id": 36,
    "regency_id": 3602,
    "district_id": 360219,
    "value": "Kujangjaya",
    "postal_code": "42394"
  },
  {
    "id": 3602192005,
    "province_id": 36,
    "regency_id": 3602,
    "district_id": 360219,
    "value": "Kujangsari",
    "postal_code": "42394"
  },
  {
    "id": 3602192007,
    "province_id": 36,
    "regency_id": 3602,
    "district_id": 360219,
    "value": "Mekarsari",
    "postal_code": "42394"
  },
  {
    "id": 3602192006,
    "province_id": 36,
    "regency_id": 3602,
    "district_id": 360219,
    "value": "Neglasari",
    "postal_code": "42394"
  },
  {
    "id": 3602192017,
    "province_id": 36,
    "regency_id": 3602,
    "district_id": 360219,
    "value": "Sirnagalih (Sinargalih)",
    "postal_code": "42394"
  },
  {
    "id": 3602192014,
    "province_id": 36,
    "regency_id": 3602,
    "district_id": 360219,
    "value": "Situmulya",
    "postal_code": "42394"
  },
  {
    "id": 3602192009,
    "province_id": 36,
    "regency_id": 3602,
    "district_id": 360219,
    "value": "Sukamulya",
    "postal_code": "42394"
  },
  {
    "id": 3602192021,
    "province_id": 36,
    "regency_id": 3602,
    "district_id": 360219,
    "value": "Wanasari (Warnasari)",
    "postal_code": "42394"
  },
  {
    "id": 3602192011,
    "province_id": 36,
    "regency_id": 3602,
    "district_id": 360219,
    "value": "Warungbanten",
    "postal_code": "42394"
  }
]