[
  {
    "id": 111309,
    "province_id": 11,
    "regency_id": 1113,
    "district_id": 111309,
    "value": "Akul",
    "postal_code": "24655"
  },
  {
    "id": 111309,
    "province_id": 11,
    "regency_id": 1113,
    "district_id": 111309,
    "value": "Blang Jerango",
    "postal_code": "24655"
  },
  {
    "id": 111309,
    "province_id": 11,
    "regency_id": 1113,
    "district_id": 111309,
    "value": "Gegarang",
    "postal_code": "24655"
  },
  {
    "id": 111309,
    "province_id": 11,
    "regency_id": 1113,
    "district_id": 111309,
    "value": "Ketukah",
    "postal_code": "24655"
  },
  {
    "id": 111309,
    "province_id": 11,
    "regency_id": 1113,
    "district_id": 111309,
    "value": "Penosan",
    "postal_code": "24655"
  },
  {
    "id": 111309,
    "province_id": 11,
    "regency_id": 1113,
    "district_id": 111309,
    "value": "Penosan Sepakat",
    "postal_code": "24655"
  },
  {
    "id": 111309,
    "province_id": 11,
    "regency_id": 1113,
    "district_id": 111309,
    "value": "Peparik Dekat",
    "postal_code": "24655"
  },
  {
    "id": 111309,
    "province_id": 11,
    "regency_id": 1113,
    "district_id": 111309,
    "value": "Peparik Gaib",
    "postal_code": "24655"
  },
  {
    "id": 111309,
    "province_id": 11,
    "regency_id": 1113,
    "district_id": 111309,
    "value": "Sekuelen",
    "postal_code": "24655"
  },
  {
    "id": 111309,
    "province_id": 11,
    "regency_id": 1113,
    "district_id": 111309,
    "value": "Tingkem",
    "postal_code": "24655"
  }
]