[
  {
    "id": 950305,
    "province_id": 95,
    "regency_id": 9503,
    "district_id": 950305,
    "value": "Asotapo",
    "postal_code": "99710"
  },
  {
    "id": 950305,
    "province_id": 95,
    "regency_id": 9503,
    "district_id": 950305,
    "value": "Haleroma",
    "postal_code": "99710"
  },
  {
    "id": 950305,
    "province_id": 95,
    "regency_id": 9503,
    "district_id": 950305,
    "value": "Hirin",
    "postal_code": "99710"
  },
  {
    "id": 950305,
    "province_id": 95,
    "regency_id": 9503,
    "district_id": 950305,
    "value": "Hugilokon",
    "postal_code": "99710"
  },
  {
    "id": 950305,
    "province_id": 95,
    "regency_id": 9503,
    "district_id": 950305,
    "value": "Ison",
    "postal_code": "99710"
  },
  {
    "id": 950305,
    "province_id": 95,
    "regency_id": 9503,
    "district_id": 950305,
    "value": "Muke",
    "postal_code": "99710"
  },
  {
    "id": 950305,
    "province_id": 95,
    "regency_id": 9503,
    "district_id": 950305,
    "value": "Notnarek",
    "postal_code": "99710"
  },
  {
    "id": 950305,
    "province_id": 95,
    "regency_id": 9503,
    "district_id": 950305,
    "value": "Pona",
    "postal_code": "99710"
  },
  {
    "id": 950305,
    "province_id": 95,
    "regency_id": 9503,
    "district_id": 950305,
    "value": "Samenage",
    "postal_code": "99710"
  }
]