[
  {
    "id": 1406032013,
    "province_id": 14,
    "regency_id": 1406,
    "district_id": 140603,
    "value": "Babussalam",
    "postal_code": "28560"
  },
  {
    "id": 1406032010,
    "province_id": 14,
    "regency_id": 1406,
    "district_id": 140603,
    "value": "Koto Tinggi",
    "postal_code": "28560"
  },
  {
    "id": 1406032006,
    "province_id": 14,
    "regency_id": 1406,
    "district_id": 140603,
    "value": "Menaming",
    "postal_code": "28560"
  },
  {
    "id": 1406032007,
    "province_id": 14,
    "regency_id": 1406,
    "district_id": 140603,
    "value": "Pasir Baru",
    "postal_code": "28560"
  },
  {
    "id": 1406032014,
    "province_id": 14,
    "regency_id": 1406,
    "district_id": 140603,
    "value": "Pasir Maju",
    "postal_code": "28560"
  },
  {
    "id": 1406031001,
    "province_id": 14,
    "regency_id": 1406,
    "district_id": 140603,
    "value": "Pasir Pengarayan",
    "postal_code": "28560"
  },
  {
    "id": 1406032012,
    "province_id": 14,
    "regency_id": 1406,
    "district_id": 140603,
    "value": "Pemalang Berangan (Pematang Berangan)",
    "postal_code": "28560"
  },
  {
    "id": 1406032005,
    "province_id": 14,
    "regency_id": 1406,
    "district_id": 140603,
    "value": "Rambah Tengah Barat",
    "postal_code": "28560"
  },
  {
    "id": 1406032003,
    "province_id": 14,
    "regency_id": 1406,
    "district_id": 140603,
    "value": "Rambah Tengah Hilir",
    "postal_code": "28560"
  },
  {
    "id": 1406032004,
    "province_id": 14,
    "regency_id": 1406,
    "district_id": 140603,
    "value": "Rambah Tengah Hulu",
    "postal_code": "28560"
  },
  {
    "id": 1406032002,
    "province_id": 14,
    "regency_id": 1406,
    "district_id": 140603,
    "value": "Rambah Tengah Utara",
    "postal_code": "28560"
  },
  {
    "id": 1406032008,
    "province_id": 14,
    "regency_id": 1406,
    "district_id": 140603,
    "value": "Sialang Jaya",
    "postal_code": "28560"
  },
  {
    "id": 1406032011,
    "province_id": 14,
    "regency_id": 1406,
    "district_id": 140603,
    "value": "Suka Maju",
    "postal_code": "28560"
  },
  {
    "id": 1406032009,
    "province_id": 14,
    "regency_id": 1406,
    "district_id": 140603,
    "value": "Tanjung Belit",
    "postal_code": "28560"
  }
]