[
  {
    "id": 330708,
    "province_id": 33,
    "regency_id": 3307,
    "district_id": 330708,
    "value": "Banjar",
    "postal_code": "56371"
  },
  {
    "id": 330708,
    "province_id": 33,
    "regency_id": 3307,
    "district_id": 330708,
    "value": "Bejiarum",
    "postal_code": "56371"
  },
  {
    "id": 330708,
    "province_id": 33,
    "regency_id": 3307,
    "district_id": 330708,
    "value": "Bojasari",
    "postal_code": "56371"
  },
  {
    "id": 330708,
    "province_id": 33,
    "regency_id": 3307,
    "district_id": 330708,
    "value": "Candimulyo",
    "postal_code": "56371"
  },
  {
    "id": 330708,
    "province_id": 33,
    "regency_id": 3307,
    "district_id": 330708,
    "value": "Candiyasan",
    "postal_code": "56371"
  },
  {
    "id": 330708,
    "province_id": 33,
    "regency_id": 3307,
    "district_id": 330708,
    "value": "Damarkasiyan",
    "postal_code": "56371"
  },
  {
    "id": 330708,
    "province_id": 33,
    "regency_id": 3307,
    "district_id": 330708,
    "value": "Kapencar",
    "postal_code": "56371"
  },
  {
    "id": 330708,
    "province_id": 33,
    "regency_id": 3307,
    "district_id": 330708,
    "value": "Karangluhur",
    "postal_code": "56371"
  },
  {
    "id": 330708,
    "province_id": 33,
    "regency_id": 3307,
    "district_id": 330708,
    "value": "Kertek",
    "postal_code": "56371"
  },
  {
    "id": 330708,
    "province_id": 33,
    "regency_id": 3307,
    "district_id": 330708,
    "value": "Ngadikusuman",
    "postal_code": "56371"
  },
  {
    "id": 330708,
    "province_id": 33,
    "regency_id": 3307,
    "district_id": 330708,
    "value": "Pagerejo",
    "postal_code": "56371"
  },
  {
    "id": 330708,
    "province_id": 33,
    "regency_id": 3307,
    "district_id": 330708,
    "value": "Purbosono",
    "postal_code": "56371"
  },
  {
    "id": 330708,
    "province_id": 33,
    "regency_id": 3307,
    "district_id": 330708,
    "value": "Purwojati",
    "postal_code": "56371"
  },
  {
    "id": 330708,
    "province_id": 33,
    "regency_id": 3307,
    "district_id": 330708,
    "value": "Reco",
    "postal_code": "56371"
  },
  {
    "id": 330708,
    "province_id": 33,
    "regency_id": 3307,
    "district_id": 330708,
    "value": "Sindupaten",
    "postal_code": "56371"
  },
  {
    "id": 330708,
    "province_id": 33,
    "regency_id": 3307,
    "district_id": 330708,
    "value": "Sudungdewo",
    "postal_code": "56371"
  },
  {
    "id": 330708,
    "province_id": 33,
    "regency_id": 3307,
    "district_id": 330708,
    "value": "Sumberdalem",
    "postal_code": "56371"
  },
  {
    "id": 330708,
    "province_id": 33,
    "regency_id": 3307,
    "district_id": 330708,
    "value": "Surengede",
    "postal_code": "56371"
  },
  {
    "id": 330708,
    "province_id": 33,
    "regency_id": 3307,
    "district_id": 330708,
    "value": "Tlogodalem",
    "postal_code": "56371"
  },
  {
    "id": 330708,
    "province_id": 33,
    "regency_id": 3307,
    "district_id": 330708,
    "value": "Tlogomulyo",
    "postal_code": "56371"
  },
  {
    "id": 330708,
    "province_id": 33,
    "regency_id": 3307,
    "district_id": 330708,
    "value": "Wringinanom",
    "postal_code": "56371"
  }
]