[
  {
    "id": 810610,
    "province_id": 81,
    "regency_id": 8106,
    "district_id": 810610,
    "value": "Hatunuru",
    "postal_code": "97561"
  },
  {
    "id": 810610,
    "province_id": 81,
    "regency_id": 8106,
    "district_id": 810610,
    "value": "Lumahlatal (Lumalatal)",
    "postal_code": "97561"
  },
  {
    "id": 810610,
    "province_id": 81,
    "regency_id": 8106,
    "district_id": 810610,
    "value": "Lumahpelu (Lumapelu)",
    "postal_code": "97561"
  },
  {
    "id": 810610,
    "province_id": 81,
    "regency_id": 8106,
    "district_id": 810610,
    "value": "Makububui",
    "postal_code": "97561"
  },
  {
    "id": 810610,
    "province_id": 81,
    "regency_id": 8106,
    "district_id": 810610,
    "value": "Maloang",
    "postal_code": "97561"
  },
  {
    "id": 810610,
    "province_id": 81,
    "regency_id": 8106,
    "district_id": 810610,
    "value": "Masihuwey (Musihbuway)",
    "postal_code": "97561"
  },
  {
    "id": 810610,
    "province_id": 81,
    "regency_id": 8106,
    "district_id": 810610,
    "value": "Matapa",
    "postal_code": "97561"
  },
  {
    "id": 810610,
    "province_id": 81,
    "regency_id": 8106,
    "district_id": 810610,
    "value": "Seakasale (Soakasale)",
    "postal_code": "97561"
  },
  {
    "id": 810610,
    "province_id": 81,
    "regency_id": 8106,
    "district_id": 810610,
    "value": "Sohuwe",
    "postal_code": "97561"
  },
  {
    "id": 810610,
    "province_id": 81,
    "regency_id": 8106,
    "district_id": 810610,
    "value": "Solea",
    "postal_code": "97561"
  },
  {
    "id": 810610,
    "province_id": 81,
    "regency_id": 8106,
    "district_id": 810610,
    "value": "Sukaraja",
    "postal_code": "97561"
  },
  {
    "id": 810610,
    "province_id": 81,
    "regency_id": 8106,
    "district_id": 810610,
    "value": "Tounusa",
    "postal_code": "97561"
  },
  {
    "id": 810610,
    "province_id": 81,
    "regency_id": 8106,
    "district_id": 810610,
    "value": "Uwen Pantai",
    "postal_code": "97561"
  },
  {
    "id": 810610,
    "province_id": 81,
    "regency_id": 8106,
    "district_id": 810610,
    "value": "Walakone",
    "postal_code": "97561"
  },
  {
    "id": 810610,
    "province_id": 81,
    "regency_id": 8106,
    "district_id": 810610,
    "value": "Waraloin",
    "postal_code": "97561"
  }
]