[
  {
    "id": 331417,
    "province_id": 33,
    "regency_id": 3314,
    "district_id": 331417,
    "value": "Baleharjo",
    "postal_code": "57263"
  },
  {
    "id": 331417,
    "province_id": 33,
    "regency_id": 3314,
    "district_id": 331417,
    "value": "Bendo",
    "postal_code": "57263"
  },
  {
    "id": 331417,
    "province_id": 33,
    "regency_id": 3314,
    "district_id": 331417,
    "value": "Gebang",
    "postal_code": "57263"
  },
  {
    "id": 331417,
    "province_id": 33,
    "regency_id": 3314,
    "district_id": 331417,
    "value": "Jatitengah (Jati Tengah)",
    "postal_code": "57263"
  },
  {
    "id": 331417,
    "province_id": 33,
    "regency_id": 3314,
    "district_id": 331417,
    "value": "Juwok",
    "postal_code": "57263"
  },
  {
    "id": 331417,
    "province_id": 33,
    "regency_id": 3314,
    "district_id": 331417,
    "value": "Karanganom (Karang Anom)",
    "postal_code": "57263"
  },
  {
    "id": 331417,
    "province_id": 33,
    "regency_id": 3314,
    "district_id": 331417,
    "value": "Majenang",
    "postal_code": "57263"
  },
  {
    "id": 331417,
    "province_id": 33,
    "regency_id": 3314,
    "district_id": 331417,
    "value": "Newung",
    "postal_code": "57263"
  },
  {
    "id": 331417,
    "province_id": 33,
    "regency_id": 3314,
    "district_id": 331417,
    "value": "Pantirejo",
    "postal_code": "57263"
  }
]