[
  {
    "id": 350910,
    "province_id": 35,
    "regency_id": 3509,
    "district_id": 350910,
    "value": "Balungkidul (Balung Kidul)",
    "postal_code": "68161"
  },
  {
    "id": 350910,
    "province_id": 35,
    "regency_id": 3509,
    "district_id": 350910,
    "value": "Balungkulon (Balung Kulon)",
    "postal_code": "68161"
  },
  {
    "id": 350910,
    "province_id": 35,
    "regency_id": 3509,
    "district_id": 350910,
    "value": "Balunglor (Balung Lor)",
    "postal_code": "68161"
  },
  {
    "id": 350910,
    "province_id": 35,
    "regency_id": 3509,
    "district_id": 350910,
    "value": "Curahlele",
    "postal_code": "68161"
  },
  {
    "id": 350910,
    "province_id": 35,
    "regency_id": 3509,
    "district_id": 350910,
    "value": "Gumelar",
    "postal_code": "68161"
  },
  {
    "id": 350910,
    "province_id": 35,
    "regency_id": 3509,
    "district_id": 350910,
    "value": "Karang Semanding",
    "postal_code": "68161"
  },
  {
    "id": 350910,
    "province_id": 35,
    "regency_id": 3509,
    "district_id": 350910,
    "value": "Karangduren (Karang Duren)",
    "postal_code": "68161"
  },
  {
    "id": 350910,
    "province_id": 35,
    "regency_id": 3509,
    "district_id": 350910,
    "value": "Tutul",
    "postal_code": "68161"
  }
]