[
  {
    "id": 740803,
    "province_id": 74,
    "regency_id": 7408,
    "district_id": 740803,
    "value": "Batu Api (Batuapi)",
    "postal_code": "93955"
  },
  {
    "id": 740803,
    "province_id": 74,
    "regency_id": 7408,
    "district_id": 740803,
    "value": "Batu Putih",
    "postal_code": "93955"
  },
  {
    "id": 740803,
    "province_id": 74,
    "regency_id": 7408,
    "district_id": 740803,
    "value": "Bukit Baru",
    "postal_code": "93955"
  },
  {
    "id": 740803,
    "province_id": 74,
    "regency_id": 7408,
    "district_id": 740803,
    "value": "Bukit Tinggi",
    "postal_code": "93955"
  },
  {
    "id": 740803,
    "province_id": 74,
    "regency_id": 7408,
    "district_id": 740803,
    "value": "Latowu",
    "postal_code": "93955"
  },
  {
    "id": 740803,
    "province_id": 74,
    "regency_id": 7408,
    "district_id": 740803,
    "value": "Lelewawo",
    "postal_code": "93955"
  },
  {
    "id": 740803,
    "province_id": 74,
    "regency_id": 7408,
    "district_id": 740803,
    "value": "Makkuaseng",
    "postal_code": "93955"
  },
  {
    "id": 740803,
    "province_id": 74,
    "regency_id": 7408,
    "district_id": 740803,
    "value": "Mosiku",
    "postal_code": "93955"
  },
  {
    "id": 740803,
    "province_id": 74,
    "regency_id": 7408,
    "district_id": 740803,
    "value": "Parung Lampe",
    "postal_code": "93955"
  },
  {
    "id": 740803,
    "province_id": 74,
    "regency_id": 7408,
    "district_id": 740803,
    "value": "Puncak Harapan",
    "postal_code": "93955"
  },
  {
    "id": 740803,
    "province_id": 74,
    "regency_id": 7408,
    "district_id": 740803,
    "value": "Tetebawo",
    "postal_code": "93955"
  }
]