[
  {
    "id": 6208012005,
    "province_id": 62,
    "regency_id": 6208,
    "district_id": 620801,
    "value": "Kartamulia (Karta Mulya / Mulia)",
    "postal_code": "74172"
  },
  {
    "id": 6208011003,
    "province_id": 62,
    "regency_id": 6208,
    "district_id": 620801,
    "value": "Mendawai",
    "postal_code": "74172"
  },
  {
    "id": 6208012001,
    "province_id": 62,
    "regency_id": 6208,
    "district_id": 620801,
    "value": "Natai Sedawak",
    "postal_code": "74172"
  },
  {
    "id": 6208011004,
    "province_id": 62,
    "regency_id": 6208,
    "district_id": 620801,
    "value": "Padang",
    "postal_code": "74172"
  },
  {
    "id": 6208012007,
    "province_id": 62,
    "regency_id": 6208,
    "district_id": 620801,
    "value": "Pangkalan Muntai",
    "postal_code": "74172"
  },
  {
    "id": 6208012008,
    "province_id": 62,
    "regency_id": 6208,
    "district_id": 620801,
    "value": "Petarikan",
    "postal_code": "74172"
  },
  {
    "id": 6208012002,
    "province_id": 62,
    "regency_id": 6208,
    "district_id": 620801,
    "value": "Pudu",
    "postal_code": "74172"
  },
  {
    "id": 6208012006,
    "province_id": 62,
    "regency_id": 6208,
    "district_id": 620801,
    "value": "Sukaraja",
    "postal_code": "74172"
  }
]