[
  {
    "id": 820405,
    "province_id": 82,
    "regency_id": 8204,
    "district_id": 820405,
    "value": "Bobo",
    "postal_code": "97792"
  },
  {
    "id": 820405,
    "province_id": 82,
    "regency_id": 8204,
    "district_id": 820405,
    "value": "Fluk",
    "postal_code": "97792"
  },
  {
    "id": 820405,
    "province_id": 82,
    "regency_id": 8204,
    "district_id": 820405,
    "value": "Gambaru",
    "postal_code": "97792"
  },
  {
    "id": 820405,
    "province_id": 82,
    "regency_id": 8204,
    "district_id": 820405,
    "value": "Loleo",
    "postal_code": "97792"
  },
  {
    "id": 820405,
    "province_id": 82,
    "regency_id": 8204,
    "district_id": 820405,
    "value": "Mano",
    "postal_code": "97792"
  },
  {
    "id": 820405,
    "province_id": 82,
    "regency_id": 8204,
    "district_id": 820405,
    "value": "Ocimaloleo",
    "postal_code": "97792"
  },
  {
    "id": 820405,
    "province_id": 82,
    "regency_id": 8204,
    "district_id": 820405,
    "value": "Soligi",
    "postal_code": "97792"
  },
  {
    "id": 820405,
    "province_id": 82,
    "regency_id": 8204,
    "district_id": 820405,
    "value": "Wayaloar",
    "postal_code": "97792"
  }
]