[
  {
    "id": 330202,
    "province_id": 33,
    "regency_id": 3302,
    "district_id": 330202,
    "value": "Banteran",
    "postal_code": "53176"
  },
  {
    "id": 330202,
    "province_id": 33,
    "regency_id": 3302,
    "district_id": 330202,
    "value": "Cikakak",
    "postal_code": "53176"
  },
  {
    "id": 330202,
    "province_id": 33,
    "regency_id": 3302,
    "district_id": 330202,
    "value": "Jambu",
    "postal_code": "53176"
  },
  {
    "id": 330202,
    "province_id": 33,
    "regency_id": 3302,
    "district_id": 330202,
    "value": "Jurangbahas",
    "postal_code": "53176"
  },
  {
    "id": 330202,
    "province_id": 33,
    "regency_id": 3302,
    "district_id": 330202,
    "value": "Klapagading",
    "postal_code": "53176"
  },
  {
    "id": 330202,
    "province_id": 33,
    "regency_id": 3302,
    "district_id": 330202,
    "value": "Klapagading Kulon",
    "postal_code": "53176"
  },
  {
    "id": 330202,
    "province_id": 33,
    "regency_id": 3302,
    "district_id": 330202,
    "value": "Pengadegan (Pangadegan)",
    "postal_code": "53176"
  },
  {
    "id": 330202,
    "province_id": 33,
    "regency_id": 3302,
    "district_id": 330202,
    "value": "Randegan",
    "postal_code": "53176"
  },
  {
    "id": 330202,
    "province_id": 33,
    "regency_id": 3302,
    "district_id": 330202,
    "value": "Rawaheng",
    "postal_code": "53176"
  },
  {
    "id": 330202,
    "province_id": 33,
    "regency_id": 3302,
    "district_id": 330202,
    "value": "Wangon",
    "postal_code": "53176"
  },
  {
    "id": 330202,
    "province_id": 33,
    "regency_id": 3302,
    "district_id": 330202,
    "value": "Windunegara",
    "postal_code": "53176"
  },
  {
    "id": 330202,
    "province_id": 33,
    "regency_id": 3302,
    "district_id": 330202,
    "value": "Wlahar",
    "postal_code": "53176"
  }
]