[
  {
    "id": 352316,
    "province_id": 35,
    "regency_id": 3523,
    "district_id": 352316,
    "value": "Baturetno",
    "postal_code": "62318"
  },
  {
    "id": 352316,
    "province_id": 35,
    "regency_id": 3523,
    "district_id": 352316,
    "value": "Doromukti",
    "postal_code": "62316"
  },
  {
    "id": 352316,
    "province_id": 35,
    "regency_id": 3523,
    "district_id": 352316,
    "value": "Karangsari",
    "postal_code": "62314"
  },
  {
    "id": 352316,
    "province_id": 35,
    "regency_id": 3523,
    "district_id": 352316,
    "value": "Kebonsari",
    "postal_code": "62317"
  },
  {
    "id": 352316,
    "province_id": 35,
    "regency_id": 3523,
    "district_id": 352316,
    "value": "Kembangbilo",
    "postal_code": "62319"
  },
  {
    "id": 352316,
    "province_id": 35,
    "regency_id": 3523,
    "district_id": 352316,
    "value": "Kingking",
    "postal_code": "62313"
  },
  {
    "id": 352316,
    "province_id": 35,
    "regency_id": 3523,
    "district_id": 352316,
    "value": "Kutorejo",
    "postal_code": "62311"
  },
  {
    "id": 352316,
    "province_id": 35,
    "regency_id": 3523,
    "district_id": 352316,
    "value": "Latsari",
    "postal_code": "62314"
  },
  {
    "id": 352316,
    "province_id": 35,
    "regency_id": 3523,
    "district_id": 352316,
    "value": "Mondokan",
    "postal_code": "62319"
  },
  {
    "id": 352316,
    "province_id": 35,
    "regency_id": 3523,
    "district_id": 352316,
    "value": "Perbon",
    "postal_code": "62319"
  },
  {
    "id": 352316,
    "province_id": 35,
    "regency_id": 3523,
    "district_id": 352316,
    "value": "Ronggomulyo",
    "postal_code": "62313"
  },
  {
    "id": 352316,
    "province_id": 35,
    "regency_id": 3523,
    "district_id": 352316,
    "value": "Sendangharjo",
    "postal_code": "62319"
  },
  {
    "id": 352316,
    "province_id": 35,
    "regency_id": 3523,
    "district_id": 352316,
    "value": "Sidomulyo",
    "postal_code": "62312"
  },
  {
    "id": 352316,
    "province_id": 35,
    "regency_id": 3523,
    "district_id": 352316,
    "value": "Sidorejo",
    "postal_code": "62315"
  },
  {
    "id": 352316,
    "province_id": 35,
    "regency_id": 3523,
    "district_id": 352316,
    "value": "Sugiharjo",
    "postal_code": "62319"
  },
  {
    "id": 352316,
    "province_id": 35,
    "regency_id": 3523,
    "district_id": 352316,
    "value": "Sukolilo",
    "postal_code": "62318"
  },
  {
    "id": 352316,
    "province_id": 35,
    "regency_id": 3523,
    "district_id": 352316,
    "value": "Sumurgung",
    "postal_code": "62319"
  }
]