[
  {
    "id": 9503032026,
    "province_id": 95,
    "regency_id": 9503,
    "district_id": 950303,
    "value": "Babet",
    "postal_code": "99740"
  },
  {
    "id": 9503032028,
    "province_id": 95,
    "regency_id": 9503,
    "district_id": 950303,
    "value": "Hwealoma",
    "postal_code": "99740"
  },
  {
    "id": 9503032027,
    "province_id": 95,
    "regency_id": 9503,
    "district_id": 950303,
    "value": "Kahul",
    "postal_code": "99740"
  },
  {
    "id": 9503032010,
    "province_id": 95,
    "regency_id": 9503,
    "district_id": 950303,
    "value": "Liligan",
    "postal_code": "99740"
  },
  {
    "id": 9503032029,
    "province_id": 95,
    "regency_id": 9503,
    "district_id": 950303,
    "value": "Liligan II",
    "postal_code": "99740"
  },
  {
    "id": 9503032001,
    "province_id": 95,
    "regency_id": 9503,
    "district_id": 950303,
    "value": "Ninia",
    "postal_code": "99740"
  },
  {
    "id": 9503032022,
    "province_id": 95,
    "regency_id": 9503,
    "district_id": 950303,
    "value": "Niniahan",
    "postal_code": "99740"
  },
  {
    "id": 9503032025,
    "province_id": 95,
    "regency_id": 9503,
    "district_id": 950303,
    "value": "Sohwal",
    "postal_code": "99740"
  },
  {
    "id": 9503032023,
    "province_id": 95,
    "regency_id": 9503,
    "district_id": 950303,
    "value": "Waerek",
    "postal_code": "99740"
  },
  {
    "id": 9503032024,
    "province_id": 95,
    "regency_id": 9503,
    "district_id": 950303,
    "value": "Wahaik",
    "postal_code": "99740"
  }
]