[
  {
    "id": 531015,
    "province_id": 53,
    "regency_id": 5310,
    "district_id": 531015,
    "value": "Bangka Dese",
    "postal_code": "86521"
  },
  {
    "id": 531015,
    "province_id": 53,
    "regency_id": 5310,
    "district_id": 531015,
    "value": "Bangka Lelak",
    "postal_code": "86521"
  },
  {
    "id": 531015,
    "province_id": 53,
    "regency_id": 5310,
    "district_id": 531015,
    "value": "Bangka Tonggur",
    "postal_code": "86521"
  },
  {
    "id": 531015,
    "province_id": 53,
    "regency_id": 5310,
    "district_id": 531015,
    "value": "Gelong",
    "postal_code": "86521"
  },
  {
    "id": 531015,
    "province_id": 53,
    "regency_id": 5310,
    "district_id": 531015,
    "value": "Ketang",
    "postal_code": "86521"
  },
  {
    "id": 531015,
    "province_id": 53,
    "regency_id": 5310,
    "district_id": 531015,
    "value": "Lentang",
    "postal_code": "86521"
  },
  {
    "id": 531015,
    "province_id": 53,
    "regency_id": 5310,
    "district_id": 531015,
    "value": "Nati",
    "postal_code": "86521"
  },
  {
    "id": 531015,
    "province_id": 53,
    "regency_id": 5310,
    "district_id": 531015,
    "value": "Ndiwar",
    "postal_code": "86521"
  },
  {
    "id": 531015,
    "province_id": 53,
    "regency_id": 5310,
    "district_id": 531015,
    "value": "Pong Umpu (Pong Ompu)",
    "postal_code": "86521"
  },
  {
    "id": 531015,
    "province_id": 53,
    "regency_id": 5310,
    "district_id": 531015,
    "value": "Urang",
    "postal_code": "86521"
  }
]