[
  {
    "id": 3671061001,
    "province_id": 36,
    "regency_id": 3671,
    "district_id": 367106,
    "value": "Paninggilan",
    "postal_code": "15153"
  },
  {
    "id": 3671061008,
    "province_id": 36,
    "regency_id": 3671,
    "district_id": 367106,
    "value": "Paninggilan Utara",
    "postal_code": "15153"
  },
  {
    "id": 3671061005,
    "province_id": 36,
    "regency_id": 3671,
    "district_id": 367106,
    "value": "Parung Serab",
    "postal_code": "15153"
  },
  {
    "id": 3671061002,
    "province_id": 36,
    "regency_id": 3671,
    "district_id": 367106,
    "value": "Sudimara Barat",
    "postal_code": "15151"
  },
  {
    "id": 3671061006,
    "province_id": 36,
    "regency_id": 3671,
    "district_id": 367106,
    "value": "Sudimara Jaya",
    "postal_code": "15151"
  },
  {
    "id": 3671061007,
    "province_id": 36,
    "regency_id": 3671,
    "district_id": 367106,
    "value": "Sudimara Selatan",
    "postal_code": "15151"
  },
  {
    "id": 3671061003,
    "province_id": 36,
    "regency_id": 3671,
    "district_id": 367106,
    "value": "Sudimara Timur",
    "postal_code": "15151"
  },
  {
    "id": 3671061004,
    "province_id": 36,
    "regency_id": 3671,
    "district_id": 367106,
    "value": "Tajur",
    "postal_code": "15152"
  }
]