[
  {
    "id": 7202182007,
    "province_id": 72,
    "regency_id": 7202,
    "district_id": 720218,
    "value": "Bakti Agung",
    "postal_code": "94651"
  },
  {
    "id": 7202182003,
    "province_id": 72,
    "regency_id": 7202,
    "district_id": 720218,
    "value": "Kalora",
    "postal_code": "94651"
  },
  {
    "id": 7202182002,
    "province_id": 72,
    "regency_id": 7202,
    "district_id": 720218,
    "value": "Kawende",
    "postal_code": "94651"
  },
  {
    "id": 7202182001,
    "province_id": 72,
    "regency_id": 7202,
    "district_id": 720218,
    "value": "Kilo",
    "postal_code": "94651"
  },
  {
    "id": 7202182011,
    "province_id": 72,
    "regency_id": 7202,
    "district_id": 720218,
    "value": "Maranda",
    "postal_code": "94651"
  },
  {
    "id": 7202182010,
    "province_id": 72,
    "regency_id": 7202,
    "district_id": 720218,
    "value": "Membuke",
    "postal_code": "94651"
  },
  {
    "id": 7202182004,
    "province_id": 72,
    "regency_id": 7202,
    "district_id": 720218,
    "value": "Tambarana",
    "postal_code": "94651"
  },
  {
    "id": 7202182009,
    "province_id": 72,
    "regency_id": 7202,
    "district_id": 720218,
    "value": "Tobe",
    "postal_code": "94651"
  },
  {
    "id": 7202182006,
    "province_id": 72,
    "regency_id": 7202,
    "district_id": 720218,
    "value": "Tri Mulya",
    "postal_code": "94651"
  },
  {
    "id": 7202182005,
    "province_id": 72,
    "regency_id": 7202,
    "district_id": 720218,
    "value": "Tumora",
    "postal_code": "94651"
  }
]