[
  {
    "id": 9502042008,
    "province_id": 95,
    "regency_id": 9502,
    "district_id": 950204,
    "value": "Dinmot Arim",
    "postal_code": "99432"
  },
  {
    "id": 9502042016,
    "province_id": 95,
    "regency_id": 9502,
    "district_id": 950204,
    "value": "Dipol",
    "postal_code": "99432"
  },
  {
    "id": 9502042013,
    "province_id": 95,
    "regency_id": 9502,
    "district_id": 950204,
    "value": "Ewenkatop",
    "postal_code": "99432"
  },
  {
    "id": 9502042001,
    "province_id": 95,
    "regency_id": 9502,
    "district_id": 950204,
    "value": "Iwur",
    "postal_code": "99432"
  },
  {
    "id": 9502042019,
    "province_id": 95,
    "regency_id": 9502,
    "district_id": 950204,
    "value": "Kamyoim",
    "postal_code": "99432"
  },
  {
    "id": 9502042002,
    "province_id": 95,
    "regency_id": 9502,
    "district_id": 950204,
    "value": "Kurukim (Kurumkim/Kurumklin)",
    "postal_code": "99432"
  },
  {
    "id": 9502042018,
    "province_id": 95,
    "regency_id": 9502,
    "district_id": 950204,
    "value": "Narnger",
    "postal_code": "99432"
  },
  {
    "id": 9502042017,
    "province_id": 95,
    "regency_id": 9502,
    "district_id": 950204,
    "value": "Nenginum",
    "postal_code": "99432"
  },
  {
    "id": 9502042015,
    "province_id": 95,
    "regency_id": 9502,
    "district_id": 950204,
    "value": "Ulkubi",
    "postal_code": "99432"
  },
  {
    "id": 9502042003,
    "province_id": 95,
    "regency_id": 9502,
    "district_id": 950204,
    "value": "Walapkubun",
    "postal_code": "99432"
  }
]