[
  {
    "id": 950341,
    "province_id": 95,
    "regency_id": 9503,
    "district_id": 950341,
    "value": "Binalkon",
    "postal_code": "99744"
  },
  {
    "id": 950341,
    "province_id": 95,
    "regency_id": 9503,
    "district_id": 950341,
    "value": "Bongkok",
    "postal_code": "99744"
  },
  {
    "id": 950341,
    "province_id": 95,
    "regency_id": 9503,
    "district_id": 950341,
    "value": "Bulbul",
    "postal_code": "99744"
  },
  {
    "id": 950341,
    "province_id": 95,
    "regency_id": 9503,
    "district_id": 950341,
    "value": "Dirik",
    "postal_code": "99744"
  },
  {
    "id": 950341,
    "province_id": 95,
    "regency_id": 9503,
    "district_id": 950341,
    "value": "Masumkon",
    "postal_code": "99744"
  },
  {
    "id": 950341,
    "province_id": 95,
    "regency_id": 9503,
    "district_id": 950341,
    "value": "Suntamon",
    "postal_code": "99744"
  },
  {
    "id": 950341,
    "province_id": 95,
    "regency_id": 9503,
    "district_id": 950341,
    "value": "Tapasik",
    "postal_code": "99744"
  },
  {
    "id": 950341,
    "province_id": 95,
    "regency_id": 9503,
    "district_id": 950341,
    "value": "Yup",
    "postal_code": "99744"
  }
]