[
  {
    "id": 3518042022,
    "province_id": 35,
    "regency_id": 3518,
    "district_id": 351804,
    "value": "Bajulan",
    "postal_code": "64471"
  },
  {
    "id": 3518042015,
    "province_id": 35,
    "regency_id": 3518,
    "district_id": 351804,
    "value": "Candirejo",
    "postal_code": "64471"
  },
  {
    "id": 3518042014,
    "province_id": 35,
    "regency_id": 3518,
    "district_id": 351804,
    "value": "Gejagan",
    "postal_code": "64471"
  },
  {
    "id": 3518042003,
    "province_id": 35,
    "regency_id": 3518,
    "district_id": 351804,
    "value": "Genjeng",
    "postal_code": "64471"
  },
  {
    "id": 3518042006,
    "province_id": 35,
    "regency_id": 3518,
    "district_id": 351804,
    "value": "Godean",
    "postal_code": "64471"
  },
  {
    "id": 3518042011,
    "province_id": 35,
    "regency_id": 3518,
    "district_id": 351804,
    "value": "Jatirejo",
    "postal_code": "64471"
  },
  {
    "id": 3518042004,
    "province_id": 35,
    "regency_id": 3518,
    "district_id": 351804,
    "value": "Karangsono",
    "postal_code": "64471"
  },
  {
    "id": 3518042018,
    "province_id": 35,
    "regency_id": 3518,
    "district_id": 351804,
    "value": "Kenep",
    "postal_code": "64471"
  },
  {
    "id": 3518042017,
    "province_id": 35,
    "regency_id": 3518,
    "district_id": 351804,
    "value": "Kwagean",
    "postal_code": "64471"
  },
  {
    "id": 3518042010,
    "province_id": 35,
    "regency_id": 3518,
    "district_id": 351804,
    "value": "Loceret",
    "postal_code": "64471"
  },
  {
    "id": 3518042021,
    "province_id": 35,
    "regency_id": 3518,
    "district_id": 351804,
    "value": "Macanan",
    "postal_code": "64471"
  },
  {
    "id": 3518042008,
    "province_id": 35,
    "regency_id": 3518,
    "district_id": 351804,
    "value": "Mungkung",
    "postal_code": "64471"
  },
  {
    "id": 3518042005,
    "province_id": 35,
    "regency_id": 3518,
    "district_id": 351804,
    "value": "Ngepeh",
    "postal_code": "64471"
  },
  {
    "id": 3518042020,
    "province_id": 35,
    "regency_id": 3518,
    "district_id": 351804,
    "value": "Nglaban",
    "postal_code": "64471"
  },
  {
    "id": 3518042007,
    "province_id": 35,
    "regency_id": 3518,
    "district_id": 351804,
    "value": "Patihan",
    "postal_code": "64471"
  },
  {
    "id": 3518042019,
    "province_id": 35,
    "regency_id": 3518,
    "district_id": 351804,
    "value": "Putukrejo",
    "postal_code": "64471"
  },
  {
    "id": 3518042009,
    "province_id": 35,
    "regency_id": 3518,
    "district_id": 351804,
    "value": "Sekaran",
    "postal_code": "64471"
  },
  {
    "id": 3518042002,
    "province_id": 35,
    "regency_id": 3518,
    "district_id": 351804,
    "value": "Sombron",
    "postal_code": "64471"
  },
  {
    "id": 3518042016,
    "province_id": 35,
    "regency_id": 3518,
    "district_id": 351804,
    "value": "Sukorejo",
    "postal_code": "64471"
  },
  {
    "id": 3518042001,
    "province_id": 35,
    "regency_id": 3518,
    "district_id": 351804,
    "value": "Tanjungrejo",
    "postal_code": "64471"
  },
  {
    "id": 3518042013,
    "province_id": 35,
    "regency_id": 3518,
    "district_id": 351804,
    "value": "Tekenglagahan (Teken Glagahan)",
    "postal_code": "64471"
  },
  {
    "id": 3518042012,
    "province_id": 35,
    "regency_id": 3518,
    "district_id": 351804,
    "value": "Tempel Wetan",
    "postal_code": "64471"
  }
]