[
  {
    "id": 352921,
    "province_id": 35,
    "regency_id": 3529,
    "district_id": 352921,
    "value": "Nonggunong",
    "postal_code": "69484"
  },
  {
    "id": 352921,
    "province_id": 35,
    "regency_id": 3529,
    "district_id": 352921,
    "value": "Rosong",
    "postal_code": "69484"
  },
  {
    "id": 352921,
    "province_id": 35,
    "regency_id": 3529,
    "district_id": 352921,
    "value": "Sokarami Paseser (Sokarame Paseser)",
    "postal_code": "69484"
  },
  {
    "id": 352921,
    "province_id": 35,
    "regency_id": 3529,
    "district_id": 352921,
    "value": "Sokaramme Timur (Sokarame Timur)",
    "postal_code": "69484"
  },
  {
    "id": 352921,
    "province_id": 35,
    "regency_id": 3529,
    "district_id": 352921,
    "value": "Somber",
    "postal_code": "69484"
  },
  {
    "id": 352921,
    "province_id": 35,
    "regency_id": 3529,
    "district_id": 352921,
    "value": "Sonok",
    "postal_code": "69484"
  },
  {
    "id": 352921,
    "province_id": 35,
    "regency_id": 3529,
    "district_id": 352921,
    "value": "Talaga",
    "postal_code": "69484"
  },
  {
    "id": 352921,
    "province_id": 35,
    "regency_id": 3529,
    "district_id": 352921,
    "value": "Tanah Merah (Tanahmerah)",
    "postal_code": "69484"
  }
]