[
  {
    "id": 1504012013,
    "province_id": 15,
    "regency_id": 1504,
    "district_id": 150401,
    "value": "Belanti Jaya",
    "postal_code": "36654"
  },
  {
    "id": 1504012007,
    "province_id": 15,
    "regency_id": 1504,
    "district_id": 150401,
    "value": "Benteng Rendah",
    "postal_code": "36654"
  },
  {
    "id": 1504012012,
    "province_id": 15,
    "regency_id": 1504,
    "district_id": 150401,
    "value": "Bukit Harapan",
    "postal_code": "36654"
  },
  {
    "id": 1504012015,
    "province_id": 15,
    "regency_id": 1504,
    "district_id": 150401,
    "value": "Bukit Kemuning",
    "postal_code": "36654"
  },
  {
    "id": 1504011001,
    "province_id": 15,
    "regency_id": 1504,
    "district_id": 150401,
    "value": "Kembang Paseban",
    "postal_code": "36654"
  },
  {
    "id": 1504012005,
    "province_id": 15,
    "regency_id": 1504,
    "district_id": 150401,
    "value": "Kembang Tanjung",
    "postal_code": "36654"
  },
  {
    "id": 1504012006,
    "province_id": 15,
    "regency_id": 1504,
    "district_id": 150401,
    "value": "Mersam",
    "postal_code": "36654"
  },
  {
    "id": 1504012010,
    "province_id": 15,
    "regency_id": 1504,
    "district_id": 150401,
    "value": "Pematang Gadung",
    "postal_code": "36654"
  },
  {
    "id": 1504012009,
    "province_id": 15,
    "regency_id": 1504,
    "district_id": 150401,
    "value": "Rantau Gedang",
    "postal_code": "36654"
  },
  {
    "id": 1504012004,
    "province_id": 15,
    "regency_id": 1504,
    "district_id": 150401,
    "value": "Sengkati Baru",
    "postal_code": "36654"
  },
  {
    "id": 1504012003,
    "province_id": 15,
    "regency_id": 1504,
    "district_id": 150401,
    "value": "Sengkati Gedang",
    "postal_code": "36654"
  },
  {
    "id": 1504012002,
    "province_id": 15,
    "regency_id": 1504,
    "district_id": 150401,
    "value": "Sengkati Kecil",
    "postal_code": "36654"
  },
  {
    "id": 1504012018,
    "province_id": 15,
    "regency_id": 1504,
    "district_id": 150401,
    "value": "Sengkati Mudo",
    "postal_code": "36654"
  },
  {
    "id": 1504012016,
    "province_id": 15,
    "regency_id": 1504,
    "district_id": 150401,
    "value": "Simpang Rantau Gedang",
    "postal_code": "36654"
  },
  {
    "id": 1504012008,
    "province_id": 15,
    "regency_id": 1504,
    "district_id": 150401,
    "value": "Sungai Puar",
    "postal_code": "36654"
  },
  {
    "id": 1504012017,
    "province_id": 15,
    "regency_id": 1504,
    "district_id": 150401,
    "value": "Tanjung Putra",
    "postal_code": "36654"
  },
  {
    "id": 1504012014,
    "province_id": 15,
    "regency_id": 1504,
    "district_id": 150401,
    "value": "Tapah Sari",
    "postal_code": "36654"
  },
  {
    "id": 1504012011,
    "province_id": 15,
    "regency_id": 1504,
    "district_id": 150401,
    "value": "Teluk Melintang",
    "postal_code": "36654"
  }
]