[
  {
    "id": 1802172004,
    "province_id": 18,
    "regency_id": 1802,
    "district_id": 180217,
    "value": "Banjar Kertahayu",
    "postal_code": "35213"
  },
  {
    "id": 1802172003,
    "province_id": 18,
    "regency_id": 1802,
    "district_id": 180217,
    "value": "Banjar Ratu",
    "postal_code": "35213"
  },
  {
    "id": 1802172007,
    "province_id": 18,
    "regency_id": 1802,
    "district_id": 180217,
    "value": "Banjar Rejo",
    "postal_code": "35213"
  },
  {
    "id": 1802172002,
    "province_id": 18,
    "regency_id": 1802,
    "district_id": 180217,
    "value": "Candi Rejo",
    "postal_code": "35213"
  },
  {
    "id": 1802172005,
    "province_id": 18,
    "regency_id": 1802,
    "district_id": 180217,
    "value": "Lempuyang Bandar",
    "postal_code": "35213"
  },
  {
    "id": 1802172006,
    "province_id": 18,
    "regency_id": 1802,
    "district_id": 180217,
    "value": "Purnama Tunggal",
    "postal_code": "35213"
  },
  {
    "id": 1802172008,
    "province_id": 18,
    "regency_id": 1802,
    "district_id": 180217,
    "value": "Putra Lempuyang",
    "postal_code": "35213"
  },
  {
    "id": 1802172001,
    "province_id": 18,
    "regency_id": 1802,
    "district_id": 180217,
    "value": "Tanjung Ratu Ilir",
    "postal_code": "35213"
  }
]