[
  {
    "id": 940402,
    "province_id": 94,
    "regency_id": 9404,
    "district_id": 940402,
    "value": "Amungun",
    "postal_code": "99964"
  },
  {
    "id": 940402,
    "province_id": 94,
    "regency_id": 9404,
    "district_id": 940402,
    "value": "Aramsolki",
    "postal_code": "99964"
  },
  {
    "id": 940402,
    "province_id": 94,
    "regency_id": 9404,
    "district_id": 940402,
    "value": "Emkoma Halama",
    "postal_code": "99964"
  },
  {
    "id": 940402,
    "province_id": 94,
    "regency_id": 9404,
    "district_id": 940402,
    "value": "Emogoma",
    "postal_code": "99964"
  },
  {
    "id": 940402,
    "province_id": 94,
    "regency_id": 9404,
    "district_id": 940402,
    "value": "Fakafuku",
    "postal_code": "99964"
  },
  {
    "id": 940402,
    "province_id": 94,
    "regency_id": 9404,
    "district_id": 940402,
    "value": "Hinat Untung",
    "postal_code": "99964"
  },
  {
    "id": 940402,
    "province_id": 94,
    "regency_id": 9404,
    "district_id": 940402,
    "value": "Kiliarma",
    "postal_code": "99964"
  },
  {
    "id": 940402,
    "province_id": 94,
    "regency_id": 9404,
    "district_id": 940402,
    "value": "Masasimamo",
    "postal_code": "99964"
  }
]