[
  {
    "id": 610207,
    "province_id": 61,
    "regency_id": 6102,
    "district_id": 610207,
    "value": "Galang (Jalan Galang)",
    "postal_code": "78354"
  },
  {
    "id": 610207,
    "province_id": 61,
    "regency_id": 6102,
    "district_id": 610207,
    "value": "Nusapati",
    "postal_code": "78354"
  },
  {
    "id": 610207,
    "province_id": 61,
    "regency_id": 6102,
    "district_id": 610207,
    "value": "Peniraman",
    "postal_code": "78354"
  },
  {
    "id": 610207,
    "province_id": 61,
    "regency_id": 6102,
    "district_id": 610207,
    "value": "Sei/Sungai Bakau Besar Laut",
    "postal_code": "78354"
  },
  {
    "id": 610207,
    "province_id": 61,
    "regency_id": 6102,
    "district_id": 610207,
    "value": "Sei/Sungai Batang",
    "postal_code": "78354"
  },
  {
    "id": 610207,
    "province_id": 61,
    "regency_id": 6102,
    "district_id": 610207,
    "value": "Sei/Sungai Pinyuh",
    "postal_code": "78354"
  },
  {
    "id": 610207,
    "province_id": 61,
    "regency_id": 6102,
    "district_id": 610207,
    "value": "Sei/Sungai Purun Kecil",
    "postal_code": "78354"
  },
  {
    "id": 610207,
    "province_id": 61,
    "regency_id": 6102,
    "district_id": 610207,
    "value": "Sei/Sungai Rasau",
    "postal_code": "78354"
  },
  {
    "id": 610207,
    "province_id": 61,
    "regency_id": 6102,
    "district_id": 610207,
    "value": "Sungai Rasau Besar Darat (Sei Bakau Besar Darat)",
    "postal_code": "78354"
  }
]