[
  {
    "id": 7208062010,
    "province_id": 72,
    "regency_id": 7208,
    "district_id": 720806,
    "value": "Maleali (Maleyali)",
    "postal_code": "94472"
  },
  {
    "id": 7208062019,
    "province_id": 72,
    "regency_id": 7208,
    "district_id": 720806,
    "value": "Sausu Auma",
    "postal_code": "94472"
  },
  {
    "id": 7208062015,
    "province_id": 72,
    "regency_id": 7208,
    "district_id": 720806,
    "value": "Sausu Gandasari",
    "postal_code": "94472"
  },
  {
    "id": 7208062013,
    "province_id": 72,
    "regency_id": 7208,
    "district_id": 720806,
    "value": "Sausu Pakareme",
    "postal_code": "94472"
  },
  {
    "id": 7208062009,
    "province_id": 72,
    "regency_id": 7208,
    "district_id": 720806,
    "value": "Sausu Peore (Sausu Piore)",
    "postal_code": "94472"
  },
  {
    "id": 7208062016,
    "province_id": 72,
    "regency_id": 7208,
    "district_id": 720806,
    "value": "Sausu Salubanga",
    "postal_code": "94472"
  },
  {
    "id": 7208062018,
    "province_id": 72,
    "regency_id": 7208,
    "district_id": 720806,
    "value": "Sausu Tambu",
    "postal_code": "94472"
  },
  {
    "id": 7208062012,
    "province_id": 72,
    "regency_id": 7208,
    "district_id": 720806,
    "value": "Sausu Torono",
    "postal_code": "94472"
  },
  {
    "id": 7208062011,
    "province_id": 72,
    "regency_id": 7208,
    "district_id": 720806,
    "value": "Sausu Trans",
    "postal_code": "94472"
  },
  {
    "id": 7208062017,
    "province_id": 72,
    "regency_id": 7208,
    "district_id": 720806,
    "value": "Taliabo (Sausu Taliabo)",
    "postal_code": "94472"
  }
]