[
  {
    "id": 167307,
    "province_id": 16,
    "regency_id": 1673,
    "district_id": 167307,
    "value": "Eka Marga",
    "postal_code": "31627"
  },
  {
    "id": 167307,
    "province_id": 16,
    "regency_id": 1673,
    "district_id": 167307,
    "value": "Karang Ketuan",
    "postal_code": "31627"
  },
  {
    "id": 167307,
    "province_id": 16,
    "regency_id": 1673,
    "district_id": 167307,
    "value": "Marga Mulya",
    "postal_code": "31627"
  },
  {
    "id": 167307,
    "province_id": 16,
    "regency_id": 1673,
    "district_id": 167307,
    "value": "Marga Rahayu",
    "postal_code": "31627"
  },
  {
    "id": 167307,
    "province_id": 16,
    "regency_id": 1673,
    "district_id": 167307,
    "value": "Moneng Sepati",
    "postal_code": "31627"
  },
  {
    "id": 167307,
    "province_id": 16,
    "regency_id": 1673,
    "district_id": 167307,
    "value": "Simpang Periuk (Simpang Priuk)",
    "postal_code": "31627"
  },
  {
    "id": 167307,
    "province_id": 16,
    "regency_id": 1673,
    "district_id": 167307,
    "value": "Siring Agung",
    "postal_code": "31627"
  },
  {
    "id": 167307,
    "province_id": 16,
    "regency_id": 1673,
    "district_id": 167307,
    "value": "Taba Pingin",
    "postal_code": "31627"
  },
  {
    "id": 167307,
    "province_id": 16,
    "regency_id": 1673,
    "district_id": 167307,
    "value": "Tanah Periuk (Tanah Priuk)",
    "postal_code": "31627"
  }
]