[
  {
    "id": 180526,
    "province_id": 18,
    "regency_id": 1805,
    "district_id": 180526,
    "value": "Bangun Rejo",
    "postal_code": "34680"
  },
  {
    "id": 180526,
    "province_id": 18,
    "regency_id": 1805,
    "district_id": 180526,
    "value": "Bina Bumi",
    "postal_code": "34680"
  },
  {
    "id": 180526,
    "province_id": 18,
    "regency_id": 1805,
    "district_id": 180526,
    "value": "Karya Bhakti (Karya Bakti)",
    "postal_code": "34680"
  },
  {
    "id": 180526,
    "province_id": 18,
    "regency_id": 1805,
    "district_id": 180526,
    "value": "Kecubung Raya",
    "postal_code": "34680"
  },
  {
    "id": 180526,
    "province_id": 18,
    "regency_id": 1805,
    "district_id": 180526,
    "value": "Marga Jaya",
    "postal_code": "34680"
  },
  {
    "id": 180526,
    "province_id": 18,
    "regency_id": 1805,
    "district_id": 180526,
    "value": "Mulyo Aji (Mulya Aji)",
    "postal_code": "34680"
  },
  {
    "id": 180526,
    "province_id": 18,
    "regency_id": 1805,
    "district_id": 180526,
    "value": "Paduan Rajawali (Panduan Rajawali)",
    "postal_code": "34680"
  },
  {
    "id": 180526,
    "province_id": 18,
    "regency_id": 1805,
    "district_id": 180526,
    "value": "Sukarame",
    "postal_code": "34680"
  }
]