[
  {
    "id": 180802,
    "province_id": 18,
    "regency_id": 1808,
    "district_id": 180802,
    "value": "Bukit Batu",
    "postal_code": "34765"
  },
  {
    "id": 180802,
    "province_id": 18,
    "regency_id": 1808,
    "district_id": 180802,
    "value": "Datar Bancong",
    "postal_code": "34765"
  },
  {
    "id": 180802,
    "province_id": 18,
    "regency_id": 1808,
    "district_id": 180802,
    "value": "Gelombang Panjang",
    "postal_code": "34765"
  },
  {
    "id": 180802,
    "province_id": 18,
    "regency_id": 1808,
    "district_id": 180802,
    "value": "Jaya Tinggi",
    "postal_code": "34765"
  },
  {
    "id": 180802,
    "province_id": 18,
    "regency_id": 1808,
    "district_id": 180802,
    "value": "Jukuh Kemuning",
    "postal_code": "34765"
  },
  {
    "id": 180802,
    "province_id": 18,
    "regency_id": 1808,
    "district_id": 180802,
    "value": "Kampung Baru",
    "postal_code": "34765"
  },
  {
    "id": 180802,
    "province_id": 18,
    "regency_id": 1808,
    "district_id": 180802,
    "value": "Karang Lantang",
    "postal_code": "34765"
  },
  {
    "id": 180802,
    "province_id": 18,
    "regency_id": 1808,
    "district_id": 180802,
    "value": "Kasui Lama",
    "postal_code": "34765"
  },
  {
    "id": 180802,
    "province_id": 18,
    "regency_id": 1808,
    "district_id": 180802,
    "value": "Kasui Pasar",
    "postal_code": "34765"
  },
  {
    "id": 180802,
    "province_id": 18,
    "regency_id": 1808,
    "district_id": 180802,
    "value": "Kedaton",
    "postal_code": "34765"
  },
  {
    "id": 180802,
    "province_id": 18,
    "regency_id": 1808,
    "district_id": 180802,
    "value": "Kotaway",
    "postal_code": "34765"
  },
  {
    "id": 180802,
    "province_id": 18,
    "regency_id": 1808,
    "district_id": 180802,
    "value": "Sinar Gading",
    "postal_code": "34765"
  },
  {
    "id": 180802,
    "province_id": 18,
    "regency_id": 1808,
    "district_id": 180802,
    "value": "Sukajadi (Suka Jadi)",
    "postal_code": "34765"
  },
  {
    "id": 180802,
    "province_id": 18,
    "regency_id": 1808,
    "district_id": 180802,
    "value": "Talang Mangga",
    "postal_code": "34765"
  },
  {
    "id": 180802,
    "province_id": 18,
    "regency_id": 1808,
    "district_id": 180802,
    "value": "Tangkas",
    "postal_code": "34765"
  },
  {
    "id": 180802,
    "province_id": 18,
    "regency_id": 1808,
    "district_id": 180802,
    "value": "Tanjung Bulan",
    "postal_code": "34765"
  },
  {
    "id": 180802,
    "province_id": 18,
    "regency_id": 1808,
    "district_id": 180802,
    "value": "Tanjung Harapan",
    "postal_code": "34765"
  },
  {
    "id": 180802,
    "province_id": 18,
    "regency_id": 1808,
    "district_id": 180802,
    "value": "Tanjung Kurung",
    "postal_code": "34765"
  },
  {
    "id": 180802,
    "province_id": 18,
    "regency_id": 1808,
    "district_id": 180802,
    "value": "Tanjung Kurung Lama (Tanjungkurung Lama)",
    "postal_code": "34765"
  }
]