[
  {
    "id": 170613,
    "province_id": 17,
    "regency_id": 1706,
    "district_id": 170613,
    "value": "Agung Jaya",
    "postal_code": "38767"
  },
  {
    "id": 170613,
    "province_id": 17,
    "regency_id": 1706,
    "district_id": 170613,
    "value": "Kota Praja",
    "postal_code": "38767"
  },
  {
    "id": 170613,
    "province_id": 17,
    "regency_id": 1706,
    "district_id": 170613,
    "value": "Manjunto Jaya",
    "postal_code": "38767"
  },
  {
    "id": 170613,
    "province_id": 17,
    "regency_id": 1706,
    "district_id": 170613,
    "value": "Pondok Makmur",
    "postal_code": "38767"
  },
  {
    "id": 170613,
    "province_id": 17,
    "regency_id": 1706,
    "district_id": 170613,
    "value": "Sido Makmur",
    "postal_code": "38767"
  },
  {
    "id": 170613,
    "province_id": 17,
    "regency_id": 1706,
    "district_id": 170613,
    "value": "Sinar Jaya",
    "postal_code": "38767"
  },
  {
    "id": 170613,
    "province_id": 17,
    "regency_id": 1706,
    "district_id": 170613,
    "value": "Tirta Makmur",
    "postal_code": "38767"
  },
  {
    "id": 170613,
    "province_id": 17,
    "regency_id": 1706,
    "district_id": 170613,
    "value": "Tirta Mulya",
    "postal_code": "38767"
  }
]