[
  {
    "id": 320208,
    "province_id": 32,
    "regency_id": 3202,
    "district_id": 320208,
    "value": "Bantaragung (Bantar Agung)",
    "postal_code": "43171"
  },
  {
    "id": 320208,
    "province_id": 32,
    "regency_id": 3202,
    "district_id": 320208,
    "value": "Bantarpanjang",
    "postal_code": "43171"
  },
  {
    "id": 320208,
    "province_id": 32,
    "regency_id": 3202,
    "district_id": 320208,
    "value": "Bojongjengkol (Bojong Jengkol)",
    "postal_code": "43171"
  },
  {
    "id": 320208,
    "province_id": 32,
    "regency_id": 3202,
    "district_id": 320208,
    "value": "Bojongtipar",
    "postal_code": "43171"
  },
  {
    "id": 320208,
    "province_id": 32,
    "regency_id": 3202,
    "district_id": 320208,
    "value": "Cijulang",
    "postal_code": "43171"
  },
  {
    "id": 320208,
    "province_id": 32,
    "regency_id": 3202,
    "district_id": 320208,
    "value": "Jampangtengah (Jampang Tengah)",
    "postal_code": "43171"
  },
  {
    "id": 320208,
    "province_id": 32,
    "regency_id": 3202,
    "district_id": 320208,
    "value": "Nangerang",
    "postal_code": "43171"
  },
  {
    "id": 320208,
    "province_id": 32,
    "regency_id": 3202,
    "district_id": 320208,
    "value": "Padabeunghar",
    "postal_code": "43171"
  },
  {
    "id": 320208,
    "province_id": 32,
    "regency_id": 3202,
    "district_id": 320208,
    "value": "Panumbangan",
    "postal_code": "43171"
  },
  {
    "id": 320208,
    "province_id": 32,
    "regency_id": 3202,
    "district_id": 320208,
    "value": "Sindangresmi",
    "postal_code": "43171"
  },
  {
    "id": 320208,
    "province_id": 32,
    "regency_id": 3202,
    "district_id": 320208,
    "value": "Tanjungsari",
    "postal_code": "43171"
  }
]