[
  {
    "id": 321203,
    "province_id": 32,
    "regency_id": 3212,
    "district_id": 321203,
    "value": "Babakan Jaya (Babakanjaya)",
    "postal_code": "45263"
  },
  {
    "id": 321203,
    "province_id": 32,
    "regency_id": 3212,
    "district_id": 321203,
    "value": "Drunten Kulon",
    "postal_code": "45263"
  },
  {
    "id": 321203,
    "province_id": 32,
    "regency_id": 3212,
    "district_id": 321203,
    "value": "Drunten Wetan",
    "postal_code": "45263"
  },
  {
    "id": 321203,
    "province_id": 32,
    "regency_id": 3212,
    "district_id": 321203,
    "value": "Gabus Kulon (Gabuskulon)",
    "postal_code": "45263"
  },
  {
    "id": 321203,
    "province_id": 32,
    "regency_id": 3212,
    "district_id": 321203,
    "value": "Gabus Wetan (Gabuswetan)",
    "postal_code": "45263"
  },
  {
    "id": 321203,
    "province_id": 32,
    "regency_id": 3212,
    "district_id": 321203,
    "value": "Kedokan Gabus (Kedokangabus)",
    "postal_code": "45263"
  },
  {
    "id": 321203,
    "province_id": 32,
    "regency_id": 3212,
    "district_id": 321203,
    "value": "Kedung Dawa (Kedungdawa)",
    "postal_code": "45263"
  },
  {
    "id": 321203,
    "province_id": 32,
    "regency_id": 3212,
    "district_id": 321203,
    "value": "Rancahan",
    "postal_code": "45263"
  },
  {
    "id": 321203,
    "province_id": 32,
    "regency_id": 3212,
    "district_id": 321203,
    "value": "Rancamulya",
    "postal_code": "45263"
  },
  {
    "id": 321203,
    "province_id": 32,
    "regency_id": 3212,
    "district_id": 321203,
    "value": "Sekar Mulya (Sekarmulya)",
    "postal_code": "45263"
  }
]