[
  {
    "id": 161102,
    "province_id": 16,
    "regency_id": 1611,
    "district_id": 161102,
    "value": "Bandar Agung",
    "postal_code": "31598"
  },
  {
    "id": 161102,
    "province_id": 16,
    "regency_id": 1611,
    "district_id": 161102,
    "value": "Batu Cawang",
    "postal_code": "31598"
  },
  {
    "id": 161102,
    "province_id": 16,
    "regency_id": 1611,
    "district_id": 161102,
    "value": "Bayau",
    "postal_code": "31598"
  },
  {
    "id": 161102,
    "province_id": 16,
    "regency_id": 1611,
    "district_id": 161102,
    "value": "Beruge Ilir",
    "postal_code": "31598"
  },
  {
    "id": 161102,
    "province_id": 16,
    "regency_id": 1611,
    "district_id": 161102,
    "value": "Gn Merakasa Lama (Gunung Meraksa Lama)",
    "postal_code": "31598"
  },
  {
    "id": 161102,
    "province_id": 16,
    "regency_id": 1611,
    "district_id": 161102,
    "value": "Gunung Meraksa Baru",
    "postal_code": "31598"
  },
  {
    "id": 161102,
    "province_id": 16,
    "regency_id": 1611,
    "district_id": 161102,
    "value": "Jarakan",
    "postal_code": "31598"
  },
  {
    "id": 161102,
    "province_id": 16,
    "regency_id": 1611,
    "district_id": 161102,
    "value": "Landur",
    "postal_code": "31598"
  },
  {
    "id": 161102,
    "province_id": 16,
    "regency_id": 1611,
    "district_id": 161102,
    "value": "Lubuk Layang",
    "postal_code": "31598"
  },
  {
    "id": 161102,
    "province_id": 16,
    "regency_id": 1611,
    "district_id": 161102,
    "value": "Lubuk Sepang",
    "postal_code": "31598"
  },
  {
    "id": 161102,
    "province_id": 16,
    "regency_id": 1611,
    "district_id": 161102,
    "value": "Manggilan (Manggilang)",
    "postal_code": "31598"
  },
  {
    "id": 161102,
    "province_id": 16,
    "regency_id": 1611,
    "district_id": 161102,
    "value": "Muarakarang (Muara Karang)",
    "postal_code": "31598"
  },
  {
    "id": 161102,
    "province_id": 16,
    "regency_id": 1611,
    "district_id": 161102,
    "value": "Nanjungan",
    "postal_code": "31598"
  },
  {
    "id": 161102,
    "province_id": 16,
    "regency_id": 1611,
    "district_id": 161102,
    "value": "Pagar Tengah",
    "postal_code": "31598"
  },
  {
    "id": 161102,
    "province_id": 16,
    "regency_id": 1611,
    "district_id": 161102,
    "value": "Pendopo",
    "postal_code": "31598"
  },
  {
    "id": 161102,
    "province_id": 16,
    "regency_id": 1611,
    "district_id": 161102,
    "value": "Sarang Bulan",
    "postal_code": "31598"
  },
  {
    "id": 161102,
    "province_id": 16,
    "regency_id": 1611,
    "district_id": 161102,
    "value": "Tanjungbaru (Tanjung Baru)",
    "postal_code": "31598"
  },
  {
    "id": 161102,
    "province_id": 16,
    "regency_id": 1611,
    "district_id": 161102,
    "value": "Tanjungeran (Tanjung Eran)",
    "postal_code": "31598"
  },
  {
    "id": 161102,
    "province_id": 16,
    "regency_id": 1611,
    "district_id": 161102,
    "value": "Tanjungraman (Tanjung Raman)",
    "postal_code": "31598"
  }
]