[
  {
    "id": 950231,
    "province_id": 95,
    "regency_id": 9502,
    "district_id": 950231,
    "value": "Bautme",
    "postal_code": "99405"
  },
  {
    "id": 950231,
    "province_id": 95,
    "regency_id": 9502,
    "district_id": 950231,
    "value": "Maigame",
    "postal_code": "99405"
  },
  {
    "id": 950231,
    "province_id": 95,
    "regency_id": 9502,
    "district_id": 950231,
    "value": "Murme",
    "postal_code": "99405"
  },
  {
    "id": 950231,
    "province_id": 95,
    "regency_id": 9502,
    "district_id": 950231,
    "value": "Sinami / Sinani (Yuaban)",
    "postal_code": "99405"
  },
  {
    "id": 950231,
    "province_id": 95,
    "regency_id": 9502,
    "district_id": 950231,
    "value": "Teiraplu",
    "postal_code": "99405"
  },
  {
    "id": 950231,
    "province_id": 95,
    "regency_id": 9502,
    "district_id": 950231,
    "value": "Terapdei",
    "postal_code": "99405"
  },
  {
    "id": 950231,
    "province_id": 95,
    "regency_id": 9502,
    "district_id": 950231,
    "value": "Teriame",
    "postal_code": "99405"
  },
  {
    "id": 950231,
    "province_id": 95,
    "regency_id": 9502,
    "district_id": 950231,
    "value": "Yitarget",
    "postal_code": "99405"
  },
  {
    "id": 950231,
    "province_id": 95,
    "regency_id": 9502,
    "district_id": 950231,
    "value": "Yuaban Dua",
    "postal_code": "99405"
  },
  {
    "id": 950231,
    "province_id": 95,
    "regency_id": 9502,
    "district_id": 950231,
    "value": "Yuaban Satu",
    "postal_code": "99405"
  }
]