[
  {
    "id": 920411,
    "province_id": 92,
    "regency_id": 9204,
    "district_id": 920411,
    "value": "Haha",
    "postal_code": "98214"
  },
  {
    "id": 920411,
    "province_id": 92,
    "regency_id": 9204,
    "district_id": 920411,
    "value": "Kakas",
    "postal_code": "98214"
  },
  {
    "id": 920411,
    "province_id": 92,
    "regency_id": 9204,
    "district_id": 920411,
    "value": "Kamaro",
    "postal_code": "98214"
  },
  {
    "id": 920411,
    "province_id": 92,
    "regency_id": 9204,
    "district_id": 920411,
    "value": "Klaogin",
    "postal_code": "98214"
  },
  {
    "id": 920411,
    "province_id": 92,
    "regency_id": 9204,
    "district_id": 920411,
    "value": "Sbir",
    "postal_code": "98214"
  },
  {
    "id": 920411,
    "province_id": 92,
    "regency_id": 9204,
    "district_id": 920411,
    "value": "Srer",
    "postal_code": "98214"
  },
  {
    "id": 920411,
    "province_id": 92,
    "regency_id": 9204,
    "district_id": 920411,
    "value": "Tofot",
    "postal_code": "98214"
  },
  {
    "id": 920411,
    "province_id": 92,
    "regency_id": 9204,
    "district_id": 920411,
    "value": "Woloin",
    "postal_code": "98214"
  }
]