[
  {
    "id": 1702162003,
    "province_id": 17,
    "regency_id": 1702,
    "district_id": 170216,
    "value": "Batu Dewa",
    "postal_code": "39125"
  },
  {
    "id": 1702162005,
    "province_id": 17,
    "regency_id": 1702,
    "district_id": 170216,
    "value": "Batu Panco",
    "postal_code": "39125"
  },
  {
    "id": 1702161001,
    "province_id": 17,
    "regency_id": 1702,
    "district_id": 170216,
    "value": "Dusun Curup",
    "postal_code": "39119"
  },
  {
    "id": 1702162006,
    "province_id": 17,
    "regency_id": 1702,
    "district_id": 170216,
    "value": "Dusun Sawah",
    "postal_code": "39125"
  },
  {
    "id": 1702162013,
    "province_id": 17,
    "regency_id": 1702,
    "district_id": 170216,
    "value": "Kota Pagu",
    "postal_code": "39125"
  },
  {
    "id": 1702162007,
    "province_id": 17,
    "regency_id": 1702,
    "district_id": 170216,
    "value": "Lubuk Kembang",
    "postal_code": "39125"
  },
  {
    "id": 1702162010,
    "province_id": 17,
    "regency_id": 1702,
    "district_id": 170216,
    "value": "Pahlawan (Desa Pahlawan)",
    "postal_code": "39125"
  },
  {
    "id": 1702162004,
    "province_id": 17,
    "regency_id": 1702,
    "district_id": 170216,
    "value": "Perbo",
    "postal_code": "39125"
  },
  {
    "id": 1702162014,
    "province_id": 17,
    "regency_id": 1702,
    "district_id": 170216,
    "value": "Seguring",
    "postal_code": "39125"
  },
  {
    "id": 1702162008,
    "province_id": 17,
    "regency_id": 1702,
    "district_id": 170216,
    "value": "Suka Datang",
    "postal_code": "39125"
  },
  {
    "id": 1702162009,
    "province_id": 17,
    "regency_id": 1702,
    "district_id": 170216,
    "value": "Tabarenah",
    "postal_code": "39125"
  },
  {
    "id": 1702162012,
    "province_id": 17,
    "regency_id": 1702,
    "district_id": 170216,
    "value": "Tanjung Beringin",
    "postal_code": "39125"
  },
  {
    "id": 1702162011,
    "province_id": 17,
    "regency_id": 1702,
    "district_id": 170216,
    "value": "Tasik Malaya (Tasikmalaya)",
    "postal_code": "39125"
  },
  {
    "id": 1702161002,
    "province_id": 17,
    "regency_id": 1702,
    "district_id": 170216,
    "value": "Tunas Harapan",
    "postal_code": "39123"
  }
]