[
  {
    "id": 187113,
    "province_id": 18,
    "regency_id": 1871,
    "district_id": 187113,
    "value": "Beringin Jaya (Beringin Raya)",
    "postal_code": "35158"
  },
  {
    "id": 187113,
    "province_id": 18,
    "regency_id": 1871,
    "district_id": 187113,
    "value": "Beringin Raya",
    "postal_code": "35158"
  },
  {
    "id": 187113,
    "province_id": 18,
    "regency_id": 1871,
    "district_id": 187113,
    "value": "Kedaung",
    "postal_code": "35158"
  },
  {
    "id": 187113,
    "province_id": 18,
    "regency_id": 1871,
    "district_id": 187113,
    "value": "Kemiling Permai",
    "postal_code": "35158"
  },
  {
    "id": 187113,
    "province_id": 18,
    "regency_id": 1871,
    "district_id": 187113,
    "value": "Kemiling Raya",
    "postal_code": "35158"
  },
  {
    "id": 187113,
    "province_id": 18,
    "regency_id": 1871,
    "district_id": 187113,
    "value": "Pinang Jaya",
    "postal_code": "35158"
  },
  {
    "id": 187113,
    "province_id": 18,
    "regency_id": 1871,
    "district_id": 187113,
    "value": "Sumber Agung",
    "postal_code": "35158"
  },
  {
    "id": 187113,
    "province_id": 18,
    "regency_id": 1871,
    "district_id": 187113,
    "value": "Sumber Rejo",
    "postal_code": "35153"
  },
  {
    "id": 187113,
    "province_id": 18,
    "regency_id": 1871,
    "district_id": 187113,
    "value": "Sumberrejo Sejahtera (Sumber Rejo Sejahtera)",
    "postal_code": "35153"
  }
]