[
  {
    "id": 950716,
    "province_id": 95,
    "regency_id": 9507,
    "district_id": 950716,
    "value": "Bigipura",
    "postal_code": "99590"
  },
  {
    "id": 950716,
    "province_id": 95,
    "regency_id": 9507,
    "district_id": 950716,
    "value": "Bumalome",
    "postal_code": "99590"
  },
  {
    "id": 950716,
    "province_id": 95,
    "regency_id": 9507,
    "district_id": 950716,
    "value": "Guninggame",
    "postal_code": "99590"
  },
  {
    "id": 950716,
    "province_id": 95,
    "regency_id": 9507,
    "district_id": 950716,
    "value": "Kondename",
    "postal_code": "99590"
  },
  {
    "id": 950716,
    "province_id": 95,
    "regency_id": 9507,
    "district_id": 950716,
    "value": "Mokoni",
    "postal_code": "99590"
  },
  {
    "id": 950716,
    "province_id": 95,
    "regency_id": 9507,
    "district_id": 950716,
    "value": "Popome",
    "postal_code": "99590"
  },
  {
    "id": 950716,
    "province_id": 95,
    "regency_id": 9507,
    "district_id": 950716,
    "value": "Wakumalo",
    "postal_code": "99590"
  },
  {
    "id": 950716,
    "province_id": 95,
    "regency_id": 9507,
    "district_id": 950716,
    "value": "Wuyumbur",
    "postal_code": "99590"
  },
  {
    "id": 950716,
    "province_id": 95,
    "regency_id": 9507,
    "district_id": 950716,
    "value": "Yanggelome",
    "postal_code": "99590"
  }
]