[
  {
    "id": 531103,
    "province_id": 53,
    "regency_id": 5311,
    "district_id": 531103,
    "value": "Bidi Hunga",
    "postal_code": "87150"
  },
  {
    "id": 531103,
    "province_id": 53,
    "regency_id": 5311,
    "district_id": 531103,
    "value": "Kambata Wundut",
    "postal_code": "87150"
  },
  {
    "id": 531103,
    "province_id": 53,
    "regency_id": 5311,
    "district_id": 531103,
    "value": "Kambuhapang (Kambu Hapang)",
    "postal_code": "87150"
  },
  {
    "id": 531103,
    "province_id": 53,
    "regency_id": 5311,
    "district_id": 531103,
    "value": "Kondamara",
    "postal_code": "87150"
  },
  {
    "id": 531103,
    "province_id": 53,
    "regency_id": 5311,
    "district_id": 531103,
    "value": "Lewa Paku (Lewapaku)",
    "postal_code": "87150"
  },
  {
    "id": 531103,
    "province_id": 53,
    "regency_id": 5311,
    "district_id": 531103,
    "value": "Matawai Pawali",
    "postal_code": "87150"
  },
  {
    "id": 531103,
    "province_id": 53,
    "regency_id": 5311,
    "district_id": 531103,
    "value": "Rakawatu",
    "postal_code": "87150"
  },
  {
    "id": 531103,
    "province_id": 53,
    "regency_id": 5311,
    "district_id": 531103,
    "value": "Tana Rara (Tanarara)",
    "postal_code": "87150"
  }
]