[
  {
    "id": 940207,
    "province_id": 94,
    "regency_id": 9402,
    "district_id": 940207,
    "value": "Ambok",
    "postal_code": "98926"
  },
  {
    "id": 940207,
    "province_id": 94,
    "regency_id": 9402,
    "district_id": 940207,
    "value": "Asua",
    "postal_code": "98926"
  },
  {
    "id": 940207,
    "province_id": 94,
    "regency_id": 9402,
    "district_id": 940207,
    "value": "Awiyam",
    "postal_code": "98926"
  },
  {
    "id": 940207,
    "province_id": 94,
    "regency_id": 9402,
    "district_id": 940207,
    "value": "Degei",
    "postal_code": "98926"
  },
  {
    "id": 940207,
    "province_id": 94,
    "regency_id": 9402,
    "district_id": 940207,
    "value": "Digi",
    "postal_code": "98926"
  },
  {
    "id": 940207,
    "province_id": 94,
    "regency_id": 9402,
    "district_id": 940207,
    "value": "Gubugani",
    "postal_code": "98926"
  },
  {
    "id": 940207,
    "province_id": 94,
    "regency_id": 9402,
    "district_id": 940207,
    "value": "Gunung Tayok",
    "postal_code": "98926"
  },
  {
    "id": 940207,
    "province_id": 94,
    "regency_id": 9402,
    "district_id": 940207,
    "value": "Kikup",
    "postal_code": "98926"
  },
  {
    "id": 940207,
    "province_id": 94,
    "regency_id": 9402,
    "district_id": 940207,
    "value": "Nalu",
    "postal_code": "98926"
  },
  {
    "id": 940207,
    "province_id": 94,
    "regency_id": 9402,
    "district_id": 940207,
    "value": "Nambu",
    "postal_code": "98926"
  },
  {
    "id": 940207,
    "province_id": 94,
    "regency_id": 9402,
    "district_id": 940207,
    "value": "Sigou",
    "postal_code": "98926"
  },
  {
    "id": 940207,
    "province_id": 94,
    "regency_id": 9402,
    "district_id": 940207,
    "value": "Tubugime",
    "postal_code": "98926"
  },
  {
    "id": 940207,
    "province_id": 94,
    "regency_id": 9402,
    "district_id": 940207,
    "value": "Wariru",
    "postal_code": "98926"
  }
]