[
  {
    "id": 7304112004,
    "province_id": 73,
    "regency_id": 7304,
    "district_id": 730411,
    "value": "Allu Tarowang (Allu Taroang)",
    "postal_code": "92362"
  },
  {
    "id": 7304112005,
    "province_id": 73,
    "regency_id": 7304,
    "district_id": 730411,
    "value": "Balangbaru (Balang Baru)",
    "postal_code": "92362"
  },
  {
    "id": 7304112006,
    "province_id": 73,
    "regency_id": 7304,
    "district_id": 730411,
    "value": "Balangloe Tarowang (Balang Loe Tarowang)",
    "postal_code": "92362"
  },
  {
    "id": 7304112007,
    "province_id": 73,
    "regency_id": 7304,
    "district_id": 730411,
    "value": "Bonto Ujung",
    "postal_code": "92362"
  },
  {
    "id": 7304112002,
    "province_id": 73,
    "regency_id": 7304,
    "district_id": 730411,
    "value": "Bontorappo",
    "postal_code": "92362"
  },
  {
    "id": 7304112001,
    "province_id": 73,
    "regency_id": 7304,
    "district_id": 730411,
    "value": "Pao",
    "postal_code": "92362"
  },
  {
    "id": 7304112003,
    "province_id": 73,
    "regency_id": 7304,
    "district_id": 730411,
    "value": "Tarowang",
    "postal_code": "92362"
  },
  {
    "id": 7304112008,
    "province_id": 73,
    "regency_id": 7304,
    "district_id": 730411,
    "value": "Tino",
    "postal_code": "92362"
  }
]