[
  {
    "id": 5102082011,
    "province_id": 51,
    "regency_id": 5102,
    "district_id": 510208,
    "value": "Babakan (Babahan)",
    "postal_code": "82152"
  },
  {
    "id": 5102082005,
    "province_id": 51,
    "regency_id": 5102,
    "district_id": 510208,
    "value": "Biaung",
    "postal_code": "82152"
  },
  {
    "id": 5102082004,
    "province_id": 51,
    "regency_id": 5102,
    "district_id": 510208,
    "value": "Buruan",
    "postal_code": "82152"
  },
  {
    "id": 5102082013,
    "province_id": 51,
    "regency_id": 5102,
    "district_id": 510208,
    "value": "Jatiluwih",
    "postal_code": "82152"
  },
  {
    "id": 5102082002,
    "province_id": 51,
    "regency_id": 5102,
    "district_id": 510208,
    "value": "Jegu",
    "postal_code": "82152"
  },
  {
    "id": 5102082009,
    "province_id": 51,
    "regency_id": 5102,
    "district_id": 510208,
    "value": "Mengesta (Mengeste)",
    "postal_code": "82152"
  },
  {
    "id": 5102082007,
    "province_id": 51,
    "regency_id": 5102,
    "district_id": 510208,
    "value": "Penatahan",
    "postal_code": "82152"
  },
  {
    "id": 5102082010,
    "province_id": 51,
    "regency_id": 5102,
    "district_id": 510208,
    "value": "Penebel",
    "postal_code": "82152"
  },
  {
    "id": 5102082017,
    "province_id": 51,
    "regency_id": 5102,
    "district_id": 510208,
    "value": "Pesagi",
    "postal_code": "82152"
  },
  {
    "id": 5102082006,
    "province_id": 51,
    "regency_id": 5102,
    "district_id": 510208,
    "value": "Pitra",
    "postal_code": "82152"
  },
  {
    "id": 5102082001,
    "province_id": 51,
    "regency_id": 5102,
    "district_id": 510208,
    "value": "Rejasa",
    "postal_code": "82152"
  },
  {
    "id": 5102082003,
    "province_id": 51,
    "regency_id": 5102,
    "district_id": 510208,
    "value": "Riang Gede",
    "postal_code": "82152"
  },
  {
    "id": 5102082018,
    "province_id": 51,
    "regency_id": 5102,
    "district_id": 510208,
    "value": "Sangketan",
    "postal_code": "82152"
  },
  {
    "id": 5102082012,
    "province_id": 51,
    "regency_id": 5102,
    "district_id": 510208,
    "value": "Senganan",
    "postal_code": "82152"
  },
  {
    "id": 5102082015,
    "province_id": 51,
    "regency_id": 5102,
    "district_id": 510208,
    "value": "Tajen",
    "postal_code": "82152"
  },
  {
    "id": 5102082016,
    "province_id": 51,
    "regency_id": 5102,
    "district_id": 510208,
    "value": "Tegallinggah (Tegalinggah)",
    "postal_code": "82152"
  },
  {
    "id": 5102082008,
    "province_id": 51,
    "regency_id": 5102,
    "district_id": 510208,
    "value": "Tengkudak",
    "postal_code": "82152"
  },
  {
    "id": 5102082014,
    "province_id": 51,
    "regency_id": 5102,
    "district_id": 510208,
    "value": "Wongaya Gede",
    "postal_code": "82152"
  }
]