[
  {
    "id": 3316092005,
    "province_id": 33,
    "regency_id": 3316,
    "district_id": 331609,
    "value": "Andongrejo",
    "postal_code": "58219"
  },
  {
    "id": 3316091008,
    "province_id": 33,
    "regency_id": 3316,
    "district_id": 331609,
    "value": "Bangkle",
    "postal_code": "58218"
  },
  {
    "id": 3316091006,
    "province_id": 33,
    "regency_id": 3316,
    "district_id": 331609,
    "value": "Beran",
    "postal_code": "58216"
  },
  {
    "id": 3316092007,
    "province_id": 33,
    "regency_id": 3316,
    "district_id": 331609,
    "value": "Jejeruk",
    "postal_code": "58219"
  },
  {
    "id": 3316092001,
    "province_id": 33,
    "regency_id": 3316,
    "district_id": 331609,
    "value": "Jepangrejo",
    "postal_code": "58219"
  },
  {
    "id": 3316091011,
    "province_id": 33,
    "regency_id": 3316,
    "district_id": 331609,
    "value": "Jetis",
    "postal_code": "58214"
  },
  {
    "id": 3316092002,
    "province_id": 33,
    "regency_id": 3316,
    "district_id": 331609,
    "value": "Kamolan",
    "postal_code": "58219"
  },
  {
    "id": 3316091018,
    "province_id": 33,
    "regency_id": 3316,
    "district_id": 331609,
    "value": "Karangjati",
    "postal_code": "58219"
  },
  {
    "id": 3316091013,
    "province_id": 33,
    "regency_id": 3316,
    "district_id": 331609,
    "value": "Kauman",
    "postal_code": "58213"
  },
  {
    "id": 3316091009,
    "province_id": 33,
    "regency_id": 3316,
    "district_id": 331609,
    "value": "Kedungjenar (Kedung Jenar)",
    "postal_code": "58217"
  },
  {
    "id": 3316091015,
    "province_id": 33,
    "regency_id": 3316,
    "district_id": 331609,
    "value": "Kunden",
    "postal_code": "58212"
  },
  {
    "id": 3316091010,
    "province_id": 33,
    "regency_id": 3316,
    "district_id": 331609,
    "value": "Mlangsen",
    "postal_code": "58215"
  },
  {
    "id": 3316092024,
    "province_id": 33,
    "regency_id": 3316,
    "district_id": 331609,
    "value": "Ngadipurwo",
    "postal_code": "58219"
  },
  {
    "id": 3316092028,
    "province_id": 33,
    "regency_id": 3316,
    "district_id": 331609,
    "value": "Ngampel",
    "postal_code": "58219"
  },
  {
    "id": 3316092021,
    "province_id": 33,
    "regency_id": 3316,
    "district_id": 331609,
    "value": "Patalan",
    "postal_code": "58219"
  },
  {
    "id": 3316092003,
    "province_id": 33,
    "regency_id": 3316,
    "district_id": 331609,
    "value": "Pelem",
    "postal_code": "58219"
  },
  {
    "id": 3316092027,
    "province_id": 33,
    "regency_id": 3316,
    "district_id": 331609,
    "value": "Plantungan",
    "postal_code": "58219"
  },
  {
    "id": 3316092004,
    "province_id": 33,
    "regency_id": 3316,
    "district_id": 331609,
    "value": "Purworejo",
    "postal_code": "58219"
  },
  {
    "id": 3316092023,
    "province_id": 33,
    "regency_id": 3316,
    "district_id": 331609,
    "value": "Purwosari",
    "postal_code": "58219"
  },
  {
    "id": 3316092025,
    "province_id": 33,
    "regency_id": 3316,
    "district_id": 331609,
    "value": "Sendangharjo",
    "postal_code": "58219"
  },
  {
    "id": 3316091014,
    "province_id": 33,
    "regency_id": 3316,
    "district_id": 331609,
    "value": "Sonorejo",
    "postal_code": "58213"
  },
  {
    "id": 3316091012,
    "province_id": 33,
    "regency_id": 3316,
    "district_id": 331609,
    "value": "Tambahrejo",
    "postal_code": "58214"
  },
  {
    "id": 3316092022,
    "province_id": 33,
    "regency_id": 3316,
    "district_id": 331609,
    "value": "Tambaksari",
    "postal_code": "58219"
  },
  {
    "id": 3316091017,
    "province_id": 33,
    "regency_id": 3316,
    "district_id": 331609,
    "value": "Tegalgunung",
    "postal_code": "58219"
  },
  {
    "id": 3316091016,
    "province_id": 33,
    "regency_id": 3316,
    "district_id": 331609,
    "value": "Tempelan",
    "postal_code": "58211"
  },
  {
    "id": 3316092026,
    "province_id": 33,
    "regency_id": 3316,
    "district_id": 331609,
    "value": "Tempuran",
    "postal_code": "58219"
  },
  {
    "id": 3316092020,
    "province_id": 33,
    "regency_id": 3316,
    "district_id": 331609,
    "value": "Tempurejo",
    "postal_code": "58219"
  },
  {
    "id": 3316092019,
    "province_id": 33,
    "regency_id": 3316,
    "district_id": 331609,
    "value": "Temurejo",
    "postal_code": "58219"
  }
]