[
  {
    "id": 910616,
    "province_id": 91,
    "regency_id": 9106,
    "district_id": 910616,
    "value": "Amberparem (Amperem)",
    "postal_code": "98561"
  },
  {
    "id": 910616,
    "province_id": 91,
    "regency_id": 9106,
    "district_id": 910616,
    "value": "Arimi Jaya",
    "postal_code": "98561"
  },
  {
    "id": 910616,
    "province_id": 91,
    "regency_id": 9106,
    "district_id": 910616,
    "value": "Bruyadori",
    "postal_code": "98561"
  },
  {
    "id": 910616,
    "province_id": 91,
    "regency_id": 9106,
    "district_id": 910616,
    "value": "Dafi",
    "postal_code": "98561"
  },
  {
    "id": 910616,
    "province_id": 91,
    "regency_id": 9106,
    "district_id": 910616,
    "value": "Duai",
    "postal_code": "98561"
  },
  {
    "id": 910616,
    "province_id": 91,
    "regency_id": 9106,
    "district_id": 910616,
    "value": "Kamumi",
    "postal_code": "98561"
  },
  {
    "id": 910616,
    "province_id": 91,
    "regency_id": 9106,
    "district_id": 910616,
    "value": "Mandori",
    "postal_code": "98561"
  },
  {
    "id": 910616,
    "province_id": 91,
    "regency_id": 9106,
    "district_id": 910616,
    "value": "Mandori Sup",
    "postal_code": "98561"
  },
  {
    "id": 910616,
    "province_id": 91,
    "regency_id": 9106,
    "district_id": 910616,
    "value": "Sandou (Sandau)",
    "postal_code": "98561"
  },
  {
    "id": 910616,
    "province_id": 91,
    "regency_id": 9106,
    "district_id": 910616,
    "value": "Warbukor",
    "postal_code": "98561"
  }
]