[
  {
    "id": 1104112010,
    "province_id": 11,
    "regency_id": 1104,
    "district_id": 110411,
    "value": "Bukit",
    "postal_code": "24519"
  },
  {
    "id": 1104112011,
    "province_id": 11,
    "regency_id": 1104,
    "district_id": 110411,
    "value": "Bukit Ewih Tami Delem (Bukit Iwih Tami Delem)",
    "postal_code": "24519"
  },
  {
    "id": 1104112001,
    "province_id": 11,
    "regency_id": 1104,
    "district_id": 110411,
    "value": "Bukit Sama",
    "postal_code": "24519"
  },
  {
    "id": 1104112012,
    "province_id": 11,
    "regency_id": 1104,
    "district_id": 110411,
    "value": "Gunung Bahgie",
    "postal_code": "24519"
  },
  {
    "id": 1104112013,
    "province_id": 11,
    "regency_id": 1104,
    "district_id": 110411,
    "value": "Gunung Balohen",
    "postal_code": "24519"
  },
  {
    "id": 1104112002,
    "province_id": 11,
    "regency_id": 1104,
    "district_id": 110411,
    "value": "Gunung Bukit",
    "postal_code": "24519"
  },
  {
    "id": 1104112014,
    "province_id": 11,
    "regency_id": 1104,
    "district_id": 110411,
    "value": "Jongkok Bathin (Jongok Bathin)",
    "postal_code": "24519"
  },
  {
    "id": 1104112003,
    "province_id": 11,
    "regency_id": 1104,
    "district_id": 110411,
    "value": "Jongok Meluem",
    "postal_code": "24518"
  },
  {
    "id": 1104112015,
    "province_id": 11,
    "regency_id": 1104,
    "district_id": 110411,
    "value": "Kala Lengkio",
    "postal_code": "24519"
  },
  {
    "id": 1104112004,
    "province_id": 11,
    "regency_id": 1104,
    "district_id": 110411,
    "value": "Kelupak Mata",
    "postal_code": "24519"
  },
  {
    "id": 1104112016,
    "province_id": 11,
    "regency_id": 1104,
    "district_id": 110411,
    "value": "Kute Lot (Kutelot)",
    "postal_code": "24519"
  },
  {
    "id": 1104112005,
    "province_id": 11,
    "regency_id": 1104,
    "district_id": 110411,
    "value": "Lot Kala",
    "postal_code": "24517"
  },
  {
    "id": 1104112006,
    "province_id": 11,
    "regency_id": 1104,
    "district_id": 110411,
    "value": "Mendale",
    "postal_code": "24519"
  },
  {
    "id": 1104112007,
    "province_id": 11,
    "regency_id": 1104,
    "district_id": 110411,
    "value": "Paya Reje Tami Dalem (Paya Reje Tamidelem)",
    "postal_code": "24519"
  },
  {
    "id": 1104112008,
    "province_id": 11,
    "regency_id": 1104,
    "district_id": 110411,
    "value": "Paya Tumpi",
    "postal_code": "24519"
  },
  {
    "id": 1104112017,
    "province_id": 11,
    "regency_id": 1104,
    "district_id": 110411,
    "value": "Paya Tumpi Baru",
    "postal_code": "24519"
  },
  {
    "id": 1104112018,
    "province_id": 11,
    "regency_id": 1104,
    "district_id": 110411,
    "value": "Paya Tumpi I",
    "postal_code": "24519"
  },
  {
    "id": 1104112009,
    "province_id": 11,
    "regency_id": 1104,
    "district_id": 110411,
    "value": "Pinangan",
    "postal_code": "24519"
  },
  {
    "id": 1104112020,
    "province_id": 11,
    "regency_id": 1104,
    "district_id": 110411,
    "value": "Telege Atu",
    "postal_code": "24519"
  },
  {
    "id": 1104112019,
    "province_id": 11,
    "regency_id": 1104,
    "district_id": 110411,
    "value": "Timangan Gading",
    "postal_code": "24519"
  }
]