[
  {
    "id": 351504,
    "province_id": 35,
    "regency_id": 3515,
    "district_id": 351504,
    "value": "Candipari",
    "postal_code": "61274"
  },
  {
    "id": 351504,
    "province_id": 35,
    "regency_id": 3515,
    "district_id": 351504,
    "value": "Gedang",
    "postal_code": "61274"
  },
  {
    "id": 351504,
    "province_id": 35,
    "regency_id": 3515,
    "district_id": 351504,
    "value": "Glagahharum (Glagah Arum)",
    "postal_code": "61274"
  },
  {
    "id": 351504,
    "province_id": 35,
    "regency_id": 3515,
    "district_id": 351504,
    "value": "Juwetkenongo (Juwet Kenongo)",
    "postal_code": "61274"
  },
  {
    "id": 351504,
    "province_id": 35,
    "regency_id": 3515,
    "district_id": 351504,
    "value": "Kebakalan",
    "postal_code": "61274"
  },
  {
    "id": 351504,
    "province_id": 35,
    "regency_id": 3515,
    "district_id": 351504,
    "value": "Kebonagung",
    "postal_code": "61274"
  },
  {
    "id": 351504,
    "province_id": 35,
    "regency_id": 3515,
    "district_id": 351504,
    "value": "Kedungboto",
    "postal_code": "61274"
  },
  {
    "id": 351504,
    "province_id": 35,
    "regency_id": 3515,
    "district_id": 351504,
    "value": "Kedungsolo",
    "postal_code": "61274"
  },
  {
    "id": 351504,
    "province_id": 35,
    "regency_id": 3515,
    "district_id": 351504,
    "value": "Kesambi",
    "postal_code": "61274"
  },
  {
    "id": 351504,
    "province_id": 35,
    "regency_id": 3515,
    "district_id": 351504,
    "value": "Lajuk",
    "postal_code": "61274"
  },
  {
    "id": 351504,
    "province_id": 35,
    "regency_id": 3515,
    "district_id": 351504,
    "value": "Pamotan",
    "postal_code": "61274"
  },
  {
    "id": 351504,
    "province_id": 35,
    "regency_id": 3515,
    "district_id": 351504,
    "value": "Pesawahan",
    "postal_code": "61274"
  },
  {
    "id": 351504,
    "province_id": 35,
    "regency_id": 3515,
    "district_id": 351504,
    "value": "Plumbon",
    "postal_code": "61274"
  },
  {
    "id": 351504,
    "province_id": 35,
    "regency_id": 3515,
    "district_id": 351504,
    "value": "Porong",
    "postal_code": "61274"
  },
  {
    "id": 351504,
    "province_id": 35,
    "regency_id": 3515,
    "district_id": 351504,
    "value": "Wunut",
    "postal_code": "61274"
  }
]