[
  {
    "id": 520414,
    "province_id": 52,
    "regency_id": 5204,
    "district_id": 520414,
    "value": "Boal",
    "postal_code": "84384"
  },
  {
    "id": 520414,
    "province_id": 52,
    "regency_id": 5204,
    "district_id": 520414,
    "value": "Bunga Eja",
    "postal_code": "84384"
  },
  {
    "id": 520414,
    "province_id": 52,
    "regency_id": 5204,
    "district_id": 520414,
    "value": "Empang Atas",
    "postal_code": "84384"
  },
  {
    "id": 520414,
    "province_id": 52,
    "regency_id": 5204,
    "district_id": 520414,
    "value": "Empang Bawa (Empang Bawah)",
    "postal_code": "84384"
  },
  {
    "id": 520414,
    "province_id": 52,
    "regency_id": 5204,
    "district_id": 520414,
    "value": "Gapit",
    "postal_code": "84384"
  },
  {
    "id": 520414,
    "province_id": 52,
    "regency_id": 5204,
    "district_id": 520414,
    "value": "Jotang",
    "postal_code": "84384"
  },
  {
    "id": 520414,
    "province_id": 52,
    "regency_id": 5204,
    "district_id": 520414,
    "value": "Jotang Beru",
    "postal_code": "84384"
  },
  {
    "id": 520414,
    "province_id": 52,
    "regency_id": 5204,
    "district_id": 520414,
    "value": "Lamenta",
    "postal_code": "84384"
  },
  {
    "id": 520414,
    "province_id": 52,
    "regency_id": 5204,
    "district_id": 520414,
    "value": "Ongko",
    "postal_code": "84384"
  },
  {
    "id": 520414,
    "province_id": 52,
    "regency_id": 5204,
    "district_id": 520414,
    "value": "Pamanto",
    "postal_code": "84384"
  }
]