[
  {
    "id": 320709,
    "province_id": 32,
    "regency_id": 3207,
    "district_id": 320709,
    "value": "Citeureup",
    "postal_code": "46253"
  },
  {
    "id": 320709,
    "province_id": 32,
    "regency_id": 3207,
    "district_id": 320709,
    "value": "Karangpawitan",
    "postal_code": "46253"
  },
  {
    "id": 320709,
    "province_id": 32,
    "regency_id": 3207,
    "district_id": 320709,
    "value": "Kawali",
    "postal_code": "46253"
  },
  {
    "id": 320709,
    "province_id": 32,
    "regency_id": 3207,
    "district_id": 320709,
    "value": "Kawalimukti",
    "postal_code": "46253"
  },
  {
    "id": 320709,
    "province_id": 32,
    "regency_id": 3207,
    "district_id": 320709,
    "value": "Linggapura",
    "postal_code": "46253"
  },
  {
    "id": 320709,
    "province_id": 32,
    "regency_id": 3207,
    "district_id": 320709,
    "value": "Margamulya",
    "postal_code": "46253"
  },
  {
    "id": 320709,
    "province_id": 32,
    "regency_id": 3207,
    "district_id": 320709,
    "value": "Purwasari",
    "postal_code": "46253"
  },
  {
    "id": 320709,
    "province_id": 32,
    "regency_id": 3207,
    "district_id": 320709,
    "value": "Selasari",
    "postal_code": "46253"
  },
  {
    "id": 320709,
    "province_id": 32,
    "regency_id": 3207,
    "district_id": 320709,
    "value": "Sindangsari",
    "postal_code": "46253"
  },
  {
    "id": 320709,
    "province_id": 32,
    "regency_id": 3207,
    "district_id": 320709,
    "value": "Talagasari",
    "postal_code": "46253"
  },
  {
    "id": 320709,
    "province_id": 32,
    "regency_id": 3207,
    "district_id": 320709,
    "value": "Winduraja",
    "postal_code": "46253"
  }
]