[
  {
    "id": 6309122007,
    "province_id": 63,
    "regency_id": 6309,
    "district_id": 630912,
    "value": "Argo Mulyo",
    "postal_code": "71572"
  },
  {
    "id": 6309122003,
    "province_id": 63,
    "regency_id": 6309,
    "district_id": 630912,
    "value": "Bintang Ara",
    "postal_code": "71572"
  },
  {
    "id": 6309122008,
    "province_id": 63,
    "regency_id": 6309,
    "district_id": 630912,
    "value": "Bumi Makmur",
    "postal_code": "71572"
  },
  {
    "id": 6309122004,
    "province_id": 63,
    "regency_id": 6309,
    "district_id": 630912,
    "value": "Burum",
    "postal_code": "71572"
  },
  {
    "id": 6309122006,
    "province_id": 63,
    "regency_id": 6309,
    "district_id": 630912,
    "value": "Dambung Raya (Dambung / Raya)",
    "postal_code": "71572"
  },
  {
    "id": 6309122009,
    "province_id": 63,
    "regency_id": 6309,
    "district_id": 630912,
    "value": "Hegarmanah (Hegar Manah)",
    "postal_code": "71572"
  },
  {
    "id": 6309122005,
    "province_id": 63,
    "regency_id": 6309,
    "district_id": 630912,
    "value": "Panaan",
    "postal_code": "71572"
  },
  {
    "id": 6309122002,
    "province_id": 63,
    "regency_id": 6309,
    "district_id": 630912,
    "value": "Usih",
    "postal_code": "71572"
  },
  {
    "id": 6309122001,
    "province_id": 63,
    "regency_id": 6309,
    "district_id": 630912,
    "value": "Waling",
    "postal_code": "71572"
  }
]