[
  {
    "id": 150702,
    "province_id": 15,
    "regency_id": 1507,
    "district_id": 150702,
    "value": "Bunga Tanjung",
    "postal_code": "36771"
  },
  {
    "id": 150702,
    "province_id": 15,
    "regency_id": 1507,
    "district_id": 150702,
    "value": "Nipah Panjang I",
    "postal_code": "36771"
  },
  {
    "id": 150702,
    "province_id": 15,
    "regency_id": 1507,
    "district_id": 150702,
    "value": "Nipah Panjang II",
    "postal_code": "36771"
  },
  {
    "id": 150702,
    "province_id": 15,
    "regency_id": 1507,
    "district_id": 150702,
    "value": "Pemusiran",
    "postal_code": "36771"
  },
  {
    "id": 150702,
    "province_id": 15,
    "regency_id": 1507,
    "district_id": 150702,
    "value": "Simpang Datuk",
    "postal_code": "36771"
  },
  {
    "id": 150702,
    "province_id": 15,
    "regency_id": 1507,
    "district_id": 150702,
    "value": "Simpang Jelita",
    "postal_code": "36771"
  },
  {
    "id": 150702,
    "province_id": 15,
    "regency_id": 1507,
    "district_id": 150702,
    "value": "Sungai Jeruk",
    "postal_code": "36771"
  },
  {
    "id": 150702,
    "province_id": 15,
    "regency_id": 1507,
    "district_id": 150702,
    "value": "Sungai Raya",
    "postal_code": "36771"
  },
  {
    "id": 150702,
    "province_id": 15,
    "regency_id": 1507,
    "district_id": 150702,
    "value": "Sungai Tering",
    "postal_code": "36771"
  },
  {
    "id": 150702,
    "province_id": 15,
    "regency_id": 1507,
    "district_id": 150702,
    "value": "Teluk Kijing",
    "postal_code": "36771"
  }
]