[
  {
    "id": 820702,
    "province_id": 82,
    "regency_id": 8207,
    "district_id": 820702,
    "value": "Aru Irian",
    "postal_code": "97770"
  },
  {
    "id": 820702,
    "province_id": 82,
    "regency_id": 8207,
    "district_id": 820702,
    "value": "Bobula",
    "postal_code": "97770"
  },
  {
    "id": 820702,
    "province_id": 82,
    "regency_id": 8207,
    "district_id": 820702,
    "value": "Cio Dalam",
    "postal_code": "97770"
  },
  {
    "id": 820702,
    "province_id": 82,
    "regency_id": 8207,
    "district_id": 820702,
    "value": "Cio Gerong",
    "postal_code": "97770"
  },
  {
    "id": 820702,
    "province_id": 82,
    "regency_id": 8207,
    "district_id": 820702,
    "value": "Cio Maloleo",
    "postal_code": "97770"
  },
  {
    "id": 820702,
    "province_id": 82,
    "regency_id": 8207,
    "district_id": 820702,
    "value": "Cucumare",
    "postal_code": "97770"
  },
  {
    "id": 820702,
    "province_id": 82,
    "regency_id": 8207,
    "district_id": 820702,
    "value": "Ngele Ngele Besar",
    "postal_code": "97770"
  },
  {
    "id": 820702,
    "province_id": 82,
    "regency_id": 8207,
    "district_id": 820702,
    "value": "Ngele Ngele Kecil",
    "postal_code": "97770"
  },
  {
    "id": 820702,
    "province_id": 82,
    "regency_id": 8207,
    "district_id": 820702,
    "value": "Raja",
    "postal_code": "97770"
  },
  {
    "id": 820702,
    "province_id": 82,
    "regency_id": 8207,
    "district_id": 820702,
    "value": "Tiley (Tiley Kusu)",
    "postal_code": "97770"
  },
  {
    "id": 820702,
    "province_id": 82,
    "regency_id": 8207,
    "district_id": 820702,
    "value": "Tiley Pantai",
    "postal_code": "97770"
  },
  {
    "id": 820702,
    "province_id": 82,
    "regency_id": 8207,
    "district_id": 820702,
    "value": "Tutuhu (Tuthu)",
    "postal_code": "97770"
  },
  {
    "id": 820702,
    "province_id": 82,
    "regency_id": 8207,
    "district_id": 820702,
    "value": "Usbar Pantai",
    "postal_code": "97770"
  },
  {
    "id": 820702,
    "province_id": 82,
    "regency_id": 8207,
    "district_id": 820702,
    "value": "Waringin",
    "postal_code": "97770"
  },
  {
    "id": 820702,
    "province_id": 82,
    "regency_id": 8207,
    "district_id": 820702,
    "value": "Wayabula",
    "postal_code": "97770"
  }
]