[
  {
    "id": 332207,
    "province_id": 33,
    "regency_id": 3322,
    "district_id": 332207,
    "value": "Banyubiru",
    "postal_code": "50664"
  },
  {
    "id": 332207,
    "province_id": 33,
    "regency_id": 3322,
    "district_id": 332207,
    "value": "Gedong",
    "postal_code": "50664"
  },
  {
    "id": 332207,
    "province_id": 33,
    "regency_id": 3322,
    "district_id": 332207,
    "value": "Kebondowo",
    "postal_code": "50664"
  },
  {
    "id": 332207,
    "province_id": 33,
    "regency_id": 3322,
    "district_id": 332207,
    "value": "Kebumen",
    "postal_code": "50664"
  },
  {
    "id": 332207,
    "province_id": 33,
    "regency_id": 3322,
    "district_id": 332207,
    "value": "Kemambang",
    "postal_code": "50664"
  },
  {
    "id": 332207,
    "province_id": 33,
    "regency_id": 3322,
    "district_id": 332207,
    "value": "Ngrapah",
    "postal_code": "50664"
  },
  {
    "id": 332207,
    "province_id": 33,
    "regency_id": 3322,
    "district_id": 332207,
    "value": "Rowoboni",
    "postal_code": "50664"
  },
  {
    "id": 332207,
    "province_id": 33,
    "regency_id": 3322,
    "district_id": 332207,
    "value": "Sepakung",
    "postal_code": "50664"
  },
  {
    "id": 332207,
    "province_id": 33,
    "regency_id": 3322,
    "district_id": 332207,
    "value": "Tegaron",
    "postal_code": "50664"
  },
  {
    "id": 332207,
    "province_id": 33,
    "regency_id": 3322,
    "district_id": 332207,
    "value": "Wirogomo",
    "postal_code": "50664"
  }
]