[
  {
    "id": 160212,
    "province_id": 16,
    "regency_id": 1602,
    "district_id": 160212,
    "value": "Bangsal",
    "postal_code": "30654"
  },
  {
    "id": 160212,
    "province_id": 16,
    "regency_id": 1602,
    "district_id": 160212,
    "value": "Jermun",
    "postal_code": "30654"
  },
  {
    "id": 160212,
    "province_id": 16,
    "regency_id": 1602,
    "district_id": 160212,
    "value": "Jungkal",
    "postal_code": "30654"
  },
  {
    "id": 160212,
    "province_id": 16,
    "regency_id": 1602,
    "district_id": 160212,
    "value": "Kandis",
    "postal_code": "30654"
  },
  {
    "id": 160212,
    "province_id": 16,
    "regency_id": 1602,
    "district_id": 160212,
    "value": "Keman",
    "postal_code": "30654"
  },
  {
    "id": 160212,
    "province_id": 16,
    "regency_id": 1602,
    "district_id": 160212,
    "value": "Keman Baru",
    "postal_code": "30654"
  },
  {
    "id": 160212,
    "province_id": 16,
    "regency_id": 1602,
    "district_id": 160212,
    "value": "Kuro",
    "postal_code": "30654"
  },
  {
    "id": 160212,
    "province_id": 16,
    "regency_id": 1602,
    "district_id": 160212,
    "value": "Manggaris (Menggeris)",
    "postal_code": "30654"
  },
  {
    "id": 160212,
    "province_id": 16,
    "regency_id": 1602,
    "district_id": 160212,
    "value": "Pampangan",
    "postal_code": "30654"
  },
  {
    "id": 160212,
    "province_id": 16,
    "regency_id": 1602,
    "district_id": 160212,
    "value": "Pulau Betung",
    "postal_code": "30654"
  },
  {
    "id": 160212,
    "province_id": 16,
    "regency_id": 1602,
    "district_id": 160212,
    "value": "Pulau Layang",
    "postal_code": "30654"
  },
  {
    "id": 160212,
    "province_id": 16,
    "regency_id": 1602,
    "district_id": 160212,
    "value": "Secondong",
    "postal_code": "30654"
  },
  {
    "id": 160212,
    "province_id": 16,
    "regency_id": 1602,
    "district_id": 160212,
    "value": "Sepang",
    "postal_code": "30654"
  },
  {
    "id": 160212,
    "province_id": 16,
    "regency_id": 1602,
    "district_id": 160212,
    "value": "Serdang",
    "postal_code": "30654"
  },
  {
    "id": 160212,
    "province_id": 16,
    "regency_id": 1602,
    "district_id": 160212,
    "value": "Serimenang",
    "postal_code": "30654"
  },
  {
    "id": 160212,
    "province_id": 16,
    "regency_id": 1602,
    "district_id": 160212,
    "value": "Sri Mulya",
    "postal_code": "30654"
  },
  {
    "id": 160212,
    "province_id": 16,
    "regency_id": 1602,
    "district_id": 160212,
    "value": "Tanjung Kemang",
    "postal_code": "30654"
  },
  {
    "id": 160212,
    "province_id": 16,
    "regency_id": 1602,
    "district_id": 160212,
    "value": "Tapus",
    "postal_code": "30654"
  },
  {
    "id": 160212,
    "province_id": 16,
    "regency_id": 1602,
    "district_id": 160212,
    "value": "Ulak Depati",
    "postal_code": "30654"
  },
  {
    "id": 160212,
    "province_id": 16,
    "regency_id": 1602,
    "district_id": 160212,
    "value": "Ulak Kemang",
    "postal_code": "30654"
  },
  {
    "id": 160212,
    "province_id": 16,
    "regency_id": 1602,
    "district_id": 160212,
    "value": "Ulak Kemang Baru",
    "postal_code": "30654"
  },
  {
    "id": 160212,
    "province_id": 16,
    "regency_id": 1602,
    "district_id": 160212,
    "value": "Ulak Pianggu",
    "postal_code": "30654"
  }
]