[
  {
    "id": 6310032012,
    "province_id": 63,
    "regency_id": 6310,
    "district_id": 631003,
    "value": "Batu Meranti",
    "postal_code": "72274"
  },
  {
    "id": 6310032016,
    "province_id": 63,
    "regency_id": 6310,
    "district_id": 631003,
    "value": "Biduri Bersujud",
    "postal_code": "72274"
  },
  {
    "id": 6310032019,
    "province_id": 63,
    "regency_id": 6310,
    "district_id": 631003,
    "value": "Damar Indah",
    "postal_code": "72274"
  },
  {
    "id": 6310032010,
    "province_id": 63,
    "regency_id": 6310,
    "district_id": 631003,
    "value": "Dwi Marga Utama",
    "postal_code": "72274"
  },
  {
    "id": 6310032011,
    "province_id": 63,
    "regency_id": 6310,
    "district_id": 631003,
    "value": "Kerta Buana",
    "postal_code": "72274"
  },
  {
    "id": 6310032006,
    "province_id": 63,
    "regency_id": 6310,
    "district_id": 631003,
    "value": "Marga Mulya",
    "postal_code": "72274"
  },
  {
    "id": 6310032001,
    "province_id": 63,
    "regency_id": 6310,
    "district_id": 631003,
    "value": "Sari Mulya",
    "postal_code": "72274"
  },
  {
    "id": 6310032007,
    "province_id": 63,
    "regency_id": 6310,
    "district_id": 631003,
    "value": "Sari Utama",
    "postal_code": "72274"
  },
  {
    "id": 6310032004,
    "province_id": 63,
    "regency_id": 6310,
    "district_id": 631003,
    "value": "Sebamban Baru",
    "postal_code": "72274"
  },
  {
    "id": 6310032003,
    "province_id": 63,
    "regency_id": 6310,
    "district_id": 631003,
    "value": "Sebamban Lama",
    "postal_code": "72274"
  },
  {
    "id": 6310032015,
    "province_id": 63,
    "regency_id": 6310,
    "district_id": 631003,
    "value": "Sumber Makmur",
    "postal_code": "72274"
  },
  {
    "id": 6310032017,
    "province_id": 63,
    "regency_id": 6310,
    "district_id": 631003,
    "value": "Sumber Sari",
    "postal_code": "72274"
  },
  {
    "id": 6310032005,
    "province_id": 63,
    "regency_id": 6310,
    "district_id": 631003,
    "value": "Sungaidua Laut (Sungai Dua Laut)",
    "postal_code": "72274"
  },
  {
    "id": 6310032002,
    "province_id": 63,
    "regency_id": 6310,
    "district_id": 631003,
    "value": "Sungailoban (Sungai Loban)",
    "postal_code": "72274"
  },
  {
    "id": 6310032014,
    "province_id": 63,
    "regency_id": 6310,
    "district_id": 631003,
    "value": "Tri Martani",
    "postal_code": "72274"
  },
  {
    "id": 6310032008,
    "province_id": 63,
    "regency_id": 6310,
    "district_id": 631003,
    "value": "Tri Mulya",
    "postal_code": "72274"
  },
  {
    "id": 6310032018,
    "province_id": 63,
    "regency_id": 6310,
    "district_id": 631003,
    "value": "Wanasari",
    "postal_code": "72274"
  }
]