[
  {
    "id": 610320,
    "province_id": 61,
    "regency_id": 6103,
    "district_id": 610320,
    "value": "Balai Tinggi",
    "postal_code": "78571"
  },
  {
    "id": 610320,
    "province_id": 61,
    "regency_id": 6103,
    "district_id": 610320,
    "value": "Baru Lombak",
    "postal_code": "78571"
  },
  {
    "id": 610320,
    "province_id": 61,
    "regency_id": 6103,
    "district_id": 610320,
    "value": "Bhakti Jaya (Bakti Jaya)",
    "postal_code": "78571"
  },
  {
    "id": 610320,
    "province_id": 61,
    "regency_id": 6103,
    "district_id": 610320,
    "value": "Cupang",
    "postal_code": "78571"
  },
  {
    "id": 610320,
    "province_id": 61,
    "regency_id": 6103,
    "district_id": 610320,
    "value": "Enggadai",
    "postal_code": "78571"
  },
  {
    "id": 610320,
    "province_id": 61,
    "regency_id": 6103,
    "district_id": 610320,
    "value": "Harapan Makmur",
    "postal_code": "78571"
  },
  {
    "id": 610320,
    "province_id": 61,
    "regency_id": 6103,
    "district_id": 610320,
    "value": "Kuala Buayan",
    "postal_code": "78571"
  },
  {
    "id": 610320,
    "province_id": 61,
    "regency_id": 6103,
    "district_id": 610320,
    "value": "Kuala Rosan",
    "postal_code": "78571"
  },
  {
    "id": 610320,
    "province_id": 61,
    "regency_id": 6103,
    "district_id": 610320,
    "value": "Kunyil",
    "postal_code": "78571"
  },
  {
    "id": 610320,
    "province_id": 61,
    "regency_id": 6103,
    "district_id": 610320,
    "value": "Lalang",
    "postal_code": "78571"
  },
  {
    "id": 610320,
    "province_id": 61,
    "regency_id": 6103,
    "district_id": 610320,
    "value": "Melawi Makmur",
    "postal_code": "78571"
  },
  {
    "id": 610320,
    "province_id": 61,
    "regency_id": 6103,
    "district_id": 610320,
    "value": "Meliau Hilir",
    "postal_code": "78571"
  },
  {
    "id": 610320,
    "province_id": 61,
    "regency_id": 6103,
    "district_id": 610320,
    "value": "Meliau Hulu",
    "postal_code": "78571"
  },
  {
    "id": 610320,
    "province_id": 61,
    "regency_id": 6103,
    "district_id": 610320,
    "value": "Melobok",
    "postal_code": "78571"
  },
  {
    "id": 610320,
    "province_id": 61,
    "regency_id": 6103,
    "district_id": 610320,
    "value": "Meranggau",
    "postal_code": "78571"
  },
  {
    "id": 610320,
    "province_id": 61,
    "regency_id": 6103,
    "district_id": 610320,
    "value": "Mukti Jaya",
    "postal_code": "78571"
  },
  {
    "id": 610320,
    "province_id": 61,
    "regency_id": 6103,
    "district_id": 610320,
    "value": "Pampang Dua",
    "postal_code": "78571"
  },
  {
    "id": 610320,
    "province_id": 61,
    "regency_id": 6103,
    "district_id": 610320,
    "value": "Sei/Sungai Kembayau",
    "postal_code": "78571"
  },
  {
    "id": 610320,
    "province_id": 61,
    "regency_id": 6103,
    "district_id": 610320,
    "value": "Sungai Mayam (Sei / Sungai Mayan)",
    "postal_code": "78571"
  }
]