[
  {
    "id": 352112,
    "province_id": 35,
    "regency_id": 3521,
    "district_id": 352112,
    "value": "Banyubiru (Banyu Biru)",
    "postal_code": "63256"
  },
  {
    "id": 352112,
    "province_id": 35,
    "regency_id": 3521,
    "district_id": 352112,
    "value": "Gendingan",
    "postal_code": "63256"
  },
  {
    "id": 352112,
    "province_id": 35,
    "regency_id": 3521,
    "district_id": 352112,
    "value": "Karangbanyu (Karang Banyu)",
    "postal_code": "63256"
  },
  {
    "id": 352112,
    "province_id": 35,
    "regency_id": 3521,
    "district_id": 352112,
    "value": "Kauman",
    "postal_code": "63256"
  },
  {
    "id": 352112,
    "province_id": 35,
    "regency_id": 3521,
    "district_id": 352112,
    "value": "Kayutrejo",
    "postal_code": "63256"
  },
  {
    "id": 352112,
    "province_id": 35,
    "regency_id": 3521,
    "district_id": 352112,
    "value": "Kedunggudel",
    "postal_code": "63256"
  },
  {
    "id": 352112,
    "province_id": 35,
    "regency_id": 3521,
    "district_id": 352112,
    "value": "Sekaralas (Sekar Alas)",
    "postal_code": "63256"
  },
  {
    "id": 352112,
    "province_id": 35,
    "regency_id": 3521,
    "district_id": 352112,
    "value": "Sekarputih (Sekar Putih)",
    "postal_code": "63256"
  },
  {
    "id": 352112,
    "province_id": 35,
    "regency_id": 3521,
    "district_id": 352112,
    "value": "Sidolaju",
    "postal_code": "63256"
  },
  {
    "id": 352112,
    "province_id": 35,
    "regency_id": 3521,
    "district_id": 352112,
    "value": "Sidomakmur",
    "postal_code": "63256"
  },
  {
    "id": 352112,
    "province_id": 35,
    "regency_id": 3521,
    "district_id": 352112,
    "value": "Walikukun",
    "postal_code": "63256"
  },
  {
    "id": 352112,
    "province_id": 35,
    "regency_id": 3521,
    "district_id": 352112,
    "value": "Widodaren",
    "postal_code": "63256"
  }
]