[
  {
    "id": 330820,
    "province_id": 33,
    "regency_id": 3308,
    "district_id": 330820,
    "value": "Candiretno",
    "postal_code": "56195"
  },
  {
    "id": 330820,
    "province_id": 33,
    "regency_id": 3308,
    "district_id": 330820,
    "value": "Candisari",
    "postal_code": "56195"
  },
  {
    "id": 330820,
    "province_id": 33,
    "regency_id": 3308,
    "district_id": 330820,
    "value": "Donomulyo",
    "postal_code": "56195"
  },
  {
    "id": 330820,
    "province_id": 33,
    "regency_id": 3308,
    "district_id": 330820,
    "value": "Donorejo",
    "postal_code": "56195"
  },
  {
    "id": 330820,
    "province_id": 33,
    "regency_id": 3308,
    "district_id": 330820,
    "value": "Girikulon",
    "postal_code": "56195"
  },
  {
    "id": 330820,
    "province_id": 33,
    "regency_id": 3308,
    "district_id": 330820,
    "value": "Jambewangi",
    "postal_code": "56195"
  },
  {
    "id": 330820,
    "province_id": 33,
    "regency_id": 3308,
    "district_id": 330820,
    "value": "Kalijoso",
    "postal_code": "56195"
  },
  {
    "id": 330820,
    "province_id": 33,
    "regency_id": 3308,
    "district_id": 330820,
    "value": "Karangkajen",
    "postal_code": "56195"
  },
  {
    "id": 330820,
    "province_id": 33,
    "regency_id": 3308,
    "district_id": 330820,
    "value": "Krincing",
    "postal_code": "56195"
  },
  {
    "id": 330820,
    "province_id": 33,
    "regency_id": 3308,
    "district_id": 330820,
    "value": "Madusari",
    "postal_code": "56195"
  },
  {
    "id": 330820,
    "province_id": 33,
    "regency_id": 3308,
    "district_id": 330820,
    "value": "Madyocondro (Madiocondro)",
    "postal_code": "56195"
  },
  {
    "id": 330820,
    "province_id": 33,
    "regency_id": 3308,
    "district_id": 330820,
    "value": "Ngabean",
    "postal_code": "56195"
  },
  {
    "id": 330820,
    "province_id": 33,
    "regency_id": 3308,
    "district_id": 330820,
    "value": "Ngadirojo",
    "postal_code": "56195"
  },
  {
    "id": 330820,
    "province_id": 33,
    "regency_id": 3308,
    "district_id": 330820,
    "value": "Pancuranmas",
    "postal_code": "56195"
  },
  {
    "id": 330820,
    "province_id": 33,
    "regency_id": 3308,
    "district_id": 330820,
    "value": "Payaman",
    "postal_code": "56195"
  },
  {
    "id": 330820,
    "province_id": 33,
    "regency_id": 3308,
    "district_id": 330820,
    "value": "Pirikan",
    "postal_code": "56195"
  },
  {
    "id": 330820,
    "province_id": 33,
    "regency_id": 3308,
    "district_id": 330820,
    "value": "Pucang",
    "postal_code": "56195"
  },
  {
    "id": 330820,
    "province_id": 33,
    "regency_id": 3308,
    "district_id": 330820,
    "value": "Purwosari",
    "postal_code": "56195"
  },
  {
    "id": 330820,
    "province_id": 33,
    "regency_id": 3308,
    "district_id": 330820,
    "value": "Secang",
    "postal_code": "56195"
  },
  {
    "id": 330820,
    "province_id": 33,
    "regency_id": 3308,
    "district_id": 330820,
    "value": "Sidomulyo",
    "postal_code": "56195"
  }
]