[
  {
    "id": 6209022020,
    "province_id": 62,
    "regency_id": 6209,
    "district_id": 620902,
    "value": "Hulu Jojabo",
    "postal_code": "74665"
  },
  {
    "id": 6209022014,
    "province_id": 62,
    "regency_id": 6209,
    "district_id": 620902,
    "value": "Kubung",
    "postal_code": "74665"
  },
  {
    "id": 6209021017,
    "province_id": 62,
    "regency_id": 6209,
    "district_id": 620902,
    "value": "Kudangan",
    "postal_code": "74665"
  },
  {
    "id": 6209022012,
    "province_id": 62,
    "regency_id": 6209,
    "district_id": 620902,
    "value": "Landau Kantu",
    "postal_code": "74665"
  },
  {
    "id": 6209022013,
    "province_id": 62,
    "regency_id": 6209,
    "district_id": 620902,
    "value": "Lopus",
    "postal_code": "74665"
  },
  {
    "id": 6209022010,
    "province_id": 62,
    "regency_id": 6209,
    "district_id": 620902,
    "value": "Nyalang",
    "postal_code": "74665"
  },
  {
    "id": 6209022016,
    "province_id": 62,
    "regency_id": 6209,
    "district_id": 620902,
    "value": "Penyombaan (Penyobaan)",
    "postal_code": "74665"
  },
  {
    "id": 6209022004,
    "province_id": 62,
    "regency_id": 6209,
    "district_id": 620902,
    "value": "Riam Panahan (Riam Penahan)",
    "postal_code": "74665"
  },
  {
    "id": 6209022011,
    "province_id": 62,
    "regency_id": 6209,
    "district_id": 620902,
    "value": "Riam Tinggi",
    "postal_code": "74665"
  },
  {
    "id": 6209022015,
    "province_id": 62,
    "regency_id": 6209,
    "district_id": 620902,
    "value": "Sekombulan",
    "postal_code": "74665"
  },
  {
    "id": 6209022005,
    "province_id": 62,
    "regency_id": 6209,
    "district_id": 620902,
    "value": "Sepoyu (Sepoyo)",
    "postal_code": "74665"
  }
]