[
  {
    "id": 352421,
    "province_id": 35,
    "regency_id": 3524,
    "district_id": 352421,
    "value": "Badurame",
    "postal_code": "62252"
  },
  {
    "id": 352421,
    "province_id": 35,
    "regency_id": 3524,
    "district_id": 352421,
    "value": "Balun",
    "postal_code": "62252"
  },
  {
    "id": 352421,
    "province_id": 35,
    "regency_id": 3524,
    "district_id": 352421,
    "value": "Bambang",
    "postal_code": "62252"
  },
  {
    "id": 352421,
    "province_id": 35,
    "regency_id": 3524,
    "district_id": 352421,
    "value": "Gedungboyountung (Gedongboyo Untung)",
    "postal_code": "62252"
  },
  {
    "id": 352421,
    "province_id": 35,
    "regency_id": 3524,
    "district_id": 352421,
    "value": "Geger",
    "postal_code": "62252"
  },
  {
    "id": 352421,
    "province_id": 35,
    "regency_id": 3524,
    "district_id": 352421,
    "value": "Karangwedoro",
    "postal_code": "62252"
  },
  {
    "id": 352421,
    "province_id": 35,
    "regency_id": 3524,
    "district_id": 352421,
    "value": "Keben",
    "postal_code": "62252"
  },
  {
    "id": 352421,
    "province_id": 35,
    "regency_id": 3524,
    "district_id": 352421,
    "value": "Kemlagigede",
    "postal_code": "62252"
  },
  {
    "id": 352421,
    "province_id": 35,
    "regency_id": 3524,
    "district_id": 352421,
    "value": "Kemlagilor (Kemlaggi Lor)",
    "postal_code": "62252"
  },
  {
    "id": 352421,
    "province_id": 35,
    "regency_id": 3524,
    "district_id": 352421,
    "value": "Kepudibener",
    "postal_code": "62252"
  },
  {
    "id": 352421,
    "province_id": 35,
    "regency_id": 3524,
    "district_id": 352421,
    "value": "Ngujungrejo",
    "postal_code": "62252"
  },
  {
    "id": 352421,
    "province_id": 35,
    "regency_id": 3524,
    "district_id": 352421,
    "value": "Pomahanjanggan (Pomahan Janggan)",
    "postal_code": "62252"
  },
  {
    "id": 352421,
    "province_id": 35,
    "regency_id": 3524,
    "district_id": 352421,
    "value": "Putatkumpul",
    "postal_code": "62252"
  },
  {
    "id": 352421,
    "province_id": 35,
    "regency_id": 3524,
    "district_id": 352421,
    "value": "Sukoanyar",
    "postal_code": "62252"
  },
  {
    "id": 352421,
    "province_id": 35,
    "regency_id": 3524,
    "district_id": 352421,
    "value": "Sukorejo",
    "postal_code": "62252"
  },
  {
    "id": 352421,
    "province_id": 35,
    "regency_id": 3524,
    "district_id": 352421,
    "value": "Tambakploso",
    "postal_code": "62252"
  },
  {
    "id": 352421,
    "province_id": 35,
    "regency_id": 3524,
    "district_id": 352421,
    "value": "Tawangrejo",
    "postal_code": "62252"
  },
  {
    "id": 352421,
    "province_id": 35,
    "regency_id": 3524,
    "district_id": 352421,
    "value": "Turi",
    "postal_code": "62252"
  },
  {
    "id": 352421,
    "province_id": 35,
    "regency_id": 3524,
    "district_id": 352421,
    "value": "Wangunrejo",
    "postal_code": "62252"
  }
]