[
  {
    "id": 3524092001,
    "province_id": 35,
    "regency_id": 3524,
    "district_id": 352409,
    "value": "Besur",
    "postal_code": "62260"
  },
  {
    "id": 3524092020,
    "province_id": 35,
    "regency_id": 3524,
    "district_id": 352409,
    "value": "Bugel",
    "postal_code": "62260"
  },
  {
    "id": 3524092018,
    "province_id": 35,
    "regency_id": 3524,
    "district_id": 352409,
    "value": "Bulutengger",
    "postal_code": "62260"
  },
  {
    "id": 3524092008,
    "province_id": 35,
    "regency_id": 3524,
    "district_id": 352409,
    "value": "Jugo",
    "postal_code": "62260"
  },
  {
    "id": 3524092015,
    "province_id": 35,
    "regency_id": 3524,
    "district_id": 352409,
    "value": "Karang",
    "postal_code": "62260"
  },
  {
    "id": 3524092006,
    "province_id": 35,
    "regency_id": 3524,
    "district_id": 352409,
    "value": "Kebalankulon (Kebalan Kulon)",
    "postal_code": "62260"
  },
  {
    "id": 3524092016,
    "province_id": 35,
    "regency_id": 3524,
    "district_id": 352409,
    "value": "Kembangan",
    "postal_code": "62260"
  },
  {
    "id": 3524092003,
    "province_id": 35,
    "regency_id": 3524,
    "district_id": 352409,
    "value": "Kendal",
    "postal_code": "62260"
  },
  {
    "id": 3524092004,
    "province_id": 35,
    "regency_id": 3524,
    "district_id": 352409,
    "value": "Keting",
    "postal_code": "62260"
  },
  {
    "id": 3524092007,
    "province_id": 35,
    "regency_id": 3524,
    "district_id": 352409,
    "value": "Kudikan",
    "postal_code": "62260"
  },
  {
    "id": 3524092011,
    "province_id": 35,
    "regency_id": 3524,
    "district_id": 352409,
    "value": "Latek",
    "postal_code": "62260"
  },
  {
    "id": 3524092009,
    "province_id": 35,
    "regency_id": 3524,
    "district_id": 352409,
    "value": "Manyar",
    "postal_code": "62260"
  },
  {
    "id": 3524092012,
    "province_id": 35,
    "regency_id": 3524,
    "district_id": 352409,
    "value": "Miru",
    "postal_code": "62260"
  },
  {
    "id": 3524092014,
    "province_id": 35,
    "regency_id": 3524,
    "district_id": 352409,
    "value": "Moro",
    "postal_code": "62260"
  },
  {
    "id": 3524092005,
    "province_id": 35,
    "regency_id": 3524,
    "district_id": 352409,
    "value": "Ngarum",
    "postal_code": "62260"
  },
  {
    "id": 3524092019,
    "province_id": 35,
    "regency_id": 3524,
    "district_id": 352409,
    "value": "Porodeso",
    "postal_code": "62260"
  },
  {
    "id": 3524092013,
    "province_id": 35,
    "regency_id": 3524,
    "district_id": 352409,
    "value": "Sekaran",
    "postal_code": "62260"
  },
  {
    "id": 3524092017,
    "province_id": 35,
    "regency_id": 3524,
    "district_id": 352409,
    "value": "Siman",
    "postal_code": "62260"
  },
  {
    "id": 3524092021,
    "province_id": 35,
    "regency_id": 3524,
    "district_id": 352409,
    "value": "Sungegeneng",
    "postal_code": "62260"
  },
  {
    "id": 3524092002,
    "province_id": 35,
    "regency_id": 3524,
    "district_id": 352409,
    "value": "Titik",
    "postal_code": "62260"
  },
  {
    "id": 3524092010,
    "province_id": 35,
    "regency_id": 3524,
    "district_id": 352409,
    "value": "Trosono",
    "postal_code": "62260"
  }
]