[
  {
    "id": 360327,
    "province_id": 36,
    "regency_id": 3603,
    "district_id": 360327,
    "value": "Benda",
    "postal_code": "15612"
  },
  {
    "id": 360327,
    "province_id": 36,
    "regency_id": 3603,
    "district_id": 360327,
    "value": "Bunar",
    "postal_code": "15612"
  },
  {
    "id": 360327,
    "province_id": 36,
    "regency_id": 3603,
    "district_id": 360327,
    "value": "Buniayu (Buni Ayu)",
    "postal_code": "15612"
  },
  {
    "id": 360327,
    "province_id": 36,
    "regency_id": 3603,
    "district_id": 360327,
    "value": "Kaliasin (Kali Asin)",
    "postal_code": "15612"
  },
  {
    "id": 360327,
    "province_id": 36,
    "regency_id": 3603,
    "district_id": 360327,
    "value": "Kubang",
    "postal_code": "15612"
  },
  {
    "id": 360327,
    "province_id": 36,
    "regency_id": 3603,
    "district_id": 360327,
    "value": "Merak",
    "postal_code": "15612"
  },
  {
    "id": 360327,
    "province_id": 36,
    "regency_id": 3603,
    "district_id": 360327,
    "value": "Parahu",
    "postal_code": "15612"
  },
  {
    "id": 360327,
    "province_id": 36,
    "regency_id": 3603,
    "district_id": 360327,
    "value": "Sukamulya (Suka Mulya)",
    "postal_code": "15612"
  }
]