[
  {
    "id": 351105,
    "province_id": 35,
    "regency_id": 3511,
    "district_id": 351105,
    "value": "Alas Sumur (Alassumur)",
    "postal_code": "68271"
  },
  {
    "id": 351105,
    "province_id": 35,
    "regency_id": 3511,
    "district_id": 351105,
    "value": "Kejayan",
    "postal_code": "68271"
  },
  {
    "id": 351105,
    "province_id": 35,
    "regency_id": 3511,
    "district_id": 351105,
    "value": "Mangli",
    "postal_code": "68271"
  },
  {
    "id": 351105,
    "province_id": 35,
    "regency_id": 3511,
    "district_id": 351105,
    "value": "Maskuning Kulon",
    "postal_code": "68271"
  },
  {
    "id": 351105,
    "province_id": 35,
    "regency_id": 3511,
    "district_id": 351105,
    "value": "Maskuning Wetan",
    "postal_code": "68271"
  },
  {
    "id": 351105,
    "province_id": 35,
    "regency_id": 3511,
    "district_id": 351105,
    "value": "Mengok",
    "postal_code": "68271"
  },
  {
    "id": 351105,
    "province_id": 35,
    "regency_id": 3511,
    "district_id": 351105,
    "value": "Padasan",
    "postal_code": "68271"
  },
  {
    "id": 351105,
    "province_id": 35,
    "regency_id": 3511,
    "district_id": 351105,
    "value": "Randu Cangkring (Randucangkring)",
    "postal_code": "68271"
  },
  {
    "id": 351105,
    "province_id": 35,
    "regency_id": 3511,
    "district_id": 351105,
    "value": "Suko Kerto (Sukokerto)",
    "postal_code": "68271"
  },
  {
    "id": 351105,
    "province_id": 35,
    "regency_id": 3511,
    "district_id": 351105,
    "value": "Sukodono",
    "postal_code": "68271"
  },
  {
    "id": 351105,
    "province_id": 35,
    "regency_id": 3511,
    "district_id": 351105,
    "value": "Sukowono",
    "postal_code": "68271"
  }
]