[
  {
    "id": 610622,
    "province_id": 61,
    "regency_id": 6106,
    "district_id": 610622,
    "value": "Jongkong Hulu",
    "postal_code": "78775"
  },
  {
    "id": 610622,
    "province_id": 61,
    "regency_id": 6106,
    "district_id": 610622,
    "value": "Kerengas",
    "postal_code": "78775"
  },
  {
    "id": 610622,
    "province_id": 61,
    "regency_id": 6106,
    "district_id": 610622,
    "value": "Laut Tawang",
    "postal_code": "78775"
  },
  {
    "id": 610622,
    "province_id": 61,
    "regency_id": 6106,
    "district_id": 610622,
    "value": "Lubuk Pengail",
    "postal_code": "78775"
  },
  {
    "id": 610622,
    "province_id": 61,
    "regency_id": 6106,
    "district_id": 610622,
    "value": "Madang Permai",
    "postal_code": "78775"
  },
  {
    "id": 610622,
    "province_id": 61,
    "regency_id": 6106,
    "district_id": 610622,
    "value": "Mantan",
    "postal_code": "78775"
  },
  {
    "id": 610622,
    "province_id": 61,
    "regency_id": 6106,
    "district_id": 610622,
    "value": "Menapar",
    "postal_code": "78775"
  },
  {
    "id": 610622,
    "province_id": 61,
    "regency_id": 6106,
    "district_id": 610622,
    "value": "Mensusai",
    "postal_code": "78775"
  },
  {
    "id": 610622,
    "province_id": 61,
    "regency_id": 6106,
    "district_id": 610622,
    "value": "Nanga Suhaid",
    "postal_code": "78775"
  },
  {
    "id": 610622,
    "province_id": 61,
    "regency_id": 6106,
    "district_id": 610622,
    "value": "Tanjung (Tanjung Kapuas)",
    "postal_code": "78775"
  },
  {
    "id": 610622,
    "province_id": 61,
    "regency_id": 6106,
    "district_id": 610622,
    "value": "Tanjung Harapan",
    "postal_code": "78775"
  }
]