[
  {
    "id": 7105162005,
    "province_id": 71,
    "regency_id": 7105,
    "district_id": 710516,
    "value": "Bojonegoro",
    "postal_code": "95357"
  },
  {
    "id": 7105162007,
    "province_id": 71,
    "regency_id": 7105,
    "district_id": 710516,
    "value": "Kinamang",
    "postal_code": "95357"
  },
  {
    "id": 7105162009,
    "province_id": 71,
    "regency_id": 7105,
    "district_id": 710516,
    "value": "Kinamang Satu (Kinamang I)",
    "postal_code": "95357"
  },
  {
    "id": 7105162003,
    "province_id": 71,
    "regency_id": 7105,
    "district_id": 710516,
    "value": "Kinaweruan",
    "postal_code": "95357"
  },
  {
    "id": 7105162004,
    "province_id": 71,
    "regency_id": 7105,
    "district_id": 710516,
    "value": "Liningaan",
    "postal_code": "95357"
  },
  {
    "id": 7105162002,
    "province_id": 71,
    "regency_id": 7105,
    "district_id": 710516,
    "value": "Lowian",
    "postal_code": "95357"
  },
  {
    "id": 7105162010,
    "province_id": 71,
    "regency_id": 7105,
    "district_id": 710516,
    "value": "Lowian Satu",
    "postal_code": "95357"
  },
  {
    "id": 7105162006,
    "province_id": 71,
    "regency_id": 7105,
    "district_id": 710516,
    "value": "Tambelang",
    "postal_code": "95357"
  },
  {
    "id": 7105162008,
    "province_id": 71,
    "regency_id": 7105,
    "district_id": 710516,
    "value": "Temboan",
    "postal_code": "95357"
  },
  {
    "id": 7105162001,
    "province_id": 71,
    "regency_id": 7105,
    "district_id": 710516,
    "value": "Tumani",
    "postal_code": "95357"
  },
  {
    "id": 7105162012,
    "province_id": 71,
    "regency_id": 7105,
    "district_id": 710516,
    "value": "Tumani Selatan",
    "postal_code": "95357"
  },
  {
    "id": 7105162011,
    "province_id": 71,
    "regency_id": 7105,
    "district_id": 710516,
    "value": "Tumani Utara",
    "postal_code": "95357"
  }
]