[
  {
    "id": 3317012015,
    "province_id": 33,
    "regency_id": 3317,
    "district_id": 331701,
    "value": "Bogorejo",
    "postal_code": "59253"
  },
  {
    "id": 3317012011,
    "province_id": 33,
    "regency_id": 3317,
    "district_id": 331701,
    "value": "Grawan",
    "postal_code": "59253"
  },
  {
    "id": 3317012010,
    "province_id": 33,
    "regency_id": 3317,
    "district_id": 331701,
    "value": "Jadi",
    "postal_code": "59253"
  },
  {
    "id": 3317012008,
    "province_id": 33,
    "regency_id": 3317,
    "district_id": 331701,
    "value": "Jatihadi",
    "postal_code": "59253"
  },
  {
    "id": 3317012006,
    "province_id": 33,
    "regency_id": 3317,
    "district_id": 331701,
    "value": "Kedung Tulup (Kedungtulup)",
    "postal_code": "59253"
  },
  {
    "id": 3317012017,
    "province_id": 33,
    "regency_id": 3317,
    "district_id": 331701,
    "value": "Kedungasem",
    "postal_code": "59253"
  },
  {
    "id": 3317012005,
    "province_id": 33,
    "regency_id": 3317,
    "district_id": 331701,
    "value": "Krikilan",
    "postal_code": "59253"
  },
  {
    "id": 3317012002,
    "province_id": 33,
    "regency_id": 3317,
    "district_id": 331701,
    "value": "Logede",
    "postal_code": "59253"
  },
  {
    "id": 3317012004,
    "province_id": 33,
    "regency_id": 3317,
    "district_id": 331701,
    "value": "Logung",
    "postal_code": "59253"
  },
  {
    "id": 3317012016,
    "province_id": 33,
    "regency_id": 3317,
    "district_id": 331701,
    "value": "Megulung",
    "postal_code": "59253"
  },
  {
    "id": 3317012003,
    "province_id": 33,
    "regency_id": 3317,
    "district_id": 331701,
    "value": "Pelemsari",
    "postal_code": "59253"
  },
  {
    "id": 3317012007,
    "province_id": 33,
    "regency_id": 3317,
    "district_id": 331701,
    "value": "Polbayem",
    "postal_code": "59253"
  },
  {
    "id": 3317012012,
    "province_id": 33,
    "regency_id": 3317,
    "district_id": 331701,
    "value": "Randuagung",
    "postal_code": "59253"
  },
  {
    "id": 3317012001,
    "province_id": 33,
    "regency_id": 3317,
    "district_id": 331701,
    "value": "Ronggo Mulyo (Ronggomulyo)",
    "postal_code": "59253"
  },
  {
    "id": 3317012018,
    "province_id": 33,
    "regency_id": 3317,
    "district_id": 331701,
    "value": "Sekarsari",
    "postal_code": "59253"
  },
  {
    "id": 3317012013,
    "province_id": 33,
    "regency_id": 3317,
    "district_id": 331701,
    "value": "Sukorejo",
    "postal_code": "59253"
  },
  {
    "id": 3317012009,
    "province_id": 33,
    "regency_id": 3317,
    "district_id": 331701,
    "value": "Sumber",
    "postal_code": "59253"
  },
  {
    "id": 3317012014,
    "province_id": 33,
    "regency_id": 3317,
    "district_id": 331701,
    "value": "Tlogotunggal",
    "postal_code": "59253"
  }
]