[
  {
    "id": 720227,
    "province_id": 72,
    "regency_id": 7202,
    "district_id": 720227,
    "value": "Kuku",
    "postal_code": "94667"
  },
  {
    "id": 720227,
    "province_id": 72,
    "regency_id": 7202,
    "district_id": 720227,
    "value": "Lena",
    "postal_code": "94667"
  },
  {
    "id": 720227,
    "province_id": 72,
    "regency_id": 7202,
    "district_id": 720227,
    "value": "Panjoka",
    "postal_code": "94667"
  },
  {
    "id": 720227,
    "province_id": 72,
    "regency_id": 7202,
    "district_id": 720227,
    "value": "Petirodongi",
    "postal_code": "94667"
  },
  {
    "id": 720227,
    "province_id": 72,
    "regency_id": 7202,
    "district_id": 720227,
    "value": "Sangira",
    "postal_code": "94667"
  },
  {
    "id": 720227,
    "province_id": 72,
    "regency_id": 7202,
    "district_id": 720227,
    "value": "Saojo",
    "postal_code": "94667"
  },
  {
    "id": 720227,
    "province_id": 72,
    "regency_id": 7202,
    "district_id": 720227,
    "value": "Sawidago",
    "postal_code": "94667"
  },
  {
    "id": 720227,
    "province_id": 72,
    "regency_id": 7202,
    "district_id": 720227,
    "value": "Sulewana",
    "postal_code": "94667"
  },
  {
    "id": 720227,
    "province_id": 72,
    "regency_id": 7202,
    "district_id": 720227,
    "value": "Tendeadongi",
    "postal_code": "94667"
  },
  {
    "id": 720227,
    "province_id": 72,
    "regency_id": 7202,
    "district_id": 720227,
    "value": "Uelincu",
    "postal_code": "94667"
  }
]