[
  {
    "id": 530617,
    "province_id": 53,
    "regency_id": 5306,
    "district_id": 530617,
    "value": "Adonara",
    "postal_code": "86262"
  },
  {
    "id": 530617,
    "province_id": 53,
    "regency_id": 5306,
    "district_id": 530617,
    "value": "Kolilanang",
    "postal_code": "86262"
  },
  {
    "id": 530617,
    "province_id": 53,
    "regency_id": 5306,
    "district_id": 530617,
    "value": "Kolimasang",
    "postal_code": "86262"
  },
  {
    "id": 530617,
    "province_id": 53,
    "regency_id": 5306,
    "district_id": 530617,
    "value": "Kolipetung",
    "postal_code": "86262"
  },
  {
    "id": 530617,
    "province_id": 53,
    "regency_id": 5306,
    "district_id": 530617,
    "value": "Lamahoda",
    "postal_code": "86262"
  },
  {
    "id": 530617,
    "province_id": 53,
    "regency_id": 5306,
    "district_id": 530617,
    "value": "Nisa Nulan (Nisanulan)",
    "postal_code": "86262"
  },
  {
    "id": 530617,
    "province_id": 53,
    "regency_id": 5306,
    "district_id": 530617,
    "value": "Sagu",
    "postal_code": "86262"
  },
  {
    "id": 530617,
    "province_id": 53,
    "regency_id": 5306,
    "district_id": 530617,
    "value": "Tikatukan (Tikatukang)",
    "postal_code": "86262"
  }
]