[
  {
    "id": 7318202003,
    "province_id": 73,
    "regency_id": 7318,
    "district_id": 731820,
    "value": "Banga",
    "postal_code": "91860"
  },
  {
    "id": 7318202009,
    "province_id": 73,
    "regency_id": 7318,
    "district_id": 731820,
    "value": "Batusura' (Batu Sura)",
    "postal_code": "91860"
  },
  {
    "id": 7318202010,
    "province_id": 73,
    "regency_id": 7318,
    "district_id": 731820,
    "value": "Bua ' Tarrung",
    "postal_code": "91860"
  },
  {
    "id": 7318202007,
    "province_id": 73,
    "regency_id": 7318,
    "district_id": 731820,
    "value": "Buri'",
    "postal_code": "91860"
  },
  {
    "id": 7318202012,
    "province_id": 73,
    "regency_id": 7318,
    "district_id": 731820,
    "value": "Kayuosing (Kayu Osing / Kayosing)",
    "postal_code": "91860"
  },
  {
    "id": 7318202005,
    "province_id": 73,
    "regency_id": 7318,
    "district_id": 731820,
    "value": "Limbong",
    "postal_code": "91860"
  },
  {
    "id": 7318202008,
    "province_id": 73,
    "regency_id": 7318,
    "district_id": 731820,
    "value": "Maroson",
    "postal_code": "91860"
  },
  {
    "id": 7318202002,
    "province_id": 73,
    "regency_id": 7318,
    "district_id": 731820,
    "value": "Palesan",
    "postal_code": "91860"
  },
  {
    "id": 7318201013,
    "province_id": 73,
    "regency_id": 7318,
    "district_id": 731820,
    "value": "Rembon",
    "postal_code": "91860"
  },
  {
    "id": 7318202006,
    "province_id": 73,
    "regency_id": 7318,
    "district_id": 731820,
    "value": "Sarapeang",
    "postal_code": "91860"
  },
  {
    "id": 7318201001,
    "province_id": 73,
    "regency_id": 7318,
    "district_id": 731820,
    "value": "Talion",
    "postal_code": "91860"
  },
  {
    "id": 7318202011,
    "province_id": 73,
    "regency_id": 7318,
    "district_id": 731820,
    "value": "To'pao (To' Pao)",
    "postal_code": "91860"
  },
  {
    "id": 7318202004,
    "province_id": 73,
    "regency_id": 7318,
    "district_id": 731820,
    "value": "Ullin",
    "postal_code": "91860"
  }
]