[
  {
    "id": 110317,
    "province_id": 11,
    "regency_id": 1103,
    "district_id": 110317,
    "value": "Alue Bu Alue Lhok",
    "postal_code": "24440"
  },
  {
    "id": 110317,
    "province_id": 11,
    "regency_id": 1103,
    "district_id": 110317,
    "value": "Alue Bu Alue Nireh",
    "postal_code": "24440"
  },
  {
    "id": 110317,
    "province_id": 11,
    "regency_id": 1103,
    "district_id": 110317,
    "value": "Alue Bugeng",
    "postal_code": "24440"
  },
  {
    "id": 110317,
    "province_id": 11,
    "regency_id": 1103,
    "district_id": 110317,
    "value": "Alue Gureb (Alue Gurep)",
    "postal_code": "24440"
  },
  {
    "id": 110317,
    "province_id": 11,
    "regency_id": 1103,
    "district_id": 110317,
    "value": "Alue Tho",
    "postal_code": "24440"
  },
  {
    "id": 110317,
    "province_id": 11,
    "regency_id": 1103,
    "district_id": 110317,
    "value": "Babah Krueng",
    "postal_code": "24440"
  },
  {
    "id": 110317,
    "province_id": 11,
    "regency_id": 1103,
    "district_id": 110317,
    "value": "Buket Meriam (Bukit Meuriam)",
    "postal_code": "24440"
  },
  {
    "id": 110317,
    "province_id": 11,
    "regency_id": 1103,
    "district_id": 110317,
    "value": "Gelanggang Meurak (Geulanggang Merak)",
    "postal_code": "24440"
  },
  {
    "id": 110317,
    "province_id": 11,
    "regency_id": 1103,
    "district_id": 110317,
    "value": "Jengki (Jeungki)",
    "postal_code": "24440"
  },
  {
    "id": 110317,
    "province_id": 11,
    "regency_id": 1103,
    "district_id": 110317,
    "value": "Kruet Lintang (Krut Lintang)",
    "postal_code": "24440"
  },
  {
    "id": 110317,
    "province_id": 11,
    "regency_id": 1103,
    "district_id": 110317,
    "value": "Seumatang Keude",
    "postal_code": "24440"
  },
  {
    "id": 110317,
    "province_id": 11,
    "regency_id": 1103,
    "district_id": 110317,
    "value": "Seuneubok Dalam",
    "postal_code": "24440"
  },
  {
    "id": 110317,
    "province_id": 11,
    "regency_id": 1103,
    "district_id": 110317,
    "value": "Seuneubok Jalan",
    "postal_code": "24440"
  },
  {
    "id": 110317,
    "province_id": 11,
    "regency_id": 1103,
    "district_id": 110317,
    "value": "Seuneubok Lapang",
    "postal_code": "24440"
  },
  {
    "id": 110317,
    "province_id": 11,
    "regency_id": 1103,
    "district_id": 110317,
    "value": "Seuneubok Paya",
    "postal_code": "24440"
  },
  {
    "id": 110317,
    "province_id": 11,
    "regency_id": 1103,
    "district_id": 110317,
    "value": "Seuneubok Punti",
    "postal_code": "24440"
  },
  {
    "id": 110317,
    "province_id": 11,
    "regency_id": 1103,
    "district_id": 110317,
    "value": "Seuneubok Rawang",
    "postal_code": "24440"
  },
  {
    "id": 110317,
    "province_id": 11,
    "regency_id": 1103,
    "district_id": 110317,
    "value": "Seuneubok Teungoh",
    "postal_code": "24440"
  },
  {
    "id": 110317,
    "province_id": 11,
    "regency_id": 1103,
    "district_id": 110317,
    "value": "Seuneubok Teupin",
    "postal_code": "24440"
  },
  {
    "id": 110317,
    "province_id": 11,
    "regency_id": 1103,
    "district_id": 110317,
    "value": "Tualang Pateng",
    "postal_code": "24440"
  }
]