[
  {
    "id": 167308,
    "province_id": 16,
    "regency_id": 1673,
    "district_id": 167308,
    "value": "Batu Urip",
    "postal_code": "31627"
  },
  {
    "id": 167308,
    "province_id": 16,
    "regency_id": 1673,
    "district_id": 167308,
    "value": "Jogoboyo (Joyoboyo)",
    "postal_code": "31619"
  },
  {
    "id": 167308,
    "province_id": 16,
    "regency_id": 1673,
    "district_id": 167308,
    "value": "Kali Serayu",
    "postal_code": "31619"
  },
  {
    "id": 167308,
    "province_id": 16,
    "regency_id": 1673,
    "district_id": 167308,
    "value": "Kenanga",
    "postal_code": "31619"
  },
  {
    "id": 167308,
    "province_id": 16,
    "regency_id": 1673,
    "district_id": 167308,
    "value": "Megang",
    "postal_code": "31628"
  },
  {
    "id": 167308,
    "province_id": 16,
    "regency_id": 1673,
    "district_id": 167308,
    "value": "Pasar Satelit (Pasar Satlit)",
    "postal_code": "31619"
  },
  {
    "id": 167308,
    "province_id": 16,
    "regency_id": 1673,
    "district_id": 167308,
    "value": "Ponorogo",
    "postal_code": "31619"
  },
  {
    "id": 167308,
    "province_id": 16,
    "regency_id": 1673,
    "district_id": 167308,
    "value": "Puncak Kemuning",
    "postal_code": "31619"
  },
  {
    "id": 167308,
    "province_id": 16,
    "regency_id": 1673,
    "district_id": 167308,
    "value": "Senalang",
    "postal_code": "31619"
  },
  {
    "id": 167308,
    "province_id": 16,
    "regency_id": 1673,
    "district_id": 167308,
    "value": "Ulak Surung",
    "postal_code": "31617"
  }
]