[
  {
    "id": 7402162002,
    "province_id": 74,
    "regency_id": 7402,
    "district_id": 740216,
    "value": "Ambekaeri Utama",
    "postal_code": "93471"
  },
  {
    "id": 7402162004,
    "province_id": 74,
    "regency_id": 7402,
    "district_id": 740216,
    "value": "Amboniki",
    "postal_code": "93471"
  },
  {
    "id": 7402162008,
    "province_id": 74,
    "regency_id": 7402,
    "district_id": 740216,
    "value": "Andoluto",
    "postal_code": "93471"
  },
  {
    "id": 7402162012,
    "province_id": 74,
    "regency_id": 7402,
    "district_id": 740216,
    "value": "Angonga",
    "postal_code": "93471"
  },
  {
    "id": 7402162009,
    "province_id": 74,
    "regency_id": 7402,
    "district_id": 740216,
    "value": "Lalowata",
    "postal_code": "93471"
  },
  {
    "id": 7402162001,
    "province_id": 74,
    "regency_id": 7402,
    "district_id": 740216,
    "value": "Latoma Jaya",
    "postal_code": "93471"
  },
  {
    "id": 7402162006,
    "province_id": 74,
    "regency_id": 7402,
    "district_id": 740216,
    "value": "Nesowi",
    "postal_code": "93471"
  },
  {
    "id": 7402162005,
    "province_id": 74,
    "regency_id": 7402,
    "district_id": 740216,
    "value": "Pinole",
    "postal_code": "93471"
  },
  {
    "id": 7402162010,
    "province_id": 74,
    "regency_id": 7402,
    "district_id": 740216,
    "value": "Titiowa (Titioa)",
    "postal_code": "93471"
  },
  {
    "id": 7402162007,
    "province_id": 74,
    "regency_id": 7402,
    "district_id": 740216,
    "value": "Wawolatoma",
    "postal_code": "93471"
  },
  {
    "id": 7402161003,
    "province_id": 74,
    "regency_id": 7402,
    "district_id": 740216,
    "value": "Waworaha",
    "postal_code": "93471"
  }
]