[
  {
    "id": 1601282001,
    "province_id": 16,
    "regency_id": 1601,
    "district_id": 160128,
    "value": "Bandar Jaya",
    "postal_code": "32158"
  },
  {
    "id": 1601282005,
    "province_id": 16,
    "regency_id": 1601,
    "district_id": 160128,
    "value": "Bumi Kawa",
    "postal_code": "32158"
  },
  {
    "id": 1601282017,
    "province_id": 16,
    "regency_id": 1601,
    "district_id": 160128,
    "value": "Bunga Tanjung",
    "postal_code": "32158"
  },
  {
    "id": 1601282020,
    "province_id": 16,
    "regency_id": 1601,
    "district_id": 160128,
    "value": "Fajar Jaya",
    "postal_code": "32158"
  },
  {
    "id": 1601282014,
    "province_id": 16,
    "regency_id": 1601,
    "district_id": 160128,
    "value": "Gedung Pakuan/Pekuon",
    "postal_code": "32158"
  },
  {
    "id": 1601282002,
    "province_id": 16,
    "regency_id": 1601,
    "district_id": 160128,
    "value": "Karang Endah",
    "postal_code": "32158"
  },
  {
    "id": 1601282007,
    "province_id": 16,
    "regency_id": 1601,
    "district_id": 160128,
    "value": "Lubuk Dalam",
    "postal_code": "32158"
  },
  {
    "id": 1601282011,
    "province_id": 16,
    "regency_id": 1601,
    "district_id": 160128,
    "value": "Lubuk Hara",
    "postal_code": "32158"
  },
  {
    "id": 1601282013,
    "province_id": 16,
    "regency_id": 1601,
    "district_id": 160128,
    "value": "Negeri Agung",
    "postal_code": "32158"
  },
  {
    "id": 1601282008,
    "province_id": 16,
    "regency_id": 1601,
    "district_id": 160128,
    "value": "Negeri Ratu",
    "postal_code": "32158"
  },
  {
    "id": 1601282004,
    "province_id": 16,
    "regency_id": 1601,
    "district_id": 160128,
    "value": "Pagar Dewa",
    "postal_code": "32158"
  },
  {
    "id": 1601282003,
    "province_id": 16,
    "regency_id": 1601,
    "district_id": 160128,
    "value": "Pajar Bulan",
    "postal_code": "32158"
  },
  {
    "id": 1601282009,
    "province_id": 16,
    "regency_id": 1601,
    "district_id": 160128,
    "value": "Segara Kembang",
    "postal_code": "32158"
  },
  {
    "id": 1601282021,
    "province_id": 16,
    "regency_id": 1601,
    "district_id": 160128,
    "value": "Simpang Empat",
    "postal_code": "32158"
  },
  {
    "id": 1601282012,
    "province_id": 16,
    "regency_id": 1601,
    "district_id": 160128,
    "value": "Sukaraja",
    "postal_code": "32158"
  },
  {
    "id": 1601282016,
    "province_id": 16,
    "regency_id": 1601,
    "district_id": 160128,
    "value": "Sundan",
    "postal_code": "32158"
  },
  {
    "id": 1601282022,
    "province_id": 16,
    "regency_id": 1601,
    "district_id": 160128,
    "value": "Tanjungagung (Tanjung Agung)",
    "postal_code": "32158"
  },
  {
    "id": 1601282006,
    "province_id": 16,
    "regency_id": 1601,
    "district_id": 160128,
    "value": "Tanjunglengkayap (Tanjung Lengkayap)",
    "postal_code": "32158"
  },
  {
    "id": 1601282010,
    "province_id": 16,
    "regency_id": 1601,
    "district_id": 160128,
    "value": "Tihang",
    "postal_code": "32158"
  },
  {
    "id": 1601282015,
    "province_id": 16,
    "regency_id": 1601,
    "district_id": 160128,
    "value": "Tualang",
    "postal_code": "32158"
  },
  {
    "id": 1601282019,
    "province_id": 16,
    "regency_id": 1601,
    "district_id": 160128,
    "value": "Umpam (Umpan)",
    "postal_code": "32158"
  },
  {
    "id": 1601282018,
    "province_id": 16,
    "regency_id": 1601,
    "district_id": 160128,
    "value": "Way Heling",
    "postal_code": "32158"
  }
]