[
  {
    "id": 1214132004,
    "province_id": 12,
    "regency_id": 1214,
    "district_id": 121413,
    "value": "Bawolahusa",
    "postal_code": "22865"
  },
  {
    "id": 1214132011,
    "province_id": 12,
    "regency_id": 1214,
    "district_id": 121413,
    "value": "Bawolahusa Doli-doli",
    "postal_code": "22865"
  },
  {
    "id": 1214132009,
    "province_id": 12,
    "regency_id": 1214,
    "district_id": 121413,
    "value": "Hilifondege Hilizoroilawa",
    "postal_code": "22865"
  },
  {
    "id": 1214132008,
    "province_id": 12,
    "regency_id": 1214,
    "district_id": 121413,
    "value": "Hililaza Hilinawalo Mazino",
    "postal_code": "22865"
  },
  {
    "id": 1214132002,
    "province_id": 12,
    "regency_id": 1214,
    "district_id": 121413,
    "value": "Hilinawalo Mazino / Mazingo",
    "postal_code": "22865"
  },
  {
    "id": 1214132001,
    "province_id": 12,
    "regency_id": 1214,
    "district_id": 121413,
    "value": "Hilizalo'otano",
    "postal_code": "22865"
  },
  {
    "id": 1214132006,
    "province_id": 12,
    "regency_id": 1214,
    "district_id": 121413,
    "value": "Hilizalo'otano Laowo",
    "postal_code": "22865"
  },
  {
    "id": 1214132007,
    "province_id": 12,
    "regency_id": 1214,
    "district_id": 121413,
    "value": "Hilizalo'otano Larono",
    "postal_code": "22865"
  },
  {
    "id": 1214132005,
    "province_id": 12,
    "regency_id": 1214,
    "district_id": 121413,
    "value": "Hilizoroi Lawa (Hilizoroilawa)",
    "postal_code": "22865"
  },
  {
    "id": 1214132003,
    "province_id": 12,
    "regency_id": 1214,
    "district_id": 121413,
    "value": "Lawindra",
    "postal_code": "22865"
  },
  {
    "id": 1214132010,
    "province_id": 12,
    "regency_id": 1214,
    "district_id": 121413,
    "value": "Lolomboli",
    "postal_code": "22865"
  }
]