[
  {
    "id": 731411,
    "province_id": 73,
    "regency_id": 7314,
    "district_id": 731411,
    "value": "Batu",
    "postal_code": "91691"
  },
  {
    "id": 731411,
    "province_id": 73,
    "regency_id": 7314,
    "district_id": 731411,
    "value": "Belawae",
    "postal_code": "91691"
  },
  {
    "id": 731411,
    "province_id": 73,
    "regency_id": 7314,
    "district_id": 731411,
    "value": "Bila Riase",
    "postal_code": "91691"
  },
  {
    "id": 731411,
    "province_id": 73,
    "regency_id": 7314,
    "district_id": 731411,
    "value": "Bola Bulu",
    "postal_code": "91691"
  },
  {
    "id": 731411,
    "province_id": 73,
    "regency_id": 7314,
    "district_id": 731411,
    "value": "Botto",
    "postal_code": "91691"
  },
  {
    "id": 731411,
    "province_id": 73,
    "regency_id": 7314,
    "district_id": 731411,
    "value": "Buntu Buanging",
    "postal_code": "91691"
  },
  {
    "id": 731411,
    "province_id": 73,
    "regency_id": 7314,
    "district_id": 731411,
    "value": "Compong",
    "postal_code": "91691"
  },
  {
    "id": 731411,
    "province_id": 73,
    "regency_id": 7314,
    "district_id": 731411,
    "value": "Dengeng-Dengeng",
    "postal_code": "91691"
  },
  {
    "id": 731411,
    "province_id": 73,
    "regency_id": 7314,
    "district_id": 731411,
    "value": "Lagading",
    "postal_code": "91691"
  },
  {
    "id": 731411,
    "province_id": 73,
    "regency_id": 7314,
    "district_id": 731411,
    "value": "Lepangeng (Leppangeng)",
    "postal_code": "91691"
  },
  {
    "id": 731411,
    "province_id": 73,
    "regency_id": 7314,
    "district_id": 731411,
    "value": "Lombo",
    "postal_code": "91691"
  },
  {
    "id": 731411,
    "province_id": 73,
    "regency_id": 7314,
    "district_id": 731411,
    "value": "Tanatoro",
    "postal_code": "91691"
  }
]