[
  {
    "id": 520320,
    "province_id": 52,
    "regency_id": 5203,
    "district_id": 520320,
    "value": "Batu Nampar (Batunampar)",
    "postal_code": "83672"
  },
  {
    "id": 520320,
    "province_id": 52,
    "regency_id": 5203,
    "district_id": 520320,
    "value": "Batunampar Selatan",
    "postal_code": "83672"
  },
  {
    "id": 520320,
    "province_id": 52,
    "regency_id": 5203,
    "district_id": 520320,
    "value": "Ekas Buana",
    "postal_code": "83672"
  },
  {
    "id": 520320,
    "province_id": 52,
    "regency_id": 5203,
    "district_id": 520320,
    "value": "Jerowaru",
    "postal_code": "83672"
  },
  {
    "id": 520320,
    "province_id": 52,
    "regency_id": 5203,
    "district_id": 520320,
    "value": "Kwang Rundun",
    "postal_code": "83672"
  },
  {
    "id": 520320,
    "province_id": 52,
    "regency_id": 5203,
    "district_id": 520320,
    "value": "Pandan Wangi",
    "postal_code": "83672"
  },
  {
    "id": 520320,
    "province_id": 52,
    "regency_id": 5203,
    "district_id": 520320,
    "value": "Pare Mas",
    "postal_code": "83672"
  },
  {
    "id": 520320,
    "province_id": 52,
    "regency_id": 5203,
    "district_id": 520320,
    "value": "Pemongkong",
    "postal_code": "83672"
  },
  {
    "id": 520320,
    "province_id": 52,
    "regency_id": 5203,
    "district_id": 520320,
    "value": "Pene",
    "postal_code": "83672"
  },
  {
    "id": 520320,
    "province_id": 52,
    "regency_id": 5203,
    "district_id": 520320,
    "value": "Sekaroh",
    "postal_code": "83672"
  },
  {
    "id": 520320,
    "province_id": 52,
    "regency_id": 5203,
    "district_id": 520320,
    "value": "Sepapan",
    "postal_code": "83672"
  },
  {
    "id": 520320,
    "province_id": 52,
    "regency_id": 5203,
    "district_id": 520320,
    "value": "Seriwe",
    "postal_code": "83672"
  },
  {
    "id": 520320,
    "province_id": 52,
    "regency_id": 5203,
    "district_id": 520320,
    "value": "Sukadamai",
    "postal_code": "83672"
  },
  {
    "id": 520320,
    "province_id": 52,
    "regency_id": 5203,
    "district_id": 520320,
    "value": "Sukaraja",
    "postal_code": "83672"
  },
  {
    "id": 520320,
    "province_id": 52,
    "regency_id": 5203,
    "district_id": 520320,
    "value": "Wakan",
    "postal_code": "83672"
  }
]