[
  {
    "id": 7408052018,
    "province_id": 74,
    "regency_id": 7408,
    "district_id": 740805,
    "value": "Ainani Tajriani",
    "postal_code": "93957"
  },
  {
    "id": 7408052001,
    "province_id": 74,
    "regency_id": 7408,
    "district_id": 740805,
    "value": "Awo",
    "postal_code": "93957"
  },
  {
    "id": 7408052019,
    "province_id": 74,
    "regency_id": 7408,
    "district_id": 740805,
    "value": "Delang-Delang",
    "postal_code": "93957"
  },
  {
    "id": 7408052012,
    "province_id": 74,
    "regency_id": 7408,
    "district_id": 740805,
    "value": "Jabal Kubis",
    "postal_code": "93957"
  },
  {
    "id": 7408052010,
    "province_id": 74,
    "regency_id": 7408,
    "district_id": 740805,
    "value": "Jabal Nur",
    "postal_code": "93957"
  },
  {
    "id": 7408052009,
    "province_id": 74,
    "regency_id": 7408,
    "district_id": 740805,
    "value": "Kalu-Kaluku",
    "postal_code": "93957"
  },
  {
    "id": 7408052004,
    "province_id": 74,
    "regency_id": 7408,
    "district_id": 740805,
    "value": "Kamisi",
    "postal_code": "93957"
  },
  {
    "id": 7408052003,
    "province_id": 74,
    "regency_id": 7408,
    "district_id": 740805,
    "value": "Koroha",
    "postal_code": "93957"
  },
  {
    "id": 7408052006,
    "province_id": 74,
    "regency_id": 7408,
    "district_id": 740805,
    "value": "Lametuna",
    "postal_code": "93957"
  },
  {
    "id": 7408051002,
    "province_id": 74,
    "regency_id": 7408,
    "district_id": 740805,
    "value": "Mala-Mala",
    "postal_code": "93957"
  },
  {
    "id": 7408052007,
    "province_id": 74,
    "regency_id": 7408,
    "district_id": 740805,
    "value": "Meeto",
    "postal_code": "93957"
  },
  {
    "id": 7408052014,
    "province_id": 74,
    "regency_id": 7408,
    "district_id": 740805,
    "value": "Sawangaoha (Sawanggaoha)",
    "postal_code": "93957"
  }
]