[
  {
    "id": 351808,
    "province_id": 35,
    "regency_id": 3518,
    "district_id": 351808,
    "value": "Banaran",
    "postal_code": "64311"
  },
  {
    "id": 351808,
    "province_id": 35,
    "regency_id": 3518,
    "district_id": 351808,
    "value": "Bangsri",
    "postal_code": "64315"
  },
  {
    "id": 351808,
    "province_id": 35,
    "regency_id": 3518,
    "district_id": 351808,
    "value": "Drenges",
    "postal_code": "64315"
  },
  {
    "id": 351808,
    "province_id": 35,
    "regency_id": 3518,
    "district_id": 351808,
    "value": "Kalianyar",
    "postal_code": "64315"
  },
  {
    "id": 351808,
    "province_id": 35,
    "regency_id": 3518,
    "district_id": 351808,
    "value": "Kepuh",
    "postal_code": "64315"
  },
  {
    "id": 351808,
    "province_id": 35,
    "regency_id": 3518,
    "district_id": 351808,
    "value": "Kudu",
    "postal_code": "64312"
  },
  {
    "id": 351808,
    "province_id": 35,
    "regency_id": 3518,
    "district_id": 351808,
    "value": "Kutorejo",
    "postal_code": "64313"
  },
  {
    "id": 351808,
    "province_id": 35,
    "regency_id": 3518,
    "district_id": 351808,
    "value": "Lambangkuning (Lambang Kuning)",
    "postal_code": "64315"
  },
  {
    "id": 351808,
    "province_id": 35,
    "regency_id": 3518,
    "district_id": 351808,
    "value": "Nglawak",
    "postal_code": "64315"
  },
  {
    "id": 351808,
    "province_id": 35,
    "regency_id": 3518,
    "district_id": 351808,
    "value": "Pandantoyo (Pandan Toyo)",
    "postal_code": "64315"
  },
  {
    "id": 351808,
    "province_id": 35,
    "regency_id": 3518,
    "district_id": 351808,
    "value": "Pelem",
    "postal_code": "64314"
  },
  {
    "id": 351808,
    "province_id": 35,
    "regency_id": 3518,
    "district_id": 351808,
    "value": "Tanjung",
    "postal_code": "64315"
  },
  {
    "id": 351808,
    "province_id": 35,
    "regency_id": 3518,
    "district_id": 351808,
    "value": "Tembarak",
    "postal_code": "64315"
  },
  {
    "id": 351808,
    "province_id": 35,
    "regency_id": 3518,
    "district_id": 351808,
    "value": "Yuwono (Juwono)",
    "postal_code": "64315"
  }
]