[
  {
    "id": 610618,
    "province_id": 61,
    "regency_id": 6106,
    "district_id": 610618,
    "value": "Bahenap",
    "postal_code": "78756"
  },
  {
    "id": 610618,
    "province_id": 61,
    "regency_id": 6106,
    "district_id": 610618,
    "value": "Kalis Raya",
    "postal_code": "78756"
  },
  {
    "id": 610618,
    "province_id": 61,
    "regency_id": 6106,
    "district_id": 610618,
    "value": "Kensuray",
    "postal_code": "78756"
  },
  {
    "id": 610618,
    "province_id": 61,
    "regency_id": 6106,
    "district_id": 610618,
    "value": "Nanga Danau",
    "postal_code": "78756"
  },
  {
    "id": 610618,
    "province_id": 61,
    "regency_id": 6106,
    "district_id": 610618,
    "value": "Nanga Kalis",
    "postal_code": "78756"
  },
  {
    "id": 610618,
    "province_id": 61,
    "regency_id": 6106,
    "district_id": 610618,
    "value": "Nanga Lebangan",
    "postal_code": "78756"
  },
  {
    "id": 610618,
    "province_id": 61,
    "regency_id": 6106,
    "district_id": 610618,
    "value": "Nanga Raun",
    "postal_code": "78756"
  },
  {
    "id": 610618,
    "province_id": 61,
    "regency_id": 6106,
    "district_id": 610618,
    "value": "Nanga Sebintang",
    "postal_code": "78756"
  },
  {
    "id": 610618,
    "province_id": 61,
    "regency_id": 6106,
    "district_id": 610618,
    "value": "Nanga Tubuk",
    "postal_code": "78756"
  },
  {
    "id": 610618,
    "province_id": 61,
    "regency_id": 6106,
    "district_id": 610618,
    "value": "Peniung",
    "postal_code": "78756"
  },
  {
    "id": 610618,
    "province_id": 61,
    "regency_id": 6106,
    "district_id": 610618,
    "value": "Rantau Bumbun",
    "postal_code": "78756"
  },
  {
    "id": 610618,
    "province_id": 61,
    "regency_id": 6106,
    "district_id": 610618,
    "value": "Rantau Kalis",
    "postal_code": "78756"
  },
  {
    "id": 610618,
    "province_id": 61,
    "regency_id": 6106,
    "district_id": 610618,
    "value": "Ribang Kadeng",
    "postal_code": "78756"
  },
  {
    "id": 610618,
    "province_id": 61,
    "regency_id": 6106,
    "district_id": 610618,
    "value": "Segiam",
    "postal_code": "78756"
  },
  {
    "id": 610618,
    "province_id": 61,
    "regency_id": 6106,
    "district_id": 610618,
    "value": "Semerantau",
    "postal_code": "78756"
  },
  {
    "id": 610618,
    "province_id": 61,
    "regency_id": 6106,
    "district_id": 610618,
    "value": "Tapang Da'an (Tapang Daan)",
    "postal_code": "78756"
  },
  {
    "id": 610618,
    "province_id": 61,
    "regency_id": 6106,
    "district_id": 610618,
    "value": "Tekudak",
    "postal_code": "78756"
  }
]