[
  {
    "id": 1107072039,
    "province_id": 11,
    "regency_id": 1107,
    "district_id": 110707,
    "value": "Bale Baro Bluek",
    "postal_code": "24171"
  },
  {
    "id": 1107072044,
    "province_id": 11,
    "regency_id": 1107,
    "district_id": 110707,
    "value": "Bale Baroh Gapui",
    "postal_code": "24171"
  },
  {
    "id": 1107072036,
    "province_id": 11,
    "regency_id": 1107,
    "district_id": 110707,
    "value": "Baro Bluek",
    "postal_code": "24171"
  },
  {
    "id": 1107072043,
    "province_id": 11,
    "regency_id": 1107,
    "district_id": 110707,
    "value": "Baro Gapui",
    "postal_code": "24171"
  },
  {
    "id": 1107072008,
    "province_id": 11,
    "regency_id": 1107,
    "district_id": 110707,
    "value": "Baro Jruek",
    "postal_code": "24171"
  },
  {
    "id": 1107072049,
    "province_id": 11,
    "regency_id": 1107,
    "district_id": 110707,
    "value": "Beureudep",
    "postal_code": "24171"
  },
  {
    "id": 1107072021,
    "province_id": 11,
    "regency_id": 1107,
    "district_id": 110707,
    "value": "Blang Garot",
    "postal_code": "24171"
  },
  {
    "id": 1107072050,
    "province_id": 11,
    "regency_id": 1107,
    "district_id": 110707,
    "value": "Blang Lhok Kaju",
    "postal_code": "24171"
  },
  {
    "id": 1107072041,
    "province_id": 11,
    "regency_id": 1107,
    "district_id": 110707,
    "value": "Blang Rapai",
    "postal_code": "24171"
  },
  {
    "id": 1107072032,
    "province_id": 11,
    "regency_id": 1107,
    "district_id": 110707,
    "value": "Cot Seuke",
    "postal_code": "24171"
  },
  {
    "id": 1107072038,
    "province_id": 11,
    "regency_id": 1107,
    "district_id": 110707,
    "value": "Dayah Bie",
    "postal_code": "24171"
  },
  {
    "id": 1107072003,
    "province_id": 11,
    "regency_id": 1107,
    "district_id": 110707,
    "value": "Dayah Caleue",
    "postal_code": "24171"
  },
  {
    "id": 1107072006,
    "province_id": 11,
    "regency_id": 1107,
    "district_id": 110707,
    "value": "Dayah Keurako",
    "postal_code": "24171"
  },
  {
    "id": 1107072017,
    "province_id": 11,
    "regency_id": 1107,
    "district_id": 110707,
    "value": "Dayah Muara",
    "postal_code": "24171"
  },
  {
    "id": 1107072033,
    "province_id": 11,
    "regency_id": 1107,
    "district_id": 110707,
    "value": "Drien",
    "postal_code": "24171"
  },
  {
    "id": 1107072019,
    "province_id": 11,
    "regency_id": 1107,
    "district_id": 110707,
    "value": "Garot Cut",
    "postal_code": "24171"
  },
  {
    "id": 1107072045,
    "province_id": 11,
    "regency_id": 1107,
    "district_id": 110707,
    "value": "Glee Gapui",
    "postal_code": "24171"
  },
  {
    "id": 1107072024,
    "province_id": 11,
    "regency_id": 1107,
    "district_id": 110707,
    "value": "Guci",
    "postal_code": "24171"
  },
  {
    "id": 1107072004,
    "province_id": 11,
    "regency_id": 1107,
    "district_id": 110707,
    "value": "Jurong",
    "postal_code": "24171"
  },
  {
    "id": 1107072020,
    "province_id": 11,
    "regency_id": 1107,
    "district_id": 110707,
    "value": "Keubang",
    "postal_code": "24171"
  },
  {
    "id": 1107072005,
    "province_id": 11,
    "regency_id": 1107,
    "district_id": 110707,
    "value": "Keutapang",
    "postal_code": "24171"
  },
  {
    "id": 1107072028,
    "province_id": 11,
    "regency_id": 1107,
    "district_id": 110707,
    "value": "Lam Kabu",
    "postal_code": "24171"
  },
  {
    "id": 1107072031,
    "province_id": 11,
    "regency_id": 1107,
    "district_id": 110707,
    "value": "Lam Reuneng",
    "postal_code": "24171"
  },
  {
    "id": 1107072030,
    "province_id": 11,
    "regency_id": 1107,
    "district_id": 110707,
    "value": "Mesjid Baro",
    "postal_code": "24171"
  },
  {
    "id": 1107072026,
    "province_id": 11,
    "regency_id": 1107,
    "district_id": 110707,
    "value": "Mesjid Dijiem",
    "postal_code": "24171"
  },
  {
    "id": 1107072007,
    "province_id": 11,
    "regency_id": 1107,
    "district_id": 110707,
    "value": "Mesjid Lam Ujong",
    "postal_code": "24171"
  },
  {
    "id": 1107072047,
    "province_id": 11,
    "regency_id": 1107,
    "district_id": 110707,
    "value": "Mesjid Suwiek",
    "postal_code": "24171"
  },
  {
    "id": 1107072016,
    "province_id": 11,
    "regency_id": 1107,
    "district_id": 110707,
    "value": "Mesjid Tungkop",
    "postal_code": "24171"
  },
  {
    "id": 1107072037,
    "province_id": 11,
    "regency_id": 1107,
    "district_id": 110707,
    "value": "Mesjid Ulee Gampong",
    "postal_code": "24171"
  },
  {
    "id": 1107072022,
    "province_id": 11,
    "regency_id": 1107,
    "district_id": 110707,
    "value": "Meulayu",
    "postal_code": "24171"
  },
  {
    "id": 1107072042,
    "province_id": 11,
    "regency_id": 1107,
    "district_id": 110707,
    "value": "Neulop II",
    "postal_code": "24171"
  },
  {
    "id": 1107072018,
    "province_id": 11,
    "regency_id": 1107,
    "district_id": 110707,
    "value": "Pante Garot",
    "postal_code": "24171"
  },
  {
    "id": 1107072012,
    "province_id": 11,
    "regency_id": 1107,
    "district_id": 110707,
    "value": "Pante Lhok Kaju",
    "postal_code": "24171"
  },
  {
    "id": 1107072011,
    "province_id": 11,
    "regency_id": 1107,
    "district_id": 110707,
    "value": "Pulo Gampong U",
    "postal_code": "24171"
  },
  {
    "id": 1107072040,
    "province_id": 11,
    "regency_id": 1107,
    "district_id": 110707,
    "value": "Putoe Gapui",
    "postal_code": "24171"
  },
  {
    "id": 1107072015,
    "province_id": 11,
    "regency_id": 1107,
    "district_id": 110707,
    "value": "Rawa Tungkop",
    "postal_code": "24171"
  },
  {
    "id": 1107072010,
    "province_id": 11,
    "regency_id": 1107,
    "district_id": 110707,
    "value": "Raya",
    "postal_code": "24171"
  },
  {
    "id": 1107072034,
    "province_id": 11,
    "regency_id": 1107,
    "district_id": 110707,
    "value": "Rumia",
    "postal_code": "24171"
  },
  {
    "id": 1107072014,
    "province_id": 11,
    "regency_id": 1107,
    "district_id": 110707,
    "value": "Sukon Tungkop",
    "postal_code": "24171"
  },
  {
    "id": 1107072027,
    "province_id": 11,
    "regency_id": 1107,
    "district_id": 110707,
    "value": "Sukon Ulee Gampong",
    "postal_code": "24171"
  },
  {
    "id": 1107072002,
    "province_id": 11,
    "regency_id": 1107,
    "district_id": 110707,
    "value": "Tampieng Baroh",
    "postal_code": "24171"
  },
  {
    "id": 1107072001,
    "province_id": 11,
    "regency_id": 1107,
    "district_id": 110707,
    "value": "Tampieng Tunong",
    "postal_code": "24171"
  },
  {
    "id": 1107072025,
    "province_id": 11,
    "regency_id": 1107,
    "district_id": 110707,
    "value": "Teungoh Blang",
    "postal_code": "24171"
  },
  {
    "id": 1107072046,
    "province_id": 11,
    "regency_id": 1107,
    "district_id": 110707,
    "value": "Teungoh Suwiek",
    "postal_code": "24171"
  },
  {
    "id": 1107072048,
    "province_id": 11,
    "regency_id": 1107,
    "district_id": 110707,
    "value": "Tuha Suwiek",
    "postal_code": "24171"
  },
  {
    "id": 1107072023,
    "province_id": 11,
    "regency_id": 1107,
    "district_id": 110707,
    "value": "Tungkop Cut",
    "postal_code": "24171"
  },
  {
    "id": 1107072029,
    "province_id": 11,
    "regency_id": 1107,
    "district_id": 110707,
    "value": "Ulee Birah",
    "postal_code": "24171"
  },
  {
    "id": 1107072035,
    "province_id": 11,
    "regency_id": 1107,
    "district_id": 110707,
    "value": "Wakheuh",
    "postal_code": "24171"
  },
  {
    "id": 1107072009,
    "province_id": 11,
    "regency_id": 1107,
    "district_id": 110707,
    "value": "Yub Mee",
    "postal_code": "24171"
  }
]