[
  {
    "id": 3518112008,
    "province_id": 35,
    "regency_id": 3518,
    "district_id": 351811,
    "value": "Banjaranyar (Banjar Anyar)",
    "postal_code": "64482"
  },
  {
    "id": 3518112016,
    "province_id": 35,
    "regency_id": 3518,
    "district_id": 351811,
    "value": "Demangan",
    "postal_code": "64482"
  },
  {
    "id": 3518112005,
    "province_id": 35,
    "regency_id": 3518,
    "district_id": 351811,
    "value": "Getas",
    "postal_code": "64482"
  },
  {
    "id": 3518112012,
    "province_id": 35,
    "regency_id": 3518,
    "district_id": 351811,
    "value": "Jogomerto",
    "postal_code": "64482"
  },
  {
    "id": 3518112010,
    "province_id": 35,
    "regency_id": 3518,
    "district_id": 351811,
    "value": "Kampungbaru",
    "postal_code": "64482"
  },
  {
    "id": 3518112001,
    "province_id": 35,
    "regency_id": 3518,
    "district_id": 351811,
    "value": "Kedungombo (Kedung Ombo)",
    "postal_code": "64482"
  },
  {
    "id": 3518112014,
    "province_id": 35,
    "regency_id": 3518,
    "district_id": 351811,
    "value": "Kedungrejo",
    "postal_code": "64482"
  },
  {
    "id": 3518112004,
    "province_id": 35,
    "regency_id": 3518,
    "district_id": 351811,
    "value": "Malangsari",
    "postal_code": "64482"
  },
  {
    "id": 3518112007,
    "province_id": 35,
    "regency_id": 3518,
    "district_id": 351811,
    "value": "Ngadirejo",
    "postal_code": "64482"
  },
  {
    "id": 3518112015,
    "province_id": 35,
    "regency_id": 3518,
    "district_id": 351811,
    "value": "Sambirejo",
    "postal_code": "64482"
  },
  {
    "id": 3518112009,
    "province_id": 35,
    "regency_id": 3518,
    "district_id": 351811,
    "value": "Sidoharjo",
    "postal_code": "64482"
  },
  {
    "id": 3518112006,
    "province_id": 35,
    "regency_id": 3518,
    "district_id": 351811,
    "value": "Sonobekel",
    "postal_code": "64482"
  },
  {
    "id": 3518112002,
    "province_id": 35,
    "regency_id": 3518,
    "district_id": 351811,
    "value": "Sumberkepuh",
    "postal_code": "64482"
  },
  {
    "id": 3518111011,
    "province_id": 35,
    "regency_id": 3518,
    "district_id": 351811,
    "value": "Tanjunganom (Tanjung Anom)",
    "postal_code": "64482"
  },
  {
    "id": 3518111013,
    "province_id": 35,
    "regency_id": 3518,
    "district_id": 351811,
    "value": "Warujayeng",
    "postal_code": "64482"
  },
  {
    "id": 3518112003,
    "province_id": 35,
    "regency_id": 3518,
    "district_id": 351811,
    "value": "Wates",
    "postal_code": "64482"
  }
]