[
  {
    "id": 9210122008,
    "province_id": 92,
    "regency_id": 9210,
    "district_id": 921012,
    "value": "Aifam",
    "postal_code": "98276"
  },
  {
    "id": 9210122005,
    "province_id": 92,
    "regency_id": 9210,
    "district_id": 921012,
    "value": "Aikus",
    "postal_code": "98276"
  },
  {
    "id": 9210122006,
    "province_id": 92,
    "regency_id": 9210,
    "district_id": 921012,
    "value": "Aiwesa",
    "postal_code": "98276"
  },
  {
    "id": 9210122012,
    "province_id": 92,
    "regency_id": 9210,
    "district_id": 921012,
    "value": "Assem",
    "postal_code": "98276"
  },
  {
    "id": 9210122004,
    "province_id": 92,
    "regency_id": 9210,
    "district_id": 921012,
    "value": "Ayata",
    "postal_code": "98276"
  },
  {
    "id": 9210122011,
    "province_id": 92,
    "regency_id": 9210,
    "district_id": 921012,
    "value": "Faan Kahrio (Faan)",
    "postal_code": "98276"
  },
  {
    "id": 9210122003,
    "province_id": 92,
    "regency_id": 9210,
    "district_id": 921012,
    "value": "Frambu",
    "postal_code": "98276"
  },
  {
    "id": 9210122002,
    "province_id": 92,
    "regency_id": 9210,
    "district_id": 921012,
    "value": "Kamat",
    "postal_code": "98276"
  },
  {
    "id": 9210122001,
    "province_id": 92,
    "regency_id": 9210,
    "district_id": 921012,
    "value": "Mupas",
    "postal_code": "98276"
  },
  {
    "id": 9210122007,
    "province_id": 92,
    "regency_id": 9210,
    "district_id": 921012,
    "value": "Pitor",
    "postal_code": "98276"
  },
  {
    "id": 9210122009,
    "province_id": 92,
    "regency_id": 9210,
    "district_id": 921012,
    "value": "Saud",
    "postal_code": "98276"
  },
  {
    "id": 9210122010,
    "province_id": 92,
    "regency_id": 9210,
    "district_id": 921012,
    "value": "Tiam",
    "postal_code": "98276"
  }
]