[
  {
    "id": 350905,
    "province_id": 35,
    "regency_id": 3509,
    "district_id": 350905,
    "value": "Gadingrejo",
    "postal_code": "68166"
  },
  {
    "id": 350905,
    "province_id": 35,
    "regency_id": 3509,
    "district_id": 350905,
    "value": "Gunungsari",
    "postal_code": "68166"
  },
  {
    "id": 350905,
    "province_id": 35,
    "regency_id": 3509,
    "district_id": 350905,
    "value": "Mundurejo",
    "postal_code": "68166"
  },
  {
    "id": 350905,
    "province_id": 35,
    "regency_id": 3509,
    "district_id": 350905,
    "value": "Paleran",
    "postal_code": "68166"
  },
  {
    "id": 350905,
    "province_id": 35,
    "regency_id": 3509,
    "district_id": 350905,
    "value": "Sidorejo",
    "postal_code": "68166"
  },
  {
    "id": 350905,
    "province_id": 35,
    "regency_id": 3509,
    "district_id": 350905,
    "value": "Sukoreno",
    "postal_code": "68166"
  },
  {
    "id": 350905,
    "province_id": 35,
    "regency_id": 3509,
    "district_id": 350905,
    "value": "Tanjungsari",
    "postal_code": "68166"
  },
  {
    "id": 350905,
    "province_id": 35,
    "regency_id": 3509,
    "district_id": 350905,
    "value": "Tegalwangi (Tegal Wangi)",
    "postal_code": "68166"
  },
  {
    "id": 350905,
    "province_id": 35,
    "regency_id": 3509,
    "district_id": 350905,
    "value": "Umbulrejo",
    "postal_code": "68166"
  },
  {
    "id": 350905,
    "province_id": 35,
    "regency_id": 3509,
    "district_id": 350905,
    "value": "Umbulsari",
    "postal_code": "68166"
  }
]