[
  {
    "id": 1105042020,
    "province_id": 11,
    "regency_id": 1105,
    "district_id": 110504,
    "value": "Alue Blang",
    "postal_code": "23654"
  },
  {
    "id": 1105042029,
    "province_id": 11,
    "regency_id": 1105,
    "district_id": 110504,
    "value": "Alue Panyang",
    "postal_code": "23654"
  },
  {
    "id": 1105042024,
    "province_id": 11,
    "regency_id": 1105,
    "district_id": 110504,
    "value": "Alue Sikaya",
    "postal_code": "23654"
  },
  {
    "id": 1105042036,
    "province_id": 11,
    "regency_id": 1105,
    "district_id": 110504,
    "value": "Alue Sundak",
    "postal_code": "23654"
  },
  {
    "id": 1105042005,
    "province_id": 11,
    "regency_id": 1105,
    "district_id": 110504,
    "value": "Aron Baroh",
    "postal_code": "23654"
  },
  {
    "id": 1105042004,
    "province_id": 11,
    "regency_id": 1105,
    "district_id": 110504,
    "value": "Aron Tunong",
    "postal_code": "23654"
  },
  {
    "id": 1105042042,
    "province_id": 11,
    "regency_id": 1105,
    "district_id": 110504,
    "value": "Bakat",
    "postal_code": "23654"
  },
  {
    "id": 1105042019,
    "province_id": 11,
    "regency_id": 1105,
    "district_id": 110504,
    "value": "Blang Mee",
    "postal_code": "23654"
  },
  {
    "id": 1105042030,
    "province_id": 11,
    "regency_id": 1105,
    "district_id": 110504,
    "value": "Cot Keumudai (Cot Keumudee)",
    "postal_code": "23654"
  },
  {
    "id": 1105042041,
    "province_id": 11,
    "regency_id": 1105,
    "district_id": 110504,
    "value": "Cot Lagan Bubon (Cot Lagan BB / Cm)",
    "postal_code": "23654"
  },
  {
    "id": 1105042038,
    "province_id": 11,
    "regency_id": 1105,
    "district_id": 110504,
    "value": "Cot Murong",
    "postal_code": "23654"
  },
  {
    "id": 1105042032,
    "province_id": 11,
    "regency_id": 1105,
    "district_id": 110504,
    "value": "Cot Situah",
    "postal_code": "23654"
  },
  {
    "id": 1105042025,
    "province_id": 11,
    "regency_id": 1105,
    "district_id": 110504,
    "value": "Darul Huda",
    "postal_code": "23654"
  },
  {
    "id": 1105042016,
    "province_id": 11,
    "regency_id": 1105,
    "district_id": 110504,
    "value": "Drien Mangko (Drin Mangko)",
    "postal_code": "23654"
  },
  {
    "id": 1105042008,
    "province_id": 11,
    "regency_id": 1105,
    "district_id": 110504,
    "value": "Gempa Raya",
    "postal_code": "23654"
  },
  {
    "id": 1105042039,
    "province_id": 11,
    "regency_id": 1105,
    "district_id": 110504,
    "value": "Glee Siblah",
    "postal_code": "23654"
  },
  {
    "id": 1105042015,
    "province_id": 11,
    "regency_id": 1105,
    "district_id": 110504,
    "value": "Gunong/Gunung Rambong",
    "postal_code": "23654"
  },
  {
    "id": 1105042017,
    "province_id": 11,
    "regency_id": 1105,
    "district_id": 110504,
    "value": "Gunung Hampa",
    "postal_code": "23654"
  },
  {
    "id": 1105042011,
    "province_id": 11,
    "regency_id": 1105,
    "district_id": 110504,
    "value": "Ie Itam Baroh",
    "postal_code": "23654"
  },
  {
    "id": 1105042010,
    "province_id": 11,
    "regency_id": 1105,
    "district_id": 110504,
    "value": "Ie Itam Tunong",
    "postal_code": "23654"
  },
  {
    "id": 1105042027,
    "province_id": 11,
    "regency_id": 1105,
    "district_id": 110504,
    "value": "Jawa",
    "postal_code": "23654"
  },
  {
    "id": 1105042033,
    "province_id": 11,
    "regency_id": 1105,
    "district_id": 110504,
    "value": "Jawi",
    "postal_code": "23654"
  },
  {
    "id": 1105042026,
    "province_id": 11,
    "regency_id": 1105,
    "district_id": 110504,
    "value": "Keuleumbah",
    "postal_code": "23654"
  },
  {
    "id": 1105042001,
    "province_id": 11,
    "regency_id": 1105,
    "district_id": 110504,
    "value": "Kuala Bhee",
    "postal_code": "23654"
  },
  {
    "id": 1105042043,
    "province_id": 11,
    "regency_id": 1105,
    "district_id": 110504,
    "value": "Lueng Buloh",
    "postal_code": "23654"
  },
  {
    "id": 1105042014,
    "province_id": 11,
    "regency_id": 1105,
    "district_id": 110504,
    "value": "Lueng Tanoh Tho",
    "postal_code": "23654"
  },
  {
    "id": 1105042013,
    "province_id": 11,
    "regency_id": 1105,
    "district_id": 110504,
    "value": "Lueng Teungku Yah (Lhung Tgk Yah)",
    "postal_code": "23654"
  },
  {
    "id": 1105042018,
    "province_id": 11,
    "regency_id": 1105,
    "district_id": 110504,
    "value": "Lung Jawa (Lueng Jawa)",
    "postal_code": "23654"
  },
  {
    "id": 1105042009,
    "province_id": 11,
    "regency_id": 1105,
    "district_id": 110504,
    "value": "Padang Jawa",
    "postal_code": "23654"
  },
  {
    "id": 1105042034,
    "province_id": 11,
    "regency_id": 1105,
    "district_id": 110504,
    "value": "Panton",
    "postal_code": "23654"
  },
  {
    "id": 1105042003,
    "province_id": 11,
    "regency_id": 1105,
    "district_id": 110504,
    "value": "Pasi Aceh",
    "postal_code": "23654"
  },
  {
    "id": 1105042023,
    "province_id": 11,
    "regency_id": 1105,
    "district_id": 110504,
    "value": "Pasi Ara Kuala Batee (Pasi Ara Kb)",
    "postal_code": "23654"
  },
  {
    "id": 1105042035,
    "province_id": 11,
    "regency_id": 1105,
    "district_id": 110504,
    "value": "Pasi Birah",
    "postal_code": "23654"
  },
  {
    "id": 1105042002,
    "province_id": 11,
    "regency_id": 1105,
    "district_id": 110504,
    "value": "Pasi Lunak",
    "postal_code": "23654"
  },
  {
    "id": 1105042006,
    "province_id": 11,
    "regency_id": 1105,
    "district_id": 110504,
    "value": "Pasi Pandan",
    "postal_code": "23654"
  },
  {
    "id": 1105042021,
    "province_id": 11,
    "regency_id": 1105,
    "district_id": 110504,
    "value": "Paya Dua",
    "postal_code": "23654"
  },
  {
    "id": 1105042022,
    "province_id": 11,
    "regency_id": 1105,
    "district_id": 110504,
    "value": "Paya Luah",
    "postal_code": "23654"
  },
  {
    "id": 1105042028,
    "province_id": 11,
    "regency_id": 1105,
    "district_id": 110504,
    "value": "Pulo Ie",
    "postal_code": "23654"
  },
  {
    "id": 1105042007,
    "province_id": 11,
    "regency_id": 1105,
    "district_id": 110504,
    "value": "Ranto Panyang",
    "postal_code": "23654"
  },
  {
    "id": 1105042031,
    "province_id": 11,
    "regency_id": 1105,
    "district_id": 110504,
    "value": "Seumantok",
    "postal_code": "23654"
  },
  {
    "id": 1105042040,
    "province_id": 11,
    "regency_id": 1105,
    "district_id": 110504,
    "value": "Suak Trieng (Suak Tring)",
    "postal_code": "23654"
  },
  {
    "id": 1105042037,
    "province_id": 11,
    "regency_id": 1105,
    "district_id": 110504,
    "value": "Teumarom",
    "postal_code": "23654"
  },
  {
    "id": 1105042012,
    "province_id": 11,
    "regency_id": 1105,
    "district_id": 110504,
    "value": "Tingkeum Panyang",
    "postal_code": "23654"
  }
]