[
  {
    "id": 180906,
    "province_id": 18,
    "regency_id": 1809,
    "district_id": 180906,
    "value": "Banding Agung",
    "postal_code": "35454"
  },
  {
    "id": 180906,
    "province_id": 18,
    "regency_id": 1809,
    "district_id": 180906,
    "value": "Bangun Rejo",
    "postal_code": "35454"
  },
  {
    "id": 180906,
    "province_id": 18,
    "regency_id": 1809,
    "district_id": 180906,
    "value": "Batu Raja",
    "postal_code": "35454"
  },
  {
    "id": 180906,
    "province_id": 18,
    "regency_id": 1809,
    "district_id": 180906,
    "value": "Bawang",
    "postal_code": "35454"
  },
  {
    "id": 180906,
    "province_id": 18,
    "regency_id": 1809,
    "district_id": 180906,
    "value": "Kota Jawa",
    "postal_code": "35454"
  },
  {
    "id": 180906,
    "province_id": 18,
    "regency_id": 1809,
    "district_id": 180906,
    "value": "Pagar Jaya",
    "postal_code": "35454"
  },
  {
    "id": 180906,
    "province_id": 18,
    "regency_id": 1809,
    "district_id": 180906,
    "value": "Pulau Legundi",
    "postal_code": "35454"
  },
  {
    "id": 180906,
    "province_id": 18,
    "regency_id": 1809,
    "district_id": 180906,
    "value": "Rusaba",
    "postal_code": "35454"
  },
  {
    "id": 180906,
    "province_id": 18,
    "regency_id": 1809,
    "district_id": 180906,
    "value": "Suka Maju",
    "postal_code": "35454"
  },
  {
    "id": 180906,
    "province_id": 18,
    "regency_id": 1809,
    "district_id": 180906,
    "value": "Sukajaya Pidada",
    "postal_code": "35454"
  },
  {
    "id": 180906,
    "province_id": 18,
    "regency_id": 1809,
    "district_id": 180906,
    "value": "Sukarame",
    "postal_code": "35454"
  }
]