[
  {
    "id": 741006,
    "province_id": 74,
    "regency_id": 7410,
    "district_id": 741006,
    "value": "Laba Jaya",
    "postal_code": "93671"
  },
  {
    "id": 741006,
    "province_id": 74,
    "regency_id": 7410,
    "district_id": 741006,
    "value": "Labaraga",
    "postal_code": "93671"
  },
  {
    "id": 741006,
    "province_id": 74,
    "regency_id": 7410,
    "district_id": 741006,
    "value": "Labuan",
    "postal_code": "93671"
  },
  {
    "id": 741006,
    "province_id": 74,
    "regency_id": 7410,
    "district_id": 741006,
    "value": "Labuan Bajo",
    "postal_code": "93671"
  },
  {
    "id": 741006,
    "province_id": 74,
    "regency_id": 7410,
    "district_id": 741006,
    "value": "Labuan Walio",
    "postal_code": "93671"
  },
  {
    "id": 741006,
    "province_id": 74,
    "regency_id": 7410,
    "district_id": 741006,
    "value": "Labuko",
    "postal_code": "93671"
  },
  {
    "id": 741006,
    "province_id": 74,
    "regency_id": 7410,
    "district_id": 741006,
    "value": "Laea",
    "postal_code": "93671"
  },
  {
    "id": 741006,
    "province_id": 74,
    "regency_id": 7410,
    "district_id": 741006,
    "value": "Lasiwa",
    "postal_code": "93671"
  },
  {
    "id": 741006,
    "province_id": 74,
    "regency_id": 7410,
    "district_id": 741006,
    "value": "Matalagi",
    "postal_code": "93671"
  },
  {
    "id": 741006,
    "province_id": 74,
    "regency_id": 7410,
    "district_id": 741006,
    "value": "Oengkapala",
    "postal_code": "93671"
  },
  {
    "id": 741006,
    "province_id": 74,
    "regency_id": 7410,
    "district_id": 741006,
    "value": "Sumampeno",
    "postal_code": "93671"
  },
  {
    "id": 741006,
    "province_id": 74,
    "regency_id": 7410,
    "district_id": 741006,
    "value": "Wamorapa",
    "postal_code": "93671"
  },
  {
    "id": 741006,
    "province_id": 74,
    "regency_id": 7410,
    "district_id": 741006,
    "value": "Wantulasi",
    "postal_code": "93671"
  }
]