[
  {
    "id": 150809,
    "province_id": 15,
    "regency_id": 1508,
    "district_id": 150809,
    "value": "Bangun Harjo/Harja",
    "postal_code": "37252"
  },
  {
    "id": 150809,
    "province_id": 15,
    "regency_id": 1508,
    "district_id": 150809,
    "value": "Danau",
    "postal_code": "37252"
  },
  {
    "id": 150809,
    "province_id": 15,
    "regency_id": 1508,
    "district_id": 150809,
    "value": "Daya Murni",
    "postal_code": "37252"
  },
  {
    "id": 150809,
    "province_id": 15,
    "regency_id": 1508,
    "district_id": 150809,
    "value": "Karya Harapan Mukti",
    "postal_code": "37252"
  },
  {
    "id": 150809,
    "province_id": 15,
    "regency_id": 1508,
    "district_id": 150809,
    "value": "Koto Jayo",
    "postal_code": "37252"
  },
  {
    "id": 150809,
    "province_id": 15,
    "regency_id": 1508,
    "district_id": 150809,
    "value": "Kuamang Jaya",
    "postal_code": "37252"
  },
  {
    "id": 150809,
    "province_id": 15,
    "regency_id": 1508,
    "district_id": 150809,
    "value": "Kuning Gading",
    "postal_code": "37252"
  },
  {
    "id": 150809,
    "province_id": 15,
    "regency_id": 1508,
    "district_id": 150809,
    "value": "Lembah Kuamang",
    "postal_code": "37252"
  },
  {
    "id": 150809,
    "province_id": 15,
    "regency_id": 1508,
    "district_id": 150809,
    "value": "Lingga Kuamang",
    "postal_code": "37252"
  },
  {
    "id": 150809,
    "province_id": 15,
    "regency_id": 1508,
    "district_id": 150809,
    "value": "Lubuk",
    "postal_code": "37252"
  },
  {
    "id": 150809,
    "province_id": 15,
    "regency_id": 1508,
    "district_id": 150809,
    "value": "Maju Jaya",
    "postal_code": "37252"
  },
  {
    "id": 150809,
    "province_id": 15,
    "regency_id": 1508,
    "district_id": 150809,
    "value": "Muara Kuamang",
    "postal_code": "37252"
  },
  {
    "id": 150809,
    "province_id": 15,
    "regency_id": 1508,
    "district_id": 150809,
    "value": "Padang Palangeh",
    "postal_code": "37252"
  },
  {
    "id": 150809,
    "province_id": 15,
    "regency_id": 1508,
    "district_id": 150809,
    "value": "Purwosari (Purwasari)",
    "postal_code": "37252"
  },
  {
    "id": 150809,
    "province_id": 15,
    "regency_id": 1508,
    "district_id": 150809,
    "value": "Sumber Harapan",
    "postal_code": "37252"
  },
  {
    "id": 150809,
    "province_id": 15,
    "regency_id": 1508,
    "district_id": 150809,
    "value": "Sumber Mulya",
    "postal_code": "37252"
  },
  {
    "id": 150809,
    "province_id": 15,
    "regency_id": 1508,
    "district_id": 150809,
    "value": "Tirta Mulya",
    "postal_code": "37252"
  }
]