[
  {
    "id": 530201,
    "province_id": 53,
    "regency_id": 5302,
    "district_id": 530201,
    "value": "Cendana",
    "postal_code": "85519"
  },
  {
    "id": 530201,
    "province_id": 53,
    "regency_id": 5302,
    "district_id": 530201,
    "value": "Kampung Baru",
    "postal_code": "85519"
  },
  {
    "id": 530201,
    "province_id": 53,
    "regency_id": 5302,
    "district_id": 530201,
    "value": "Karang Sirih (Karang Siri)",
    "postal_code": "85519"
  },
  {
    "id": 530201,
    "province_id": 53,
    "regency_id": 5302,
    "district_id": 530201,
    "value": "Kobekamusa",
    "postal_code": "85515"
  },
  {
    "id": 530201,
    "province_id": 53,
    "regency_id": 5302,
    "district_id": 530201,
    "value": "Kota Baru",
    "postal_code": "85519"
  },
  {
    "id": 530201,
    "province_id": 53,
    "regency_id": 5302,
    "district_id": 530201,
    "value": "Kuatae",
    "postal_code": "85519"
  },
  {
    "id": 530201,
    "province_id": 53,
    "regency_id": 5302,
    "district_id": 530201,
    "value": "Noemeto",
    "postal_code": "85519"
  },
  {
    "id": 530201,
    "province_id": 53,
    "regency_id": 5302,
    "district_id": 530201,
    "value": "Nonohonis",
    "postal_code": "85517"
  },
  {
    "id": 530201,
    "province_id": 53,
    "regency_id": 5302,
    "district_id": 530201,
    "value": "Nunumeu",
    "postal_code": "85516"
  },
  {
    "id": 530201,
    "province_id": 53,
    "regency_id": 5302,
    "district_id": 530201,
    "value": "Oe Kefan (Oekefan)",
    "postal_code": "85519"
  },
  {
    "id": 530201,
    "province_id": 53,
    "regency_id": 5302,
    "district_id": 530201,
    "value": "Oebesa",
    "postal_code": "85515"
  },
  {
    "id": 530201,
    "province_id": 53,
    "regency_id": 5302,
    "district_id": 530201,
    "value": "So E (Soe)",
    "postal_code": "85519"
  },
  {
    "id": 530201,
    "province_id": 53,
    "regency_id": 5302,
    "district_id": 530201,
    "value": "Taubneno",
    "postal_code": "85511"
  }
]