[
  {
    "id": 160710,
    "province_id": 16,
    "regency_id": 1607,
    "district_id": 160710,
    "value": "Air Batu",
    "postal_code": "30961"
  },
  {
    "id": 160710,
    "province_id": 16,
    "regency_id": 1607,
    "district_id": 160710,
    "value": "Air Batu Jaya",
    "postal_code": "30961"
  },
  {
    "id": 160710,
    "province_id": 16,
    "regency_id": 1607,
    "district_id": 160710,
    "value": "Azhar Permai",
    "postal_code": "30961"
  },
  {
    "id": 160710,
    "province_id": 16,
    "regency_id": 1607,
    "district_id": 160710,
    "value": "Gasing",
    "postal_code": "30961"
  },
  {
    "id": 160710,
    "province_id": 16,
    "regency_id": 1607,
    "district_id": 160710,
    "value": "Kenten",
    "postal_code": "30961"
  },
  {
    "id": 160710,
    "province_id": 16,
    "regency_id": 1607,
    "district_id": 160710,
    "value": "Kenten Laut",
    "postal_code": "30961"
  },
  {
    "id": 160710,
    "province_id": 16,
    "regency_id": 1607,
    "district_id": 160710,
    "value": "Keramat Raya",
    "postal_code": "30961"
  },
  {
    "id": 160710,
    "province_id": 16,
    "regency_id": 1607,
    "district_id": 160710,
    "value": "Pangkalan Benteng",
    "postal_code": "30961"
  },
  {
    "id": 160710,
    "province_id": 16,
    "regency_id": 1607,
    "district_id": 160710,
    "value": "Rawa Maju",
    "postal_code": "30961"
  },
  {
    "id": 160710,
    "province_id": 16,
    "regency_id": 1607,
    "district_id": 160710,
    "value": "Sei Sedapat",
    "postal_code": "30961"
  },
  {
    "id": 160710,
    "province_id": 16,
    "regency_id": 1607,
    "district_id": 160710,
    "value": "Sukajadi",
    "postal_code": "30961"
  },
  {
    "id": 160710,
    "province_id": 16,
    "regency_id": 1607,
    "district_id": 160710,
    "value": "Sukajadi Timur",
    "postal_code": "30961"
  },
  {
    "id": 160710,
    "province_id": 16,
    "regency_id": 1607,
    "district_id": 160710,
    "value": "Sukomoro (Sukamoro)",
    "postal_code": "30961"
  },
  {
    "id": 160710,
    "province_id": 16,
    "regency_id": 1607,
    "district_id": 160710,
    "value": "Sungai Rengat Murni (Sungairengit Murni)",
    "postal_code": "30961"
  },
  {
    "id": 160710,
    "province_id": 16,
    "regency_id": 1607,
    "district_id": 160710,
    "value": "Sungairengit (Sungai Rengit)",
    "postal_code": "30961"
  },
  {
    "id": 160710,
    "province_id": 16,
    "regency_id": 1607,
    "district_id": 160710,
    "value": "Talang Buluh",
    "postal_code": "30961"
  },
  {
    "id": 160710,
    "province_id": 16,
    "regency_id": 1607,
    "district_id": 160710,
    "value": "Talang Keramat",
    "postal_code": "30961"
  },
  {
    "id": 160710,
    "province_id": 16,
    "regency_id": 1607,
    "district_id": 160710,
    "value": "Tanah Mas",
    "postal_code": "30961"
  },
  {
    "id": 160710,
    "province_id": 16,
    "regency_id": 1607,
    "district_id": 160710,
    "value": "Tanah Mas Indah",
    "postal_code": "30961"
  }
]