[
  {
    "id": 320245,
    "province_id": 32,
    "regency_id": 3202,
    "district_id": 320245,
    "value": "Bangbayang",
    "postal_code": "43186"
  },
  {
    "id": 320245,
    "province_id": 32,
    "regency_id": 3202,
    "district_id": 320245,
    "value": "Buniasih",
    "postal_code": "43186"
  },
  {
    "id": 320245,
    "province_id": 32,
    "regency_id": 3202,
    "district_id": 320245,
    "value": "Calingcing",
    "postal_code": "43186"
  },
  {
    "id": 320245,
    "province_id": 32,
    "regency_id": 3202,
    "district_id": 320245,
    "value": "Nangela",
    "postal_code": "43186"
  },
  {
    "id": 320245,
    "province_id": 32,
    "regency_id": 3202,
    "district_id": 320245,
    "value": "Rambay",
    "postal_code": "43186"
  },
  {
    "id": 320245,
    "province_id": 32,
    "regency_id": 3202,
    "district_id": 320245,
    "value": "Sirnamekar",
    "postal_code": "43186"
  },
  {
    "id": 320245,
    "province_id": 32,
    "regency_id": 3202,
    "district_id": 320245,
    "value": "Sumberjaya",
    "postal_code": "43186"
  },
  {
    "id": 320245,
    "province_id": 32,
    "regency_id": 3202,
    "district_id": 320245,
    "value": "Tegalbuleud",
    "postal_code": "43186"
  }
]