[
  {
    "id": 760312,
    "province_id": 76,
    "regency_id": 7603,
    "district_id": 760312,
    "value": "Balla",
    "postal_code": "91366"
  },
  {
    "id": 760312,
    "province_id": 76,
    "regency_id": 7603,
    "district_id": 760312,
    "value": "Balla Barat",
    "postal_code": "91366"
  },
  {
    "id": 760312,
    "province_id": 76,
    "regency_id": 7603,
    "district_id": 760312,
    "value": "Balla Satanetean",
    "postal_code": "91366"
  },
  {
    "id": 760312,
    "province_id": 76,
    "regency_id": 7603,
    "district_id": 760312,
    "value": "Balla Timur",
    "postal_code": "91366"
  },
  {
    "id": 760312,
    "province_id": 76,
    "regency_id": 7603,
    "district_id": 760312,
    "value": "Balla Tumuka",
    "postal_code": "91366"
  },
  {
    "id": 760312,
    "province_id": 76,
    "regency_id": 7603,
    "district_id": 760312,
    "value": "Bambapuang",
    "postal_code": "91366"
  },
  {
    "id": 760312,
    "province_id": 76,
    "regency_id": 7603,
    "district_id": 760312,
    "value": "Pidara",
    "postal_code": "91366"
  },
  {
    "id": 760312,
    "province_id": 76,
    "regency_id": 7603,
    "district_id": 760312,
    "value": "Sepakuan",
    "postal_code": "91366"
  }
]