[
  {
    "id": 352604,
    "province_id": 35,
    "regency_id": 3526,
    "district_id": 352604,
    "value": "Banyuajuh (Binajuh / Banyu Ajuh)",
    "postal_code": "69162"
  },
  {
    "id": 352604,
    "province_id": 35,
    "regency_id": 3526,
    "district_id": 352604,
    "value": "Gili Anyar",
    "postal_code": "69162"
  },
  {
    "id": 352604,
    "province_id": 35,
    "regency_id": 3526,
    "district_id": 352604,
    "value": "Gili Barat",
    "postal_code": "69162"
  },
  {
    "id": 352604,
    "province_id": 35,
    "regency_id": 3526,
    "district_id": 352604,
    "value": "Gili Timur",
    "postal_code": "69162"
  },
  {
    "id": 352604,
    "province_id": 35,
    "regency_id": 3526,
    "district_id": 352604,
    "value": "Kamal",
    "postal_code": "69162"
  },
  {
    "id": 352604,
    "province_id": 35,
    "regency_id": 3526,
    "district_id": 352604,
    "value": "Kebun",
    "postal_code": "69162"
  },
  {
    "id": 352604,
    "province_id": 35,
    "regency_id": 3526,
    "district_id": 352604,
    "value": "Pendabah (Pendebeh)",
    "postal_code": "69162"
  },
  {
    "id": 352604,
    "province_id": 35,
    "regency_id": 3526,
    "district_id": 352604,
    "value": "Tajungan",
    "postal_code": "69162"
  },
  {
    "id": 352604,
    "province_id": 35,
    "regency_id": 3526,
    "district_id": 352604,
    "value": "Tangjungjati (Tanjung Jati)",
    "postal_code": "69162"
  },
  {
    "id": 352604,
    "province_id": 35,
    "regency_id": 3526,
    "district_id": 352604,
    "value": "Tellang (Telang)",
    "postal_code": "69162"
  }
]