[
  {
    "id": 1509042016,
    "province_id": 15,
    "regency_id": 1509,
    "district_id": 150904,
    "value": "Jaya Mulya",
    "postal_code": "37551"
  },
  {
    "id": 1509041010,
    "province_id": 15,
    "regency_id": 1509,
    "district_id": 150904,
    "value": "Mandiri Agung",
    "postal_code": "37551"
  },
  {
    "id": 1509042011,
    "province_id": 15,
    "regency_id": 1509,
    "district_id": 150904,
    "value": "Mekar Kencana",
    "postal_code": "37551"
  },
  {
    "id": 1509042008,
    "province_id": 15,
    "regency_id": 1509,
    "district_id": 150904,
    "value": "Pematang Sapat",
    "postal_code": "37551"
  },
  {
    "id": 1509042002,
    "province_id": 15,
    "regency_id": 1509,
    "district_id": 150904,
    "value": "Perintis",
    "postal_code": "37551"
  },
  {
    "id": 1509042014,
    "province_id": 15,
    "regency_id": 1509,
    "district_id": 150904,
    "value": "Perintis Jaya",
    "postal_code": "37551"
  },
  {
    "id": 1509042015,
    "province_id": 15,
    "regency_id": 1509,
    "district_id": 150904,
    "value": "Perintis Makmur",
    "postal_code": "37551"
  },
  {
    "id": 1509042012,
    "province_id": 15,
    "regency_id": 1509,
    "district_id": 150904,
    "value": "Purwo Dadi",
    "postal_code": "37551"
  },
  {
    "id": 1509042004,
    "province_id": 15,
    "regency_id": 1509,
    "district_id": 150904,
    "value": "Purwo Harjo",
    "postal_code": "37551"
  },
  {
    "id": 1509042003,
    "province_id": 15,
    "regency_id": 1509,
    "district_id": 150904,
    "value": "Rimbo Mulyo",
    "postal_code": "37551"
  },
  {
    "id": 1509042007,
    "province_id": 15,
    "regency_id": 1509,
    "district_id": 150904,
    "value": "Sapta Mulia (Sapta Mulyo)",
    "postal_code": "37551"
  },
  {
    "id": 1509041009,
    "province_id": 15,
    "regency_id": 1509,
    "district_id": 150904,
    "value": "Sarana Agung",
    "postal_code": "37551"
  },
  {
    "id": 1509042005,
    "province_id": 15,
    "regency_id": 1509,
    "district_id": 150904,
    "value": "Tegal Arum",
    "postal_code": "37551"
  },
  {
    "id": 1509042013,
    "province_id": 15,
    "regency_id": 1509,
    "district_id": 150904,
    "value": "Tegal Asri",
    "postal_code": "37551"
  },
  {
    "id": 1509042006,
    "province_id": 15,
    "regency_id": 1509,
    "district_id": 150904,
    "value": "Tirta Kencana (Tirtakencana)",
    "postal_code": "37551"
  },
  {
    "id": 1509041001,
    "province_id": 15,
    "regency_id": 1509,
    "district_id": 150904,
    "value": "Wirotho Agung",
    "postal_code": "37551"
  }
]