[
  {
    "id": 7606012006,
    "province_id": 76,
    "regency_id": 7606,
    "district_id": 760601,
    "value": "Bambadaru",
    "postal_code": "91463"
  },
  {
    "id": 7606012005,
    "province_id": 76,
    "regency_id": 7606,
    "district_id": 760601,
    "value": "Batu Parigi",
    "postal_code": "91463"
  },
  {
    "id": 7606012001,
    "province_id": 76,
    "regency_id": 7606,
    "district_id": 760601,
    "value": "Mahahe",
    "postal_code": "91463"
  },
  {
    "id": 7606012004,
    "province_id": 76,
    "regency_id": 7606,
    "district_id": 760601,
    "value": "Palongaan (Polongaan)",
    "postal_code": "91463"
  },
  {
    "id": 7606012008,
    "province_id": 76,
    "regency_id": 7606,
    "district_id": 760601,
    "value": "Saloadak",
    "postal_code": "91463"
  },
  {
    "id": 7606012002,
    "province_id": 76,
    "regency_id": 7606,
    "district_id": 760601,
    "value": "Salobaja (Sulobaja)",
    "postal_code": "91463"
  },
  {
    "id": 7606012007,
    "province_id": 76,
    "regency_id": 7606,
    "district_id": 760601,
    "value": "Sejati",
    "postal_code": "91463"
  },
  {
    "id": 7606012003,
    "province_id": 76,
    "regency_id": 7606,
    "district_id": 760601,
    "value": "Tobadak",
    "postal_code": "91463"
  }
]