[
  {
    "id": 7408012016,
    "province_id": 74,
    "regency_id": 7408,
    "district_id": 740801,
    "value": "Babussalam",
    "postal_code": "93916"
  },
  {
    "id": 7408012017,
    "province_id": 74,
    "regency_id": 7408,
    "district_id": 740801,
    "value": "Batu Ganda Permai",
    "postal_code": "93916"
  },
  {
    "id": 7408011001,
    "province_id": 74,
    "regency_id": 7408,
    "district_id": 740801,
    "value": "Lasusua",
    "postal_code": "93911"
  },
  {
    "id": 7408012015,
    "province_id": 74,
    "regency_id": 7408,
    "district_id": 740801,
    "value": "Patowonua",
    "postal_code": "93916"
  },
  {
    "id": 7408012002,
    "province_id": 74,
    "regency_id": 7408,
    "district_id": 740801,
    "value": "Pitulua",
    "postal_code": "93915"
  },
  {
    "id": 7408012008,
    "province_id": 74,
    "regency_id": 7408,
    "district_id": 740801,
    "value": "Ponggiha",
    "postal_code": "93912"
  },
  {
    "id": 7408012018,
    "province_id": 74,
    "regency_id": 7408,
    "district_id": 740801,
    "value": "Puncak Monapa (Pucak Monapa)",
    "postal_code": "93916"
  },
  {
    "id": 7408012003,
    "province_id": 74,
    "regency_id": 7408,
    "district_id": 740801,
    "value": "Rante Limbong (Rante Limbung)",
    "postal_code": "93916"
  },
  {
    "id": 7408012010,
    "province_id": 74,
    "regency_id": 7408,
    "district_id": 740801,
    "value": "Sulaho",
    "postal_code": "93916"
  },
  {
    "id": 7408012007,
    "province_id": 74,
    "regency_id": 7408,
    "district_id": 740801,
    "value": "Tojabi",
    "postal_code": "93916"
  },
  {
    "id": 7408012006,
    "province_id": 74,
    "regency_id": 7408,
    "district_id": 740801,
    "value": "Totallang",
    "postal_code": "93916"
  },
  {
    "id": 7408012009,
    "province_id": 74,
    "regency_id": 7408,
    "district_id": 740801,
    "value": "Watuliwu",
    "postal_code": "93916"
  }
]