[
  {
    "id": 320937,
    "province_id": 32,
    "regency_id": 3209,
    "district_id": 320937,
    "value": "Cikeusal",
    "postal_code": "45161"
  },
  {
    "id": 320937,
    "province_id": 32,
    "regency_id": 3209,
    "district_id": 320937,
    "value": "Cupang",
    "postal_code": "45161"
  },
  {
    "id": 320937,
    "province_id": 32,
    "regency_id": 3209,
    "district_id": 320937,
    "value": "Gempol",
    "postal_code": "45161"
  },
  {
    "id": 320937,
    "province_id": 32,
    "regency_id": 3209,
    "district_id": 320937,
    "value": "Kedungbunder",
    "postal_code": "45161"
  },
  {
    "id": 320937,
    "province_id": 32,
    "regency_id": 3209,
    "district_id": 320937,
    "value": "Kempek",
    "postal_code": "45161"
  },
  {
    "id": 320937,
    "province_id": 32,
    "regency_id": 3209,
    "district_id": 320937,
    "value": "Palimanan Barat",
    "postal_code": "45161"
  },
  {
    "id": 320937,
    "province_id": 32,
    "regency_id": 3209,
    "district_id": 320937,
    "value": "Walahar",
    "postal_code": "45161"
  },
  {
    "id": 320937,
    "province_id": 32,
    "regency_id": 3209,
    "district_id": 320937,
    "value": "Winong",
    "postal_code": "45161"
  }
]