[
  {
    "id": 730826,
    "province_id": 73,
    "regency_id": 7308,
    "district_id": 730826,
    "value": "Bengo",
    "postal_code": "92763"
  },
  {
    "id": 730826,
    "province_id": 73,
    "regency_id": 7308,
    "district_id": 730826,
    "value": "Bulu Allaporenge (Bulu Allapporenge)",
    "postal_code": "92763"
  },
  {
    "id": 730826,
    "province_id": 73,
    "regency_id": 7308,
    "district_id": 730826,
    "value": "Lili Riawang (Liliriawang)",
    "postal_code": "92763"
  },
  {
    "id": 730826,
    "province_id": 73,
    "regency_id": 7308,
    "district_id": 730826,
    "value": "Mattaropuli (Mattaro Puli)",
    "postal_code": "92763"
  },
  {
    "id": 730826,
    "province_id": 73,
    "regency_id": 7308,
    "district_id": 730826,
    "value": "Mattirowalie (Mattiro Walie)",
    "postal_code": "92763"
  },
  {
    "id": 730826,
    "province_id": 73,
    "regency_id": 7308,
    "district_id": 730826,
    "value": "Samaenre",
    "postal_code": "92763"
  },
  {
    "id": 730826,
    "province_id": 73,
    "regency_id": 7308,
    "district_id": 730826,
    "value": "Selli",
    "postal_code": "92763"
  },
  {
    "id": 730826,
    "province_id": 73,
    "regency_id": 7308,
    "district_id": 730826,
    "value": "Tungke",
    "postal_code": "92763"
  },
  {
    "id": 730826,
    "province_id": 73,
    "regency_id": 7308,
    "district_id": 730826,
    "value": "Walimpong",
    "postal_code": "92763"
  }
]