[
  {
    "id": 621301,
    "province_id": 62,
    "regency_id": 6213,
    "district_id": 621301,
    "value": "Didi",
    "postal_code": "73617"
  },
  {
    "id": 621301,
    "province_id": 62,
    "regency_id": 6213,
    "district_id": 621301,
    "value": "Dorong",
    "postal_code": "73614"
  },
  {
    "id": 621301,
    "province_id": 62,
    "regency_id": 6213,
    "district_id": 621301,
    "value": "Gumpa",
    "postal_code": "73618"
  },
  {
    "id": 621301,
    "province_id": 62,
    "regency_id": 6213,
    "district_id": 621301,
    "value": "Harara",
    "postal_code": "73618"
  },
  {
    "id": 621301,
    "province_id": 62,
    "regency_id": 6213,
    "district_id": 621301,
    "value": "Haringen",
    "postal_code": "73615"
  },
  {
    "id": 621301,
    "province_id": 62,
    "regency_id": 6213,
    "district_id": 621301,
    "value": "Jaar",
    "postal_code": "73617"
  },
  {
    "id": 621301,
    "province_id": 62,
    "regency_id": 6213,
    "district_id": 621301,
    "value": "Jaweten",
    "postal_code": "73617"
  },
  {
    "id": 621301,
    "province_id": 62,
    "regency_id": 6213,
    "district_id": 621301,
    "value": "Karang Langit",
    "postal_code": "73617"
  },
  {
    "id": 621301,
    "province_id": 62,
    "regency_id": 6213,
    "district_id": 621301,
    "value": "Magantis",
    "postal_code": "73612"
  },
  {
    "id": 621301,
    "province_id": 62,
    "regency_id": 6213,
    "district_id": 621301,
    "value": "Mangkarap (angkarap)",
    "postal_code": "73618"
  },
  {
    "id": 621301,
    "province_id": 62,
    "regency_id": 6213,
    "district_id": 621301,
    "value": "Maragut",
    "postal_code": "73618"
  },
  {
    "id": 621301,
    "province_id": 62,
    "regency_id": 6213,
    "district_id": 621301,
    "value": "Matabu",
    "postal_code": "73613"
  },
  {
    "id": 621301,
    "province_id": 62,
    "regency_id": 6213,
    "district_id": 621301,
    "value": "Matarah",
    "postal_code": "73618"
  },
  {
    "id": 621301,
    "province_id": 62,
    "regency_id": 6213,
    "district_id": 621301,
    "value": "Pulau Patai",
    "postal_code": "73617"
  },
  {
    "id": 621301,
    "province_id": 62,
    "regency_id": 6213,
    "district_id": 621301,
    "value": "Sarapat (Ex. Harara)",
    "postal_code": "73617"
  },
  {
    "id": 621301,
    "province_id": 62,
    "regency_id": 6213,
    "district_id": 621301,
    "value": "Sumur",
    "postal_code": "73618"
  },
  {
    "id": 621301,
    "province_id": 62,
    "regency_id": 6213,
    "district_id": 621301,
    "value": "Tamianglayang (Tamiang Layang)",
    "postal_code": "73617"
  }
]