[
  {
    "id": 930401,
    "province_id": 93,
    "regency_id": 9304,
    "district_id": 930401,
    "value": "Asuwetsy",
    "postal_code": "99777"
  },
  {
    "id": 930401,
    "province_id": 93,
    "regency_id": 9304,
    "district_id": 930401,
    "value": "Beriten",
    "postal_code": "99777"
  },
  {
    "id": 930401,
    "province_id": 93,
    "regency_id": 9304,
    "district_id": 930401,
    "value": "Bis Agats",
    "postal_code": "99777"
  },
  {
    "id": 930401,
    "province_id": 93,
    "regency_id": 9304,
    "district_id": 930401,
    "value": "Bismam",
    "postal_code": "99777"
  },
  {
    "id": 930401,
    "province_id": 93,
    "regency_id": 9304,
    "district_id": 930401,
    "value": "Bou",
    "postal_code": "99777"
  },
  {
    "id": 930401,
    "province_id": 93,
    "regency_id": 9304,
    "district_id": 930401,
    "value": "Kaye",
    "postal_code": "99777"
  },
  {
    "id": 930401,
    "province_id": 93,
    "regency_id": 9304,
    "district_id": 930401,
    "value": "Mbait",
    "postal_code": "99777"
  },
  {
    "id": 930401,
    "province_id": 93,
    "regency_id": 9304,
    "district_id": 930401,
    "value": "Per",
    "postal_code": "99777"
  },
  {
    "id": 930401,
    "province_id": 93,
    "regency_id": 9304,
    "district_id": 930401,
    "value": "Saw",
    "postal_code": "99777"
  },
  {
    "id": 930401,
    "province_id": 93,
    "regency_id": 9304,
    "district_id": 930401,
    "value": "Suwru",
    "postal_code": "99777"
  },
  {
    "id": 930401,
    "province_id": 93,
    "regency_id": 9304,
    "district_id": 930401,
    "value": "Uwus",
    "postal_code": "99777"
  },
  {
    "id": 930401,
    "province_id": 93,
    "regency_id": 9304,
    "district_id": 930401,
    "value": "Yomoth",
    "postal_code": "99777"
  }
]