[
  {
    "id": 5206112006,
    "province_id": 52,
    "regency_id": 5206,
    "district_id": 520611,
    "value": "Doro Oo (Doro O'o)",
    "postal_code": "84180"
  },
  {
    "id": 5206112011,
    "province_id": 52,
    "regency_id": 5206,
    "district_id": 520611,
    "value": "Dumu",
    "postal_code": "84180"
  },
  {
    "id": 5206112004,
    "province_id": 52,
    "regency_id": 5206,
    "district_id": 520611,
    "value": "Kalodu",
    "postal_code": "84180"
  },
  {
    "id": 5206112008,
    "province_id": 52,
    "regency_id": 5206,
    "district_id": 520611,
    "value": "Kangga",
    "postal_code": "84180"
  },
  {
    "id": 5206112009,
    "province_id": 52,
    "regency_id": 5206,
    "district_id": 520611,
    "value": "Karampi",
    "postal_code": "84180"
  },
  {
    "id": 5206112002,
    "province_id": 52,
    "regency_id": 5206,
    "district_id": 520611,
    "value": "Karumbu",
    "postal_code": "84180"
  },
  {
    "id": 5206112005,
    "province_id": 52,
    "regency_id": 5206,
    "district_id": 520611,
    "value": "Kawuwu",
    "postal_code": "84180"
  },
  {
    "id": 5206112007,
    "province_id": 52,
    "regency_id": 5206,
    "district_id": 520611,
    "value": "Laju",
    "postal_code": "84180"
  },
  {
    "id": 5206112014,
    "province_id": 52,
    "regency_id": 5206,
    "district_id": 520611,
    "value": "Pusu",
    "postal_code": "84180"
  },
  {
    "id": 5206112012,
    "province_id": 52,
    "regency_id": 5206,
    "district_id": 520611,
    "value": "Rompo",
    "postal_code": "84180"
  },
  {
    "id": 5206112003,
    "province_id": 52,
    "regency_id": 5206,
    "district_id": 520611,
    "value": "Rupe",
    "postal_code": "84180"
  },
  {
    "id": 5206112015,
    "province_id": 52,
    "regency_id": 5206,
    "district_id": 520611,
    "value": "Sambane",
    "postal_code": "84180"
  },
  {
    "id": 5206112013,
    "province_id": 52,
    "regency_id": 5206,
    "district_id": 520611,
    "value": "Sarae Ruma",
    "postal_code": "84180"
  },
  {
    "id": 5206112010,
    "province_id": 52,
    "regency_id": 5206,
    "district_id": 520611,
    "value": "Waduruka",
    "postal_code": "84180"
  },
  {
    "id": 5206112001,
    "province_id": 52,
    "regency_id": 5206,
    "district_id": 520611,
    "value": "Waworada",
    "postal_code": "84180"
  }
]