[
  {
    "id": 1404022009,
    "province_id": 14,
    "regency_id": 1404,
    "district_id": 140402,
    "value": "Bagan Jaya",
    "postal_code": "29272"
  },
  {
    "id": 1404021001,
    "province_id": 14,
    "regency_id": 1404,
    "district_id": 140402,
    "value": "Enok",
    "postal_code": "29272"
  },
  {
    "id": 1404022011,
    "province_id": 14,
    "regency_id": 1404,
    "district_id": 140402,
    "value": "Jaya Bhakti",
    "postal_code": "29272"
  },
  {
    "id": 1404021013,
    "province_id": 14,
    "regency_id": 1404,
    "district_id": 140402,
    "value": "Pantaiseberang Makmur (Pantai Seberang Makmur)",
    "postal_code": "29272"
  },
  {
    "id": 1404022004,
    "province_id": 14,
    "regency_id": 1404,
    "district_id": 140402,
    "value": "Pengalihan",
    "postal_code": "29272"
  },
  {
    "id": 1404021002,
    "province_id": 14,
    "regency_id": 1404,
    "district_id": 140402,
    "value": "Pusaran",
    "postal_code": "29272"
  },
  {
    "id": 1404022007,
    "province_id": 14,
    "regency_id": 1404,
    "district_id": 140402,
    "value": "Rantau Panjang",
    "postal_code": "29272"
  },
  {
    "id": 1404022006,
    "province_id": 14,
    "regency_id": 1404,
    "district_id": 140402,
    "value": "Simpang Tiga",
    "postal_code": "29272"
  },
  {
    "id": 1404022014,
    "province_id": 14,
    "regency_id": 1404,
    "district_id": 140402,
    "value": "Simpang Tiga Daratan",
    "postal_code": "29272"
  },
  {
    "id": 1404022010,
    "province_id": 14,
    "regency_id": 1404,
    "district_id": 140402,
    "value": "Suhada",
    "postal_code": "29272"
  },
  {
    "id": 1404022005,
    "province_id": 14,
    "regency_id": 1404,
    "district_id": 140402,
    "value": "Sungaiambat (Sungai Ambat)",
    "postal_code": "29272"
  },
  {
    "id": 1404022012,
    "province_id": 14,
    "regency_id": 1404,
    "district_id": 140402,
    "value": "Sungailokan (Sungai Lokan)",
    "postal_code": "29272"
  },
  {
    "id": 1404022008,
    "province_id": 14,
    "regency_id": 1404,
    "district_id": 140402,
    "value": "Sungairukam (Sungai Rukam)",
    "postal_code": "29272"
  },
  {
    "id": 1404021003,
    "province_id": 14,
    "regency_id": 1404,
    "district_id": 140402,
    "value": "Telukmedan (Teluk Medan)",
    "postal_code": "29272"
  }
]