[
  {
    "id": 5316042006,
    "province_id": 53,
    "regency_id": 5316,
    "district_id": 531604,
    "value": "Aewoe",
    "postal_code": "86463"
  },
  {
    "id": 5316042002,
    "province_id": 53,
    "regency_id": 5316,
    "district_id": 531604,
    "value": "Bela",
    "postal_code": "86463"
  },
  {
    "id": 5316042009,
    "province_id": 53,
    "regency_id": 5316,
    "district_id": 531604,
    "value": "Jawapogo",
    "postal_code": "86463"
  },
  {
    "id": 5316042019,
    "province_id": 53,
    "regency_id": 5316,
    "district_id": 531604,
    "value": "Keliwatulewa",
    "postal_code": "86463"
  },
  {
    "id": 5316042016,
    "province_id": 53,
    "regency_id": 5316,
    "district_id": 531604,
    "value": "Kotagana",
    "postal_code": "86463"
  },
  {
    "id": 5316042018,
    "province_id": 53,
    "regency_id": 5316,
    "district_id": 531604,
    "value": "Lajawajo",
    "postal_code": "86463"
  },
  {
    "id": 5316042011,
    "province_id": 53,
    "regency_id": 5316,
    "district_id": 531604,
    "value": "Lodaolo",
    "postal_code": "86463"
  },
  {
    "id": 5316042017,
    "province_id": 53,
    "regency_id": 5316,
    "district_id": 531604,
    "value": "Lokalaba",
    "postal_code": "86463"
  },
  {
    "id": 5316042005,
    "province_id": 53,
    "regency_id": 5316,
    "district_id": 531604,
    "value": "Maukeli",
    "postal_code": "86463"
  },
  {
    "id": 5316041001,
    "province_id": 53,
    "regency_id": 5316,
    "district_id": 531604,
    "value": "Mauponggo (Mau Ponggo)",
    "postal_code": "86463"
  },
  {
    "id": 5316042014,
    "province_id": 53,
    "regency_id": 5316,
    "district_id": 531604,
    "value": "Salalejo (Selalejo)",
    "postal_code": "86463"
  },
  {
    "id": 5316042008,
    "province_id": 53,
    "regency_id": 5316,
    "district_id": 531604,
    "value": "Sawu",
    "postal_code": "86463"
  },
  {
    "id": 5316042021,
    "province_id": 53,
    "regency_id": 5316,
    "district_id": 531604,
    "value": "Selalejo Timur",
    "postal_code": "86463"
  },
  {
    "id": 5316042015,
    "province_id": 53,
    "regency_id": 5316,
    "district_id": 531604,
    "value": "Ua",
    "postal_code": "86463"
  },
  {
    "id": 5316042010,
    "province_id": 53,
    "regency_id": 5316,
    "district_id": 531604,
    "value": "Ululoga",
    "postal_code": "86463"
  },
  {
    "id": 5316042013,
    "province_id": 53,
    "regency_id": 5316,
    "district_id": 531604,
    "value": "Woewolo",
    "postal_code": "86463"
  },
  {
    "id": 5316042012,
    "province_id": 53,
    "regency_id": 5316,
    "district_id": 531604,
    "value": "Woloede",
    "postal_code": "86463"
  },
  {
    "id": 5316042003,
    "province_id": 53,
    "regency_id": 5316,
    "district_id": 531604,
    "value": "Wolokisa",
    "postal_code": "86463"
  },
  {
    "id": 5316042020,
    "province_id": 53,
    "regency_id": 5316,
    "district_id": 531604,
    "value": "Wololelu",
    "postal_code": "86463"
  },
  {
    "id": 5316042007,
    "province_id": 53,
    "regency_id": 5316,
    "district_id": 531604,
    "value": "Wolotelu",
    "postal_code": "86463"
  },
  {
    "id": 5316042004,
    "province_id": 53,
    "regency_id": 5316,
    "district_id": 531604,
    "value": "Wuliwalo",
    "postal_code": "86463"
  }
]