[
  {
    "id": 332811,
    "province_id": 33,
    "regency_id": 3328,
    "district_id": 332811,
    "value": "Adiwerna",
    "postal_code": "52194"
  },
  {
    "id": 332811,
    "province_id": 33,
    "regency_id": 3328,
    "district_id": 332811,
    "value": "Bersole",
    "postal_code": "52194"
  },
  {
    "id": 332811,
    "province_id": 33,
    "regency_id": 3328,
    "district_id": 332811,
    "value": "Gumalar",
    "postal_code": "52194"
  },
  {
    "id": 332811,
    "province_id": 33,
    "regency_id": 3328,
    "district_id": 332811,
    "value": "Harjosari Kidul",
    "postal_code": "52194"
  },
  {
    "id": 332811,
    "province_id": 33,
    "regency_id": 3328,
    "district_id": 332811,
    "value": "Harjosari Lor",
    "postal_code": "52194"
  },
  {
    "id": 332811,
    "province_id": 33,
    "regency_id": 3328,
    "district_id": 332811,
    "value": "Kalimati",
    "postal_code": "52121"
  },
  {
    "id": 332811,
    "province_id": 33,
    "regency_id": 3328,
    "district_id": 332811,
    "value": "Kaliwadas",
    "postal_code": "52194"
  },
  {
    "id": 332811,
    "province_id": 33,
    "regency_id": 3328,
    "district_id": 332811,
    "value": "Kedungsukun",
    "postal_code": "52194"
  },
  {
    "id": 332811,
    "province_id": 33,
    "regency_id": 3328,
    "district_id": 332811,
    "value": "Lemahduwur",
    "postal_code": "52194"
  },
  {
    "id": 332811,
    "province_id": 33,
    "regency_id": 3328,
    "district_id": 332811,
    "value": "Lumingser",
    "postal_code": "52194"
  },
  {
    "id": 332811,
    "province_id": 33,
    "regency_id": 3328,
    "district_id": 332811,
    "value": "Pagedangan",
    "postal_code": "52194"
  },
  {
    "id": 332811,
    "province_id": 33,
    "regency_id": 3328,
    "district_id": 332811,
    "value": "Pagiyanten",
    "postal_code": "52194"
  },
  {
    "id": 332811,
    "province_id": 33,
    "regency_id": 3328,
    "district_id": 332811,
    "value": "Pecangakan",
    "postal_code": "52194"
  },
  {
    "id": 332811,
    "province_id": 33,
    "regency_id": 3328,
    "district_id": 332811,
    "value": "Pedeslohor",
    "postal_code": "52194"
  },
  {
    "id": 332811,
    "province_id": 33,
    "regency_id": 3328,
    "district_id": 332811,
    "value": "Penarukan",
    "postal_code": "52194"
  },
  {
    "id": 332811,
    "province_id": 33,
    "regency_id": 3328,
    "district_id": 332811,
    "value": "Pesarean",
    "postal_code": "52194"
  },
  {
    "id": 332811,
    "province_id": 33,
    "regency_id": 3328,
    "district_id": 332811,
    "value": "Tembok Banjaran",
    "postal_code": "52194"
  },
  {
    "id": 332811,
    "province_id": 33,
    "regency_id": 3328,
    "district_id": 332811,
    "value": "Tembok Kidul",
    "postal_code": "52194"
  },
  {
    "id": 332811,
    "province_id": 33,
    "regency_id": 3328,
    "district_id": 332811,
    "value": "Tembok Lor",
    "postal_code": "52194"
  },
  {
    "id": 332811,
    "province_id": 33,
    "regency_id": 3328,
    "district_id": 332811,
    "value": "Tembok Luwung",
    "postal_code": "52194"
  },
  {
    "id": 332811,
    "province_id": 33,
    "regency_id": 3328,
    "district_id": 332811,
    "value": "Ujungrusi",
    "postal_code": "52194"
  }
]