[
  {
    "id": 950437,
    "province_id": 95,
    "regency_id": 9504,
    "district_id": 950437,
    "value": "Baganagapur",
    "postal_code": "99034"
  },
  {
    "id": 950437,
    "province_id": 95,
    "regency_id": 9504,
    "district_id": 950437,
    "value": "Banggeri",
    "postal_code": "99034"
  },
  {
    "id": 950437,
    "province_id": 95,
    "regency_id": 9504,
    "district_id": 950437,
    "value": "Geyaneri",
    "postal_code": "99034"
  },
  {
    "id": 950437,
    "province_id": 95,
    "regency_id": 9504,
    "district_id": 950437,
    "value": "Igari",
    "postal_code": "99034"
  },
  {
    "id": 950437,
    "province_id": 95,
    "regency_id": 9504,
    "district_id": 950437,
    "value": "Kopenawai",
    "postal_code": "99034"
  },
  {
    "id": 950437,
    "province_id": 95,
    "regency_id": 9504,
    "district_id": 950437,
    "value": "Mili",
    "postal_code": "99034"
  },
  {
    "id": 950437,
    "province_id": 95,
    "regency_id": 9504,
    "district_id": 950437,
    "value": "Milineri",
    "postal_code": "99034"
  },
  {
    "id": 950437,
    "province_id": 95,
    "regency_id": 9504,
    "district_id": 950437,
    "value": "Telelomi",
    "postal_code": "99034"
  },
  {
    "id": 950437,
    "province_id": 95,
    "regency_id": 9504,
    "district_id": 950437,
    "value": "Tina",
    "postal_code": "99034"
  },
  {
    "id": 950437,
    "province_id": 95,
    "regency_id": 9504,
    "district_id": 950437,
    "value": "Wunggi",
    "postal_code": "99034"
  }
]