[
  {
    "id": 1103142015,
    "province_id": 11,
    "regency_id": 1103,
    "district_id": 110314,
    "value": "Alue Kumbang A",
    "postal_code": "24443"
  },
  {
    "id": 1103142016,
    "province_id": 11,
    "regency_id": 1103,
    "district_id": 110314,
    "value": "Alue Kumbang M",
    "postal_code": "24443"
  },
  {
    "id": 1103142017,
    "province_id": 11,
    "regency_id": 1103,
    "district_id": 110314,
    "value": "Alue Lhok",
    "postal_code": "24443"
  },
  {
    "id": 1103142020,
    "province_id": 11,
    "regency_id": 1103,
    "district_id": 110314,
    "value": "Bantayan Barat",
    "postal_code": "24443"
  },
  {
    "id": 1103142021,
    "province_id": 11,
    "regency_id": 1103,
    "district_id": 110314,
    "value": "Blang Guci (Seguci)",
    "postal_code": "24443"
  },
  {
    "id": 1103142014,
    "province_id": 11,
    "regency_id": 1103,
    "district_id": 110314,
    "value": "Blang Minjei",
    "postal_code": "24443"
  },
  {
    "id": 1103142013,
    "province_id": 11,
    "regency_id": 1103,
    "district_id": 110314,
    "value": "Buket Pu'uk (Buket Puuk)",
    "postal_code": "24443"
  },
  {
    "id": 1103142022,
    "province_id": 11,
    "regency_id": 1103,
    "district_id": 110314,
    "value": "Buket Rumiya",
    "postal_code": "24443"
  },
  {
    "id": 1103142012,
    "province_id": 11,
    "regency_id": 1103,
    "district_id": 110314,
    "value": "Buket Teukuh",
    "postal_code": "24443"
  },
  {
    "id": 1103142006,
    "province_id": 11,
    "regency_id": 1103,
    "district_id": 110314,
    "value": "Gampong Keumuneng (Keumuning)",
    "postal_code": "24443"
  },
  {
    "id": 1103142007,
    "province_id": 11,
    "regency_id": 1103,
    "district_id": 110314,
    "value": "Keude Keumuneng",
    "postal_code": "24443"
  },
  {
    "id": 1103142008,
    "province_id": 11,
    "regency_id": 1103,
    "district_id": 110314,
    "value": "Keumuneng Lhok",
    "postal_code": "24443"
  },
  {
    "id": 1103142011,
    "province_id": 11,
    "regency_id": 1103,
    "district_id": 110314,
    "value": "Padang Kasah",
    "postal_code": "24443"
  },
  {
    "id": 1103142009,
    "province_id": 11,
    "regency_id": 1103,
    "district_id": 110314,
    "value": "Paya Awe / Awee",
    "postal_code": "24443"
  },
  {
    "id": 1103142010,
    "province_id": 11,
    "regency_id": 1103,
    "district_id": 110314,
    "value": "Paya Gaboh",
    "postal_code": "24443"
  },
  {
    "id": 1103142002,
    "province_id": 11,
    "regency_id": 1103,
    "district_id": 110314,
    "value": "Seuneubok Baro",
    "postal_code": "24443"
  },
  {
    "id": 1103142001,
    "province_id": 11,
    "regency_id": 1103,
    "district_id": 110314,
    "value": "Seuneubok Buloh",
    "postal_code": "24443"
  },
  {
    "id": 1103142018,
    "province_id": 11,
    "regency_id": 1103,
    "district_id": 110314,
    "value": "Seuneubok Buya",
    "postal_code": "24443"
  },
  {
    "id": 1103142025,
    "province_id": 11,
    "regency_id": 1103,
    "district_id": 110314,
    "value": "Seuneubok Dalam",
    "postal_code": "24443"
  },
  {
    "id": 1103142019,
    "province_id": 11,
    "regency_id": 1103,
    "district_id": 110314,
    "value": "Seuneubok Drien",
    "postal_code": "24443"
  },
  {
    "id": 1103142024,
    "province_id": 11,
    "regency_id": 1103,
    "district_id": 110314,
    "value": "Seuneubok Jalan",
    "postal_code": "24443"
  },
  {
    "id": 1103142003,
    "province_id": 11,
    "regency_id": 1103,
    "district_id": 110314,
    "value": "Seuneubok Meureudu (Meurudu)",
    "postal_code": "24443"
  },
  {
    "id": 1103142023,
    "province_id": 11,
    "regency_id": 1103,
    "district_id": 110314,
    "value": "Seuneubok Punti",
    "postal_code": "24443"
  },
  {
    "id": 1103142004,
    "province_id": 11,
    "regency_id": 1103,
    "district_id": 110314,
    "value": "Seuneubok Teupin Panah",
    "postal_code": "24443"
  },
  {
    "id": 1103142005,
    "province_id": 11,
    "regency_id": 1103,
    "district_id": 110314,
    "value": "Teupin Panah (Gampong Teupin Panah)",
    "postal_code": "24443"
  }
]