[
  {
    "id": 7207152001,
    "province_id": 72,
    "regency_id": 7207,
    "district_id": 720715,
    "value": "Kalumbatan",
    "postal_code": "94887"
  },
  {
    "id": 7207152006,
    "province_id": 72,
    "regency_id": 7207,
    "district_id": 720715,
    "value": "Kanali",
    "postal_code": "94887"
  },
  {
    "id": 7207152008,
    "province_id": 72,
    "regency_id": 7207,
    "district_id": 720715,
    "value": "Lobuton",
    "postal_code": "94887"
  },
  {
    "id": 7207152007,
    "province_id": 72,
    "regency_id": 7207,
    "district_id": 720715,
    "value": "Mata",
    "postal_code": "94887"
  },
  {
    "id": 7207152004,
    "province_id": 72,
    "regency_id": 7207,
    "district_id": 720715,
    "value": "Nulion",
    "postal_code": "94887"
  },
  {
    "id": 7207152005,
    "province_id": 72,
    "regency_id": 7207,
    "district_id": 720715,
    "value": "Peley",
    "postal_code": "94887"
  },
  {
    "id": 7207152003,
    "province_id": 72,
    "regency_id": 7207,
    "district_id": 720715,
    "value": "Tobungku",
    "postal_code": "94887"
  },
  {
    "id": 7207152002,
    "province_id": 72,
    "regency_id": 7207,
    "district_id": 720715,
    "value": "Tonuson",
    "postal_code": "94887"
  }
]