[
  {
    "id": 3524232004,
    "province_id": 35,
    "regency_id": 3524,
    "district_id": 352423,
    "value": "Bakalanpule",
    "postal_code": "62280"
  },
  {
    "id": 3524232013,
    "province_id": 35,
    "regency_id": 3524,
    "district_id": 352423,
    "value": "Balongwangi",
    "postal_code": "62280"
  },
  {
    "id": 3524232012,
    "province_id": 35,
    "regency_id": 3524,
    "district_id": 352423,
    "value": "Botoputih",
    "postal_code": "62280"
  },
  {
    "id": 3524232010,
    "province_id": 35,
    "regency_id": 3524,
    "district_id": 352423,
    "value": "Dukuhagung",
    "postal_code": "62280"
  },
  {
    "id": 3524232003,
    "province_id": 35,
    "regency_id": 3524,
    "district_id": 352423,
    "value": "Guminingrejo",
    "postal_code": "62280"
  },
  {
    "id": 3524232009,
    "province_id": 35,
    "regency_id": 3524,
    "district_id": 352423,
    "value": "Jatirejo",
    "postal_code": "62280"
  },
  {
    "id": 3524232007,
    "province_id": 35,
    "regency_id": 3524,
    "district_id": 352423,
    "value": "Jotosanur",
    "postal_code": "62280"
  },
  {
    "id": 3524232006,
    "province_id": 35,
    "regency_id": 3524,
    "district_id": 352423,
    "value": "Kelorarum",
    "postal_code": "62280"
  },
  {
    "id": 3524232008,
    "province_id": 35,
    "regency_id": 3524,
    "district_id": 352423,
    "value": "Pengumbulanadi",
    "postal_code": "62280"
  },
  {
    "id": 3524232002,
    "province_id": 35,
    "regency_id": 3524,
    "district_id": 352423,
    "value": "Soko",
    "postal_code": "62280"
  },
  {
    "id": 3524232005,
    "province_id": 35,
    "regency_id": 3524,
    "district_id": 352423,
    "value": "Takeranklating",
    "postal_code": "62280"
  },
  {
    "id": 3524232011,
    "province_id": 35,
    "regency_id": 3524,
    "district_id": 352423,
    "value": "Tambakrigadung",
    "postal_code": "62280"
  },
  {
    "id": 3524232001,
    "province_id": 35,
    "regency_id": 3524,
    "district_id": 352423,
    "value": "Wonokromo",
    "postal_code": "62280"
  }
]