[
  {
    "id": 321109,
    "province_id": 32,
    "regency_id": 3211,
    "district_id": 321109,
    "value": "Nanjung Wangi (Nanjungwangi)",
    "postal_code": "45393"
  },
  {
    "id": 321109,
    "province_id": 32,
    "regency_id": 3211,
    "district_id": 321109,
    "value": "Pamekarsari",
    "postal_code": "45393"
  },
  {
    "id": 321109,
    "province_id": 32,
    "regency_id": 3211,
    "district_id": 321109,
    "value": "Ranggasari",
    "postal_code": "45393"
  },
  {
    "id": 321109,
    "province_id": 32,
    "regency_id": 3211,
    "district_id": 321109,
    "value": "Suriamedal (Suriamendal)",
    "postal_code": "45393"
  },
  {
    "id": 321109,
    "province_id": 32,
    "regency_id": 3211,
    "district_id": 321109,
    "value": "Suriamukti",
    "postal_code": "45393"
  },
  {
    "id": 321109,
    "province_id": 32,
    "regency_id": 3211,
    "district_id": 321109,
    "value": "Surian",
    "postal_code": "45393"
  },
  {
    "id": 321109,
    "province_id": 32,
    "regency_id": 3211,
    "district_id": 321109,
    "value": "Tanjung",
    "postal_code": "45393"
  },
  {
    "id": 321109,
    "province_id": 32,
    "regency_id": 3211,
    "district_id": 321109,
    "value": "Wanajaya",
    "postal_code": "45393"
  },
  {
    "id": 321109,
    "province_id": 32,
    "regency_id": 3211,
    "district_id": 321109,
    "value": "Wanasari",
    "postal_code": "45393"
  }
]