[
  {
    "id": 1805132010,
    "province_id": 18,
    "regency_id": 1805,
    "district_id": 180513,
    "value": "Bogatama (Boga Tama)",
    "postal_code": "34593"
  },
  {
    "id": 1805132021,
    "province_id": 18,
    "regency_id": 1805,
    "district_id": 180513,
    "value": "Dwimulyo (Dwi Mulyo)",
    "postal_code": "34593"
  },
  {
    "id": 1805132019,
    "province_id": 18,
    "regency_id": 1805,
    "district_id": 180513,
    "value": "Pulo Gadung",
    "postal_code": "34593"
  },
  {
    "id": 1805132022,
    "province_id": 18,
    "regency_id": 1805,
    "district_id": 180513,
    "value": "Rejo Sari (Rejosari)",
    "postal_code": "34593"
  },
  {
    "id": 1805132020,
    "province_id": 18,
    "regency_id": 1805,
    "district_id": 180513,
    "value": "Sidodadi",
    "postal_code": "34593"
  },
  {
    "id": 1805132005,
    "province_id": 18,
    "regency_id": 1805,
    "district_id": 180513,
    "value": "Sidoharjo",
    "postal_code": "34593"
  },
  {
    "id": 1805132024,
    "province_id": 18,
    "regency_id": 1805,
    "district_id": 180513,
    "value": "Sidomakmur",
    "postal_code": "34593"
  },
  {
    "id": 1805132006,
    "province_id": 18,
    "regency_id": 1805,
    "district_id": 180513,
    "value": "Sidomulyo",
    "postal_code": "34593"
  },
  {
    "id": 1805132002,
    "province_id": 18,
    "regency_id": 1805,
    "district_id": 180513,
    "value": "Tri Jaya",
    "postal_code": "34593"
  },
  {
    "id": 1805132001,
    "province_id": 18,
    "regency_id": 1805,
    "district_id": 180513,
    "value": "Tri Rejo Mulyo",
    "postal_code": "34593"
  },
  {
    "id": 1805132013,
    "province_id": 18,
    "regency_id": 1805,
    "district_id": 180513,
    "value": "Tri Tunggal Jaya",
    "postal_code": "34593"
  },
  {
    "id": 1805132025,
    "province_id": 18,
    "regency_id": 1805,
    "district_id": 180513,
    "value": "Trikarya (Tri Karya)",
    "postal_code": "34593"
  },
  {
    "id": 1805132023,
    "province_id": 18,
    "regency_id": 1805,
    "district_id": 180513,
    "value": "Wira Agung Sari (Wiraagung Sari)",
    "postal_code": "34593"
  },
  {
    "id": 1805132011,
    "province_id": 18,
    "regency_id": 1805,
    "district_id": 180513,
    "value": "Wiratama",
    "postal_code": "34593"
  }
]