[
  {
    "id": 320304,
    "province_id": 32,
    "regency_id": 3203,
    "district_id": 320304,
    "value": "Cibinonghilir (Cibinong Hilir)",
    "postal_code": "43285"
  },
  {
    "id": 320304,
    "province_id": 32,
    "regency_id": 3203,
    "district_id": 320304,
    "value": "Ciharashas",
    "postal_code": "43285"
  },
  {
    "id": 320304,
    "province_id": 32,
    "regency_id": 3203,
    "district_id": 320304,
    "value": "Mulyasari",
    "postal_code": "43285"
  },
  {
    "id": 320304,
    "province_id": 32,
    "regency_id": 3203,
    "district_id": 320304,
    "value": "Munjul",
    "postal_code": "43285"
  },
  {
    "id": 320304,
    "province_id": 32,
    "regency_id": 3203,
    "district_id": 320304,
    "value": "Rahong",
    "postal_code": "43285"
  },
  {
    "id": 320304,
    "province_id": 32,
    "regency_id": 3203,
    "district_id": 320304,
    "value": "Rancagoong",
    "postal_code": "43285"
  },
  {
    "id": 320304,
    "province_id": 32,
    "regency_id": 3203,
    "district_id": 320304,
    "value": "Sindangsari",
    "postal_code": "43285"
  },
  {
    "id": 320304,
    "province_id": 32,
    "regency_id": 3203,
    "district_id": 320304,
    "value": "Sirnagalih",
    "postal_code": "43285"
  },
  {
    "id": 320304,
    "province_id": 32,
    "regency_id": 3203,
    "district_id": 320304,
    "value": "Sukakerta",
    "postal_code": "43285"
  },
  {
    "id": 320304,
    "province_id": 32,
    "regency_id": 3203,
    "district_id": 320304,
    "value": "Sukasari",
    "postal_code": "43285"
  }
]