[
  {
    "id": 9209242002,
    "province_id": 92,
    "regency_id": 9209,
    "district_id": 920924,
    "value": "Ajami",
    "postal_code": "98392"
  },
  {
    "id": 9209242004,
    "province_id": 92,
    "regency_id": 9209,
    "district_id": 920924,
    "value": "Akari",
    "postal_code": "98392"
  },
  {
    "id": 9209242005,
    "province_id": 92,
    "regency_id": 9209,
    "district_id": 920924,
    "value": "Amnan",
    "postal_code": "98392"
  },
  {
    "id": 9209242003,
    "province_id": 92,
    "regency_id": 9209,
    "district_id": 920924,
    "value": "Aniti",
    "postal_code": "98392"
  },
  {
    "id": 9209242008,
    "province_id": 92,
    "regency_id": 9209,
    "district_id": 920924,
    "value": "Aritowi",
    "postal_code": "98392"
  },
  {
    "id": 9209242007,
    "province_id": 92,
    "regency_id": 9209,
    "district_id": 920924,
    "value": "Arwani",
    "postal_code": "98392"
  },
  {
    "id": 9209242006,
    "province_id": 92,
    "regency_id": 9209,
    "district_id": 920924,
    "value": "Atiki",
    "postal_code": "98392"
  },
  {
    "id": 9209242010,
    "province_id": 92,
    "regency_id": 9209,
    "district_id": 920924,
    "value": "Meiwar",
    "postal_code": "98392"
  },
  {
    "id": 9209242001,
    "province_id": 92,
    "regency_id": 9209,
    "district_id": 920924,
    "value": "Nekori",
    "postal_code": "98392"
  },
  {
    "id": 9209242009,
    "province_id": 92,
    "regency_id": 9209,
    "district_id": 920924,
    "value": "Umpay",
    "postal_code": "98392"
  }
]