[
  {
    "id": 1801142001,
    "province_id": 18,
    "regency_id": 1801,
    "district_id": 180114,
    "value": "Bangunrejo (Bangun Rejo)",
    "postal_code": "35596"
  },
  {
    "id": 1801142012,
    "province_id": 18,
    "regency_id": 1801,
    "district_id": 180114,
    "value": "Berundung",
    "postal_code": "35596"
  },
  {
    "id": 1801142003,
    "province_id": 18,
    "regency_id": 1801,
    "district_id": 180114,
    "value": "Karang Sari",
    "postal_code": "35596"
  },
  {
    "id": 1801142014,
    "province_id": 18,
    "regency_id": 1801,
    "district_id": 180114,
    "value": "Kemukus",
    "postal_code": "35596"
  },
  {
    "id": 1801142004,
    "province_id": 18,
    "regency_id": 1801,
    "district_id": 180114,
    "value": "Ketapang",
    "postal_code": "35596"
  },
  {
    "id": 1801142015,
    "province_id": 18,
    "regency_id": 1801,
    "district_id": 180114,
    "value": "Lebung Nala (Lembung Nala)",
    "postal_code": "35596"
  },
  {
    "id": 1801142005,
    "province_id": 18,
    "regency_id": 1801,
    "district_id": 180114,
    "value": "Legundi",
    "postal_code": "35596"
  },
  {
    "id": 1801142011,
    "province_id": 18,
    "regency_id": 1801,
    "district_id": 180114,
    "value": "Pematang Pasir",
    "postal_code": "35596"
  },
  {
    "id": 1801142007,
    "province_id": 18,
    "regency_id": 1801,
    "district_id": 180114,
    "value": "Ruguk",
    "postal_code": "35596"
  },
  {
    "id": 1801142010,
    "province_id": 18,
    "regency_id": 1801,
    "district_id": 180114,
    "value": "Sidoasih",
    "postal_code": "35596"
  },
  {
    "id": 1801142016,
    "province_id": 18,
    "regency_id": 1801,
    "district_id": 180114,
    "value": "Sidoluhur (Sido Luhur)",
    "postal_code": "35596"
  },
  {
    "id": 1801142002,
    "province_id": 18,
    "regency_id": 1801,
    "district_id": 180114,
    "value": "Sripendowo (Sri Pendowo)",
    "postal_code": "35596"
  },
  {
    "id": 1801142009,
    "province_id": 18,
    "regency_id": 1801,
    "district_id": 180114,
    "value": "Sumber Nadi (Sumbernadi)",
    "postal_code": "35596"
  },
  {
    "id": 1801142008,
    "province_id": 18,
    "regency_id": 1801,
    "district_id": 180114,
    "value": "Sumur",
    "postal_code": "35596"
  },
  {
    "id": 1801142013,
    "province_id": 18,
    "regency_id": 1801,
    "district_id": 180114,
    "value": "Taman Sari",
    "postal_code": "35596"
  },
  {
    "id": 1801142006,
    "province_id": 18,
    "regency_id": 1801,
    "district_id": 180114,
    "value": "Tri Dharma Yoga (Tridarmayoga)",
    "postal_code": "35596"
  },
  {
    "id": 1801142017,
    "province_id": 18,
    "regency_id": 1801,
    "district_id": 180114,
    "value": "Wai Sidomukti",
    "postal_code": "35596"
  }
]