[
  {
    "id": 110820,
    "province_id": 11,
    "regency_id": 1108,
    "district_id": 110820,
    "value": "Alue Leukot (Gampong Alue Leukot)",
    "postal_code": "24383"
  },
  {
    "id": 110820,
    "province_id": 11,
    "regency_id": 1108,
    "district_id": 110820,
    "value": "Alue Lhok (Gampong Alue Lhok)",
    "postal_code": "24383"
  },
  {
    "id": 110820,
    "province_id": 11,
    "regency_id": 1108,
    "district_id": 110820,
    "value": "Asan Seuleumak",
    "postal_code": "24383"
  },
  {
    "id": 110820,
    "province_id": 11,
    "regency_id": 1108,
    "district_id": 110820,
    "value": "Blang Ara (Gampong Blang Ara)",
    "postal_code": "24383"
  },
  {
    "id": 110820,
    "province_id": 11,
    "regency_id": 1108,
    "district_id": 110820,
    "value": "Blang Dalam",
    "postal_code": "24383"
  },
  {
    "id": 110820,
    "province_id": 11,
    "regency_id": 1108,
    "district_id": 110820,
    "value": "Blang Gunci",
    "postal_code": "24383"
  },
  {
    "id": 110820,
    "province_id": 11,
    "regency_id": 1108,
    "district_id": 110820,
    "value": "Blang Mane",
    "postal_code": "24383"
  },
  {
    "id": 110820,
    "province_id": 11,
    "regency_id": 1108,
    "district_id": 110820,
    "value": "Blang Paku",
    "postal_code": "24383"
  },
  {
    "id": 110820,
    "province_id": 11,
    "regency_id": 1108,
    "district_id": 110820,
    "value": "Blang Pante",
    "postal_code": "24383"
  },
  {
    "id": 110820,
    "province_id": 11,
    "regency_id": 1108,
    "district_id": 110820,
    "value": "Blang Sialet",
    "postal_code": "24383"
  },
  {
    "id": 110820,
    "province_id": 11,
    "regency_id": 1108,
    "district_id": 110820,
    "value": "Buket Guru",
    "postal_code": "24383"
  },
  {
    "id": 110820,
    "province_id": 11,
    "regency_id": 1108,
    "district_id": 110820,
    "value": "Buket Pidie",
    "postal_code": "24383"
  },
  {
    "id": 110820,
    "province_id": 11,
    "regency_id": 1108,
    "district_id": 110820,
    "value": "Cempeudak (Ceumpeudak)",
    "postal_code": "24383"
  },
  {
    "id": 110820,
    "province_id": 11,
    "regency_id": 1108,
    "district_id": 110820,
    "value": "Cot Teufah (Cot Tufah)",
    "postal_code": "24383"
  },
  {
    "id": 110820,
    "province_id": 11,
    "regency_id": 1108,
    "district_id": 110820,
    "value": "Gampong Nga",
    "postal_code": "24383"
  },
  {
    "id": 110820,
    "province_id": 11,
    "regency_id": 1108,
    "district_id": 110820,
    "value": "Geureughek",
    "postal_code": "24383"
  },
  {
    "id": 110820,
    "province_id": 11,
    "regency_id": 1108,
    "district_id": 110820,
    "value": "Glumpang/Geulumpang Pirak",
    "postal_code": "24383"
  },
  {
    "id": 110820,
    "province_id": 11,
    "regency_id": 1108,
    "district_id": 110820,
    "value": "Jok",
    "postal_code": "24383"
  },
  {
    "id": 110820,
    "province_id": 11,
    "regency_id": 1108,
    "district_id": 110820,
    "value": "Kebon Pirak (Keubon Pirak)",
    "postal_code": "24383"
  },
  {
    "id": 110820,
    "province_id": 11,
    "regency_id": 1108,
    "district_id": 110820,
    "value": "Keude Paya Bakong",
    "postal_code": "24383"
  },
  {
    "id": 110820,
    "province_id": 11,
    "regency_id": 1108,
    "district_id": 110820,
    "value": "Leuhong",
    "postal_code": "24383"
  },
  {
    "id": 110820,
    "province_id": 11,
    "regency_id": 1108,
    "district_id": 110820,
    "value": "Lueng",
    "postal_code": "24383"
  },
  {
    "id": 110820,
    "province_id": 11,
    "regency_id": 1108,
    "district_id": 110820,
    "value": "Mampree (Gampong Mampree)",
    "postal_code": "24383"
  },
  {
    "id": 110820,
    "province_id": 11,
    "regency_id": 1108,
    "district_id": 110820,
    "value": "Matang Panyang",
    "postal_code": "24383"
  },
  {
    "id": 110820,
    "province_id": 11,
    "regency_id": 1108,
    "district_id": 110820,
    "value": "Meunye Seuleumak",
    "postal_code": "24383"
  },
  {
    "id": 110820,
    "province_id": 11,
    "regency_id": 1108,
    "district_id": 110820,
    "value": "Meuria Seuleumak",
    "postal_code": "24383"
  },
  {
    "id": 110820,
    "province_id": 11,
    "regency_id": 1108,
    "district_id": 110820,
    "value": "Pante Seuleumak",
    "postal_code": "24383"
  },
  {
    "id": 110820,
    "province_id": 11,
    "regency_id": 1108,
    "district_id": 110820,
    "value": "Paya Meudru",
    "postal_code": "24383"
  },
  {
    "id": 110820,
    "province_id": 11,
    "regency_id": 1108,
    "district_id": 110820,
    "value": "Peureupok",
    "postal_code": "24383"
  },
  {
    "id": 110820,
    "province_id": 11,
    "regency_id": 1108,
    "district_id": 110820,
    "value": "Pucok Alue Seuleumak",
    "postal_code": "24383"
  },
  {
    "id": 110820,
    "province_id": 11,
    "regency_id": 1108,
    "district_id": 110820,
    "value": "Seuneubok Aceh (Gampong Seuneubok Aceh)",
    "postal_code": "24383"
  },
  {
    "id": 110820,
    "province_id": 11,
    "regency_id": 1108,
    "district_id": 110820,
    "value": "Simpang",
    "postal_code": "24383"
  },
  {
    "id": 110820,
    "province_id": 11,
    "regency_id": 1108,
    "district_id": 110820,
    "value": "Tanjong Burunyong (Tanjong Beurunyong)",
    "postal_code": "24383"
  },
  {
    "id": 110820,
    "province_id": 11,
    "regency_id": 1108,
    "district_id": 110820,
    "value": "Tanjung Drien (Tanjong Drien)",
    "postal_code": "24383"
  },
  {
    "id": 110820,
    "province_id": 11,
    "regency_id": 1108,
    "district_id": 110820,
    "value": "Tgk. Dibanda Tek-Tek (Teungku Dibanda Tektek)",
    "postal_code": "24383"
  },
  {
    "id": 110820,
    "province_id": 11,
    "regency_id": 1108,
    "district_id": 110820,
    "value": "Tgk.Dibanda Pirak (Teungku Dibanda Pirak)",
    "postal_code": "24383"
  },
  {
    "id": 110820,
    "province_id": 11,
    "regency_id": 1108,
    "district_id": 110820,
    "value": "Tumpok Mesjid",
    "postal_code": "24383"
  },
  {
    "id": 110820,
    "province_id": 11,
    "regency_id": 1108,
    "district_id": 110820,
    "value": "Tunong Krueng",
    "postal_code": "24383"
  },
  {
    "id": 110820,
    "province_id": 11,
    "regency_id": 1108,
    "district_id": 110820,
    "value": "Ulue Bieng (Alue Bieng)",
    "postal_code": "24383"
  }
]