[
  {
    "id": 1115072012,
    "province_id": 11,
    "regency_id": 1115,
    "district_id": 111507,
    "value": "Arongan",
    "postal_code": "23660"
  },
  {
    "id": 1115072010,
    "province_id": 11,
    "regency_id": 1115,
    "district_id": 111507,
    "value": "Cot Rambong (Cot Me)",
    "postal_code": "23660"
  },
  {
    "id": 1115072002,
    "province_id": 11,
    "regency_id": 1115,
    "district_id": 111507,
    "value": "Gampong Lhok",
    "postal_code": "23660"
  },
  {
    "id": 1115072013,
    "province_id": 11,
    "regency_id": 1115,
    "district_id": 111507,
    "value": "Jati Rejo (Jatirejo)",
    "postal_code": "23660"
  },
  {
    "id": 1115072003,
    "province_id": 11,
    "regency_id": 1115,
    "district_id": 111507,
    "value": "Kuala Baro",
    "postal_code": "23660"
  },
  {
    "id": 1115072009,
    "province_id": 11,
    "regency_id": 1115,
    "district_id": 111507,
    "value": "Kuala Trang",
    "postal_code": "23660"
  },
  {
    "id": 1115072007,
    "province_id": 11,
    "regency_id": 1115,
    "district_id": 111507,
    "value": "Kuala Tuha",
    "postal_code": "23660"
  },
  {
    "id": 1115072008,
    "province_id": 11,
    "regency_id": 1115,
    "district_id": 111507,
    "value": "Kubang Gajah (Gubang Gajah)",
    "postal_code": "23660"
  },
  {
    "id": 1115072006,
    "province_id": 11,
    "regency_id": 1115,
    "district_id": 111507,
    "value": "Langkak",
    "postal_code": "23660"
  },
  {
    "id": 1115072015,
    "province_id": 11,
    "regency_id": 1115,
    "district_id": 111507,
    "value": "Leung Teuku Ben (Lueng T Ben)",
    "postal_code": "23660"
  },
  {
    "id": 1115072011,
    "province_id": 11,
    "regency_id": 1115,
    "district_id": 111507,
    "value": "Padang Panyang",
    "postal_code": "23660"
  },
  {
    "id": 1115072004,
    "province_id": 11,
    "regency_id": 1115,
    "district_id": 111507,
    "value": "Padang Rubek (Padang Rubeek)",
    "postal_code": "23660"
  },
  {
    "id": 1115072005,
    "province_id": 11,
    "regency_id": 1115,
    "district_id": 111507,
    "value": "Pulo",
    "postal_code": "23660"
  },
  {
    "id": 1115072014,
    "province_id": 11,
    "regency_id": 1115,
    "district_id": 111507,
    "value": "Purwodadi",
    "postal_code": "23660"
  },
  {
    "id": 1115072016,
    "province_id": 11,
    "regency_id": 1115,
    "district_id": 111507,
    "value": "Purwosari",
    "postal_code": "23660"
  },
  {
    "id": 1115072001,
    "province_id": 11,
    "regency_id": 1115,
    "district_id": 111507,
    "value": "Suak Puntong",
    "postal_code": "23660"
  }
]