[
  {
    "id": 710515,
    "province_id": 71,
    "regency_id": 7105,
    "district_id": 710515,
    "value": "Kumelembuai",
    "postal_code": "95956"
  },
  {
    "id": 710515,
    "province_id": 71,
    "regency_id": 7105,
    "district_id": 710515,
    "value": "Kumelembuai Atas",
    "postal_code": "95956"
  },
  {
    "id": 710515,
    "province_id": 71,
    "regency_id": 7105,
    "district_id": 710515,
    "value": "Kumelembuai Dua",
    "postal_code": "95956"
  },
  {
    "id": 710515,
    "province_id": 71,
    "regency_id": 7105,
    "district_id": 710515,
    "value": "Kumelembuai Satu",
    "postal_code": "95956"
  },
  {
    "id": 710515,
    "province_id": 71,
    "regency_id": 7105,
    "district_id": 710515,
    "value": "Lolombulan Makasili",
    "postal_code": "95956"
  },
  {
    "id": 710515,
    "province_id": 71,
    "regency_id": 7105,
    "district_id": 710515,
    "value": "Makasili",
    "postal_code": "95956"
  },
  {
    "id": 710515,
    "province_id": 71,
    "regency_id": 7105,
    "district_id": 710515,
    "value": "Malola",
    "postal_code": "95956"
  },
  {
    "id": 710515,
    "province_id": 71,
    "regency_id": 7105,
    "district_id": 710515,
    "value": "Malola I (Malola Satu)",
    "postal_code": "95956"
  }
]