[
  {
    "id": 351421,
    "province_id": 35,
    "regency_id": 3514,
    "district_id": 351421,
    "value": "Dandanggendis (Dandang Gendis)",
    "postal_code": "67185"
  },
  {
    "id": 351421,
    "province_id": 35,
    "regency_id": 3514,
    "district_id": 351421,
    "value": "Kapasan",
    "postal_code": "67185"
  },
  {
    "id": 351421,
    "province_id": 35,
    "regency_id": 3514,
    "district_id": 351421,
    "value": "Kedawang",
    "postal_code": "67185"
  },
  {
    "id": 351421,
    "province_id": 35,
    "regency_id": 3514,
    "district_id": 351421,
    "value": "Mlaten",
    "postal_code": "67185"
  },
  {
    "id": 351421,
    "province_id": 35,
    "regency_id": 3514,
    "district_id": 351421,
    "value": "Nguling",
    "postal_code": "67185"
  },
  {
    "id": 351421,
    "province_id": 35,
    "regency_id": 3514,
    "district_id": 351421,
    "value": "Penunggul",
    "postal_code": "67185"
  },
  {
    "id": 351421,
    "province_id": 35,
    "regency_id": 3514,
    "district_id": 351421,
    "value": "Randuati",
    "postal_code": "67185"
  },
  {
    "id": 351421,
    "province_id": 35,
    "regency_id": 3514,
    "district_id": 351421,
    "value": "Sanganom (Sang Anom)",
    "postal_code": "67185"
  },
  {
    "id": 351421,
    "province_id": 35,
    "regency_id": 3514,
    "district_id": 351421,
    "value": "Sebalong",
    "postal_code": "67185"
  },
  {
    "id": 351421,
    "province_id": 35,
    "regency_id": 3514,
    "district_id": 351421,
    "value": "Sedarum",
    "postal_code": "67185"
  },
  {
    "id": 351421,
    "province_id": 35,
    "regency_id": 3514,
    "district_id": 351421,
    "value": "Sudimulyo",
    "postal_code": "67185"
  },
  {
    "id": 351421,
    "province_id": 35,
    "regency_id": 3514,
    "district_id": 351421,
    "value": "Sumberanyar (Sumber Anyar)",
    "postal_code": "67185"
  },
  {
    "id": 351421,
    "province_id": 35,
    "regency_id": 3514,
    "district_id": 351421,
    "value": "Watestani (Wates Tani)",
    "postal_code": "67185"
  },
  {
    "id": 351421,
    "province_id": 35,
    "regency_id": 3514,
    "district_id": 351421,
    "value": "Watuprapat",
    "postal_code": "67185"
  },
  {
    "id": 351421,
    "province_id": 35,
    "regency_id": 3514,
    "district_id": 351421,
    "value": "Wotgalih (Wot Galih)",
    "postal_code": "67185"
  }
]