[
  {
    "id": 177103,
    "province_id": 17,
    "regency_id": 1771,
    "district_id": 177103,
    "value": "Bajak (Kampung Teleng)",
    "postal_code": "38118"
  },
  {
    "id": 177103,
    "province_id": 17,
    "regency_id": 1771,
    "district_id": 177103,
    "value": "Berkas",
    "postal_code": "38114"
  },
  {
    "id": 177103,
    "province_id": 17,
    "regency_id": 1771,
    "district_id": 177103,
    "value": "Jitra (Pasar Jitra)",
    "postal_code": "38119"
  },
  {
    "id": 177103,
    "province_id": 17,
    "regency_id": 1771,
    "district_id": 177103,
    "value": "Kampung Bali",
    "postal_code": "38119"
  },
  {
    "id": 177103,
    "province_id": 17,
    "regency_id": 1771,
    "district_id": 177103,
    "value": "Kebun Keling",
    "postal_code": "38116"
  },
  {
    "id": 177103,
    "province_id": 17,
    "regency_id": 1771,
    "district_id": 177103,
    "value": "Kebun Roos/Ros",
    "postal_code": "38117"
  },
  {
    "id": 177103,
    "province_id": 17,
    "regency_id": 1771,
    "district_id": 177103,
    "value": "Malabero/Malabro",
    "postal_code": "38119"
  },
  {
    "id": 177103,
    "province_id": 17,
    "regency_id": 1771,
    "district_id": 177103,
    "value": "Pasar Baru",
    "postal_code": "38114"
  },
  {
    "id": 177103,
    "province_id": 17,
    "regency_id": 1771,
    "district_id": 177103,
    "value": "Pasar Melintang",
    "postal_code": "38115"
  },
  {
    "id": 177103,
    "province_id": 17,
    "regency_id": 1771,
    "district_id": 177103,
    "value": "Pintu Batu",
    "postal_code": "38115"
  },
  {
    "id": 177103,
    "province_id": 17,
    "regency_id": 1771,
    "district_id": 177103,
    "value": "Pondok Besi",
    "postal_code": "38117"
  },
  {
    "id": 177103,
    "province_id": 17,
    "regency_id": 1771,
    "district_id": 177103,
    "value": "Sumur Meleleh",
    "postal_code": "38113"
  },
  {
    "id": 177103,
    "province_id": 17,
    "regency_id": 1771,
    "district_id": 177103,
    "value": "Tengah Padang",
    "postal_code": "38118"
  }
]