[
  {
    "id": 7108022009,
    "province_id": 71,
    "regency_id": 7108,
    "district_id": 710802,
    "value": "Batulintik",
    "postal_code": "95763"
  },
  {
    "id": 7108021001,
    "province_id": 71,
    "regency_id": 7108,
    "district_id": 710802,
    "value": "Bintauna",
    "postal_code": "95763"
  },
  {
    "id": 7108022010,
    "province_id": 71,
    "regency_id": 7108,
    "district_id": 710802,
    "value": "Bintauna Pantai/Pante",
    "postal_code": "95763"
  },
  {
    "id": 7108022007,
    "province_id": 71,
    "regency_id": 7108,
    "district_id": 710802,
    "value": "Bunia",
    "postal_code": "95763"
  },
  {
    "id": 7108022014,
    "province_id": 71,
    "regency_id": 7108,
    "district_id": 710802,
    "value": "Bunong",
    "postal_code": "95763"
  },
  {
    "id": 7108022002,
    "province_id": 71,
    "regency_id": 7108,
    "district_id": 710802,
    "value": "Huntuk",
    "postal_code": "95763"
  },
  {
    "id": 7108022012,
    "province_id": 71,
    "regency_id": 7108,
    "district_id": 710802,
    "value": "Kopi",
    "postal_code": "95763"
  },
  {
    "id": 7108022004,
    "province_id": 71,
    "regency_id": 7108,
    "district_id": 710802,
    "value": "Kuhanga",
    "postal_code": "95763"
  },
  {
    "id": 7108022011,
    "province_id": 71,
    "regency_id": 7108,
    "district_id": 710802,
    "value": "Minanga",
    "postal_code": "95763"
  },
  {
    "id": 7108022003,
    "province_id": 71,
    "regency_id": 7108,
    "district_id": 710802,
    "value": "Mome",
    "postal_code": "95763"
  },
  {
    "id": 7108022005,
    "province_id": 71,
    "regency_id": 7108,
    "district_id": 710802,
    "value": "Padang",
    "postal_code": "95763"
  },
  {
    "id": 7108022015,
    "province_id": 71,
    "regency_id": 7108,
    "district_id": 710802,
    "value": "Padang Barat",
    "postal_code": "95763"
  },
  {
    "id": 7108022006,
    "province_id": 71,
    "regency_id": 7108,
    "district_id": 710802,
    "value": "Pimpi",
    "postal_code": "95763"
  },
  {
    "id": 7108022008,
    "province_id": 71,
    "regency_id": 7108,
    "district_id": 710802,
    "value": "Talaga",
    "postal_code": "95763"
  },
  {
    "id": 7108022016,
    "province_id": 71,
    "regency_id": 7108,
    "district_id": 710802,
    "value": "Vahuta",
    "postal_code": "95763"
  },
  {
    "id": 7108022013,
    "province_id": 71,
    "regency_id": 7108,
    "district_id": 710802,
    "value": "Voa'a (Voa A)",
    "postal_code": "95763"
  }
]