[
  {
    "id": 720115,
    "province_id": 72,
    "regency_id": 7201,
    "district_id": 720115,
    "value": "Bonebalantak",
    "postal_code": "94763"
  },
  {
    "id": 720115,
    "province_id": 72,
    "regency_id": 7201,
    "district_id": 720115,
    "value": "Gori-Gori",
    "postal_code": "94763"
  },
  {
    "id": 720115,
    "province_id": 72,
    "regency_id": 7201,
    "district_id": 720115,
    "value": "Maasing",
    "postal_code": "94763"
  },
  {
    "id": 720115,
    "province_id": 72,
    "regency_id": 7201,
    "district_id": 720115,
    "value": "Maleo Jaya",
    "postal_code": "94763"
  },
  {
    "id": 720115,
    "province_id": 72,
    "regency_id": 7201,
    "district_id": 720115,
    "value": "Masungkang",
    "postal_code": "94763"
  },
  {
    "id": 720115,
    "province_id": 72,
    "regency_id": 7201,
    "district_id": 720115,
    "value": "Ombolu",
    "postal_code": "94763"
  },
  {
    "id": 720115,
    "province_id": 72,
    "regency_id": 7201,
    "district_id": 720115,
    "value": "Paisu Buloli",
    "postal_code": "94763"
  },
  {
    "id": 720115,
    "province_id": 72,
    "regency_id": 7201,
    "district_id": 720115,
    "value": "Sinorang",
    "postal_code": "94763"
  },
  {
    "id": 720115,
    "province_id": 72,
    "regency_id": 7201,
    "district_id": 720115,
    "value": "Sukamaju",
    "postal_code": "94763"
  },
  {
    "id": 720115,
    "province_id": 72,
    "regency_id": 7201,
    "district_id": 720115,
    "value": "Sukamaju Satu",
    "postal_code": "94763"
  }
]