[
  {
    "id": 350105,
    "province_id": 35,
    "regency_id": 3501,
    "district_id": 350105,
    "value": "Banjarjo",
    "postal_code": "63561"
  },
  {
    "id": 350105,
    "province_id": 35,
    "regency_id": 3501,
    "district_id": 350105,
    "value": "Gawang",
    "postal_code": "63561"
  },
  {
    "id": 350105,
    "province_id": 35,
    "regency_id": 3501,
    "district_id": 350105,
    "value": "Gembuk",
    "postal_code": "63561"
  },
  {
    "id": 350105,
    "province_id": 35,
    "regency_id": 3501,
    "district_id": 350105,
    "value": "Kalipelus",
    "postal_code": "63561"
  },
  {
    "id": 350105,
    "province_id": 35,
    "regency_id": 3501,
    "district_id": 350105,
    "value": "Karanganyar",
    "postal_code": "63561"
  },
  {
    "id": 350105,
    "province_id": 35,
    "regency_id": 3501,
    "district_id": 350105,
    "value": "Karangnongko",
    "postal_code": "63561"
  },
  {
    "id": 350105,
    "province_id": 35,
    "regency_id": 3501,
    "district_id": 350105,
    "value": "Katipugal",
    "postal_code": "63561"
  },
  {
    "id": 350105,
    "province_id": 35,
    "regency_id": 3501,
    "district_id": 350105,
    "value": "Kebonagung",
    "postal_code": "63561"
  },
  {
    "id": 350105,
    "province_id": 35,
    "regency_id": 3501,
    "district_id": 350105,
    "value": "Ketepung",
    "postal_code": "63561"
  },
  {
    "id": 350105,
    "province_id": 35,
    "regency_id": 3501,
    "district_id": 350105,
    "value": "Ketro",
    "postal_code": "63561"
  },
  {
    "id": 350105,
    "province_id": 35,
    "regency_id": 3501,
    "district_id": 350105,
    "value": "Klesem",
    "postal_code": "63561"
  },
  {
    "id": 350105,
    "province_id": 35,
    "regency_id": 3501,
    "district_id": 350105,
    "value": "Mantren",
    "postal_code": "63561"
  },
  {
    "id": 350105,
    "province_id": 35,
    "regency_id": 3501,
    "district_id": 350105,
    "value": "Plumbungan (Pelumbungan)",
    "postal_code": "63561"
  },
  {
    "id": 350105,
    "province_id": 35,
    "regency_id": 3501,
    "district_id": 350105,
    "value": "Punjung",
    "postal_code": "63561"
  },
  {
    "id": 350105,
    "province_id": 35,
    "regency_id": 3501,
    "district_id": 350105,
    "value": "Purwoasri",
    "postal_code": "63561"
  },
  {
    "id": 350105,
    "province_id": 35,
    "regency_id": 3501,
    "district_id": 350105,
    "value": "Sanggrahan",
    "postal_code": "63561"
  },
  {
    "id": 350105,
    "province_id": 35,
    "regency_id": 3501,
    "district_id": 350105,
    "value": "Sidomulyo",
    "postal_code": "63561"
  },
  {
    "id": 350105,
    "province_id": 35,
    "regency_id": 3501,
    "district_id": 350105,
    "value": "Wonogondo",
    "postal_code": "63561"
  },
  {
    "id": 350105,
    "province_id": 35,
    "regency_id": 3501,
    "district_id": 350105,
    "value": "Worawari",
    "postal_code": "63561"
  }
]