[
  {
    "id": 1206052013,
    "province_id": 12,
    "regency_id": 1206,
    "district_id": 120605,
    "value": "Ajinembah",
    "postal_code": "22173"
  },
  {
    "id": 1206052017,
    "province_id": 12,
    "regency_id": 1206,
    "district_id": 120605,
    "value": "Bandar Tongging",
    "postal_code": "22173"
  },
  {
    "id": 1206052004,
    "province_id": 12,
    "regency_id": 1206,
    "district_id": 120605,
    "value": "Dokan",
    "postal_code": "22173"
  },
  {
    "id": 1206052015,
    "province_id": 12,
    "regency_id": 1206,
    "district_id": 120605,
    "value": "Garingging",
    "postal_code": "22173"
  },
  {
    "id": 1206052003,
    "province_id": 12,
    "regency_id": 1206,
    "district_id": 120605,
    "value": "Kodon-Kodon",
    "postal_code": "22173"
  },
  {
    "id": 1206052019,
    "province_id": 12,
    "regency_id": 1206,
    "district_id": 120605,
    "value": "Merek",
    "postal_code": "22173"
  },
  {
    "id": 1206052016,
    "province_id": 12,
    "regency_id": 1206,
    "district_id": 120605,
    "value": "Mulia Rayat (Mulia Rakyat)",
    "postal_code": "22173"
  },
  {
    "id": 1206052008,
    "province_id": 12,
    "regency_id": 1206,
    "district_id": 120605,
    "value": "Nagalingga",
    "postal_code": "22173"
  },
  {
    "id": 1206052005,
    "province_id": 12,
    "regency_id": 1206,
    "district_id": 120605,
    "value": "Nagara",
    "postal_code": "22173"
  },
  {
    "id": 1206052002,
    "province_id": 12,
    "regency_id": 1206,
    "district_id": 120605,
    "value": "Negeri Tongging",
    "postal_code": "22173"
  },
  {
    "id": 1206052018,
    "province_id": 12,
    "regency_id": 1206,
    "district_id": 120605,
    "value": "Pancur Batu",
    "postal_code": "22173"
  },
  {
    "id": 1206052009,
    "province_id": 12,
    "regency_id": 1206,
    "district_id": 120605,
    "value": "Pangambatan (Pangambaten)",
    "postal_code": "22173"
  },
  {
    "id": 1206052011,
    "province_id": 12,
    "regency_id": 1206,
    "district_id": 120605,
    "value": "Partibi Lama (Pertibi Lama)",
    "postal_code": "22173"
  },
  {
    "id": 1206052001,
    "province_id": 12,
    "regency_id": 1206,
    "district_id": 120605,
    "value": "Pertibi Tembe (Pertibitembe)",
    "postal_code": "22173"
  },
  {
    "id": 1206052012,
    "province_id": 12,
    "regency_id": 1206,
    "district_id": 120605,
    "value": "Regaji",
    "postal_code": "22173"
  },
  {
    "id": 1206052006,
    "province_id": 12,
    "regency_id": 1206,
    "district_id": 120605,
    "value": "Sibolangit",
    "postal_code": "22173"
  },
  {
    "id": 1206052014,
    "province_id": 12,
    "regency_id": 1206,
    "district_id": 120605,
    "value": "Situnggaling",
    "postal_code": "22173"
  },
  {
    "id": 1206052007,
    "province_id": 12,
    "regency_id": 1206,
    "district_id": 120605,
    "value": "Sukamandi",
    "postal_code": "22173"
  },
  {
    "id": 1206052010,
    "province_id": 12,
    "regency_id": 1206,
    "district_id": 120605,
    "value": "Tongging",
    "postal_code": "22173"
  }
]