[
  {
    "id": 1602172005,
    "province_id": 16,
    "regency_id": 1602,
    "district_id": 160217,
    "value": "Air Itam",
    "postal_code": "30652"
  },
  {
    "id": 1602172018,
    "province_id": 16,
    "regency_id": 1602,
    "district_id": 160217,
    "value": "Batun Baru",
    "postal_code": "30652"
  },
  {
    "id": 1602172004,
    "province_id": 16,
    "regency_id": 1602,
    "district_id": 160217,
    "value": "Bubusan",
    "postal_code": "30652"
  },
  {
    "id": 1602172019,
    "province_id": 16,
    "regency_id": 1602,
    "district_id": 160217,
    "value": "Danau Ceper",
    "postal_code": "30652"
  },
  {
    "id": 1602172006,
    "province_id": 16,
    "regency_id": 1602,
    "district_id": 160217,
    "value": "Jejawi",
    "postal_code": "30652"
  },
  {
    "id": 1602172007,
    "province_id": 16,
    "regency_id": 1602,
    "district_id": 160217,
    "value": "Karang Agung",
    "postal_code": "30652"
  },
  {
    "id": 1602172009,
    "province_id": 16,
    "regency_id": 1602,
    "district_id": 160217,
    "value": "Lingkis",
    "postal_code": "30652"
  },
  {
    "id": 1602172002,
    "province_id": 16,
    "regency_id": 1602,
    "district_id": 160217,
    "value": "Lubuk Ketepeng",
    "postal_code": "30652"
  },
  {
    "id": 1602172008,
    "province_id": 16,
    "regency_id": 1602,
    "district_id": 160217,
    "value": "Muara Batun",
    "postal_code": "30652"
  },
  {
    "id": 1602172017,
    "province_id": 16,
    "regency_id": 1602,
    "district_id": 160217,
    "value": "Padang Bulan",
    "postal_code": "30652"
  },
  {
    "id": 1602172014,
    "province_id": 16,
    "regency_id": 1602,
    "district_id": 160217,
    "value": "Pedu",
    "postal_code": "30652"
  },
  {
    "id": 1602172015,
    "province_id": 16,
    "regency_id": 1602,
    "district_id": 160217,
    "value": "Pematang kijang",
    "postal_code": "30652"
  },
  {
    "id": 1602172016,
    "province_id": 16,
    "regency_id": 1602,
    "district_id": 160217,
    "value": "Simpang Empat",
    "postal_code": "30652"
  },
  {
    "id": 1602172012,
    "province_id": 16,
    "regency_id": 1602,
    "district_id": 160217,
    "value": "Sukadarma",
    "postal_code": "30652"
  },
  {
    "id": 1602172003,
    "province_id": 16,
    "regency_id": 1602,
    "district_id": 160217,
    "value": "Talang Cempedak",
    "postal_code": "30652"
  },
  {
    "id": 1602172011,
    "province_id": 16,
    "regency_id": 1602,
    "district_id": 160217,
    "value": "Tanjung Ali",
    "postal_code": "30652"
  },
  {
    "id": 1602172001,
    "province_id": 16,
    "regency_id": 1602,
    "district_id": 160217,
    "value": "Tanjung Aur",
    "postal_code": "30652"
  },
  {
    "id": 1602172010,
    "province_id": 16,
    "regency_id": 1602,
    "district_id": 160217,
    "value": "Terusan Jawa",
    "postal_code": "30652"
  },
  {
    "id": 1602172013,
    "province_id": 16,
    "regency_id": 1602,
    "district_id": 160217,
    "value": "Ulak Tembaga",
    "postal_code": "30652"
  }
]