[
  {
    "id": 8206032001,
    "province_id": 82,
    "regency_id": 8206,
    "district_id": 820603,
    "value": "Bicoli",
    "postal_code": "97861"
  },
  {
    "id": 8206032005,
    "province_id": 82,
    "regency_id": 8206,
    "district_id": 820603,
    "value": "Gotowasi",
    "postal_code": "97861"
  },
  {
    "id": 8206032010,
    "province_id": 82,
    "regency_id": 8206,
    "district_id": 820603,
    "value": "Kasuba",
    "postal_code": "97861"
  },
  {
    "id": 8206032004,
    "province_id": 82,
    "regency_id": 8206,
    "district_id": 820603,
    "value": "Loleo Lamo (Loloelamo)",
    "postal_code": "97861"
  },
  {
    "id": 8206032012,
    "province_id": 82,
    "regency_id": 8206,
    "district_id": 820603,
    "value": "Momole",
    "postal_code": "97861"
  },
  {
    "id": 8206032003,
    "province_id": 82,
    "regency_id": 8206,
    "district_id": 820603,
    "value": "Pateley (Petelei)",
    "postal_code": "97861"
  },
  {
    "id": 8206032013,
    "province_id": 82,
    "regency_id": 8206,
    "district_id": 820603,
    "value": "Sil",
    "postal_code": "97861"
  },
  {
    "id": 8206032014,
    "province_id": 82,
    "regency_id": 8206,
    "district_id": 820603,
    "value": "Sowoli",
    "postal_code": "97861"
  },
  {
    "id": 8206032002,
    "province_id": 82,
    "regency_id": 8206,
    "district_id": 820603,
    "value": "Waci",
    "postal_code": "97861"
  }
]