[
  {
    "id": 3517112006,
    "province_id": 35,
    "regency_id": 3517,
    "district_id": 351711,
    "value": "Badas",
    "postal_code": "61483"
  },
  {
    "id": 3517112019,
    "province_id": 35,
    "regency_id": 3517,
    "district_id": 351711,
    "value": "Bakalan",
    "postal_code": "61483"
  },
  {
    "id": 3517112005,
    "province_id": 35,
    "regency_id": 3517,
    "district_id": 351711,
    "value": "Brudu",
    "postal_code": "61483"
  },
  {
    "id": 3517112015,
    "province_id": 35,
    "regency_id": 3517,
    "district_id": 351711,
    "value": "Budugsidorejo",
    "postal_code": "61483"
  },
  {
    "id": 3517112014,
    "province_id": 35,
    "regency_id": 3517,
    "district_id": 351711,
    "value": "Curahmalang (Curah Malang)",
    "postal_code": "61483"
  },
  {
    "id": 3517112020,
    "province_id": 35,
    "regency_id": 3517,
    "district_id": 351711,
    "value": "Gedangan",
    "postal_code": "61483"
  },
  {
    "id": 3517112002,
    "province_id": 35,
    "regency_id": 3517,
    "district_id": 351711,
    "value": "Jogoloyo",
    "postal_code": "61483"
  },
  {
    "id": 3517112012,
    "province_id": 35,
    "regency_id": 3517,
    "district_id": 351711,
    "value": "Kedung Papar (Kedungpapar)",
    "postal_code": "61483"
  },
  {
    "id": 3517112016,
    "province_id": 35,
    "regency_id": 3517,
    "district_id": 351711,
    "value": "Kendalsari",
    "postal_code": "61483"
  },
  {
    "id": 3517112018,
    "province_id": 35,
    "regency_id": 3517,
    "district_id": 351711,
    "value": "Madiopuro (Madyo Puro)",
    "postal_code": "61483"
  },
  {
    "id": 3517112021,
    "province_id": 35,
    "regency_id": 3517,
    "district_id": 351711,
    "value": "Mentoro",
    "postal_code": "61483"
  },
  {
    "id": 3517112010,
    "province_id": 35,
    "regency_id": 3517,
    "district_id": 351711,
    "value": "Mlaras",
    "postal_code": "61483"
  },
  {
    "id": 3517112007,
    "province_id": 35,
    "regency_id": 3517,
    "district_id": 351711,
    "value": "Nglele",
    "postal_code": "61483"
  },
  {
    "id": 3517112003,
    "province_id": 35,
    "regency_id": 3517,
    "district_id": 351711,
    "value": "Palrejo",
    "postal_code": "61483"
  },
  {
    "id": 3517112004,
    "province_id": 35,
    "regency_id": 3517,
    "district_id": 351711,
    "value": "Plemahan",
    "postal_code": "61483"
  },
  {
    "id": 3517112001,
    "province_id": 35,
    "regency_id": 3517,
    "district_id": 351711,
    "value": "Plosokerep",
    "postal_code": "61483"
  },
  {
    "id": 3517112009,
    "province_id": 35,
    "regency_id": 3517,
    "district_id": 351711,
    "value": "Sebani",
    "postal_code": "61483"
  },
  {
    "id": 3517112011,
    "province_id": 35,
    "regency_id": 3517,
    "district_id": 351711,
    "value": "Segodorejo",
    "postal_code": "61483"
  },
  {
    "id": 3517112013,
    "province_id": 35,
    "regency_id": 3517,
    "district_id": 351711,
    "value": "Sumobito",
    "postal_code": "61483"
  },
  {
    "id": 3517112017,
    "province_id": 35,
    "regency_id": 3517,
    "district_id": 351711,
    "value": "Talunkidul (Talun Kidul)",
    "postal_code": "61483"
  },
  {
    "id": 3517112008,
    "province_id": 35,
    "regency_id": 3517,
    "district_id": 351711,
    "value": "Trawasan",
    "postal_code": "61483"
  }
]