[
  {
    "id": 950726,
    "province_id": 95,
    "regency_id": 9507,
    "district_id": 950726,
    "value": "Anggumabume",
    "postal_code": "99584"
  },
  {
    "id": 950726,
    "province_id": 95,
    "regency_id": 9507,
    "district_id": 950726,
    "value": "Baliempura",
    "postal_code": "99584"
  },
  {
    "id": 950726,
    "province_id": 95,
    "regency_id": 9507,
    "district_id": 950726,
    "value": "Denomagi",
    "postal_code": "99584"
  },
  {
    "id": 950726,
    "province_id": 95,
    "regency_id": 9507,
    "district_id": 950726,
    "value": "Lorea",
    "postal_code": "99584"
  },
  {
    "id": 950726,
    "province_id": 95,
    "regency_id": 9507,
    "district_id": 950726,
    "value": "Magame",
    "postal_code": "99584"
  },
  {
    "id": 950726,
    "province_id": 95,
    "regency_id": 9507,
    "district_id": 950726,
    "value": "Tinggipura",
    "postal_code": "99584"
  },
  {
    "id": 950726,
    "province_id": 95,
    "regency_id": 9507,
    "district_id": 950726,
    "value": "Yeyugu",
    "postal_code": "99584"
  },
  {
    "id": 950726,
    "province_id": 95,
    "regency_id": 9507,
    "district_id": 950726,
    "value": "Yugume",
    "postal_code": "99584"
  }
]