[
  {
    "id": 110619,
    "province_id": 11,
    "regency_id": 1106,
    "district_id": 110619,
    "value": "Bilui/Biluy",
    "postal_code": "23350"
  },
  {
    "id": 110619,
    "province_id": 11,
    "regency_id": 1106,
    "district_id": 110619,
    "value": "Blang Kiree",
    "postal_code": "23350"
  },
  {
    "id": 110619,
    "province_id": 11,
    "regency_id": 1106,
    "district_id": 110619,
    "value": "Empetring (Empee Trieng)",
    "postal_code": "23350"
  },
  {
    "id": 110619,
    "province_id": 11,
    "regency_id": 1106,
    "district_id": 110619,
    "value": "Lambaro Biluy",
    "postal_code": "23350"
  },
  {
    "id": 110619,
    "province_id": 11,
    "regency_id": 1106,
    "district_id": 110619,
    "value": "Lambatee",
    "postal_code": "23350"
  },
  {
    "id": 110619,
    "province_id": 11,
    "regency_id": 1106,
    "district_id": 110619,
    "value": "Lambleut (Lam Bleut)",
    "postal_code": "23350"
  },
  {
    "id": 110619,
    "province_id": 11,
    "regency_id": 1106,
    "district_id": 110619,
    "value": "Lamkunyet",
    "postal_code": "23350"
  },
  {
    "id": 110619,
    "province_id": 11,
    "regency_id": 1106,
    "district_id": 110619,
    "value": "Lamsod",
    "postal_code": "23350"
  },
  {
    "id": 110619,
    "province_id": 11,
    "regency_id": 1106,
    "district_id": 110619,
    "value": "Lamtadok",
    "postal_code": "23350"
  },
  {
    "id": 110619,
    "province_id": 11,
    "regency_id": 1106,
    "district_id": 110619,
    "value": "Lhang",
    "postal_code": "23350"
  },
  {
    "id": 110619,
    "province_id": 11,
    "regency_id": 1106,
    "district_id": 110619,
    "value": "Manee Dayah",
    "postal_code": "23350"
  },
  {
    "id": 110619,
    "province_id": 11,
    "regency_id": 1106,
    "district_id": 110619,
    "value": "Neusok",
    "postal_code": "23350"
  },
  {
    "id": 110619,
    "province_id": 11,
    "regency_id": 1106,
    "district_id": 110619,
    "value": "Tubaluy (Teubalui)",
    "postal_code": "23350"
  },
  {
    "id": 110619,
    "province_id": 11,
    "regency_id": 1106,
    "district_id": 110619,
    "value": "Turam",
    "postal_code": "23350"
  }
]