[
  {
    "id": 140804,
    "province_id": 14,
    "regency_id": 1408,
    "district_id": 140804,
    "value": "Meredan",
    "postal_code": "28772"
  },
  {
    "id": 140804,
    "province_id": 14,
    "regency_id": 1408,
    "district_id": 140804,
    "value": "Meredan Barat",
    "postal_code": "28772"
  },
  {
    "id": 140804,
    "province_id": 14,
    "regency_id": 1408,
    "district_id": 140804,
    "value": "Perawang",
    "postal_code": "28772"
  },
  {
    "id": 140804,
    "province_id": 14,
    "regency_id": 1408,
    "district_id": 140804,
    "value": "Perawang Barat",
    "postal_code": "28772"
  },
  {
    "id": 140804,
    "province_id": 14,
    "regency_id": 1408,
    "district_id": 140804,
    "value": "Pinang Sebatang",
    "postal_code": "28772"
  },
  {
    "id": 140804,
    "province_id": 14,
    "regency_id": 1408,
    "district_id": 140804,
    "value": "Pinang Sebatang Barat",
    "postal_code": "28772"
  },
  {
    "id": 140804,
    "province_id": 14,
    "regency_id": 1408,
    "district_id": 140804,
    "value": "Pinang Sebatang Timur",
    "postal_code": "28772"
  },
  {
    "id": 140804,
    "province_id": 14,
    "regency_id": 1408,
    "district_id": 140804,
    "value": "Tualang",
    "postal_code": "28772"
  },
  {
    "id": 140804,
    "province_id": 14,
    "regency_id": 1408,
    "district_id": 140804,
    "value": "Tualang Timur",
    "postal_code": "28772"
  }
]