[
  {
    "id": 150903,
    "province_id": 15,
    "regency_id": 1509,
    "district_id": 150903,
    "value": "Bungo Tanjung",
    "postal_code": "37555"
  },
  {
    "id": 150903,
    "province_id": 15,
    "regency_id": 1509,
    "district_id": 150903,
    "value": "Jambu",
    "postal_code": "37555"
  },
  {
    "id": 150903,
    "province_id": 15,
    "regency_id": 1509,
    "district_id": 150903,
    "value": "Lubuk Benteng",
    "postal_code": "37555"
  },
  {
    "id": 150903,
    "province_id": 15,
    "regency_id": 1509,
    "district_id": 150903,
    "value": "Medan Seri Rambahan",
    "postal_code": "37555"
  },
  {
    "id": 150903,
    "province_id": 15,
    "regency_id": 1509,
    "district_id": 150903,
    "value": "Melako Intan (Malako Intan)",
    "postal_code": "37555"
  },
  {
    "id": 150903,
    "province_id": 15,
    "regency_id": 1509,
    "district_id": 150903,
    "value": "Pagar Puding",
    "postal_code": "37555"
  },
  {
    "id": 150903,
    "province_id": 15,
    "regency_id": 1509,
    "district_id": 150903,
    "value": "Pulau Jelmu",
    "postal_code": "37555"
  },
  {
    "id": 150903,
    "province_id": 15,
    "regency_id": 1509,
    "district_id": 150903,
    "value": "Pulau Panjang",
    "postal_code": "37555"
  },
  {
    "id": 150903,
    "province_id": 15,
    "regency_id": 1509,
    "district_id": 150903,
    "value": "Pulautemiang (Pulau Temiang)",
    "postal_code": "37555"
  },
  {
    "id": 150903,
    "province_id": 15,
    "regency_id": 1509,
    "district_id": 150903,
    "value": "Rantau Langkap",
    "postal_code": "37555"
  },
  {
    "id": 150903,
    "province_id": 15,
    "regency_id": 1509,
    "district_id": 150903,
    "value": "Sungai Rambai",
    "postal_code": "37555"
  },
  {
    "id": 150903,
    "province_id": 15,
    "regency_id": 1509,
    "district_id": 150903,
    "value": "Tanjung Aur",
    "postal_code": "37555"
  },
  {
    "id": 150903,
    "province_id": 15,
    "regency_id": 1509,
    "district_id": 150903,
    "value": "Teluk Kasai Rambahan",
    "postal_code": "37555"
  },
  {
    "id": 150903,
    "province_id": 15,
    "regency_id": 1509,
    "district_id": 150903,
    "value": "Teluk Kembang Jambu",
    "postal_code": "37555"
  },
  {
    "id": 150903,
    "province_id": 15,
    "regency_id": 1509,
    "district_id": 150903,
    "value": "Teluk Kuali",
    "postal_code": "37555"
  },
  {
    "id": 150903,
    "province_id": 15,
    "regency_id": 1509,
    "district_id": 150903,
    "value": "Teluk Pandan Rambahan",
    "postal_code": "37555"
  },
  {
    "id": 150903,
    "province_id": 15,
    "regency_id": 1509,
    "district_id": 150903,
    "value": "Ulak Banjir Rambahan",
    "postal_code": "37555"
  }
]