[
  {
    "id": 320128,
    "province_id": 32,
    "regency_id": 3201,
    "district_id": 320128,
    "value": "Cibalung",
    "postal_code": "16740"
  },
  {
    "id": 320128,
    "province_id": 32,
    "regency_id": 3201,
    "district_id": 320128,
    "value": "Cijeruk",
    "postal_code": "16740"
  },
  {
    "id": 320128,
    "province_id": 32,
    "regency_id": 3201,
    "district_id": 320128,
    "value": "Cipelang",
    "postal_code": "16740"
  },
  {
    "id": 320128,
    "province_id": 32,
    "regency_id": 3201,
    "district_id": 320128,
    "value": "Cipicung",
    "postal_code": "16740"
  },
  {
    "id": 320128,
    "province_id": 32,
    "regency_id": 3201,
    "district_id": 320128,
    "value": "Palasari",
    "postal_code": "16740"
  },
  {
    "id": 320128,
    "province_id": 32,
    "regency_id": 3201,
    "district_id": 320128,
    "value": "Sukaharja",
    "postal_code": "16740"
  },
  {
    "id": 320128,
    "province_id": 32,
    "regency_id": 3201,
    "district_id": 320128,
    "value": "Tajur Halang",
    "postal_code": "16740"
  },
  {
    "id": 320128,
    "province_id": 32,
    "regency_id": 3201,
    "district_id": 320128,
    "value": "Tanjungsari (Tanjung Sari)",
    "postal_code": "16740"
  },
  {
    "id": 320128,
    "province_id": 32,
    "regency_id": 3201,
    "district_id": 320128,
    "value": "Warung Menteng",
    "postal_code": "16740"
  }
]