[
  {
    "id": 160712,
    "province_id": 16,
    "regency_id": 1607,
    "district_id": 160712,
    "value": "Bangun Sari",
    "postal_code": "30960"
  },
  {
    "id": 160712,
    "province_id": 16,
    "regency_id": 1607,
    "district_id": 160712,
    "value": "Banyu Urip",
    "postal_code": "30960"
  },
  {
    "id": 160712,
    "province_id": 16,
    "regency_id": 1607,
    "district_id": 160712,
    "value": "Bunga Karang",
    "postal_code": "30960"
  },
  {
    "id": 160712,
    "province_id": 16,
    "regency_id": 1607,
    "district_id": 160712,
    "value": "Kuala Puntian",
    "postal_code": "30960"
  },
  {
    "id": 160712,
    "province_id": 16,
    "regency_id": 1607,
    "district_id": 160712,
    "value": "Manggar Raya",
    "postal_code": "30960"
  },
  {
    "id": 160712,
    "province_id": 16,
    "regency_id": 1607,
    "district_id": 160712,
    "value": "Muara Sugih",
    "postal_code": "30960"
  },
  {
    "id": 160712,
    "province_id": 16,
    "regency_id": 1607,
    "district_id": 160712,
    "value": "Mulya Sari",
    "postal_code": "30960"
  },
  {
    "id": 160712,
    "province_id": 16,
    "regency_id": 1607,
    "district_id": 160712,
    "value": "Purwosari",
    "postal_code": "30960"
  },
  {
    "id": 160712,
    "province_id": 16,
    "regency_id": 1607,
    "district_id": 160712,
    "value": "Sebalik",
    "postal_code": "30960"
  },
  {
    "id": 160712,
    "province_id": 16,
    "regency_id": 1607,
    "district_id": 160712,
    "value": "Sri Menanti",
    "postal_code": "30960"
  },
  {
    "id": 160712,
    "province_id": 16,
    "regency_id": 1607,
    "district_id": 160712,
    "value": "Sukadamai (Suka Damai)",
    "postal_code": "30960"
  },
  {
    "id": 160712,
    "province_id": 16,
    "regency_id": 1607,
    "district_id": 160712,
    "value": "Sukatani (Suka Tani)",
    "postal_code": "30960"
  },
  {
    "id": 160712,
    "province_id": 16,
    "regency_id": 1607,
    "district_id": 160712,
    "value": "Sumber Mekar Mukti",
    "postal_code": "30960"
  },
  {
    "id": 160712,
    "province_id": 16,
    "regency_id": 1607,
    "district_id": 160712,
    "value": "Tanjunglago (Tanjung Lago)",
    "postal_code": "30960"
  },
  {
    "id": 160712,
    "province_id": 16,
    "regency_id": 1607,
    "district_id": 160712,
    "value": "Telang Sari",
    "postal_code": "30960"
  }
]