[
  {
    "id": 352401,
    "province_id": 35,
    "regency_id": 3524,
    "district_id": 352401,
    "value": "Banggle",
    "postal_code": "62276"
  },
  {
    "id": 352401,
    "province_id": 35,
    "regency_id": 3524,
    "district_id": 352401,
    "value": "Kedungkumpul",
    "postal_code": "62276"
  },
  {
    "id": 352401,
    "province_id": 35,
    "regency_id": 3524,
    "district_id": 352401,
    "value": "Kedungrejo",
    "postal_code": "62276"
  },
  {
    "id": 352401,
    "province_id": 35,
    "regency_id": 3524,
    "district_id": 352401,
    "value": "Mragel",
    "postal_code": "62276"
  },
  {
    "id": 352401,
    "province_id": 35,
    "regency_id": 3524,
    "district_id": 352401,
    "value": "Pendowokumpul",
    "postal_code": "62276"
  },
  {
    "id": 352401,
    "province_id": 35,
    "regency_id": 3524,
    "district_id": 352401,
    "value": "Sembung",
    "postal_code": "62276"
  },
  {
    "id": 352401,
    "province_id": 35,
    "regency_id": 3524,
    "district_id": 352401,
    "value": "Sewor",
    "postal_code": "62276"
  },
  {
    "id": 352401,
    "province_id": 35,
    "regency_id": 3524,
    "district_id": 352401,
    "value": "Sukorame",
    "postal_code": "62276"
  },
  {
    "id": 352401,
    "province_id": 35,
    "regency_id": 3524,
    "district_id": 352401,
    "value": "Wedoro",
    "postal_code": "62276"
  }
]