[
  {
    "id": 741004,
    "province_id": 74,
    "regency_id": 7410,
    "district_id": 741004,
    "value": "Bumi Lapero/Lapera",
    "postal_code": "93670"
  },
  {
    "id": 741004,
    "province_id": 74,
    "regency_id": 7410,
    "district_id": 741004,
    "value": "Karya Bhakti (Karya Bakti)",
    "postal_code": "93670"
  },
  {
    "id": 741004,
    "province_id": 74,
    "regency_id": 7410,
    "district_id": 741004,
    "value": "Karya Mulya",
    "postal_code": "93670"
  },
  {
    "id": 741004,
    "province_id": 74,
    "regency_id": 7410,
    "district_id": 741004,
    "value": "Kasulatombi",
    "postal_code": "93670"
  },
  {
    "id": 741004,
    "province_id": 74,
    "regency_id": 7410,
    "district_id": 741004,
    "value": "Kotawo (Kotawa)",
    "postal_code": "93670"
  },
  {
    "id": 741004,
    "province_id": 74,
    "regency_id": 7410,
    "district_id": 741004,
    "value": "Labulanda",
    "postal_code": "93670"
  },
  {
    "id": 741004,
    "province_id": 74,
    "regency_id": 7410,
    "district_id": 741004,
    "value": "Lambale",
    "postal_code": "93670"
  },
  {
    "id": 741004,
    "province_id": 74,
    "regency_id": 7410,
    "district_id": 741004,
    "value": "Lampala Jaya (Dampala Jaya)",
    "postal_code": "93670"
  },
  {
    "id": 741004,
    "province_id": 74,
    "regency_id": 7410,
    "district_id": 741004,
    "value": "Lapandewa",
    "postal_code": "93670"
  },
  {
    "id": 741004,
    "province_id": 74,
    "regency_id": 7410,
    "district_id": 741004,
    "value": "Lauki",
    "postal_code": "93670"
  },
  {
    "id": 741004,
    "province_id": 74,
    "regency_id": 7410,
    "district_id": 741004,
    "value": "Margakarya (Marga Karya)",
    "postal_code": "93670"
  },
  {
    "id": 741004,
    "province_id": 74,
    "regency_id": 7410,
    "district_id": 741004,
    "value": "Mekar Jaya",
    "postal_code": "93670"
  },
  {
    "id": 741004,
    "province_id": 74,
    "regency_id": 7410,
    "district_id": 741004,
    "value": "Rahmat Baru",
    "postal_code": "93670"
  },
  {
    "id": 741004,
    "province_id": 74,
    "regency_id": 7410,
    "district_id": 741004,
    "value": "Soloy/Soioi Agung",
    "postal_code": "93670"
  }
]