[
  {
    "id": 7409132011,
    "province_id": 74,
    "regency_id": 7409,
    "district_id": 740913,
    "value": "Hialu",
    "postal_code": "93353"
  },
  {
    "id": 7409132005,
    "province_id": 74,
    "regency_id": 7409,
    "district_id": 740913,
    "value": "Hialu Utama",
    "postal_code": "93353"
  },
  {
    "id": 7409132003,
    "province_id": 74,
    "regency_id": 7409,
    "district_id": 740913,
    "value": "Kolosua",
    "postal_code": "93353"
  },
  {
    "id": 7409132001,
    "province_id": 74,
    "regency_id": 7409,
    "district_id": 740913,
    "value": "Kuratao",
    "postal_code": "93353"
  },
  {
    "id": 7409132009,
    "province_id": 74,
    "regency_id": 7409,
    "district_id": 740913,
    "value": "Landawe Utama",
    "postal_code": "93353"
  },
  {
    "id": 7409132002,
    "province_id": 74,
    "regency_id": 7409,
    "district_id": 740913,
    "value": "Landiwo",
    "postal_code": "93353"
  },
  {
    "id": 7409132004,
    "province_id": 74,
    "regency_id": 7409,
    "district_id": 740913,
    "value": "Laumoso",
    "postal_code": "93353"
  },
  {
    "id": 7409132010,
    "province_id": 74,
    "regency_id": 7409,
    "district_id": 740913,
    "value": "Mata Benua",
    "postal_code": "93353"
  },
  {
    "id": 7409132008,
    "province_id": 74,
    "regency_id": 7409,
    "district_id": 740913,
    "value": "Matabaho",
    "postal_code": "93353"
  },
  {
    "id": 7409132006,
    "province_id": 74,
    "regency_id": 7409,
    "district_id": 740913,
    "value": "Polo polora",
    "postal_code": "93353"
  },
  {
    "id": 7409132007,
    "province_id": 74,
    "regency_id": 7409,
    "district_id": 740913,
    "value": "Tambakua",
    "postal_code": "93353"
  }
]