[
  {
    "id": 3671011008,
    "province_id": 36,
    "regency_id": 3671,
    "district_id": 367101,
    "value": "Babakan",
    "postal_code": "15118"
  },
  {
    "id": 3671011004,
    "province_id": 36,
    "regency_id": 3671,
    "district_id": 367101,
    "value": "Buaran Indah",
    "postal_code": "15119"
  },
  {
    "id": 3671011005,
    "province_id": 36,
    "regency_id": 3671,
    "district_id": 367101,
    "value": "Cikokol",
    "postal_code": "15117"
  },
  {
    "id": 3671011006,
    "province_id": 36,
    "regency_id": 3671,
    "district_id": 367101,
    "value": "Kelapa Indah",
    "postal_code": "15117"
  },
  {
    "id": 3671011002,
    "province_id": 36,
    "regency_id": 3671,
    "district_id": 367101,
    "value": "Sukaasih (Suka Asih)",
    "postal_code": "15111"
  },
  {
    "id": 3671011001,
    "province_id": 36,
    "regency_id": 3671,
    "district_id": 367101,
    "value": "Sukarasa",
    "postal_code": "15111"
  },
  {
    "id": 3671011007,
    "province_id": 36,
    "regency_id": 3671,
    "district_id": 367101,
    "value": "Sukasari",
    "postal_code": "15118"
  },
  {
    "id": 3671011003,
    "province_id": 36,
    "regency_id": 3671,
    "district_id": 367101,
    "value": "Tanah Tinggi",
    "postal_code": "15119"
  }
]