[
  {
    "id": 350913,
    "province_id": 35,
    "regency_id": 3509,
    "district_id": 350913,
    "value": "Curahmalang",
    "postal_code": "68152"
  },
  {
    "id": 350913,
    "province_id": 35,
    "regency_id": 3509,
    "district_id": 350913,
    "value": "Gugut",
    "postal_code": "68152"
  },
  {
    "id": 350913,
    "province_id": 35,
    "regency_id": 3509,
    "district_id": 350913,
    "value": "Kaliwining",
    "postal_code": "68152"
  },
  {
    "id": 350913,
    "province_id": 35,
    "regency_id": 3509,
    "district_id": 350913,
    "value": "Nogosari",
    "postal_code": "68152"
  },
  {
    "id": 350913,
    "province_id": 35,
    "regency_id": 3509,
    "district_id": 350913,
    "value": "Pecoro",
    "postal_code": "68152"
  },
  {
    "id": 350913,
    "province_id": 35,
    "regency_id": 3509,
    "district_id": 350913,
    "value": "Rambigundam",
    "postal_code": "68152"
  },
  {
    "id": 350913,
    "province_id": 35,
    "regency_id": 3509,
    "district_id": 350913,
    "value": "Rambipuji",
    "postal_code": "68152"
  },
  {
    "id": 350913,
    "province_id": 35,
    "regency_id": 3509,
    "district_id": 350913,
    "value": "Rowotamtu",
    "postal_code": "68152"
  }
]