[
  {
    "id": 950602,
    "province_id": 95,
    "regency_id": 9506,
    "district_id": 950602,
    "value": "Alimuhuk",
    "postal_code": "99084"
  },
  {
    "id": 950602,
    "province_id": 95,
    "regency_id": 9506,
    "district_id": 950602,
    "value": "Apalapsili",
    "postal_code": "99084"
  },
  {
    "id": 950602,
    "province_id": 95,
    "regency_id": 9506,
    "district_id": 950602,
    "value": "Asiligma",
    "postal_code": "99084"
  },
  {
    "id": 950602,
    "province_id": 95,
    "regency_id": 9506,
    "district_id": 950602,
    "value": "Asilikma",
    "postal_code": "99084"
  },
  {
    "id": 950602,
    "province_id": 95,
    "regency_id": 9506,
    "district_id": 950602,
    "value": "Baptekma (Babtekma)",
    "postal_code": "99084"
  },
  {
    "id": 950602,
    "province_id": 95,
    "regency_id": 9506,
    "district_id": 950602,
    "value": "Benyam",
    "postal_code": "99084"
  },
  {
    "id": 950602,
    "province_id": 95,
    "regency_id": 9506,
    "district_id": 950602,
    "value": "Eal",
    "postal_code": "99084"
  },
  {
    "id": 950602,
    "province_id": 95,
    "regency_id": 9506,
    "district_id": 950602,
    "value": "Falukwalilo",
    "postal_code": "99084"
  },
  {
    "id": 950602,
    "province_id": 95,
    "regency_id": 9506,
    "district_id": 950602,
    "value": "Fari",
    "postal_code": "99084"
  },
  {
    "id": 950602,
    "province_id": 95,
    "regency_id": 9506,
    "district_id": 950602,
    "value": "Filiahik (Filiyahik)",
    "postal_code": "99084"
  },
  {
    "id": 950602,
    "province_id": 95,
    "regency_id": 9506,
    "district_id": 950602,
    "value": "Habalo",
    "postal_code": "99084"
  },
  {
    "id": 950602,
    "province_id": 95,
    "regency_id": 9506,
    "district_id": 950602,
    "value": "Hinanggoambut (Hinongkoambut)",
    "postal_code": "99084"
  },
  {
    "id": 950602,
    "province_id": 95,
    "regency_id": 9506,
    "district_id": 950602,
    "value": "Holukalem (Holuokalem)",
    "postal_code": "99084"
  },
  {
    "id": 950602,
    "province_id": 95,
    "regency_id": 9506,
    "district_id": 950602,
    "value": "Holuogalma (Holuaogalma)",
    "postal_code": "99084"
  },
  {
    "id": 950602,
    "province_id": 95,
    "regency_id": 9506,
    "district_id": 950602,
    "value": "Hubliki",
    "postal_code": "99084"
  },
  {
    "id": 950602,
    "province_id": 95,
    "regency_id": 9506,
    "district_id": 950602,
    "value": "Hukalopunu",
    "postal_code": "99084"
  },
  {
    "id": 950602,
    "province_id": 95,
    "regency_id": 9506,
    "district_id": 950602,
    "value": "Humalem (Humalen)",
    "postal_code": "99084"
  },
  {
    "id": 950602,
    "province_id": 95,
    "regency_id": 9506,
    "district_id": 950602,
    "value": "Ilirek",
    "postal_code": "99084"
  },
  {
    "id": 950602,
    "province_id": 95,
    "regency_id": 9506,
    "district_id": 950602,
    "value": "Kelampurim",
    "postal_code": "99084"
  },
  {
    "id": 950602,
    "province_id": 95,
    "regency_id": 9506,
    "district_id": 950602,
    "value": "Kengkenbun (Kengggembun)",
    "postal_code": "99084"
  },
  {
    "id": 950602,
    "province_id": 95,
    "regency_id": 9506,
    "district_id": 950602,
    "value": "Kilat",
    "postal_code": "99084"
  },
  {
    "id": 950602,
    "province_id": 95,
    "regency_id": 9506,
    "district_id": 950602,
    "value": "Kinhe",
    "postal_code": "99084"
  },
  {
    "id": 950602,
    "province_id": 95,
    "regency_id": 9506,
    "district_id": 950602,
    "value": "Kulet",
    "postal_code": "99084"
  },
  {
    "id": 950602,
    "province_id": 95,
    "regency_id": 9506,
    "district_id": 950602,
    "value": "Kundikele",
    "postal_code": "99084"
  },
  {
    "id": 950602,
    "province_id": 95,
    "regency_id": 9506,
    "district_id": 950602,
    "value": "Lambukmu",
    "postal_code": "99084"
  },
  {
    "id": 950602,
    "province_id": 95,
    "regency_id": 9506,
    "district_id": 950602,
    "value": "Lilinsaluk",
    "postal_code": "99084"
  },
  {
    "id": 950602,
    "province_id": 95,
    "regency_id": 9506,
    "district_id": 950602,
    "value": "Makrig",
    "postal_code": "99084"
  },
  {
    "id": 950602,
    "province_id": 95,
    "regency_id": 9506,
    "district_id": 950602,
    "value": "Molinggi (Moliyinggi)",
    "postal_code": "99084"
  },
  {
    "id": 950602,
    "province_id": 95,
    "regency_id": 9506,
    "district_id": 950602,
    "value": "Nanahoruk",
    "postal_code": "99084"
  },
  {
    "id": 950602,
    "province_id": 95,
    "regency_id": 9506,
    "district_id": 950602,
    "value": "Nasinema (Nasinena)",
    "postal_code": "99084"
  },
  {
    "id": 950602,
    "province_id": 95,
    "regency_id": 9506,
    "district_id": 950602,
    "value": "Natoksili",
    "postal_code": "99084"
  },
  {
    "id": 950602,
    "province_id": 95,
    "regency_id": 9506,
    "district_id": 950602,
    "value": "Nohonil",
    "postal_code": "99084"
  },
  {
    "id": 950602,
    "province_id": 95,
    "regency_id": 9506,
    "district_id": 950602,
    "value": "Orohon",
    "postal_code": "99084"
  },
  {
    "id": 950602,
    "province_id": 95,
    "regency_id": 9506,
    "district_id": 950602,
    "value": "Pipisim",
    "postal_code": "99084"
  },
  {
    "id": 950602,
    "province_id": 95,
    "regency_id": 9506,
    "district_id": 950602,
    "value": "Pong",
    "postal_code": "99084"
  },
  {
    "id": 950602,
    "province_id": 95,
    "regency_id": 9506,
    "district_id": 950602,
    "value": "Sabilikalem",
    "postal_code": "99084"
  },
  {
    "id": 950602,
    "province_id": 95,
    "regency_id": 9506,
    "district_id": 950602,
    "value": "Sabualo",
    "postal_code": "99084"
  },
  {
    "id": 950602,
    "province_id": 95,
    "regency_id": 9506,
    "district_id": 950602,
    "value": "Sien",
    "postal_code": "99084"
  },
  {
    "id": 950602,
    "province_id": 95,
    "regency_id": 9506,
    "district_id": 950602,
    "value": "Sobikambut",
    "postal_code": "99084"
  },
  {
    "id": 950602,
    "province_id": 95,
    "regency_id": 9506,
    "district_id": 950602,
    "value": "Suerlihim (Suerelihim)",
    "postal_code": "99084"
  },
  {
    "id": 950602,
    "province_id": 95,
    "regency_id": 9506,
    "district_id": 950602,
    "value": "Suwewili (Suweli)",
    "postal_code": "99084"
  },
  {
    "id": 950602,
    "province_id": 95,
    "regency_id": 9506,
    "district_id": 950602,
    "value": "Temput (Tembut)",
    "postal_code": "99084"
  },
  {
    "id": 950602,
    "province_id": 95,
    "regency_id": 9506,
    "district_id": 950602,
    "value": "Tikano",
    "postal_code": "99084"
  },
  {
    "id": 950602,
    "province_id": 95,
    "regency_id": 9506,
    "district_id": 950602,
    "value": "Wanamalo",
    "postal_code": "99084"
  },
  {
    "id": 950602,
    "province_id": 95,
    "regency_id": 9506,
    "district_id": 950602,
    "value": "Wasalalo",
    "postal_code": "99084"
  },
  {
    "id": 950602,
    "province_id": 95,
    "regency_id": 9506,
    "district_id": 950602,
    "value": "Wiralesili",
    "postal_code": "99084"
  },
  {
    "id": 950602,
    "province_id": 95,
    "regency_id": 9506,
    "district_id": 950602,
    "value": "Wiyukwilik",
    "postal_code": "99084"
  },
  {
    "id": 950602,
    "province_id": 95,
    "regency_id": 9506,
    "district_id": 950602,
    "value": "Yarema (Yarema Satu)",
    "postal_code": "99084"
  },
  {
    "id": 950602,
    "province_id": 95,
    "regency_id": 9506,
    "district_id": 950602,
    "value": "Yeptek (Yeftek)",
    "postal_code": "99084"
  },
  {
    "id": 950602,
    "province_id": 95,
    "regency_id": 9506,
    "district_id": 950602,
    "value": "Yohul",
    "postal_code": "99084"
  }
]