[
  {
    "id": 740231,
    "province_id": 74,
    "regency_id": 7402,
    "district_id": 740231,
    "value": "Ambodiaa",
    "postal_code": "93441"
  },
  {
    "id": 740231,
    "province_id": 74,
    "regency_id": 7402,
    "district_id": 740231,
    "value": "Angohi",
    "postal_code": "93441"
  },
  {
    "id": 740231,
    "province_id": 74,
    "regency_id": 7402,
    "district_id": 740231,
    "value": "Asinua Jaya",
    "postal_code": "93441"
  },
  {
    "id": 740231,
    "province_id": 74,
    "regency_id": 7402,
    "district_id": 740231,
    "value": "Asipako",
    "postal_code": "93441"
  },
  {
    "id": 740231,
    "province_id": 74,
    "regency_id": 7402,
    "district_id": 740231,
    "value": "Awua Jaya",
    "postal_code": "93441"
  },
  {
    "id": 740231,
    "province_id": 74,
    "regency_id": 7402,
    "district_id": 740231,
    "value": "Awua Sari",
    "postal_code": "93441"
  },
  {
    "id": 740231,
    "province_id": 74,
    "regency_id": 7402,
    "district_id": 740231,
    "value": "Lasada",
    "postal_code": "93441"
  },
  {
    "id": 740231,
    "province_id": 74,
    "regency_id": 7402,
    "district_id": 740231,
    "value": "Nekudu",
    "postal_code": "93441"
  }
]