[
  {
    "id": 730610,
    "province_id": 73,
    "regency_id": 7306,
    "district_id": 730610,
    "value": "Balassuka",
    "postal_code": "92170"
  },
  {
    "id": 730610,
    "province_id": 73,
    "regency_id": 7306,
    "district_id": 730610,
    "value": "Bolaromang",
    "postal_code": "92170"
  },
  {
    "id": 730610,
    "province_id": 73,
    "regency_id": 7306,
    "district_id": 730610,
    "value": "Erelembang",
    "postal_code": "92170"
  },
  {
    "id": 730610,
    "province_id": 73,
    "regency_id": 7306,
    "district_id": 730610,
    "value": "Kanreapia",
    "postal_code": "92170"
  },
  {
    "id": 730610,
    "province_id": 73,
    "regency_id": 7306,
    "district_id": 730610,
    "value": "Mamampang",
    "postal_code": "92170"
  },
  {
    "id": 730610,
    "province_id": 73,
    "regency_id": 7306,
    "district_id": 730610,
    "value": "Pao",
    "postal_code": "92170"
  },
  {
    "id": 730610,
    "province_id": 73,
    "regency_id": 7306,
    "district_id": 730610,
    "value": "Ta'binjai",
    "postal_code": "92170"
  },
  {
    "id": 730610,
    "province_id": 73,
    "regency_id": 7306,
    "district_id": 730610,
    "value": "Tamaona",
    "postal_code": "92170"
  },
  {
    "id": 730610,
    "province_id": 73,
    "regency_id": 7306,
    "district_id": 730610,
    "value": "Tonasa",
    "postal_code": "92170"
  }
]