[
  {
    "id": 9403142010,
    "province_id": 94,
    "regency_id": 9403,
    "district_id": 940314,
    "value": "Amopa",
    "postal_code": "98721"
  },
  {
    "id": 9403142005,
    "province_id": 94,
    "regency_id": 9403,
    "district_id": 940314,
    "value": "Bebiyai",
    "postal_code": "98721"
  },
  {
    "id": 9403142008,
    "province_id": 94,
    "regency_id": 9403,
    "district_id": 940314,
    "value": "Damuto",
    "postal_code": "98721"
  },
  {
    "id": 9403142003,
    "province_id": 94,
    "regency_id": 9403,
    "district_id": 940314,
    "value": "Epabutu",
    "postal_code": "98721"
  },
  {
    "id": 9403142006,
    "province_id": 94,
    "regency_id": 9403,
    "district_id": 940314,
    "value": "Idaiyo",
    "postal_code": "98721"
  },
  {
    "id": 9403142002,
    "province_id": 94,
    "regency_id": 9403,
    "district_id": 940314,
    "value": "Mogeya",
    "postal_code": "98721"
  },
  {
    "id": 9403142001,
    "province_id": 94,
    "regency_id": 9403,
    "district_id": 940314,
    "value": "Muyetadi",
    "postal_code": "98721"
  },
  {
    "id": 9403142009,
    "province_id": 94,
    "regency_id": 9403,
    "district_id": 940314,
    "value": "Obaiyodimi",
    "postal_code": "98721"
  },
  {
    "id": 9403142004,
    "province_id": 94,
    "regency_id": 9403,
    "district_id": 940314,
    "value": "Tiga Damuto",
    "postal_code": "98721"
  },
  {
    "id": 9403142007,
    "province_id": 94,
    "regency_id": 9403,
    "district_id": 940314,
    "value": "Tinou",
    "postal_code": "98721"
  }
]