[
  {
    "id": 810113,
    "province_id": 81,
    "regency_id": 8101,
    "district_id": 810113,
    "value": "Aboru",
    "postal_code": "97583"
  },
  {
    "id": 810113,
    "province_id": 81,
    "regency_id": 8101,
    "district_id": 810113,
    "value": "Haruku",
    "postal_code": "97583"
  },
  {
    "id": 810113,
    "province_id": 81,
    "regency_id": 8101,
    "district_id": 810113,
    "value": "Hulaliu",
    "postal_code": "97583"
  },
  {
    "id": 810113,
    "province_id": 81,
    "regency_id": 8101,
    "district_id": 810113,
    "value": "Kabauw (Kabau)",
    "postal_code": "97583"
  },
  {
    "id": 810113,
    "province_id": 81,
    "regency_id": 8101,
    "district_id": 810113,
    "value": "Kailolo",
    "postal_code": "97583"
  },
  {
    "id": 810113,
    "province_id": 81,
    "regency_id": 8101,
    "district_id": 810113,
    "value": "Kariu (Kariuw)",
    "postal_code": "97583"
  },
  {
    "id": 810113,
    "province_id": 81,
    "regency_id": 8101,
    "district_id": 810113,
    "value": "Oma",
    "postal_code": "97583"
  },
  {
    "id": 810113,
    "province_id": 81,
    "regency_id": 8101,
    "district_id": 810113,
    "value": "Pelauw",
    "postal_code": "97583"
  },
  {
    "id": 810113,
    "province_id": 81,
    "regency_id": 8101,
    "district_id": 810113,
    "value": "Rohomoni",
    "postal_code": "97583"
  },
  {
    "id": 810113,
    "province_id": 81,
    "regency_id": 8101,
    "district_id": 810113,
    "value": "Sameth",
    "postal_code": "97583"
  },
  {
    "id": 810113,
    "province_id": 81,
    "regency_id": 8101,
    "district_id": 810113,
    "value": "Wassu",
    "postal_code": "97583"
  }
]