[
  {
    "id": 950712,
    "province_id": 95,
    "regency_id": 9507,
    "district_id": 950712,
    "value": "Berangwi",
    "postal_code": "99592"
  },
  {
    "id": 950712,
    "province_id": 95,
    "regency_id": 9507,
    "district_id": 950712,
    "value": "Kwenukwi",
    "postal_code": "99592"
  },
  {
    "id": 950712,
    "province_id": 95,
    "regency_id": 9507,
    "district_id": 950712,
    "value": "Libungga",
    "postal_code": "99592"
  },
  {
    "id": 950712,
    "province_id": 95,
    "regency_id": 9507,
    "district_id": 950712,
    "value": "Unom",
    "postal_code": "99592"
  },
  {
    "id": 950712,
    "province_id": 95,
    "regency_id": 9507,
    "district_id": 950712,
    "value": "Weneogun",
    "postal_code": "99592"
  },
  {
    "id": 950712,
    "province_id": 95,
    "regency_id": 9507,
    "district_id": 950712,
    "value": "Wimolome",
    "postal_code": "99592"
  },
  {
    "id": 950712,
    "province_id": 95,
    "regency_id": 9507,
    "district_id": 950712,
    "value": "Yirene",
    "postal_code": "99592"
  },
  {
    "id": 950712,
    "province_id": 95,
    "regency_id": 9507,
    "district_id": 950712,
    "value": "Yogobak",
    "postal_code": "99592"
  }
]