[
  {
    "id": 1612012014,
    "province_id": 16,
    "regency_id": 1612,
    "district_id": 161201,
    "value": "Benakat Minyak",
    "postal_code": "31214"
  },
  {
    "id": 1612012002,
    "province_id": 16,
    "regency_id": 1612,
    "district_id": 161201,
    "value": "Benuang",
    "postal_code": "31214"
  },
  {
    "id": 1612012019,
    "province_id": 16,
    "regency_id": 1612,
    "district_id": 161201,
    "value": "Beruge Darat",
    "postal_code": "31214"
  },
  {
    "id": 1612011018,
    "province_id": 16,
    "regency_id": 1612,
    "district_id": 161201,
    "value": "Handayani Mulya",
    "postal_code": "31214"
  },
  {
    "id": 1612012006,
    "province_id": 16,
    "regency_id": 1612,
    "district_id": 161201,
    "value": "Karta Dewa",
    "postal_code": "31214"
  },
  {
    "id": 1612012007,
    "province_id": 16,
    "regency_id": 1612,
    "district_id": 161201,
    "value": "Panta Dewa",
    "postal_code": "31214"
  },
  {
    "id": 1612011017,
    "province_id": 16,
    "regency_id": 1612,
    "district_id": 161201,
    "value": "Pasar Bhayangkara",
    "postal_code": "31214"
  },
  {
    "id": 1612012009,
    "province_id": 16,
    "regency_id": 1612,
    "district_id": 161201,
    "value": "Semangus",
    "postal_code": "31214"
  },
  {
    "id": 1612012020,
    "province_id": 16,
    "regency_id": 1612,
    "district_id": 161201,
    "value": "Simpang Tais",
    "postal_code": "31214"
  },
  {
    "id": 1612012013,
    "province_id": 16,
    "regency_id": 1612,
    "district_id": 161201,
    "value": "Sinar Dewa",
    "postal_code": "31214"
  },
  {
    "id": 1612012016,
    "province_id": 16,
    "regency_id": 1612,
    "district_id": 161201,
    "value": "Suka Damai",
    "postal_code": "31214"
  },
  {
    "id": 1612012015,
    "province_id": 16,
    "regency_id": 1612,
    "district_id": 161201,
    "value": "Suka Maju (Sukamaju)",
    "postal_code": "31214"
  },
  {
    "id": 1612012008,
    "province_id": 16,
    "regency_id": 1612,
    "district_id": 161201,
    "value": "Sungai Baung",
    "postal_code": "31214"
  },
  {
    "id": 1612012005,
    "province_id": 16,
    "regency_id": 1612,
    "district_id": 161201,
    "value": "Sungai Ibul",
    "postal_code": "31214"
  },
  {
    "id": 1612012004,
    "province_id": 16,
    "regency_id": 1612,
    "district_id": 161201,
    "value": "Talang Akar",
    "postal_code": "31214"
  },
  {
    "id": 1612012001,
    "province_id": 16,
    "regency_id": 1612,
    "district_id": 161201,
    "value": "Talang Bulang",
    "postal_code": "31214"
  },
  {
    "id": 1612011010,
    "province_id": 16,
    "regency_id": 1612,
    "district_id": 161201,
    "value": "Talang Ubi Barat",
    "postal_code": "31211"
  },
  {
    "id": 1612011012,
    "province_id": 16,
    "regency_id": 1612,
    "district_id": 161201,
    "value": "Talang Ubi Selatan",
    "postal_code": "31212"
  },
  {
    "id": 1612011003,
    "province_id": 16,
    "regency_id": 1612,
    "district_id": 161201,
    "value": "Talang Ubi Timur",
    "postal_code": "31213"
  },
  {
    "id": 1612011011,
    "province_id": 16,
    "regency_id": 1612,
    "district_id": 161201,
    "value": "Talang Ubi Utara",
    "postal_code": "31214"
  }
]