[
  {
    "id": 351712,
    "province_id": 35,
    "regency_id": 3517,
    "district_id": 351712,
    "value": "Blimbing",
    "postal_code": "61484"
  },
  {
    "id": 351712,
    "province_id": 35,
    "regency_id": 3517,
    "district_id": 351712,
    "value": "Carangrejo (Carang Rejo)",
    "postal_code": "61484"
  },
  {
    "id": 351712,
    "province_id": 35,
    "regency_id": 3517,
    "district_id": 351712,
    "value": "Gumulan",
    "postal_code": "61484"
  },
  {
    "id": 351712,
    "province_id": 35,
    "regency_id": 3517,
    "district_id": 351712,
    "value": "Jatiduwur (Jati Duwur)",
    "postal_code": "61484"
  },
  {
    "id": 351712,
    "province_id": 35,
    "regency_id": 3517,
    "district_id": 351712,
    "value": "Jombatan",
    "postal_code": "61484"
  },
  {
    "id": 351712,
    "province_id": 35,
    "regency_id": 3517,
    "district_id": 351712,
    "value": "Jombok",
    "postal_code": "61484"
  },
  {
    "id": 351712,
    "province_id": 35,
    "regency_id": 3517,
    "district_id": 351712,
    "value": "Kedungbetik (Kedung Betik)",
    "postal_code": "61484"
  },
  {
    "id": 351712,
    "province_id": 35,
    "regency_id": 3517,
    "district_id": 351712,
    "value": "Kedungmlati (Kedung Mlati)",
    "postal_code": "61484"
  },
  {
    "id": 351712,
    "province_id": 35,
    "regency_id": 3517,
    "district_id": 351712,
    "value": "Kesamben",
    "postal_code": "61484"
  },
  {
    "id": 351712,
    "province_id": 35,
    "regency_id": 3517,
    "district_id": 351712,
    "value": "Podoroto",
    "postal_code": "61484"
  },
  {
    "id": 351712,
    "province_id": 35,
    "regency_id": 3517,
    "district_id": 351712,
    "value": "Pojokkulon (Pojok Kulon)",
    "postal_code": "61484"
  },
  {
    "id": 351712,
    "province_id": 35,
    "regency_id": 3517,
    "district_id": 351712,
    "value": "Pojokrejo (Pojok Rejo)",
    "postal_code": "61484"
  },
  {
    "id": 351712,
    "province_id": 35,
    "regency_id": 3517,
    "district_id": 351712,
    "value": "Watudakon (Watu Dakon)",
    "postal_code": "61484"
  },
  {
    "id": 351712,
    "province_id": 35,
    "regency_id": 3517,
    "district_id": 351712,
    "value": "Wuluh",
    "postal_code": "61484"
  }
]