[
  {
    "id": 7309112002,
    "province_id": 73,
    "regency_id": 7309,
    "district_id": 730911,
    "value": "Benteng Gajah",
    "postal_code": "90565"
  },
  {
    "id": 7309112003,
    "province_id": 73,
    "regency_id": 7309,
    "district_id": 730911,
    "value": "Bonto Manai",
    "postal_code": "90565"
  },
  {
    "id": 7309112008,
    "province_id": 73,
    "regency_id": 7309,
    "district_id": 730911,
    "value": "Bonto Manurung",
    "postal_code": "90565"
  },
  {
    "id": 7309112007,
    "province_id": 73,
    "regency_id": 7309,
    "district_id": 730911,
    "value": "Bonto Matinggi (Bontomatinggi)",
    "postal_code": "90565"
  },
  {
    "id": 7309112004,
    "province_id": 73,
    "regency_id": 7309,
    "district_id": 730911,
    "value": "Bonto Somba",
    "postal_code": "90565"
  },
  {
    "id": 7309112006,
    "province_id": 73,
    "regency_id": 7309,
    "district_id": 730911,
    "value": "Pucak",
    "postal_code": "90565"
  },
  {
    "id": 7309112005,
    "province_id": 73,
    "regency_id": 7309,
    "district_id": 730911,
    "value": "Toddolimae",
    "postal_code": "90565"
  },
  {
    "id": 7309112001,
    "province_id": 73,
    "regency_id": 7309,
    "district_id": 730911,
    "value": "Tompobulu (Tompo Bulu)",
    "postal_code": "90565"
  }
]