[
  {
    "id": 950440,
    "province_id": 95,
    "regency_id": 9504,
    "district_id": 950440,
    "value": "Belela",
    "postal_code": "99016"
  },
  {
    "id": 950440,
    "province_id": 95,
    "regency_id": 9504,
    "district_id": 950440,
    "value": "Ekoni",
    "postal_code": "99016"
  },
  {
    "id": 950440,
    "province_id": 95,
    "regency_id": 9504,
    "district_id": 950440,
    "value": "Gabunam",
    "postal_code": "99016"
  },
  {
    "id": 950440,
    "province_id": 95,
    "regency_id": 9504,
    "district_id": 950440,
    "value": "Gulak",
    "postal_code": "99016"
  },
  {
    "id": 950440,
    "province_id": 95,
    "regency_id": 9504,
    "district_id": 950440,
    "value": "Kandimbaga",
    "postal_code": "99016"
  },
  {
    "id": 950440,
    "province_id": 95,
    "regency_id": 9504,
    "district_id": 950440,
    "value": "Kinebe",
    "postal_code": "99016"
  },
  {
    "id": 950440,
    "province_id": 95,
    "regency_id": 9504,
    "district_id": 950440,
    "value": "Kogotime",
    "postal_code": "99016"
  },
  {
    "id": 950440,
    "province_id": 95,
    "regency_id": 9504,
    "district_id": 950440,
    "value": "Melaga",
    "postal_code": "99016"
  },
  {
    "id": 950440,
    "province_id": 95,
    "regency_id": 9504,
    "district_id": 950440,
    "value": "Minggen",
    "postal_code": "99016"
  },
  {
    "id": 950440,
    "province_id": 95,
    "regency_id": 9504,
    "district_id": 950440,
    "value": "Peyola",
    "postal_code": "99016"
  }
]