[
  {
    "id": 710712,
    "province_id": 71,
    "regency_id": 7107,
    "district_id": 710712,
    "value": "Pangu",
    "postal_code": "95995"
  },
  {
    "id": 710712,
    "province_id": 71,
    "regency_id": 7107,
    "district_id": 710712,
    "value": "Pangu Dua",
    "postal_code": "95995"
  },
  {
    "id": 710712,
    "province_id": 71,
    "regency_id": 7107,
    "district_id": 710712,
    "value": "Pangu Satu",
    "postal_code": "95995"
  },
  {
    "id": 710712,
    "province_id": 71,
    "regency_id": 7107,
    "district_id": 710712,
    "value": "Wioi Dua",
    "postal_code": "95995"
  },
  {
    "id": 710712,
    "province_id": 71,
    "regency_id": 7107,
    "district_id": 710712,
    "value": "Wioi Satu",
    "postal_code": "95995"
  },
  {
    "id": 710712,
    "province_id": 71,
    "regency_id": 7107,
    "district_id": 710712,
    "value": "Wioi Tiga",
    "postal_code": "95995"
  },
  {
    "id": 710712,
    "province_id": 71,
    "regency_id": 7107,
    "district_id": 710712,
    "value": "Wioi Timur",
    "postal_code": "95995"
  },
  {
    "id": 710712,
    "province_id": 71,
    "regency_id": 7107,
    "district_id": 710712,
    "value": "Wioy (Wioi)",
    "postal_code": "95995"
  },
  {
    "id": 710712,
    "province_id": 71,
    "regency_id": 7107,
    "district_id": 710712,
    "value": "Wongkai Satu",
    "postal_code": "95995"
  },
  {
    "id": 710712,
    "province_id": 71,
    "regency_id": 7107,
    "district_id": 710712,
    "value": "Wongkay (Wongkai)",
    "postal_code": "95995"
  }
]