[
  {
    "id": 1306082007,
    "province_id": 13,
    "regency_id": 1306,
    "district_id": 130608,
    "value": "Koto Baru (Koto Baru III Jorong)",
    "postal_code": "26192"
  },
  {
    "id": 1306082009,
    "province_id": 13,
    "regency_id": 1306,
    "district_id": 130608,
    "value": "Koto Gadang",
    "postal_code": "26192"
  },
  {
    "id": 1306082001,
    "province_id": 13,
    "regency_id": 1306,
    "district_id": 130608,
    "value": "Koto Tinggi",
    "postal_code": "26192"
  },
  {
    "id": 1306082005,
    "province_id": 13,
    "regency_id": 1306,
    "district_id": 130608,
    "value": "Padang Tarok",
    "postal_code": "26192"
  },
  {
    "id": 1306082006,
    "province_id": 13,
    "regency_id": 1306,
    "district_id": 130608,
    "value": "Salo",
    "postal_code": "26192"
  },
  {
    "id": 1306082004,
    "province_id": 13,
    "regency_id": 1306,
    "district_id": 130608,
    "value": "Simarasok",
    "postal_code": "26192"
  },
  {
    "id": 1306082008,
    "province_id": 13,
    "regency_id": 1306,
    "district_id": 130608,
    "value": "Sungai Cubadak",
    "postal_code": "26192"
  },
  {
    "id": 1306082002,
    "province_id": 13,
    "regency_id": 1306,
    "district_id": 130608,
    "value": "Tabek Panjang",
    "postal_code": "26192"
  }
]