[
  {
    "id": 3527052014,
    "province_id": 35,
    "regency_id": 3527,
    "district_id": 352705,
    "value": "Angsokah",
    "postal_code": "69291"
  },
  {
    "id": 3527052005,
    "province_id": 35,
    "regency_id": 3527,
    "district_id": 352705,
    "value": "Astapah",
    "postal_code": "69291"
  },
  {
    "id": 3527052007,
    "province_id": 35,
    "regency_id": 3527,
    "district_id": 352705,
    "value": "Gersempal",
    "postal_code": "69291"
  },
  {
    "id": 3527052015,
    "province_id": 35,
    "regency_id": 3527,
    "district_id": 352705,
    "value": "Jrangoan (Jranguan)",
    "postal_code": "69291"
  },
  {
    "id": 3527052011,
    "province_id": 35,
    "regency_id": 3527,
    "district_id": 352705,
    "value": "Kamondung",
    "postal_code": "69291"
  },
  {
    "id": 3527052019,
    "province_id": 35,
    "regency_id": 3527,
    "district_id": 352705,
    "value": "Karanggayam (Karang Gayam)",
    "postal_code": "69291"
  },
  {
    "id": 3527052002,
    "province_id": 35,
    "regency_id": 3527,
    "district_id": 352705,
    "value": "Karangnangger (Karang Nangger)",
    "postal_code": "69291"
  },
  {
    "id": 3527052001,
    "province_id": 35,
    "regency_id": 3527,
    "district_id": 352705,
    "value": "Kebun Sareh",
    "postal_code": "69291"
  },
  {
    "id": 3527052010,
    "province_id": 35,
    "regency_id": 3527,
    "district_id": 352705,
    "value": "Madulang",
    "postal_code": "69291"
  },
  {
    "id": 3527052009,
    "province_id": 35,
    "regency_id": 3527,
    "district_id": 352705,
    "value": "Meteng",
    "postal_code": "69291"
  },
  {
    "id": 3527052018,
    "province_id": 35,
    "regency_id": 3527,
    "district_id": 352705,
    "value": "Napo Daya (Napa Daya)",
    "postal_code": "69291"
  },
  {
    "id": 3527052017,
    "province_id": 35,
    "regency_id": 3527,
    "district_id": 352705,
    "value": "Napo Laok (Napolaok / Napa Laok)",
    "postal_code": "69291"
  },
  {
    "id": 3527052012,
    "province_id": 35,
    "regency_id": 3527,
    "district_id": 352705,
    "value": "Omben",
    "postal_code": "69291"
  },
  {
    "id": 3527052020,
    "province_id": 35,
    "regency_id": 3527,
    "district_id": 352705,
    "value": "Pandan",
    "postal_code": "69291"
  },
  {
    "id": 3527052004,
    "province_id": 35,
    "regency_id": 3527,
    "district_id": 352705,
    "value": "Rapa Daya",
    "postal_code": "69291"
  },
  {
    "id": 3527052003,
    "province_id": 35,
    "regency_id": 3527,
    "district_id": 352705,
    "value": "Rapa Laok",
    "postal_code": "69291"
  },
  {
    "id": 3527052016,
    "province_id": 35,
    "regency_id": 3527,
    "district_id": 352705,
    "value": "Rongdalem (Rongdalam)",
    "postal_code": "69291"
  },
  {
    "id": 3527052006,
    "province_id": 35,
    "regency_id": 3527,
    "district_id": 352705,
    "value": "Sogiyan (Sogian)",
    "postal_code": "69291"
  },
  {
    "id": 3527052013,
    "province_id": 35,
    "regency_id": 3527,
    "district_id": 352705,
    "value": "Tambak",
    "postal_code": "69291"
  },
  {
    "id": 3527052008,
    "province_id": 35,
    "regency_id": 3527,
    "district_id": 352705,
    "value": "Temoran",
    "postal_code": "69291"
  }
]