[
  {
    "id": 6310022011,
    "province_id": 63,
    "regency_id": 6310,
    "district_id": 631002,
    "value": "Baru Gelang",
    "postal_code": "72273"
  },
  {
    "id": 6310022010,
    "province_id": 63,
    "regency_id": 6310,
    "district_id": 631002,
    "value": "Batuah",
    "postal_code": "72273"
  },
  {
    "id": 6310022032,
    "province_id": 63,
    "regency_id": 6310,
    "district_id": 631002,
    "value": "Beringin",
    "postal_code": "72273"
  },
  {
    "id": 6310022002,
    "province_id": 63,
    "regency_id": 6310,
    "district_id": 631002,
    "value": "Betung",
    "postal_code": "72273"
  },
  {
    "id": 6310022029,
    "province_id": 63,
    "regency_id": 6310,
    "district_id": 631002,
    "value": "Gusunge",
    "postal_code": "72273"
  },
  {
    "id": 6310022027,
    "province_id": 63,
    "regency_id": 6310,
    "district_id": 631002,
    "value": "Juku Eja",
    "postal_code": "72273"
  },
  {
    "id": 6310022008,
    "province_id": 63,
    "regency_id": 6310,
    "district_id": 631002,
    "value": "Kampung Baru",
    "postal_code": "72273"
  },
  {
    "id": 6310021001,
    "province_id": 63,
    "regency_id": 6310,
    "district_id": 631002,
    "value": "Kota Pagatan",
    "postal_code": "72273"
  },
  {
    "id": 6310022007,
    "province_id": 63,
    "regency_id": 6310,
    "district_id": 631002,
    "value": "Muara Pagatan",
    "postal_code": "72273"
  },
  {
    "id": 6310022021,
    "province_id": 63,
    "regency_id": 6310,
    "district_id": 631002,
    "value": "Muara Pagatan Tengah",
    "postal_code": "72273"
  },
  {
    "id": 6310022019,
    "province_id": 63,
    "regency_id": 6310,
    "district_id": 631002,
    "value": "Mudalang",
    "postal_code": "72273"
  },
  {
    "id": 6310022006,
    "province_id": 63,
    "regency_id": 6310,
    "district_id": 631002,
    "value": "Pagaruyung (Pagar Ruyung)",
    "postal_code": "72273"
  },
  {
    "id": 6310022009,
    "province_id": 63,
    "regency_id": 6310,
    "district_id": 631002,
    "value": "Pasar Baru",
    "postal_code": "72273"
  },
  {
    "id": 6310022005,
    "province_id": 63,
    "regency_id": 6310,
    "district_id": 631002,
    "value": "Pejala",
    "postal_code": "72273"
  },
  {
    "id": 6310022031,
    "province_id": 63,
    "regency_id": 6310,
    "district_id": 631002,
    "value": "Penyolongan",
    "postal_code": "72273"
  },
  {
    "id": 6310022012,
    "province_id": 63,
    "regency_id": 6310,
    "district_id": 631002,
    "value": "Pulau Salak",
    "postal_code": "72273"
  },
  {
    "id": 6310022022,
    "province_id": 63,
    "regency_id": 6310,
    "district_id": 631002,
    "value": "Pulau Satu",
    "postal_code": "72273"
  },
  {
    "id": 6310022034,
    "province_id": 63,
    "regency_id": 6310,
    "district_id": 631002,
    "value": "Rantau Panjang Hilir",
    "postal_code": "72273"
  },
  {
    "id": 6310022030,
    "province_id": 63,
    "regency_id": 6310,
    "district_id": 631002,
    "value": "Rantau Panjang Hulu",
    "postal_code": "72273"
  },
  {
    "id": 6310022003,
    "province_id": 63,
    "regency_id": 6310,
    "district_id": 631002,
    "value": "Sungai Lembu",
    "postal_code": "72273"
  },
  {
    "id": 6310022020,
    "province_id": 63,
    "regency_id": 6310,
    "district_id": 631002,
    "value": "Tanette",
    "postal_code": "72273"
  },
  {
    "id": 6310022004,
    "province_id": 63,
    "regency_id": 6310,
    "district_id": 631002,
    "value": "Wiritasi",
    "postal_code": "72273"
  }
]