[
  {
    "id": 1808152011,
    "province_id": 18,
    "regency_id": 1808,
    "district_id": 180815,
    "value": "Bratayudha",
    "postal_code": "34764"
  },
  {
    "id": 1808152009,
    "province_id": 18,
    "regency_id": 1808,
    "district_id": 180815,
    "value": "Bumi Ratu",
    "postal_code": "34764"
  },
  {
    "id": 1808152007,
    "province_id": 18,
    "regency_id": 1808,
    "district_id": 180815,
    "value": "Gedung Batin",
    "postal_code": "34764"
  },
  {
    "id": 1808152006,
    "province_id": 18,
    "regency_id": 1808,
    "district_id": 180815,
    "value": "Gedung Riang",
    "postal_code": "34764"
  },
  {
    "id": 1808152002,
    "province_id": 18,
    "regency_id": 1808,
    "district_id": 180815,
    "value": "Gistang",
    "postal_code": "34764"
  },
  {
    "id": 1808152012,
    "province_id": 18,
    "regency_id": 1808,
    "district_id": 180815,
    "value": "Negeri Baru",
    "postal_code": "34764"
  },
  {
    "id": 1808152001,
    "province_id": 18,
    "regency_id": 1808,
    "district_id": 180815,
    "value": "Negeri Batin",
    "postal_code": "34764"
  },
  {
    "id": 1808152005,
    "province_id": 18,
    "regency_id": 1808,
    "district_id": 180815,
    "value": "Negeri Bumi Putra",
    "postal_code": "34764"
  },
  {
    "id": 1808152013,
    "province_id": 18,
    "regency_id": 1808,
    "district_id": 180815,
    "value": "Ojo Lali (Ojolali)",
    "postal_code": "34764"
  },
  {
    "id": 1808152004,
    "province_id": 18,
    "regency_id": 1808,
    "district_id": 180815,
    "value": "Panca Negeri",
    "postal_code": "34764"
  },
  {
    "id": 1808152003,
    "province_id": 18,
    "regency_id": 1808,
    "district_id": 180815,
    "value": "Rambang Jaya",
    "postal_code": "34764"
  },
  {
    "id": 1808152008,
    "province_id": 18,
    "regency_id": 1808,
    "district_id": 180815,
    "value": "Sidoarjo",
    "postal_code": "34764"
  },
  {
    "id": 1808152010,
    "province_id": 18,
    "regency_id": 1808,
    "district_id": 180815,
    "value": "Sriwijaya",
    "postal_code": "34764"
  }
]