[
  {
    "id": 610307,
    "province_id": 61,
    "regency_id": 6103,
    "district_id": 610307,
    "value": "Balai Karangan",
    "postal_code": "78556"
  },
  {
    "id": 610307,
    "province_id": 61,
    "regency_id": 6103,
    "district_id": 610307,
    "value": "Bungkang",
    "postal_code": "78556"
  },
  {
    "id": 610307,
    "province_id": 61,
    "regency_id": 6103,
    "district_id": 610307,
    "value": "Engkahan",
    "postal_code": "78556"
  },
  {
    "id": 610307,
    "province_id": 61,
    "regency_id": 6103,
    "district_id": 610307,
    "value": "Kenaman",
    "postal_code": "78556"
  },
  {
    "id": 610307,
    "province_id": 61,
    "regency_id": 6103,
    "district_id": 610307,
    "value": "Lubuk Sabuk",
    "postal_code": "78556"
  },
  {
    "id": 610307,
    "province_id": 61,
    "regency_id": 6103,
    "district_id": 610307,
    "value": "Melenggang (Malenggang)",
    "postal_code": "78556"
  },
  {
    "id": 610307,
    "province_id": 61,
    "regency_id": 6103,
    "district_id": 610307,
    "value": "Pengadang",
    "postal_code": "78556"
  },
  {
    "id": 610307,
    "province_id": 61,
    "regency_id": 6103,
    "district_id": 610307,
    "value": "Raut Muara",
    "postal_code": "78556"
  },
  {
    "id": 610307,
    "province_id": 61,
    "regency_id": 6103,
    "district_id": 610307,
    "value": "Sei/Sungai Tekam",
    "postal_code": "78556"
  },
  {
    "id": 610307,
    "province_id": 61,
    "regency_id": 6103,
    "district_id": 610307,
    "value": "Sotok",
    "postal_code": "78556"
  }
]