[
  {
    "id": 1702212009,
    "province_id": 17,
    "regency_id": 1702,
    "district_id": 170221,
    "value": "Air Nau",
    "postal_code": "39181"
  },
  {
    "id": 1702212001,
    "province_id": 17,
    "regency_id": 1702,
    "district_id": 170221,
    "value": "Apur",
    "postal_code": "39181"
  },
  {
    "id": 1702212007,
    "province_id": 17,
    "regency_id": 1702,
    "district_id": 170221,
    "value": "Jabi",
    "postal_code": "39181"
  },
  {
    "id": 1702212004,
    "province_id": 17,
    "regency_id": 1702,
    "district_id": 170221,
    "value": "Karang Pinang",
    "postal_code": "39181"
  },
  {
    "id": 1702212002,
    "province_id": 17,
    "regency_id": 1702,
    "district_id": 170221,
    "value": "Lawang Agung",
    "postal_code": "39181"
  },
  {
    "id": 1702212003,
    "province_id": 17,
    "regency_id": 1702,
    "district_id": 170221,
    "value": "Lubuk Alai",
    "postal_code": "39181"
  },
  {
    "id": 1702212006,
    "province_id": 17,
    "regency_id": 1702,
    "district_id": 170221,
    "value": "Pengambang",
    "postal_code": "39181"
  },
  {
    "id": 1702212005,
    "province_id": 17,
    "regency_id": 1702,
    "district_id": 170221,
    "value": "Tanjung Agung",
    "postal_code": "39181"
  },
  {
    "id": 1702212008,
    "province_id": 17,
    "regency_id": 1702,
    "district_id": 170221,
    "value": "Tanjung Herang (Tanjung Heran)",
    "postal_code": "39181"
  }
]