[
  {
    "id": 631012,
    "province_id": 63,
    "regency_id": 6310,
    "district_id": 631012,
    "value": "Batu Bulan",
    "postal_code": "72270"
  },
  {
    "id": 631012,
    "province_id": 63,
    "regency_id": 6310,
    "district_id": 631012,
    "value": "Dadap Kusan Raya",
    "postal_code": "72270"
  },
  {
    "id": 631012,
    "province_id": 63,
    "regency_id": 6310,
    "district_id": 631012,
    "value": "Darasan Binjai",
    "postal_code": "72270"
  },
  {
    "id": 631012,
    "province_id": 63,
    "regency_id": 6310,
    "district_id": 631012,
    "value": "Guntung",
    "postal_code": "72270"
  },
  {
    "id": 631012,
    "province_id": 63,
    "regency_id": 6310,
    "district_id": 631012,
    "value": "Hati'if (Hati If)",
    "postal_code": "72270"
  },
  {
    "id": 631012,
    "province_id": 63,
    "regency_id": 6310,
    "district_id": 631012,
    "value": "Mangkalapi",
    "postal_code": "72270"
  },
  {
    "id": 631012,
    "province_id": 63,
    "regency_id": 6310,
    "district_id": 631012,
    "value": "Tamunih",
    "postal_code": "72270"
  },
  {
    "id": 631012,
    "province_id": 63,
    "regency_id": 6310,
    "district_id": 631012,
    "value": "Tapus",
    "postal_code": "72270"
  },
  {
    "id": 631012,
    "province_id": 63,
    "regency_id": 6310,
    "district_id": 631012,
    "value": "Teluk Kepayang",
    "postal_code": "72270"
  },
  {
    "id": 631012,
    "province_id": 63,
    "regency_id": 6310,
    "district_id": 631012,
    "value": "Tibarau Panjang (Timbarau Panjang)",
    "postal_code": "72270"
  }
]