[
  {
    "id": 350517,
    "province_id": 35,
    "regency_id": 3505,
    "district_id": 350517,
    "value": "Babadan",
    "postal_code": "66185"
  },
  {
    "id": 350517,
    "province_id": 35,
    "regency_id": 3505,
    "district_id": 350517,
    "value": "Balerejo",
    "postal_code": "66185"
  },
  {
    "id": 350517,
    "province_id": 35,
    "regency_id": 3505,
    "district_id": 350517,
    "value": "Beru",
    "postal_code": "66185"
  },
  {
    "id": 350517,
    "province_id": 35,
    "regency_id": 3505,
    "district_id": 350517,
    "value": "Klemunan",
    "postal_code": "66185"
  },
  {
    "id": 350517,
    "province_id": 35,
    "regency_id": 3505,
    "district_id": 350517,
    "value": "Ngadirenggo",
    "postal_code": "66185"
  },
  {
    "id": 350517,
    "province_id": 35,
    "regency_id": 3505,
    "district_id": 350517,
    "value": "Tangkil",
    "postal_code": "66185"
  },
  {
    "id": 350517,
    "province_id": 35,
    "regency_id": 3505,
    "district_id": 350517,
    "value": "Tegalasri",
    "postal_code": "66185"
  },
  {
    "id": 350517,
    "province_id": 35,
    "regency_id": 3505,
    "district_id": 350517,
    "value": "Tembalang",
    "postal_code": "66185"
  },
  {
    "id": 350517,
    "province_id": 35,
    "regency_id": 3505,
    "district_id": 350517,
    "value": "Wlingi",
    "postal_code": "66185"
  }
]