[
  {
    "id": 6308051001,
    "province_id": 63,
    "regency_id": 6308,
    "district_id": 630805,
    "value": "Antasari",
    "postal_code": "71419"
  },
  {
    "id": 6308052029,
    "province_id": 63,
    "regency_id": 6308,
    "district_id": 630805,
    "value": "Danau Cermin (Danau Caramin)",
    "postal_code": "71419"
  },
  {
    "id": 6308052026,
    "province_id": 63,
    "regency_id": 6308,
    "district_id": 630805,
    "value": "Datu Kuning",
    "postal_code": "71419"
  },
  {
    "id": 6308052013,
    "province_id": 63,
    "regency_id": 6308,
    "district_id": 630805,
    "value": "Harus",
    "postal_code": "71419"
  },
  {
    "id": 6308052023,
    "province_id": 63,
    "regency_id": 6308,
    "district_id": 630805,
    "value": "Harusan",
    "postal_code": "71419"
  },
  {
    "id": 6308052018,
    "province_id": 63,
    "regency_id": 6308,
    "district_id": 630805,
    "value": "Hulu Pasar",
    "postal_code": "71412"
  },
  {
    "id": 6308052007,
    "province_id": 63,
    "regency_id": 6308,
    "district_id": 630805,
    "value": "Kandang Halang",
    "postal_code": "71419"
  },
  {
    "id": 6308051003,
    "province_id": 63,
    "regency_id": 6308,
    "district_id": 630805,
    "value": "Kebun Sari",
    "postal_code": "71419"
  },
  {
    "id": 6308052025,
    "province_id": 63,
    "regency_id": 6308,
    "district_id": 630805,
    "value": "Kembang Kuning",
    "postal_code": "71419"
  },
  {
    "id": 6308052019,
    "province_id": 63,
    "regency_id": 6308,
    "district_id": 630805,
    "value": "Kota Raden Hilir",
    "postal_code": "71419"
  },
  {
    "id": 6308052009,
    "province_id": 63,
    "regency_id": 6308,
    "district_id": 630805,
    "value": "Kota Raden Hulu",
    "postal_code": "71419"
  },
  {
    "id": 6308052028,
    "province_id": 63,
    "regency_id": 6308,
    "district_id": 630805,
    "value": "Mawar Sari",
    "postal_code": "71419"
  },
  {
    "id": 6308052021,
    "province_id": 63,
    "regency_id": 6308,
    "district_id": 630805,
    "value": "Muara Tapus",
    "postal_code": "71419"
  },
  {
    "id": 6308051002,
    "province_id": 63,
    "regency_id": 6308,
    "district_id": 630805,
    "value": "Murung Sari",
    "postal_code": "71414"
  },
  {
    "id": 6308052022,
    "province_id": 63,
    "regency_id": 6308,
    "district_id": 630805,
    "value": "Palampitan Hilir",
    "postal_code": "71419"
  },
  {
    "id": 6308052012,
    "province_id": 63,
    "regency_id": 6308,
    "district_id": 630805,
    "value": "Palampitan Hulu",
    "postal_code": "71419"
  },
  {
    "id": 6308051004,
    "province_id": 63,
    "regency_id": 6308,
    "district_id": 630805,
    "value": "Paliwara",
    "postal_code": "71418"
  },
  {
    "id": 6308052008,
    "province_id": 63,
    "regency_id": 6308,
    "district_id": 630805,
    "value": "Pasar Senin",
    "postal_code": "71419"
  },
  {
    "id": 6308052017,
    "province_id": 63,
    "regency_id": 6308,
    "district_id": 630805,
    "value": "Pinang Habang",
    "postal_code": "71419"
  },
  {
    "id": 6308052014,
    "province_id": 63,
    "regency_id": 6308,
    "district_id": 630805,
    "value": "Pinangkara (Pinang Kara)",
    "postal_code": "71419"
  },
  {
    "id": 6308052020,
    "province_id": 63,
    "regency_id": 6308,
    "district_id": 630805,
    "value": "Rantawan",
    "postal_code": "71419"
  },
  {
    "id": 6308052024,
    "province_id": 63,
    "regency_id": 6308,
    "district_id": 630805,
    "value": "Sei/Sungai Baring",
    "postal_code": "71419"
  },
  {
    "id": 6308052015,
    "province_id": 63,
    "regency_id": 6308,
    "district_id": 630805,
    "value": "Sei/Sungai Karias",
    "postal_code": "71419"
  },
  {
    "id": 6308051005,
    "province_id": 63,
    "regency_id": 6308,
    "district_id": 630805,
    "value": "Sei/Sungai Malang",
    "postal_code": "71418"
  },
  {
    "id": 6308052011,
    "province_id": 63,
    "regency_id": 6308,
    "district_id": 630805,
    "value": "Tambalangan",
    "postal_code": "71413"
  },
  {
    "id": 6308052010,
    "province_id": 63,
    "regency_id": 6308,
    "district_id": 630805,
    "value": "Tangga Ulin Hilir",
    "postal_code": "71417"
  },
  {
    "id": 6308052027,
    "province_id": 63,
    "regency_id": 6308,
    "district_id": 630805,
    "value": "Tangga Ulin Hulu",
    "postal_code": "71417"
  },
  {
    "id": 6308052006,
    "province_id": 63,
    "regency_id": 6308,
    "district_id": 630805,
    "value": "Tapus",
    "postal_code": "71419"
  },
  {
    "id": 6308052016,
    "province_id": 63,
    "regency_id": 6308,
    "district_id": 630805,
    "value": "Tigarun",
    "postal_code": "71419"
  }
]