[
  {
    "id": 6402122007,
    "province_id": 64,
    "regency_id": 6402,
    "district_id": 640212,
    "value": "Bila Talang",
    "postal_code": "75558"
  },
  {
    "id": 6402122004,
    "province_id": 64,
    "regency_id": 6402,
    "district_id": 640212,
    "value": "Buluk Sen",
    "postal_code": "75558"
  },
  {
    "id": 6402122001,
    "province_id": 64,
    "regency_id": 6402,
    "district_id": 640212,
    "value": "Gunung Sari",
    "postal_code": "75558"
  },
  {
    "id": 6402122008,
    "province_id": 64,
    "regency_id": 6402,
    "district_id": 640212,
    "value": "Kampung Baru",
    "postal_code": "75558"
  },
  {
    "id": 6402122002,
    "province_id": 64,
    "regency_id": 6402,
    "district_id": 640212,
    "value": "Long Lalang",
    "postal_code": "75558"
  },
  {
    "id": 6402122016,
    "province_id": 64,
    "regency_id": 6402,
    "district_id": 640212,
    "value": "Muara Belinau",
    "postal_code": "75558"
  },
  {
    "id": 6402122015,
    "province_id": 64,
    "regency_id": 6402,
    "district_id": 640212,
    "value": "Muara Kebaq",
    "postal_code": "75558"
  },
  {
    "id": 6402122006,
    "province_id": 64,
    "regency_id": 6402,
    "district_id": 640212,
    "value": "Muara Pedohon",
    "postal_code": "75558"
  },
  {
    "id": 6402122003,
    "province_id": 64,
    "regency_id": 6402,
    "district_id": 640212,
    "value": "Muara Ritan",
    "postal_code": "75558"
  },
  {
    "id": 6402122014,
    "province_id": 64,
    "regency_id": 6402,
    "district_id": 640212,
    "value": "Muara Salung",
    "postal_code": "75558"
  },
  {
    "id": 6402122013,
    "province_id": 64,
    "regency_id": 6402,
    "district_id": 640212,
    "value": "Muara Tiq",
    "postal_code": "75558"
  },
  {
    "id": 6402122017,
    "province_id": 64,
    "regency_id": 6402,
    "district_id": 640212,
    "value": "Muara Tubo (Muara Tuboq)",
    "postal_code": "75558"
  },
  {
    "id": 6402122018,
    "province_id": 64,
    "regency_id": 6402,
    "district_id": 640212,
    "value": "Ritan Baru",
    "postal_code": "75558"
  },
  {
    "id": 6402122010,
    "province_id": 64,
    "regency_id": 6402,
    "district_id": 640212,
    "value": "Sidomulyo",
    "postal_code": "75558"
  },
  {
    "id": 6402122012,
    "province_id": 64,
    "regency_id": 6402,
    "district_id": 640212,
    "value": "Tabang Lama",
    "postal_code": "75558"
  },
  {
    "id": 6402122019,
    "province_id": 64,
    "regency_id": 6402,
    "district_id": 640212,
    "value": "Tukung Ritan",
    "postal_code": "75558"
  },
  {
    "id": 6402122011,
    "province_id": 64,
    "regency_id": 6402,
    "district_id": 640212,
    "value": "Umaq Bekuay (Umaq Bekuai)",
    "postal_code": "75558"
  },
  {
    "id": 6402122005,
    "province_id": 64,
    "regency_id": 6402,
    "district_id": 640212,
    "value": "Umaq Dian",
    "postal_code": "75558"
  },
  {
    "id": 6402122009,
    "province_id": 64,
    "regency_id": 6402,
    "district_id": 640212,
    "value": "Umaq Tukung",
    "postal_code": "75558"
  }
]