[
  {
    "id": 3206022002,
    "province_id": 32,
    "regency_id": 3206,
    "district_id": 320602,
    "value": "Ciawi",
    "postal_code": "46186"
  },
  {
    "id": 3206022008,
    "province_id": 32,
    "regency_id": 3206,
    "district_id": 320602,
    "value": "Cibatu",
    "postal_code": "46186"
  },
  {
    "id": 3206022007,
    "province_id": 32,
    "regency_id": 3206,
    "district_id": 320602,
    "value": "Cibatuireng",
    "postal_code": "46186"
  },
  {
    "id": 3206022001,
    "province_id": 32,
    "regency_id": 3206,
    "district_id": 320602,
    "value": "Cidadap",
    "postal_code": "46186"
  },
  {
    "id": 3206022012,
    "province_id": 32,
    "regency_id": 3206,
    "district_id": 320602,
    "value": "Cikapinis",
    "postal_code": "46186"
  },
  {
    "id": 3206022006,
    "province_id": 32,
    "regency_id": 3206,
    "district_id": 320602,
    "value": "Cikukulu",
    "postal_code": "46186"
  },
  {
    "id": 3206022003,
    "province_id": 32,
    "regency_id": 3206,
    "district_id": 320602,
    "value": "Cikupa",
    "postal_code": "46186"
  },
  {
    "id": 3206022011,
    "province_id": 32,
    "regency_id": 3206,
    "district_id": 320602,
    "value": "Cintawangi",
    "postal_code": "46186"
  },
  {
    "id": 3206022005,
    "province_id": 32,
    "regency_id": 3206,
    "district_id": 320602,
    "value": "Karangmekar",
    "postal_code": "46186"
  },
  {
    "id": 3206022004,
    "province_id": 32,
    "regency_id": 3206,
    "district_id": 320602,
    "value": "Karangnunggal",
    "postal_code": "46186"
  },
  {
    "id": 3206022014,
    "province_id": 32,
    "regency_id": 3206,
    "district_id": 320602,
    "value": "Kujang",
    "postal_code": "46186"
  },
  {
    "id": 3206022009,
    "province_id": 32,
    "regency_id": 3206,
    "district_id": 320602,
    "value": "Sarimanggu",
    "postal_code": "46186"
  },
  {
    "id": 3206022013,
    "province_id": 32,
    "regency_id": 3206,
    "district_id": 320602,
    "value": "Sarimukti",
    "postal_code": "46186"
  },
  {
    "id": 3206022010,
    "province_id": 32,
    "regency_id": 3206,
    "district_id": 320602,
    "value": "Sukawangun",
    "postal_code": "46186"
  }
]