[
  {
    "id": 3215272003,
    "province_id": 32,
    "regency_id": 3215,
    "district_id": 321527,
    "value": "Kalangligar (Karangligar)",
    "postal_code": "41361"
  },
  {
    "id": 3215272006,
    "province_id": 32,
    "regency_id": 3215,
    "district_id": 321527,
    "value": "Karangmulya",
    "postal_code": "41361"
  },
  {
    "id": 3215272001,
    "province_id": 32,
    "regency_id": 3215,
    "district_id": 321527,
    "value": "Margakaya",
    "postal_code": "41361"
  },
  {
    "id": 3215272002,
    "province_id": 32,
    "regency_id": 3215,
    "district_id": 321527,
    "value": "Margamulya",
    "postal_code": "41361"
  },
  {
    "id": 3215272004,
    "province_id": 32,
    "regency_id": 3215,
    "district_id": 321527,
    "value": "Mekarmulya",
    "postal_code": "41361"
  },
  {
    "id": 3215272010,
    "province_id": 32,
    "regency_id": 3215,
    "district_id": 321527,
    "value": "Mulyajaya",
    "postal_code": "41361"
  },
  {
    "id": 3215272005,
    "province_id": 32,
    "regency_id": 3215,
    "district_id": 321527,
    "value": "Parungsari",
    "postal_code": "41361"
  },
  {
    "id": 3215272009,
    "province_id": 32,
    "regency_id": 3215,
    "district_id": 321527,
    "value": "Wanajaya",
    "postal_code": "41361"
  },
  {
    "id": 3215272008,
    "province_id": 32,
    "regency_id": 3215,
    "district_id": 321527,
    "value": "Wanakerta",
    "postal_code": "41361"
  },
  {
    "id": 3215272007,
    "province_id": 32,
    "regency_id": 3215,
    "district_id": 321527,
    "value": "Wanasari",
    "postal_code": "41361"
  }
]