[
  {
    "id": 3604252009,
    "province_id": 36,
    "regency_id": 3604,
    "district_id": 360425,
    "value": "Babakanjaya (Babakan Jaya)",
    "postal_code": "42178"
  },
  {
    "id": 3604252007,
    "province_id": 36,
    "regency_id": 3604,
    "district_id": 360425,
    "value": "Carenang Udik",
    "postal_code": "42178"
  },
  {
    "id": 3604252004,
    "province_id": 36,
    "regency_id": 3604,
    "district_id": 360425,
    "value": "Cidahu",
    "postal_code": "42178"
  },
  {
    "id": 3604252006,
    "province_id": 36,
    "regency_id": 3604,
    "district_id": 360425,
    "value": "Gabus",
    "postal_code": "42178"
  },
  {
    "id": 3604252002,
    "province_id": 36,
    "regency_id": 3604,
    "district_id": 360425,
    "value": "Garut",
    "postal_code": "42178"
  },
  {
    "id": 3604252001,
    "province_id": 36,
    "regency_id": 3604,
    "district_id": 360425,
    "value": "Kopo",
    "postal_code": "42178"
  },
  {
    "id": 3604252010,
    "province_id": 36,
    "regency_id": 3604,
    "district_id": 360425,
    "value": "Mekarbaru",
    "postal_code": "42178"
  },
  {
    "id": 3604252003,
    "province_id": 36,
    "regency_id": 3604,
    "district_id": 360425,
    "value": "Nanggung",
    "postal_code": "42178"
  },
  {
    "id": 3604252005,
    "province_id": 36,
    "regency_id": 3604,
    "district_id": 360425,
    "value": "Nyompok",
    "postal_code": "42178"
  },
  {
    "id": 3604252008,
    "province_id": 36,
    "regency_id": 3604,
    "district_id": 360425,
    "value": "Rancasumur",
    "postal_code": "42178"
  }
]