[
  {
    "id": 710902,
    "province_id": 71,
    "regency_id": 7109,
    "district_id": 710902,
    "value": "Bumbiha",
    "postal_code": "95862"
  },
  {
    "id": 710902,
    "province_id": 71,
    "regency_id": 7109,
    "district_id": 710902,
    "value": "Kanawong",
    "postal_code": "95862"
  },
  {
    "id": 710902,
    "province_id": 71,
    "regency_id": 7109,
    "district_id": 710902,
    "value": "Lehi",
    "postal_code": "95862"
  },
  {
    "id": 710902,
    "province_id": 71,
    "regency_id": 7109,
    "district_id": 710902,
    "value": "Makalehi",
    "postal_code": "95862"
  },
  {
    "id": 710902,
    "province_id": 71,
    "regency_id": 7109,
    "district_id": 710902,
    "value": "Makalehi Timur",
    "postal_code": "95862"
  },
  {
    "id": 710902,
    "province_id": 71,
    "regency_id": 7109,
    "district_id": 710902,
    "value": "Makalehi Utara",
    "postal_code": "95862"
  },
  {
    "id": 710902,
    "province_id": 71,
    "regency_id": 7109,
    "district_id": 710902,
    "value": "Ondong",
    "postal_code": "95862"
  },
  {
    "id": 710902,
    "province_id": 71,
    "regency_id": 7109,
    "district_id": 710902,
    "value": "Paniki",
    "postal_code": "95862"
  },
  {
    "id": 710902,
    "province_id": 71,
    "regency_id": 7109,
    "district_id": 710902,
    "value": "Paseng",
    "postal_code": "95862"
  },
  {
    "id": 710902,
    "province_id": 71,
    "regency_id": 7109,
    "district_id": 710902,
    "value": "Pehe",
    "postal_code": "95862"
  },
  {
    "id": 710902,
    "province_id": 71,
    "regency_id": 7109,
    "district_id": 710902,
    "value": "Peling",
    "postal_code": "95862"
  },
  {
    "id": 710902,
    "province_id": 71,
    "regency_id": 7109,
    "district_id": 710902,
    "value": "Peling Sawang (Pelingsawang)",
    "postal_code": "95862"
  }
]