[
  {
    "id": 3529152005,
    "province_id": 35,
    "regency_id": 3529,
    "district_id": 352915,
    "value": "Banasare (Bana Sare)",
    "postal_code": "69456"
  },
  {
    "id": 3529152008,
    "province_id": 35,
    "regency_id": 3529,
    "district_id": 352915,
    "value": "Basoka",
    "postal_code": "69456"
  },
  {
    "id": 3529152006,
    "province_id": 35,
    "regency_id": 3529,
    "district_id": 352915,
    "value": "Bunbarat",
    "postal_code": "69456"
  },
  {
    "id": 3529152009,
    "province_id": 35,
    "regency_id": 3529,
    "district_id": 352915,
    "value": "Duko",
    "postal_code": "69456"
  },
  {
    "id": 3529152011,
    "province_id": 35,
    "regency_id": 3529,
    "district_id": 352915,
    "value": "Kalebengan",
    "postal_code": "69456"
  },
  {
    "id": 3529152007,
    "province_id": 35,
    "regency_id": 3529,
    "district_id": 352915,
    "value": "Karang Nangka (Karangnangka)",
    "postal_code": "69456"
  },
  {
    "id": 3529152001,
    "province_id": 35,
    "regency_id": 3529,
    "district_id": 352915,
    "value": "Mandala",
    "postal_code": "69456"
  },
  {
    "id": 3529152003,
    "province_id": 35,
    "regency_id": 3529,
    "district_id": 352915,
    "value": "Matanair",
    "postal_code": "69456"
  },
  {
    "id": 3529152002,
    "province_id": 35,
    "regency_id": 3529,
    "district_id": 352915,
    "value": "Pakondang",
    "postal_code": "69456"
  },
  {
    "id": 3529152010,
    "province_id": 35,
    "regency_id": 3529,
    "district_id": 352915,
    "value": "Rubaru",
    "postal_code": "69456"
  },
  {
    "id": 3529152004,
    "province_id": 35,
    "regency_id": 3529,
    "district_id": 352915,
    "value": "Tambaksari",
    "postal_code": "69456"
  }
]