[
  {
    "id": 332008,
    "province_id": 33,
    "regency_id": 3320,
    "district_id": 332008,
    "value": "Bangsri",
    "postal_code": "59453"
  },
  {
    "id": 332008,
    "province_id": 33,
    "regency_id": 3320,
    "district_id": 332008,
    "value": "Banjaragung (Banjar Agung)",
    "postal_code": "59453"
  },
  {
    "id": 332008,
    "province_id": 33,
    "regency_id": 3320,
    "district_id": 332008,
    "value": "Banjaran",
    "postal_code": "59453"
  },
  {
    "id": 332008,
    "province_id": 33,
    "regency_id": 3320,
    "district_id": 332008,
    "value": "Bondo",
    "postal_code": "59453"
  },
  {
    "id": 332008,
    "province_id": 33,
    "regency_id": 3320,
    "district_id": 332008,
    "value": "Guyangan",
    "postal_code": "59453"
  },
  {
    "id": 332008,
    "province_id": 33,
    "regency_id": 3320,
    "district_id": 332008,
    "value": "Jerukwangi",
    "postal_code": "59453"
  },
  {
    "id": 332008,
    "province_id": 33,
    "regency_id": 3320,
    "district_id": 332008,
    "value": "Kedungleper",
    "postal_code": "59453"
  },
  {
    "id": 332008,
    "province_id": 33,
    "regency_id": 3320,
    "district_id": 332008,
    "value": "Kepuk",
    "postal_code": "59453"
  },
  {
    "id": 332008,
    "province_id": 33,
    "regency_id": 3320,
    "district_id": 332008,
    "value": "Papasan",
    "postal_code": "59453"
  },
  {
    "id": 332008,
    "province_id": 33,
    "regency_id": 3320,
    "district_id": 332008,
    "value": "Srikandang",
    "postal_code": "59453"
  },
  {
    "id": 332008,
    "province_id": 33,
    "regency_id": 3320,
    "district_id": 332008,
    "value": "Tengguli",
    "postal_code": "59453"
  },
  {
    "id": 332008,
    "province_id": 33,
    "regency_id": 3320,
    "district_id": 332008,
    "value": "Wedelan",
    "postal_code": "59453"
  }
]