[
  {
    "id": 9203042013,
    "province_id": 92,
    "regency_id": 9203,
    "district_id": 920304,
    "value": "Batufiafas",
    "postal_code": "98016"
  },
  {
    "id": 9203042011,
    "province_id": 92,
    "regency_id": 9203,
    "district_id": 920304,
    "value": "Kampung Baru",
    "postal_code": "98016"
  },
  {
    "id": 9203042031,
    "province_id": 92,
    "regency_id": 9203,
    "district_id": 920304,
    "value": "Kimina Kra",
    "postal_code": "98016"
  },
  {
    "id": 9203042014,
    "province_id": 92,
    "regency_id": 9203,
    "district_id": 920304,
    "value": "Kinam",
    "postal_code": "98016"
  },
  {
    "id": 9203041001,
    "province_id": 92,
    "regency_id": 9203,
    "district_id": 920304,
    "value": "Kokas Kota",
    "postal_code": "98016"
  },
  {
    "id": 9203042024,
    "province_id": 92,
    "regency_id": 9203,
    "district_id": 920304,
    "value": "Kriawaswas",
    "postal_code": "98016"
  },
  {
    "id": 9203042021,
    "province_id": 92,
    "regency_id": 9203,
    "district_id": 920304,
    "value": "Mambunibuni",
    "postal_code": "98016"
  },
  {
    "id": 9203042003,
    "province_id": 92,
    "regency_id": 9203,
    "district_id": 920304,
    "value": "Mandoni",
    "postal_code": "98016"
  },
  {
    "id": 9203042030,
    "province_id": 92,
    "regency_id": 9203,
    "district_id": 920304,
    "value": "Masina",
    "postal_code": "98016"
  },
  {
    "id": 9203042029,
    "province_id": 92,
    "regency_id": 9203,
    "district_id": 920304,
    "value": "Pang Wadar",
    "postal_code": "98016"
  },
  {
    "id": 9203042012,
    "province_id": 92,
    "regency_id": 9203,
    "district_id": 920304,
    "value": "Patimburak",
    "postal_code": "98016"
  },
  {
    "id": 9203042008,
    "province_id": 92,
    "regency_id": 9203,
    "district_id": 920304,
    "value": "Sekar",
    "postal_code": "98016"
  },
  {
    "id": 9203042010,
    "province_id": 92,
    "regency_id": 9203,
    "district_id": 920304,
    "value": "Sisir",
    "postal_code": "98016"
  },
  {
    "id": 9203042028,
    "province_id": 92,
    "regency_id": 9203,
    "district_id": 920304,
    "value": "Sosar",
    "postal_code": "98016"
  },
  {
    "id": 9203042009,
    "province_id": 92,
    "regency_id": 9203,
    "district_id": 920304,
    "value": "Ugar",
    "postal_code": "98016"
  }
]