[
  {
    "id": 5302092006,
    "province_id": 53,
    "regency_id": 5302,
    "district_id": 530209,
    "value": "Fatu Oni (Fatuoni)",
    "postal_code": "85574"
  },
  {
    "id": 5302092002,
    "province_id": 53,
    "regency_id": 5302,
    "district_id": 530209,
    "value": "Fotilo (Fatilo)",
    "postal_code": "85574"
  },
  {
    "id": 5302092001,
    "province_id": 53,
    "regency_id": 5302,
    "district_id": 530209,
    "value": "Lilo",
    "postal_code": "85574"
  },
  {
    "id": 5302092015,
    "province_id": 53,
    "regency_id": 5302,
    "district_id": 530209,
    "value": "Muna",
    "postal_code": "85574"
  },
  {
    "id": 5302092003,
    "province_id": 53,
    "regency_id": 5302,
    "district_id": 530209,
    "value": "Nasi",
    "postal_code": "85574"
  },
  {
    "id": 5302092004,
    "province_id": 53,
    "regency_id": 5302,
    "district_id": 530209,
    "value": "Snok",
    "postal_code": "85574"
  },
  {
    "id": 5302092007,
    "province_id": 53,
    "regency_id": 5302,
    "district_id": 530209,
    "value": "Sono",
    "postal_code": "85574"
  },
  {
    "id": 5302092009,
    "province_id": 53,
    "regency_id": 5302,
    "district_id": 530209,
    "value": "Tauanas",
    "postal_code": "85574"
  },
  {
    "id": 5302092005,
    "province_id": 53,
    "regency_id": 5302,
    "district_id": 530209,
    "value": "Tumu",
    "postal_code": "85574"
  }
]