[
  {
    "id": 1213122022,
    "province_id": 12,
    "regency_id": 1213,
    "district_id": 121312,
    "value": "Aek Botung",
    "postal_code": "22998"
  },
  {
    "id": 1213122001,
    "province_id": 12,
    "regency_id": 1213,
    "district_id": 121312,
    "value": "Bandar Panjang",
    "postal_code": "22998"
  },
  {
    "id": 1213122002,
    "province_id": 12,
    "regency_id": 1213,
    "district_id": 121312,
    "value": "Bandar Panjang Tuo",
    "postal_code": "22998"
  },
  {
    "id": 1213122007,
    "province_id": 12,
    "regency_id": 1213,
    "district_id": 121312,
    "value": "Kampung Pinang",
    "postal_code": "22998"
  },
  {
    "id": 1213122008,
    "province_id": 12,
    "regency_id": 1213,
    "district_id": 121312,
    "value": "Koto Baringin",
    "postal_code": "22998"
  },
  {
    "id": 1213122023,
    "province_id": 12,
    "regency_id": 1213,
    "district_id": 121312,
    "value": "Koto Boru",
    "postal_code": "22998"
  },
  {
    "id": 1213122009,
    "province_id": 12,
    "regency_id": 1213,
    "district_id": 121312,
    "value": "Limau Manis",
    "postal_code": "22998"
  },
  {
    "id": 1213122021,
    "province_id": 12,
    "regency_id": 1213,
    "district_id": 121312,
    "value": "Muara Kumpulan",
    "postal_code": "22998"
  },
  {
    "id": 1213121019,
    "province_id": 12,
    "regency_id": 1213,
    "district_id": 121312,
    "value": "Pasar Muara Sipongi",
    "postal_code": "22998"
  },
  {
    "id": 1213122012,
    "province_id": 12,
    "regency_id": 1213,
    "district_id": 121312,
    "value": "Ranjo Batu",
    "postal_code": "22998"
  },
  {
    "id": 1213122013,
    "province_id": 12,
    "regency_id": 1213,
    "district_id": 121312,
    "value": "Sibinail",
    "postal_code": "22998"
  },
  {
    "id": 1213122015,
    "province_id": 12,
    "regency_id": 1213,
    "district_id": 121312,
    "value": "Simpang Mandepo",
    "postal_code": "22998"
  },
  {
    "id": 1213122016,
    "province_id": 12,
    "regency_id": 1213,
    "district_id": 121312,
    "value": "Tamiang Mudo",
    "postal_code": "22998"
  },
  {
    "id": 1213122017,
    "province_id": 12,
    "regency_id": 1213,
    "district_id": 121312,
    "value": "Tanjung Alai",
    "postal_code": "22998"
  },
  {
    "id": 1213122024,
    "province_id": 12,
    "regency_id": 1213,
    "district_id": 121312,
    "value": "Tanjung Larangan",
    "postal_code": "22998"
  },
  {
    "id": 1213122020,
    "province_id": 12,
    "regency_id": 1213,
    "district_id": 121312,
    "value": "Tanjung Medan",
    "postal_code": "22998"
  }
]