[
  {
    "id": 3308072007,
    "province_id": 33,
    "regency_id": 3308,
    "district_id": 330807,
    "value": "Banyuroto",
    "postal_code": "56481"
  },
  {
    "id": 3308072011,
    "province_id": 33,
    "regency_id": 3308,
    "district_id": 330807,
    "value": "Butuh",
    "postal_code": "56481"
  },
  {
    "id": 3308072009,
    "province_id": 33,
    "regency_id": 3308,
    "district_id": 330807,
    "value": "Gantang",
    "postal_code": "56481"
  },
  {
    "id": 3308072001,
    "province_id": 33,
    "regency_id": 3308,
    "district_id": 330807,
    "value": "Gondowangi",
    "postal_code": "56481"
  },
  {
    "id": 3308072010,
    "province_id": 33,
    "regency_id": 3308,
    "district_id": 330807,
    "value": "Jati",
    "postal_code": "56481"
  },
  {
    "id": 3308072004,
    "province_id": 33,
    "regency_id": 3308,
    "district_id": 330807,
    "value": "Kapuhan",
    "postal_code": "56481"
  },
  {
    "id": 3308072005,
    "province_id": 33,
    "regency_id": 3308,
    "district_id": 330807,
    "value": "Ketep",
    "postal_code": "56481"
  },
  {
    "id": 3308072003,
    "province_id": 33,
    "regency_id": 3308,
    "district_id": 330807,
    "value": "Krogowanan",
    "postal_code": "56481"
  },
  {
    "id": 3308072012,
    "province_id": 33,
    "regency_id": 3308,
    "district_id": 330807,
    "value": "Mangunsari",
    "postal_code": "56481"
  },
  {
    "id": 3308072014,
    "province_id": 33,
    "regency_id": 3308,
    "district_id": 330807,
    "value": "Podosoko",
    "postal_code": "56481"
  },
  {
    "id": 3308072002,
    "province_id": 33,
    "regency_id": 3308,
    "district_id": 330807,
    "value": "Sawangan",
    "postal_code": "56481"
  },
  {
    "id": 3308072015,
    "province_id": 33,
    "regency_id": 3308,
    "district_id": 330807,
    "value": "Soronalan",
    "postal_code": "56481"
  },
  {
    "id": 3308072013,
    "province_id": 33,
    "regency_id": 3308,
    "district_id": 330807,
    "value": "Tirtosari",
    "postal_code": "56481"
  },
  {
    "id": 3308072006,
    "province_id": 33,
    "regency_id": 3308,
    "district_id": 330807,
    "value": "Wonolelo",
    "postal_code": "56411"
  },
  {
    "id": 3308072008,
    "province_id": 33,
    "regency_id": 3308,
    "district_id": 330807,
    "value": "Wulunggunung (Wulung Gunung)",
    "postal_code": "56481"
  }
]