[
  {
    "id": 327806,
    "province_id": 32,
    "regency_id": 3278,
    "district_id": 327806,
    "value": "Awipari",
    "postal_code": "46196"
  },
  {
    "id": 327806,
    "province_id": 32,
    "regency_id": 3278,
    "district_id": 327806,
    "value": "Ciakar",
    "postal_code": "46196"
  },
  {
    "id": 327806,
    "province_id": 32,
    "regency_id": 3278,
    "district_id": 327806,
    "value": "Ciherang",
    "postal_code": "46416"
  },
  {
    "id": 327806,
    "province_id": 32,
    "regency_id": 3278,
    "district_id": 327806,
    "value": "Kersanagara",
    "postal_code": "46196"
  },
  {
    "id": 327806,
    "province_id": 32,
    "regency_id": 3278,
    "district_id": 327806,
    "value": "Kota Baru (Kotabaru)",
    "postal_code": "46196"
  },
  {
    "id": 327806,
    "province_id": 32,
    "regency_id": 3278,
    "district_id": 327806,
    "value": "Margabakti",
    "postal_code": "46196"
  },
  {
    "id": 327806,
    "province_id": 32,
    "regency_id": 3278,
    "district_id": 327806,
    "value": "Setiajaya",
    "postal_code": "46196"
  },
  {
    "id": 327806,
    "province_id": 32,
    "regency_id": 3278,
    "district_id": 327806,
    "value": "Setianagara",
    "postal_code": "46196"
  },
  {
    "id": 327806,
    "province_id": 32,
    "regency_id": 3278,
    "district_id": 327806,
    "value": "Setiaratu",
    "postal_code": "46196"
  }
]