[
  {
    "id": 360412,
    "province_id": 36,
    "regency_id": 3604,
    "district_id": 360412,
    "value": "Domas",
    "postal_code": "42192"
  },
  {
    "id": 360412,
    "province_id": 36,
    "regency_id": 3604,
    "district_id": 360412,
    "value": "Kaserangan (Keserangan)",
    "postal_code": "42192"
  },
  {
    "id": 360412,
    "province_id": 36,
    "regency_id": 3604,
    "district_id": 360412,
    "value": "Kelapian (Kalapian)",
    "postal_code": "42192"
  },
  {
    "id": 360412,
    "province_id": 36,
    "regency_id": 3604,
    "district_id": 360412,
    "value": "Kubang Puji",
    "postal_code": "42192"
  },
  {
    "id": 360412,
    "province_id": 36,
    "regency_id": 3604,
    "district_id": 360412,
    "value": "Linduk",
    "postal_code": "42192"
  },
  {
    "id": 360412,
    "province_id": 36,
    "regency_id": 3604,
    "district_id": 360412,
    "value": "Pontang",
    "postal_code": "42192"
  },
  {
    "id": 360412,
    "province_id": 36,
    "regency_id": 3604,
    "district_id": 360412,
    "value": "Pulokencana (Pulo Kencana)",
    "postal_code": "42192"
  },
  {
    "id": 360412,
    "province_id": 36,
    "regency_id": 3604,
    "district_id": 360412,
    "value": "Singarajan",
    "postal_code": "42192"
  },
  {
    "id": 360412,
    "province_id": 36,
    "regency_id": 3604,
    "district_id": 360412,
    "value": "Suka Jaya (Sukajaya)",
    "postal_code": "42192"
  },
  {
    "id": 360412,
    "province_id": 36,
    "regency_id": 3604,
    "district_id": 360412,
    "value": "Sukanegara",
    "postal_code": "42192"
  },
  {
    "id": 360412,
    "province_id": 36,
    "regency_id": 3604,
    "district_id": 360412,
    "value": "Wanayasa",
    "postal_code": "42192"
  }
]