[
  {
    "id": 740219,
    "province_id": 74,
    "regency_id": 7402,
    "district_id": 740219,
    "value": "Anggoro",
    "postal_code": "93468"
  },
  {
    "id": 740219,
    "province_id": 74,
    "regency_id": 7402,
    "district_id": 740219,
    "value": "Bendewuta",
    "postal_code": "93468"
  },
  {
    "id": 740219,
    "province_id": 74,
    "regency_id": 7402,
    "district_id": 740219,
    "value": "Dawi-dawi",
    "postal_code": "93468"
  },
  {
    "id": 740219,
    "province_id": 74,
    "regency_id": 7402,
    "district_id": 740219,
    "value": "Duriaasi",
    "postal_code": "93468"
  },
  {
    "id": 740219,
    "province_id": 74,
    "regency_id": 7402,
    "district_id": 740219,
    "value": "Lalohao",
    "postal_code": "93468"
  },
  {
    "id": 740219,
    "province_id": 74,
    "regency_id": 7402,
    "district_id": 740219,
    "value": "Lalousu",
    "postal_code": "93468"
  },
  {
    "id": 740219,
    "province_id": 74,
    "regency_id": 7402,
    "district_id": 740219,
    "value": "Langgonawe",
    "postal_code": "93468"
  },
  {
    "id": 740219,
    "province_id": 74,
    "regency_id": 7402,
    "district_id": 740219,
    "value": "Polandangi",
    "postal_code": "93468"
  },
  {
    "id": 740219,
    "province_id": 74,
    "regency_id": 7402,
    "district_id": 740219,
    "value": "Puuduria",
    "postal_code": "93468"
  },
  {
    "id": 740219,
    "province_id": 74,
    "regency_id": 7402,
    "district_id": 740219,
    "value": "Tawarolondo",
    "postal_code": "93468"
  },
  {
    "id": 740219,
    "province_id": 74,
    "regency_id": 7402,
    "district_id": 740219,
    "value": "Tetemotaha",
    "postal_code": "93468"
  },
  {
    "id": 740219,
    "province_id": 74,
    "regency_id": 7402,
    "district_id": 740219,
    "value": "Tetewonua (Teteona)",
    "postal_code": "93468"
  },
  {
    "id": 740219,
    "province_id": 74,
    "regency_id": 7402,
    "district_id": 740219,
    "value": "Wakusao (Wukusao / Tomulipu)",
    "postal_code": "93468"
  },
  {
    "id": 740219,
    "province_id": 74,
    "regency_id": 7402,
    "district_id": 740219,
    "value": "Wawonggole",
    "postal_code": "93468"
  },
  {
    "id": 740219,
    "province_id": 74,
    "regency_id": 7402,
    "district_id": 740219,
    "value": "Wawoone",
    "postal_code": "93468"
  },
  {
    "id": 740219,
    "province_id": 74,
    "regency_id": 7402,
    "district_id": 740219,
    "value": "Wawosolo",
    "postal_code": "93468"
  }
]