[
  {
    "id": 1208082012,
    "province_id": 12,
    "regency_id": 1208,
    "district_id": 120808,
    "value": "Adil Makmur",
    "postal_code": "21183"
  },
  {
    "id": 1208082003,
    "province_id": 12,
    "regency_id": 1208,
    "district_id": 120808,
    "value": "Boluk",
    "postal_code": "21183"
  },
  {
    "id": 1208081013,
    "province_id": 12,
    "regency_id": 1208,
    "district_id": 120808,
    "value": "Bosar Maligas",
    "postal_code": "21183"
  },
  {
    "id": 1208082007,
    "province_id": 12,
    "regency_id": 1208,
    "district_id": 120808,
    "value": "Dusun Pengkolan",
    "postal_code": "21183"
  },
  {
    "id": 1208082005,
    "province_id": 12,
    "regency_id": 1208,
    "district_id": 120808,
    "value": "Gunung Bayu",
    "postal_code": "21183"
  },
  {
    "id": 1208082010,
    "province_id": 12,
    "regency_id": 1208,
    "district_id": 120808,
    "value": "Marihat Butar",
    "postal_code": "21183"
  },
  {
    "id": 1208082009,
    "province_id": 12,
    "regency_id": 1208,
    "district_id": 120808,
    "value": "Marihat Tanjung",
    "postal_code": "21183"
  },
  {
    "id": 1208082002,
    "province_id": 12,
    "regency_id": 1208,
    "district_id": 120808,
    "value": "Mayang",
    "postal_code": "21183"
  },
  {
    "id": 1208082016,
    "province_id": 12,
    "regency_id": 1208,
    "district_id": 120808,
    "value": "Mekar Rejo",
    "postal_code": "21183"
  },
  {
    "id": 1208082017,
    "province_id": 12,
    "regency_id": 1208,
    "district_id": 120808,
    "value": "Nanggar Bayu",
    "postal_code": "21183"
  },
  {
    "id": 1208082001,
    "province_id": 12,
    "regency_id": 1208,
    "district_id": 120808,
    "value": "Parbutaran",
    "postal_code": "21183"
  },
  {
    "id": 1208082004,
    "province_id": 12,
    "regency_id": 1208,
    "district_id": 120808,
    "value": "Sei Mangkei",
    "postal_code": "21183"
  },
  {
    "id": 1208082008,
    "province_id": 12,
    "regency_id": 1208,
    "district_id": 120808,
    "value": "Sei Torop",
    "postal_code": "21183"
  },
  {
    "id": 1208082015,
    "province_id": 12,
    "regency_id": 1208,
    "district_id": 120808,
    "value": "Sidomulyo",
    "postal_code": "21183"
  },
  {
    "id": 1208082011,
    "province_id": 12,
    "regency_id": 1208,
    "district_id": 120808,
    "value": "Teladan",
    "postal_code": "21183"
  },
  {
    "id": 1208082006,
    "province_id": 12,
    "regency_id": 1208,
    "district_id": 120808,
    "value": "Telun/Talun Saragih",
    "postal_code": "21183"
  },
  {
    "id": 1208082014,
    "province_id": 12,
    "regency_id": 1208,
    "district_id": 120808,
    "value": "Tempel Jaya",
    "postal_code": "21183"
  }
]