[
  {
    "id": 720327,
    "province_id": 72,
    "regency_id": 7203,
    "district_id": 720327,
    "value": "Kola-Kola",
    "postal_code": "94341"
  },
  {
    "id": 720327,
    "province_id": 72,
    "regency_id": 7203,
    "district_id": 720327,
    "value": "Lampo",
    "postal_code": "94341"
  },
  {
    "id": 720327,
    "province_id": 72,
    "regency_id": 7203,
    "district_id": 720327,
    "value": "Limboro",
    "postal_code": "94341"
  },
  {
    "id": 720327,
    "province_id": 72,
    "regency_id": 7203,
    "district_id": 720327,
    "value": "Lumbudolo",
    "postal_code": "94341"
  },
  {
    "id": 720327,
    "province_id": 72,
    "regency_id": 7203,
    "district_id": 720327,
    "value": "Mekar Baru",
    "postal_code": "94341"
  },
  {
    "id": 720327,
    "province_id": 72,
    "regency_id": 7203,
    "district_id": 720327,
    "value": "Powelua",
    "postal_code": "94341"
  },
  {
    "id": 720327,
    "province_id": 72,
    "regency_id": 7203,
    "district_id": 720327,
    "value": "Salubomba",
    "postal_code": "94341"
  },
  {
    "id": 720327,
    "province_id": 72,
    "regency_id": 7203,
    "district_id": 720327,
    "value": "Towale",
    "postal_code": "94341"
  }
]