[
  {
    "id": 160406,
    "province_id": 16,
    "regency_id": 1604,
    "district_id": 160406,
    "value": "Aromantai",
    "postal_code": "31591"
  },
  {
    "id": 160406,
    "province_id": 16,
    "regency_id": 1604,
    "district_id": 160406,
    "value": "Bandar Aji (Bandaraji)",
    "postal_code": "31591"
  },
  {
    "id": 160406,
    "province_id": 16,
    "regency_id": 1604,
    "district_id": 160406,
    "value": "Gunung Megang",
    "postal_code": "31591"
  },
  {
    "id": 160406,
    "province_id": 16,
    "regency_id": 1604,
    "district_id": 160406,
    "value": "Gunung Raya (Gunung Kaya)",
    "postal_code": "31591"
  },
  {
    "id": 160406,
    "province_id": 16,
    "regency_id": 1604,
    "district_id": 160406,
    "value": "Jarai",
    "postal_code": "31591"
  },
  {
    "id": 160406,
    "province_id": 16,
    "regency_id": 1604,
    "district_id": 160406,
    "value": "Jemaring",
    "postal_code": "31591"
  },
  {
    "id": 160406,
    "province_id": 16,
    "regency_id": 1604,
    "district_id": 160406,
    "value": "Karang Tanding",
    "postal_code": "31591"
  },
  {
    "id": 160406,
    "province_id": 16,
    "regency_id": 1604,
    "district_id": 160406,
    "value": "Kedaton",
    "postal_code": "31591"
  },
  {
    "id": 160406,
    "province_id": 16,
    "regency_id": 1604,
    "district_id": 160406,
    "value": "Lubuk Saung/Sawung",
    "postal_code": "31591"
  },
  {
    "id": 160406,
    "province_id": 16,
    "regency_id": 1604,
    "district_id": 160406,
    "value": "Mangun Sari",
    "postal_code": "31591"
  },
  {
    "id": 160406,
    "province_id": 16,
    "regency_id": 1604,
    "district_id": 160406,
    "value": "Muara Tawi (Muaratawi)",
    "postal_code": "31591"
  },
  {
    "id": 160406,
    "province_id": 16,
    "regency_id": 1604,
    "district_id": 160406,
    "value": "Nanti Giri (Nantigiri)",
    "postal_code": "31591"
  },
  {
    "id": 160406,
    "province_id": 16,
    "regency_id": 1604,
    "district_id": 160406,
    "value": "Pagar Dewa",
    "postal_code": "31591"
  },
  {
    "id": 160406,
    "province_id": 16,
    "regency_id": 1604,
    "district_id": 160406,
    "value": "Pama Salak (Pamah Salak)",
    "postal_code": "31591"
  },
  {
    "id": 160406,
    "province_id": 16,
    "regency_id": 1604,
    "district_id": 160406,
    "value": "Pelajaran",
    "postal_code": "31591"
  },
  {
    "id": 160406,
    "province_id": 16,
    "regency_id": 1604,
    "district_id": 160406,
    "value": "Penantian",
    "postal_code": "31591"
  },
  {
    "id": 160406,
    "province_id": 16,
    "regency_id": 1604,
    "district_id": 160406,
    "value": "Sadan",
    "postal_code": "31591"
  },
  {
    "id": 160406,
    "province_id": 16,
    "regency_id": 1604,
    "district_id": 160406,
    "value": "Serambi",
    "postal_code": "31591"
  },
  {
    "id": 160406,
    "province_id": 16,
    "regency_id": 1604,
    "district_id": 160406,
    "value": "Sukananti",
    "postal_code": "31591"
  },
  {
    "id": 160406,
    "province_id": 16,
    "regency_id": 1604,
    "district_id": 160406,
    "value": "Tanjung Menang",
    "postal_code": "31591"
  },
  {
    "id": 160406,
    "province_id": 16,
    "regency_id": 1604,
    "district_id": 160406,
    "value": "Tertap",
    "postal_code": "31591"
  }
]