[
  {
    "id": 9405172002,
    "province_id": 94,
    "regency_id": 9405,
    "district_id": 940517,
    "value": "Agenggen",
    "postal_code": "98979"
  },
  {
    "id": 9405172009,
    "province_id": 94,
    "regency_id": 9405,
    "district_id": 940517,
    "value": "Jerusalem",
    "postal_code": "98979"
  },
  {
    "id": 9405172005,
    "province_id": 94,
    "regency_id": 9405,
    "district_id": 940517,
    "value": "Lambera",
    "postal_code": "98979"
  },
  {
    "id": 9405172008,
    "province_id": 94,
    "regency_id": 9405,
    "district_id": 940517,
    "value": "Manggame",
    "postal_code": "98979"
  },
  {
    "id": 9405172007,
    "province_id": 94,
    "regency_id": 9405,
    "district_id": 940517,
    "value": "Mugalolo",
    "postal_code": "98979"
  },
  {
    "id": 9405172001,
    "province_id": 94,
    "regency_id": 9405,
    "district_id": 940517,
    "value": "Pamebut",
    "postal_code": "98979"
  },
  {
    "id": 9405172004,
    "province_id": 94,
    "regency_id": 9405,
    "district_id": 940517,
    "value": "Wilewak",
    "postal_code": "98979"
  },
  {
    "id": 9405172010,
    "province_id": 94,
    "regency_id": 9405,
    "district_id": 940517,
    "value": "Wiyabubu",
    "postal_code": "98979"
  },
  {
    "id": 9405172006,
    "province_id": 94,
    "regency_id": 9405,
    "district_id": 940517,
    "value": "Wobulo",
    "postal_code": "98979"
  },
  {
    "id": 9405172003,
    "province_id": 94,
    "regency_id": 9405,
    "district_id": 940517,
    "value": "Yugumuak",
    "postal_code": "98979"
  }
]