[
  {
    "id": 140108,
    "province_id": 14,
    "regency_id": 1401,
    "district_id": 140108,
    "value": "Bangun Sari",
    "postal_code": "28473"
  },
  {
    "id": 140108,
    "province_id": 14,
    "regency_id": 1401,
    "district_id": 140108,
    "value": "Gading Permai",
    "postal_code": "28473"
  },
  {
    "id": 140108,
    "province_id": 14,
    "regency_id": 1401,
    "district_id": 140108,
    "value": "Mentulik",
    "postal_code": "28473"
  },
  {
    "id": 140108,
    "province_id": 14,
    "regency_id": 1401,
    "district_id": 140108,
    "value": "Rantau Kasih",
    "postal_code": "28473"
  },
  {
    "id": 140108,
    "province_id": 14,
    "regency_id": 1401,
    "district_id": 140108,
    "value": "Sungai Bunga/Bungo",
    "postal_code": "28473"
  },
  {
    "id": 140108,
    "province_id": 14,
    "regency_id": 1401,
    "district_id": 140108,
    "value": "Sungai Pagar",
    "postal_code": "28473"
  },
  {
    "id": 140108,
    "province_id": 14,
    "regency_id": 1401,
    "district_id": 140108,
    "value": "Sungai Petai",
    "postal_code": "28473"
  },
  {
    "id": 140108,
    "province_id": 14,
    "regency_id": 1401,
    "district_id": 140108,
    "value": "Sungai Simpang Dua",
    "postal_code": "28473"
  }
]