[
  {
    "id": 9106102002,
    "province_id": 91,
    "regency_id": 9106,
    "district_id": 910610,
    "value": "Auki",
    "postal_code": "98556"
  },
  {
    "id": 9106102014,
    "province_id": 91,
    "regency_id": 9106,
    "district_id": 910610,
    "value": "Inyebomi (Inbeyomi)",
    "postal_code": "98556"
  },
  {
    "id": 9106102021,
    "province_id": 91,
    "regency_id": 9106,
    "district_id": 910610,
    "value": "Kanai",
    "postal_code": "98556"
  },
  {
    "id": 9106102005,
    "province_id": 91,
    "regency_id": 9106,
    "district_id": 910610,
    "value": "Nusi",
    "postal_code": "98556"
  },
  {
    "id": 9106102004,
    "province_id": 91,
    "regency_id": 9106,
    "district_id": 910610,
    "value": "Nusi Babaruk",
    "postal_code": "98556"
  },
  {
    "id": 9106102001,
    "province_id": 91,
    "regency_id": 9106,
    "district_id": 910610,
    "value": "Pai",
    "postal_code": "98556"
  },
  {
    "id": 9106102020,
    "province_id": 91,
    "regency_id": 9106,
    "district_id": 910610,
    "value": "Paidori",
    "postal_code": "98556"
  },
  {
    "id": 9106102016,
    "province_id": 91,
    "regency_id": 9106,
    "district_id": 910610,
    "value": "Sandidori (Sandedori)",
    "postal_code": "98556"
  },
  {
    "id": 9106102022,
    "province_id": 91,
    "regency_id": 9106,
    "district_id": 910610,
    "value": "Sokani",
    "postal_code": "98556"
  },
  {
    "id": 9106102015,
    "province_id": 91,
    "regency_id": 9106,
    "district_id": 910610,
    "value": "Sorina",
    "postal_code": "98556"
  },
  {
    "id": 9106102003,
    "province_id": 91,
    "regency_id": 9106,
    "district_id": 910610,
    "value": "Wundi",
    "postal_code": "98556"
  }
]