[
  {
    "id": 3303032001,
    "province_id": 33,
    "regency_id": 3303,
    "district_id": 330303,
    "value": "Bandingan",
    "postal_code": "53392"
  },
  {
    "id": 3303032004,
    "province_id": 33,
    "regency_id": 3303,
    "district_id": 330303,
    "value": "Gumiwang",
    "postal_code": "53392"
  },
  {
    "id": 3303032012,
    "province_id": 33,
    "regency_id": 3303,
    "district_id": 330303,
    "value": "Kedarpan",
    "postal_code": "53392"
  },
  {
    "id": 3303032008,
    "province_id": 33,
    "regency_id": 3303,
    "district_id": 330303,
    "value": "Kejobong",
    "postal_code": "53392"
  },
  {
    "id": 3303032005,
    "province_id": 33,
    "regency_id": 3303,
    "district_id": 330303,
    "value": "Krenceng",
    "postal_code": "53392"
  },
  {
    "id": 3303032002,
    "province_id": 33,
    "regency_id": 3303,
    "district_id": 330303,
    "value": "Lamuk",
    "postal_code": "53392"
  },
  {
    "id": 3303032009,
    "province_id": 33,
    "regency_id": 3303,
    "district_id": 330303,
    "value": "Langgar",
    "postal_code": "53392"
  },
  {
    "id": 3303032006,
    "province_id": 33,
    "regency_id": 3303,
    "district_id": 330303,
    "value": "Nangkasawit",
    "postal_code": "53392"
  },
  {
    "id": 3303032011,
    "province_id": 33,
    "regency_id": 3303,
    "district_id": 330303,
    "value": "Nangkod",
    "postal_code": "53392"
  },
  {
    "id": 3303032007,
    "province_id": 33,
    "regency_id": 3303,
    "district_id": 330303,
    "value": "Pandansari",
    "postal_code": "53392"
  },
  {
    "id": 3303032013,
    "province_id": 33,
    "regency_id": 3303,
    "district_id": 330303,
    "value": "Pangempon",
    "postal_code": "53392"
  },
  {
    "id": 3303032003,
    "province_id": 33,
    "regency_id": 3303,
    "district_id": 330303,
    "value": "Sokanegara",
    "postal_code": "53392"
  },
  {
    "id": 3303032010,
    "province_id": 33,
    "regency_id": 3303,
    "district_id": 330303,
    "value": "Timbang",
    "postal_code": "53314"
  }
]