[
  {
    "id": 711006,
    "province_id": 71,
    "regency_id": 7110,
    "district_id": 711006,
    "value": "Atoga",
    "postal_code": "95785"
  },
  {
    "id": 711006,
    "province_id": 71,
    "regency_id": 7110,
    "district_id": 711006,
    "value": "Atoga Timur",
    "postal_code": "95785"
  },
  {
    "id": 711006,
    "province_id": 71,
    "regency_id": 7110,
    "district_id": 711006,
    "value": "Jiko",
    "postal_code": "95785"
  },
  {
    "id": 711006,
    "province_id": 71,
    "regency_id": 7110,
    "district_id": 711006,
    "value": "Jiko Utara",
    "postal_code": "95785"
  },
  {
    "id": 711006,
    "province_id": 71,
    "regency_id": 7110,
    "district_id": 711006,
    "value": "Molobog",
    "postal_code": "95785"
  },
  {
    "id": 711006,
    "province_id": 71,
    "regency_id": 7110,
    "district_id": 711006,
    "value": "Molobog Barat",
    "postal_code": "95785"
  },
  {
    "id": 711006,
    "province_id": 71,
    "regency_id": 7110,
    "district_id": 711006,
    "value": "Molobog Timur",
    "postal_code": "95785"
  },
  {
    "id": 711006,
    "province_id": 71,
    "regency_id": 7110,
    "district_id": 711006,
    "value": "Motongkad",
    "postal_code": "95785"
  },
  {
    "id": 711006,
    "province_id": 71,
    "regency_id": 7110,
    "district_id": 711006,
    "value": "Motongkad Selatan",
    "postal_code": "95785"
  },
  {
    "id": 711006,
    "province_id": 71,
    "regency_id": 7110,
    "district_id": 711006,
    "value": "Motongkad Tengah",
    "postal_code": "95785"
  },
  {
    "id": 711006,
    "province_id": 71,
    "regency_id": 7110,
    "district_id": 711006,
    "value": "Motongkad Utara",
    "postal_code": "95785"
  }
]