[
  {
    "id": 7405052022,
    "province_id": 74,
    "regency_id": 7405,
    "district_id": 740505,
    "value": "Abenggi",
    "postal_code": "93873"
  },
  {
    "id": 7405052016,
    "province_id": 74,
    "regency_id": 7405,
    "district_id": 740505,
    "value": "Amotowo",
    "postal_code": "93873"
  },
  {
    "id": 7405052023,
    "province_id": 74,
    "regency_id": 7405,
    "district_id": 740505,
    "value": "Arongo",
    "postal_code": "93873"
  },
  {
    "id": 7405052024,
    "province_id": 74,
    "regency_id": 7405,
    "district_id": 740505,
    "value": "Endanga",
    "postal_code": "93873"
  },
  {
    "id": 7405052035,
    "province_id": 74,
    "regency_id": 7405,
    "district_id": 740505,
    "value": "Lakomea",
    "postal_code": "93873"
  },
  {
    "id": 7405052008,
    "province_id": 74,
    "regency_id": 7405,
    "district_id": 740505,
    "value": "Lalonggapu",
    "postal_code": "93873"
  },
  {
    "id": 7405051001,
    "province_id": 74,
    "regency_id": 7405,
    "district_id": 740505,
    "value": "Landono",
    "postal_code": "93873"
  },
  {
    "id": 7405052015,
    "province_id": 74,
    "regency_id": 7405,
    "district_id": 740505,
    "value": "Landono Dua",
    "postal_code": "93873"
  },
  {
    "id": 7405052009,
    "province_id": 74,
    "regency_id": 7405,
    "district_id": 740505,
    "value": "Matabenua / Watawunua",
    "postal_code": "93873"
  },
  {
    "id": 7405052042,
    "province_id": 74,
    "regency_id": 7405,
    "district_id": 740505,
    "value": "Morini Mulya",
    "postal_code": "93873"
  },
  {
    "id": 7405052014,
    "province_id": 74,
    "regency_id": 7405,
    "district_id": 740505,
    "value": "Tridana Mulia",
    "postal_code": "93873"
  },
  {
    "id": 7405052028,
    "province_id": 74,
    "regency_id": 7405,
    "district_id": 740505,
    "value": "Wonua Koa",
    "postal_code": "93873"
  },
  {
    "id": 7405052032,
    "province_id": 74,
    "regency_id": 7405,
    "district_id": 740505,
    "value": "Wonua Sangia",
    "postal_code": "93873"
  }
]