[
  {
    "id": 940406,
    "province_id": 94,
    "regency_id": 9404,
    "district_id": 940406,
    "value": "Amua Ogom",
    "postal_code": "99961"
  },
  {
    "id": 940406,
    "province_id": 94,
    "regency_id": 9404,
    "district_id": 940406,
    "value": "Bunaraugin",
    "postal_code": "99961"
  },
  {
    "id": 940406,
    "province_id": 94,
    "regency_id": 9404,
    "district_id": 940406,
    "value": "Diloa",
    "postal_code": "99961"
  },
  {
    "id": 940406,
    "province_id": 94,
    "regency_id": 9404,
    "district_id": 940406,
    "value": "Diloa Dua",
    "postal_code": "99961"
  },
  {
    "id": 940406,
    "province_id": 94,
    "regency_id": 9404,
    "district_id": 940406,
    "value": "Jengkon",
    "postal_code": "99961"
  },
  {
    "id": 940406,
    "province_id": 94,
    "regency_id": 9404,
    "district_id": 940406,
    "value": "Jila",
    "postal_code": "99961"
  },
  {
    "id": 940406,
    "province_id": 94,
    "regency_id": 9404,
    "district_id": 940406,
    "value": "Noemun",
    "postal_code": "99961"
  },
  {
    "id": 940406,
    "province_id": 94,
    "regency_id": 9404,
    "district_id": 940406,
    "value": "Pasir Putih",
    "postal_code": "99961"
  },
  {
    "id": 940406,
    "province_id": 94,
    "regency_id": 9404,
    "district_id": 940406,
    "value": "Pilik Ogom",
    "postal_code": "99961"
  },
  {
    "id": 940406,
    "province_id": 94,
    "regency_id": 9404,
    "district_id": 940406,
    "value": "Pusuwe",
    "postal_code": "99961"
  },
  {
    "id": 940406,
    "province_id": 94,
    "regency_id": 9404,
    "district_id": 940406,
    "value": "Umpliga",
    "postal_code": "99961"
  },
  {
    "id": 940406,
    "province_id": 94,
    "regency_id": 9404,
    "district_id": 940406,
    "value": "Wandud",
    "postal_code": "99961"
  }
]