[
  {
    "id": 740809,
    "province_id": 74,
    "regency_id": 7408,
    "district_id": 740809,
    "value": "Lahabaru",
    "postal_code": "93959"
  },
  {
    "id": 740809,
    "province_id": 74,
    "regency_id": 7408,
    "district_id": 740809,
    "value": "Lelehao",
    "postal_code": "93959"
  },
  {
    "id": 740809,
    "province_id": 74,
    "regency_id": 7408,
    "district_id": 740809,
    "value": "Nyule",
    "postal_code": "93959"
  },
  {
    "id": 740809,
    "province_id": 74,
    "regency_id": 7408,
    "district_id": 740809,
    "value": "Samaturu",
    "postal_code": "93959"
  },
  {
    "id": 740809,
    "province_id": 74,
    "regency_id": 7408,
    "district_id": 740809,
    "value": "Sapoiha",
    "postal_code": "93959"
  },
  {
    "id": 740809,
    "province_id": 74,
    "regency_id": 7408,
    "district_id": 740809,
    "value": "Sarona",
    "postal_code": "93959"
  },
  {
    "id": 740809,
    "province_id": 74,
    "regency_id": 7408,
    "district_id": 740809,
    "value": "Tambuha",
    "postal_code": "93959"
  },
  {
    "id": 740809,
    "province_id": 74,
    "regency_id": 7408,
    "district_id": 740809,
    "value": "Watunohu",
    "postal_code": "93959"
  }
]