[
  {
    "id": 920106,
    "province_id": 92,
    "regency_id": 9201,
    "district_id": 920106,
    "value": "Kasimle",
    "postal_code": "98426"
  },
  {
    "id": 920106,
    "province_id": 92,
    "regency_id": 9201,
    "district_id": 920106,
    "value": "Klayas",
    "postal_code": "98426"
  },
  {
    "id": 920106,
    "province_id": 92,
    "regency_id": 9201,
    "district_id": 920106,
    "value": "Malabam (Malaban)",
    "postal_code": "98426"
  },
  {
    "id": 920106,
    "province_id": 92,
    "regency_id": 9201,
    "district_id": 920106,
    "value": "Mobi",
    "postal_code": "98426"
  },
  {
    "id": 920106,
    "province_id": 92,
    "regency_id": 9201,
    "district_id": 920106,
    "value": "Pulau Kasim",
    "postal_code": "98426"
  },
  {
    "id": 920106,
    "province_id": 92,
    "regency_id": 9201,
    "district_id": 920106,
    "value": "Seget",
    "postal_code": "98426"
  },
  {
    "id": 920106,
    "province_id": 92,
    "regency_id": 9201,
    "district_id": 920106,
    "value": "Wasingsan",
    "postal_code": "98426"
  },
  {
    "id": 920106,
    "province_id": 92,
    "regency_id": 9201,
    "district_id": 920106,
    "value": "Wayenkede",
    "postal_code": "98426"
  },
  {
    "id": 920106,
    "province_id": 92,
    "regency_id": 9201,
    "district_id": 920106,
    "value": "Wewenagu",
    "postal_code": "98426"
  }
]