[
  {
    "id": 111104,
    "province_id": 11,
    "regency_id": 1111,
    "district_id": 111104,
    "value": "Abeuk Tingkeum",
    "postal_code": "24251"
  },
  {
    "id": 111104,
    "province_id": 11,
    "regency_id": 1111,
    "district_id": 111104,
    "value": "Abeuk Usong",
    "postal_code": "24251"
  },
  {
    "id": 111104,
    "province_id": 11,
    "regency_id": 1111,
    "district_id": 111104,
    "value": "Alue Limeng",
    "postal_code": "24251"
  },
  {
    "id": 111104,
    "province_id": 11,
    "regency_id": 1111,
    "district_id": 111104,
    "value": "Batee Timoh",
    "postal_code": "24251"
  },
  {
    "id": 111104,
    "province_id": 11,
    "regency_id": 1111,
    "district_id": 111104,
    "value": "Beurawang",
    "postal_code": "24251"
  },
  {
    "id": 111104,
    "province_id": 11,
    "regency_id": 1111,
    "district_id": 111104,
    "value": "Blang Bladeh",
    "postal_code": "24251"
  },
  {
    "id": 111104,
    "province_id": 11,
    "regency_id": 1111,
    "district_id": 111104,
    "value": "Blang Cot Baroh",
    "postal_code": "24251"
  },
  {
    "id": 111104,
    "province_id": 11,
    "regency_id": 1111,
    "district_id": 111104,
    "value": "Blang Cot Tunong",
    "postal_code": "24251"
  },
  {
    "id": 111104,
    "province_id": 11,
    "regency_id": 1111,
    "district_id": 111104,
    "value": "Blang Dalam",
    "postal_code": "24251"
  },
  {
    "id": 111104,
    "province_id": 11,
    "regency_id": 1111,
    "district_id": 111104,
    "value": "Blang Gandai",
    "postal_code": "24251"
  },
  {
    "id": 111104,
    "province_id": 11,
    "regency_id": 1111,
    "district_id": 111104,
    "value": "Blang Mee (Blang Me)",
    "postal_code": "24251"
  },
  {
    "id": 111104,
    "province_id": 11,
    "regency_id": 1111,
    "district_id": 111104,
    "value": "Blang Rheum",
    "postal_code": "24251"
  },
  {
    "id": 111104,
    "province_id": 11,
    "regency_id": 1111,
    "district_id": 111104,
    "value": "Blang Seunong",
    "postal_code": "24251"
  },
  {
    "id": 111104,
    "province_id": 11,
    "regency_id": 1111,
    "district_id": 111104,
    "value": "Blang Seupeung (Blang Seupeng)",
    "postal_code": "24251"
  },
  {
    "id": 111104,
    "province_id": 11,
    "regency_id": 1111,
    "district_id": 111104,
    "value": "Cot Bada",
    "postal_code": "24251"
  },
  {
    "id": 111104,
    "province_id": 11,
    "regency_id": 1111,
    "district_id": 111104,
    "value": "Cot Gadong",
    "postal_code": "24251"
  },
  {
    "id": 111104,
    "province_id": 11,
    "regency_id": 1111,
    "district_id": 111104,
    "value": "Cot Geureundong (Cot Geurundong)",
    "postal_code": "24251"
  },
  {
    "id": 111104,
    "province_id": 11,
    "regency_id": 1111,
    "district_id": 111104,
    "value": "Cot Iboeh Timu",
    "postal_code": "24251"
  },
  {
    "id": 111104,
    "province_id": 11,
    "regency_id": 1111,
    "district_id": 111104,
    "value": "Cot Iboih (Cot Iboh)",
    "postal_code": "24251"
  },
  {
    "id": 111104,
    "province_id": 11,
    "regency_id": 1111,
    "district_id": 111104,
    "value": "Cot Keutapang",
    "postal_code": "24251"
  },
  {
    "id": 111104,
    "province_id": 11,
    "regency_id": 1111,
    "district_id": 111104,
    "value": "Cot Leusong",
    "postal_code": "24251"
  },
  {
    "id": 111104,
    "province_id": 11,
    "regency_id": 1111,
    "district_id": 111104,
    "value": "Cot Meugoe",
    "postal_code": "24251"
  },
  {
    "id": 111104,
    "province_id": 11,
    "regency_id": 1111,
    "district_id": 111104,
    "value": "Cot Tarom Baroh",
    "postal_code": "24251"
  },
  {
    "id": 111104,
    "province_id": 11,
    "regency_id": 1111,
    "district_id": 111104,
    "value": "Cot Tarom Tunong",
    "postal_code": "24251"
  },
  {
    "id": 111104,
    "province_id": 11,
    "regency_id": 1111,
    "district_id": 111104,
    "value": "Cot Ulim",
    "postal_code": "24251"
  },
  {
    "id": 111104,
    "province_id": 11,
    "regency_id": 1111,
    "district_id": 111104,
    "value": "Geudong Tampu",
    "postal_code": "24251"
  },
  {
    "id": 111104,
    "province_id": 11,
    "regency_id": 1111,
    "district_id": 111104,
    "value": "Gleumpang Payong (Geulumpang Payong)",
    "postal_code": "24251"
  },
  {
    "id": 111104,
    "province_id": 11,
    "regency_id": 1111,
    "district_id": 111104,
    "value": "Kuala Jeumpa",
    "postal_code": "24251"
  },
  {
    "id": 111104,
    "province_id": 11,
    "regency_id": 1111,
    "district_id": 111104,
    "value": "Kuta Meuligoe",
    "postal_code": "24251"
  },
  {
    "id": 111104,
    "province_id": 11,
    "regency_id": 1111,
    "district_id": 111104,
    "value": "Laksamana (Lhaksamana)",
    "postal_code": "24251"
  },
  {
    "id": 111104,
    "province_id": 11,
    "regency_id": 1111,
    "district_id": 111104,
    "value": "Lipah Cut",
    "postal_code": "24251"
  },
  {
    "id": 111104,
    "province_id": 11,
    "regency_id": 1111,
    "district_id": 111104,
    "value": "Lipah Rayeuk",
    "postal_code": "24251"
  },
  {
    "id": 111104,
    "province_id": 11,
    "regency_id": 1111,
    "district_id": 111104,
    "value": "Mon Jambee",
    "postal_code": "24251"
  },
  {
    "id": 111104,
    "province_id": 11,
    "regency_id": 1111,
    "district_id": 111104,
    "value": "Mon Mane",
    "postal_code": "24251"
  },
  {
    "id": 111104,
    "province_id": 11,
    "regency_id": 1111,
    "district_id": 111104,
    "value": "Paloh Panyang",
    "postal_code": "24251"
  },
  {
    "id": 111104,
    "province_id": 11,
    "regency_id": 1111,
    "district_id": 111104,
    "value": "Paloh Seulimeng",
    "postal_code": "24251"
  },
  {
    "id": 111104,
    "province_id": 11,
    "regency_id": 1111,
    "district_id": 111104,
    "value": "Pulo Lawang",
    "postal_code": "24251"
  },
  {
    "id": 111104,
    "province_id": 11,
    "regency_id": 1111,
    "district_id": 111104,
    "value": "Salah Sirong Jaya",
    "postal_code": "24251"
  },
  {
    "id": 111104,
    "province_id": 11,
    "regency_id": 1111,
    "district_id": 111104,
    "value": "Seuleumbah",
    "postal_code": "24251"
  },
  {
    "id": 111104,
    "province_id": 11,
    "regency_id": 1111,
    "district_id": 111104,
    "value": "Seuneubok Lhong",
    "postal_code": "24251"
  },
  {
    "id": 111104,
    "province_id": 11,
    "regency_id": 1111,
    "district_id": 111104,
    "value": "Teupok Baroh",
    "postal_code": "24251"
  },
  {
    "id": 111104,
    "province_id": 11,
    "regency_id": 1111,
    "district_id": 111104,
    "value": "Teupok Tunong",
    "postal_code": "24251"
  }
]