[
  {
    "id": 3502182006,
    "province_id": 35,
    "regency_id": 3502,
    "district_id": 350218,
    "value": "Jenangan",
    "postal_code": "63492"
  },
  {
    "id": 3502182007,
    "province_id": 35,
    "regency_id": 3502,
    "district_id": 350218,
    "value": "Jimbe",
    "postal_code": "63492"
  },
  {
    "id": 3502182017,
    "province_id": 35,
    "regency_id": 3502,
    "district_id": 350218,
    "value": "Kemiri",
    "postal_code": "63492"
  },
  {
    "id": 3502182003,
    "province_id": 35,
    "regency_id": 3502,
    "district_id": 350218,
    "value": "Mrican",
    "postal_code": "63492"
  },
  {
    "id": 3502182005,
    "province_id": 35,
    "regency_id": 3502,
    "district_id": 350218,
    "value": "Nglayang",
    "postal_code": "63492"
  },
  {
    "id": 3502182008,
    "province_id": 35,
    "regency_id": 3502,
    "district_id": 350218,
    "value": "Ngrupit",
    "postal_code": "63492"
  },
  {
    "id": 3502182011,
    "province_id": 35,
    "regency_id": 3502,
    "district_id": 350218,
    "value": "Panjeng",
    "postal_code": "63492"
  },
  {
    "id": 3502182015,
    "province_id": 35,
    "regency_id": 3502,
    "district_id": 350218,
    "value": "Paringan",
    "postal_code": "63492"
  },
  {
    "id": 3502182009,
    "province_id": 35,
    "regency_id": 3502,
    "district_id": 350218,
    "value": "Pintu",
    "postal_code": "63492"
  },
  {
    "id": 3502182004,
    "province_id": 35,
    "regency_id": 3502,
    "district_id": 350218,
    "value": "Plalangan",
    "postal_code": "63492"
  },
  {
    "id": 3502182010,
    "province_id": 35,
    "regency_id": 3502,
    "district_id": 350218,
    "value": "Sedah",
    "postal_code": "63492"
  },
  {
    "id": 3502182013,
    "province_id": 35,
    "regency_id": 3502,
    "district_id": 350218,
    "value": "Semanding",
    "postal_code": "63492"
  },
  {
    "id": 3502181001,
    "province_id": 35,
    "regency_id": 3502,
    "district_id": 350218,
    "value": "Setono",
    "postal_code": "63492"
  },
  {
    "id": 3502181002,
    "province_id": 35,
    "regency_id": 3502,
    "district_id": 350218,
    "value": "Singosaren",
    "postal_code": "63492"
  },
  {
    "id": 3502182012,
    "province_id": 35,
    "regency_id": 3502,
    "district_id": 350218,
    "value": "Sraten",
    "postal_code": "63492"
  },
  {
    "id": 3502182014,
    "province_id": 35,
    "regency_id": 3502,
    "district_id": 350218,
    "value": "Tanjungsari (Tanjung Sari)",
    "postal_code": "63492"
  },
  {
    "id": 3502182016,
    "province_id": 35,
    "regency_id": 3502,
    "district_id": 350218,
    "value": "Wates",
    "postal_code": "63492"
  }
]