[
  {
    "id": 367401,
    "province_id": 36,
    "regency_id": 3674,
    "district_id": 367401,
    "value": "Buaran",
    "postal_code": "15310"
  },
  {
    "id": 367401,
    "province_id": 36,
    "regency_id": 3674,
    "district_id": 367401,
    "value": "Ciater",
    "postal_code": "15310"
  },
  {
    "id": 367401,
    "province_id": 36,
    "regency_id": 3674,
    "district_id": 367401,
    "value": "Cilenggang",
    "postal_code": "15310"
  },
  {
    "id": 367401,
    "province_id": 36,
    "regency_id": 3674,
    "district_id": 367401,
    "value": "Lengkong Gudang",
    "postal_code": "15321"
  },
  {
    "id": 367401,
    "province_id": 36,
    "regency_id": 3674,
    "district_id": 367401,
    "value": "Lengkong Gudang Timur",
    "postal_code": "15321"
  },
  {
    "id": 367401,
    "province_id": 36,
    "regency_id": 3674,
    "district_id": 367401,
    "value": "Lengkong Wetan",
    "postal_code": "15322"
  },
  {
    "id": 367401,
    "province_id": 36,
    "regency_id": 3674,
    "district_id": 367401,
    "value": "Rawa Mekarjaya (Rawa Mekar Jaya)",
    "postal_code": "15310"
  },
  {
    "id": 367401,
    "province_id": 36,
    "regency_id": 3674,
    "district_id": 367401,
    "value": "Rawabuntu (Rawa Buntu)",
    "postal_code": "15318"
  },
  {
    "id": 367401,
    "province_id": 36,
    "regency_id": 3674,
    "district_id": 367401,
    "value": "Serpong",
    "postal_code": "15311"
  }
]