[
  {
    "id": 650306,
    "province_id": 65,
    "regency_id": 6503,
    "district_id": 650306,
    "value": "Apas",
    "postal_code": "77481"
  },
  {
    "id": 650306,
    "province_id": 65,
    "regency_id": 6503,
    "district_id": 650306,
    "value": "Bebanas",
    "postal_code": "77481"
  },
  {
    "id": 650306,
    "province_id": 65,
    "regency_id": 6503,
    "district_id": 650306,
    "value": "Harapan",
    "postal_code": "77481"
  },
  {
    "id": 650306,
    "province_id": 65,
    "regency_id": 6503,
    "district_id": 650306,
    "value": "Kekayap",
    "postal_code": "77481"
  },
  {
    "id": 650306,
    "province_id": 65,
    "regency_id": 6503,
    "district_id": 650306,
    "value": "Kunyit",
    "postal_code": "77481"
  },
  {
    "id": 650306,
    "province_id": 65,
    "regency_id": 6503,
    "district_id": 650306,
    "value": "Lulu",
    "postal_code": "77481"
  },
  {
    "id": 650306,
    "province_id": 65,
    "regency_id": 6503,
    "district_id": 650306,
    "value": "Melasu Baru",
    "postal_code": "77481"
  },
  {
    "id": 650306,
    "province_id": 65,
    "regency_id": 6503,
    "district_id": 650306,
    "value": "Pembeliangan",
    "postal_code": "77481"
  },
  {
    "id": 650306,
    "province_id": 65,
    "regency_id": 6503,
    "district_id": 650306,
    "value": "Sujau",
    "postal_code": "77481"
  },
  {
    "id": 650306,
    "province_id": 65,
    "regency_id": 6503,
    "district_id": 650306,
    "value": "Tetaban",
    "postal_code": "77481"
  }
]