[
  {
    "id": 711001,
    "province_id": 71,
    "regency_id": 7110,
    "district_id": 711001,
    "value": "Dodap",
    "postal_code": "95783"
  },
  {
    "id": 711001,
    "province_id": 71,
    "regency_id": 7110,
    "district_id": 711001,
    "value": "Dodap Pantai",
    "postal_code": "95783"
  },
  {
    "id": 711001,
    "province_id": 71,
    "regency_id": 7110,
    "district_id": 711001,
    "value": "Dodop Mikasa",
    "postal_code": "95783"
  },
  {
    "id": 711001,
    "province_id": 71,
    "regency_id": 7110,
    "district_id": 711001,
    "value": "Kayumoyondi",
    "postal_code": "95783"
  },
  {
    "id": 711001,
    "province_id": 71,
    "regency_id": 7110,
    "district_id": 711001,
    "value": "Togid",
    "postal_code": "95783"
  },
  {
    "id": 711001,
    "province_id": 71,
    "regency_id": 7110,
    "district_id": 711001,
    "value": "Tombolikat",
    "postal_code": "95783"
  },
  {
    "id": 711001,
    "province_id": 71,
    "regency_id": 7110,
    "district_id": 711001,
    "value": "Tombolikat Selatan",
    "postal_code": "95783"
  },
  {
    "id": 711001,
    "province_id": 71,
    "regency_id": 7110,
    "district_id": 711001,
    "value": "Tutuyan",
    "postal_code": "95783"
  },
  {
    "id": 711001,
    "province_id": 71,
    "regency_id": 7110,
    "district_id": 711001,
    "value": "Tutuyan II",
    "postal_code": "95783"
  },
  {
    "id": 711001,
    "province_id": 71,
    "regency_id": 7110,
    "district_id": 711001,
    "value": "Tutuyan III",
    "postal_code": "95783"
  }
]