[
  {
    "id": 1404052011,
    "province_id": 14,
    "regency_id": 1404,
    "district_id": 140405,
    "value": "Harapan Jaya",
    "postal_code": "29262"
  },
  {
    "id": 1404052009,
    "province_id": 14,
    "regency_id": 1404,
    "district_id": 140405,
    "value": "Karya Tunas Jaya",
    "postal_code": "29262"
  },
  {
    "id": 1404052003,
    "province_id": 14,
    "regency_id": 1404,
    "district_id": 140405,
    "value": "Mumpa",
    "postal_code": "29262"
  },
  {
    "id": 1404051017,
    "province_id": 14,
    "regency_id": 1404,
    "district_id": 140405,
    "value": "Pangkalan Tujuh",
    "postal_code": "29262"
  },
  {
    "id": 1404051004,
    "province_id": 14,
    "regency_id": 1404,
    "district_id": 140405,
    "value": "Sungaisalak (Sungai Salak)",
    "postal_code": "29262"
  },
  {
    "id": 1404051016,
    "province_id": 14,
    "regency_id": 1404,
    "district_id": 140405,
    "value": "Tanjungpidada (Tanjung Pidada)",
    "postal_code": "29262"
  },
  {
    "id": 1404052007,
    "province_id": 14,
    "regency_id": 1404,
    "district_id": 140405,
    "value": "Telukjira (Teluk Jira)",
    "postal_code": "29262"
  },
  {
    "id": 1404052002,
    "province_id": 14,
    "regency_id": 1404,
    "district_id": 140405,
    "value": "Telukkiambang (Teluk Kiambang)",
    "postal_code": "29262"
  },
  {
    "id": 1404051005,
    "province_id": 14,
    "regency_id": 1404,
    "district_id": 140405,
    "value": "Tempuling Jaya (Tempuling)",
    "postal_code": "29262"
  }
]