[
  {
    "id": 352301,
    "province_id": 35,
    "regency_id": 3523,
    "district_id": 352301,
    "value": "Bendonglateng",
    "postal_code": "62363"
  },
  {
    "id": 352301,
    "province_id": 35,
    "regency_id": 3523,
    "district_id": 352301,
    "value": "Jamprong",
    "postal_code": "62363"
  },
  {
    "id": 352301,
    "province_id": 35,
    "regency_id": 3523,
    "district_id": 352301,
    "value": "Jlodro",
    "postal_code": "62363"
  },
  {
    "id": 352301,
    "province_id": 35,
    "regency_id": 3523,
    "district_id": 352301,
    "value": "Sidohasri",
    "postal_code": "62363"
  },
  {
    "id": 352301,
    "province_id": 35,
    "regency_id": 3523,
    "district_id": 352301,
    "value": "Sidomukti",
    "postal_code": "62363"
  },
  {
    "id": 352301,
    "province_id": 35,
    "regency_id": 3523,
    "district_id": 352301,
    "value": "Sidorejo",
    "postal_code": "62363"
  },
  {
    "id": 352301,
    "province_id": 35,
    "regency_id": 3523,
    "district_id": 352301,
    "value": "Sokogrenjeng",
    "postal_code": "62363"
  },
  {
    "id": 352301,
    "province_id": 35,
    "regency_id": 3523,
    "district_id": 352301,
    "value": "Sokogunung",
    "postal_code": "62363"
  },
  {
    "id": 352301,
    "province_id": 35,
    "regency_id": 3523,
    "district_id": 352301,
    "value": "Tawaran",
    "postal_code": "62363"
  }
]