[
  {
    "id": 3329062001,
    "province_id": 33,
    "regency_id": 3329,
    "district_id": 332906,
    "value": "Galuhtimur (Galuh Timur)",
    "postal_code": "52271"
  },
  {
    "id": 3329062002,
    "province_id": 33,
    "regency_id": 3329,
    "district_id": 332906,
    "value": "Kalijurang",
    "postal_code": "52271"
  },
  {
    "id": 3329062003,
    "province_id": 33,
    "regency_id": 3329,
    "district_id": 332906,
    "value": "Karangjongkeng",
    "postal_code": "52271"
  },
  {
    "id": 3329062004,
    "province_id": 33,
    "regency_id": 3329,
    "district_id": 332906,
    "value": "Kutamendala",
    "postal_code": "52271"
  },
  {
    "id": 3329062005,
    "province_id": 33,
    "regency_id": 3329,
    "district_id": 332906,
    "value": "Kutayu",
    "postal_code": "52271"
  },
  {
    "id": 3329062006,
    "province_id": 33,
    "regency_id": 3329,
    "district_id": 332906,
    "value": "Linggapura",
    "postal_code": "52271"
  },
  {
    "id": 3329062007,
    "province_id": 33,
    "regency_id": 3329,
    "district_id": 332906,
    "value": "Negarayu",
    "postal_code": "52271"
  },
  {
    "id": 3329062008,
    "province_id": 33,
    "regency_id": 3329,
    "district_id": 332906,
    "value": "Pepedan",
    "postal_code": "52271"
  },
  {
    "id": 3329062009,
    "province_id": 33,
    "regency_id": 3329,
    "district_id": 332906,
    "value": "Purbayasa",
    "postal_code": "52271"
  },
  {
    "id": 3329062011,
    "province_id": 33,
    "regency_id": 3329,
    "district_id": 332906,
    "value": "Purwodadi",
    "postal_code": "52271"
  },
  {
    "id": 3329062010,
    "province_id": 33,
    "regency_id": 3329,
    "district_id": 332906,
    "value": "Rajawetan",
    "postal_code": "52271"
  },
  {
    "id": 3329062012,
    "province_id": 33,
    "regency_id": 3329,
    "district_id": 332906,
    "value": "Tanggeran",
    "postal_code": "52271"
  },
  {
    "id": 3329062013,
    "province_id": 33,
    "regency_id": 3329,
    "district_id": 332906,
    "value": "Tonjong",
    "postal_code": "52271"
  },
  {
    "id": 3329062014,
    "province_id": 33,
    "regency_id": 3329,
    "district_id": 332906,
    "value": "Watujaya",
    "postal_code": "52271"
  }
]