[
  {
    "id": 5320042008,
    "province_id": 53,
    "regency_id": 5320,
    "district_id": 532004,
    "value": "Dainao",
    "postal_code": "85396"
  },
  {
    "id": 5320042006,
    "province_id": 53,
    "regency_id": 5320,
    "district_id": 532004,
    "value": "Deme",
    "postal_code": "85396"
  },
  {
    "id": 5320042009,
    "province_id": 53,
    "regency_id": 5320,
    "district_id": 532004,
    "value": "Eikare",
    "postal_code": "85396"
  },
  {
    "id": 5320042005,
    "province_id": 53,
    "regency_id": 5320,
    "district_id": 532004,
    "value": "Eilogo",
    "postal_code": "85396"
  },
  {
    "id": 5320042011,
    "province_id": 53,
    "regency_id": 5320,
    "district_id": 532004,
    "value": "Halla Paji (Halapadji)",
    "postal_code": "85396"
  },
  {
    "id": 5320042007,
    "province_id": 53,
    "regency_id": 5320,
    "district_id": 532004,
    "value": "Kotahawu",
    "postal_code": "85396"
  },
  {
    "id": 5320042004,
    "province_id": 53,
    "regency_id": 5320,
    "district_id": 532004,
    "value": "Ledeke",
    "postal_code": "85396"
  },
  {
    "id": 5320042012,
    "province_id": 53,
    "regency_id": 5320,
    "district_id": 532004,
    "value": "Ledetalo (Lede Talo)",
    "postal_code": "85396"
  },
  {
    "id": 5320042010,
    "province_id": 53,
    "regency_id": 5320,
    "district_id": 532004,
    "value": "Loborui (Loboroi)",
    "postal_code": "85396"
  },
  {
    "id": 5320042002,
    "province_id": 53,
    "regency_id": 5320,
    "district_id": 532004,
    "value": "Mehona",
    "postal_code": "85396"
  },
  {
    "id": 5320042001,
    "province_id": 53,
    "regency_id": 5320,
    "district_id": 532004,
    "value": "Raerobo",
    "postal_code": "85396"
  },
  {
    "id": 5320042003,
    "province_id": 53,
    "regency_id": 5320,
    "district_id": 532004,
    "value": "Waduwalla (Waduwala)",
    "postal_code": "85396"
  }
]