[
  {
    "id": 1611012018,
    "province_id": 16,
    "regency_id": 1611,
    "district_id": 161101,
    "value": "Batu Galang",
    "postal_code": "31592"
  },
  {
    "id": 1611012001,
    "province_id": 16,
    "regency_id": 1611,
    "district_id": 161101,
    "value": "Batu Jungul",
    "postal_code": "31592"
  },
  {
    "id": 1611012004,
    "province_id": 16,
    "regency_id": 1611,
    "district_id": 161101,
    "value": "Belimbing",
    "postal_code": "31592"
  },
  {
    "id": 1611012012,
    "province_id": 16,
    "regency_id": 1611,
    "district_id": 161101,
    "value": "Gedung Agung",
    "postal_code": "31592"
  },
  {
    "id": 1611012007,
    "province_id": 16,
    "regency_id": 1611,
    "district_id": 161101,
    "value": "Lubuk Tanjung",
    "postal_code": "31592"
  },
  {
    "id": 1611012017,
    "province_id": 16,
    "regency_id": 1611,
    "district_id": 161101,
    "value": "Lubuk Ulak",
    "postal_code": "31592"
  },
  {
    "id": 1611012006,
    "province_id": 16,
    "regency_id": 1611,
    "district_id": 161101,
    "value": "Muara Pinang Baru",
    "postal_code": "31592"
  },
  {
    "id": 1611012010,
    "province_id": 16,
    "regency_id": 1611,
    "district_id": 161101,
    "value": "Muara Pinang Lama",
    "postal_code": "31592"
  },
  {
    "id": 1611012015,
    "province_id": 16,
    "regency_id": 1611,
    "district_id": 161101,
    "value": "Muara Semah",
    "postal_code": "31592"
  },
  {
    "id": 1611012019,
    "province_id": 16,
    "regency_id": 1611,
    "district_id": 161101,
    "value": "Muara Timbuk",
    "postal_code": "31592"
  },
  {
    "id": 1611012014,
    "province_id": 16,
    "regency_id": 1611,
    "district_id": 161101,
    "value": "Niur",
    "postal_code": "31592"
  },
  {
    "id": 1611012003,
    "province_id": 16,
    "regency_id": 1611,
    "district_id": 161101,
    "value": "Padang Bumai (Padang Burnai)",
    "postal_code": "31592"
  },
  {
    "id": 1611012013,
    "province_id": 16,
    "regency_id": 1611,
    "district_id": 161101,
    "value": "Pajar Menang",
    "postal_code": "31592"
  },
  {
    "id": 1611012009,
    "province_id": 16,
    "regency_id": 1611,
    "district_id": 161101,
    "value": "Sapa Panjang (Sapapanjang)",
    "postal_code": "31592"
  },
  {
    "id": 1611012022,
    "province_id": 16,
    "regency_id": 1611,
    "district_id": 161101,
    "value": "Sawah",
    "postal_code": "31592"
  },
  {
    "id": 1611012020,
    "province_id": 16,
    "regency_id": 1611,
    "district_id": 161101,
    "value": "Seleman Ilir",
    "postal_code": "31592"
  },
  {
    "id": 1611012021,
    "province_id": 16,
    "regency_id": 1611,
    "district_id": 161101,
    "value": "Seleman Ulu",
    "postal_code": "31592"
  },
  {
    "id": 1611012002,
    "province_id": 16,
    "regency_id": 1611,
    "district_id": 161101,
    "value": "Suka Dana",
    "postal_code": "31592"
  },
  {
    "id": 1611012008,
    "province_id": 16,
    "regency_id": 1611,
    "district_id": 161101,
    "value": "Talang Baru",
    "postal_code": "31592"
  },
  {
    "id": 1611012016,
    "province_id": 16,
    "regency_id": 1611,
    "district_id": 161101,
    "value": "Talang Benteng",
    "postal_code": "31592"
  },
  {
    "id": 1611012005,
    "province_id": 16,
    "regency_id": 1611,
    "district_id": 161101,
    "value": "Tanjung Kurung",
    "postal_code": "31592"
  },
  {
    "id": 1611012011,
    "province_id": 16,
    "regency_id": 1611,
    "district_id": 161101,
    "value": "Tanjung Tawang",
    "postal_code": "31592"
  }
]