[
  {
    "id": 530618,
    "province_id": 53,
    "regency_id": 5306,
    "district_id": 530618,
    "value": "Baya",
    "postal_code": "86264"
  },
  {
    "id": 530618,
    "province_id": 53,
    "regency_id": 5306,
    "district_id": 530618,
    "value": "Bidara",
    "postal_code": "86264"
  },
  {
    "id": 530618,
    "province_id": 53,
    "regency_id": 5306,
    "district_id": 530618,
    "value": "Hoko Horowura",
    "postal_code": "86264"
  },
  {
    "id": 530618,
    "province_id": 53,
    "regency_id": 5306,
    "district_id": 530618,
    "value": "Horowura",
    "postal_code": "86264"
  },
  {
    "id": 530618,
    "province_id": 53,
    "regency_id": 5306,
    "district_id": 530618,
    "value": "Kenotan",
    "postal_code": "86264"
  },
  {
    "id": 530618,
    "province_id": 53,
    "regency_id": 5306,
    "district_id": 530618,
    "value": "Kokotobo",
    "postal_code": "86264"
  },
  {
    "id": 530618,
    "province_id": 53,
    "regency_id": 5306,
    "district_id": 530618,
    "value": "Lewobele",
    "postal_code": "86264"
  },
  {
    "id": 530618,
    "province_id": 53,
    "regency_id": 5306,
    "district_id": 530618,
    "value": "Lewopao",
    "postal_code": "86264"
  },
  {
    "id": 530618,
    "province_id": 53,
    "regency_id": 5306,
    "district_id": 530618,
    "value": "Lite",
    "postal_code": "86264"
  },
  {
    "id": 530618,
    "province_id": 53,
    "regency_id": 5306,
    "district_id": 530618,
    "value": "Nubalema",
    "postal_code": "86264"
  },
  {
    "id": 530618,
    "province_id": 53,
    "regency_id": 5306,
    "district_id": 530618,
    "value": "Nubalema Dua",
    "postal_code": "86264"
  },
  {
    "id": 530618,
    "province_id": 53,
    "regency_id": 5306,
    "district_id": 530618,
    "value": "Oesayang (Oe Sayang)",
    "postal_code": "86264"
  },
  {
    "id": 530618,
    "province_id": 53,
    "regency_id": 5306,
    "district_id": 530618,
    "value": "Wewit",
    "postal_code": "86264"
  }
]