[
  {
    "id": 820511,
    "province_id": 82,
    "regency_id": 8205,
    "district_id": 820511,
    "value": "Buruakol",
    "postal_code": "97793"
  },
  {
    "id": 820511,
    "province_id": 82,
    "regency_id": 8205,
    "district_id": 820511,
    "value": "Capalulu",
    "postal_code": "97793"
  },
  {
    "id": 820511,
    "province_id": 82,
    "regency_id": 8205,
    "district_id": 820511,
    "value": "Jere",
    "postal_code": "97793"
  },
  {
    "id": 820511,
    "province_id": 82,
    "regency_id": 8205,
    "district_id": 820511,
    "value": "Mangoli",
    "postal_code": "97793"
  },
  {
    "id": 820511,
    "province_id": 82,
    "regency_id": 8205,
    "district_id": 820511,
    "value": "Paslal",
    "postal_code": "97793"
  },
  {
    "id": 820511,
    "province_id": 82,
    "regency_id": 8205,
    "district_id": 820511,
    "value": "Urifola",
    "postal_code": "97793"
  },
  {
    "id": 820511,
    "province_id": 82,
    "regency_id": 8205,
    "district_id": 820511,
    "value": "Wai U",
    "postal_code": "97793"
  },
  {
    "id": 820511,
    "province_id": 82,
    "regency_id": 8205,
    "district_id": 820511,
    "value": "Wailoba",
    "postal_code": "97793"
  },
  {
    "id": 820511,
    "province_id": 82,
    "regency_id": 8205,
    "district_id": 820511,
    "value": "Waitulia",
    "postal_code": "97793"
  }
]