[
  {
    "id": 120831,
    "province_id": 12,
    "regency_id": 1208,
    "district_id": 120831,
    "value": "Bandar Saribu",
    "postal_code": "21167"
  },
  {
    "id": 120831,
    "province_id": 12,
    "regency_id": 1208,
    "district_id": 120831,
    "value": "Mardingding (Mardinding)",
    "postal_code": "21167"
  },
  {
    "id": 120831,
    "province_id": 12,
    "regency_id": 1208,
    "district_id": 120831,
    "value": "Naga Bosar",
    "postal_code": "21167"
  },
  {
    "id": 120831,
    "province_id": 12,
    "regency_id": 1208,
    "district_id": 120831,
    "value": "Naga Saribu",
    "postal_code": "21167"
  },
  {
    "id": 120831,
    "province_id": 12,
    "regency_id": 1208,
    "district_id": 120831,
    "value": "Saribu Jandi",
    "postal_code": "21167"
  },
  {
    "id": 120831,
    "province_id": 12,
    "regency_id": 1208,
    "district_id": 120831,
    "value": "Siboras",
    "postal_code": "21167"
  },
  {
    "id": 120831,
    "province_id": 12,
    "regency_id": 1208,
    "district_id": 120831,
    "value": "Silimakuta Barat",
    "postal_code": "21167"
  },
  {
    "id": 120831,
    "province_id": 12,
    "regency_id": 1208,
    "district_id": 120831,
    "value": "Sinar Naga Mariah",
    "postal_code": "21167"
  },
  {
    "id": 120831,
    "province_id": 12,
    "regency_id": 1208,
    "district_id": 120831,
    "value": "Ujung Mariah",
    "postal_code": "21167"
  },
  {
    "id": 120831,
    "province_id": 12,
    "regency_id": 1208,
    "district_id": 120831,
    "value": "Ujung Saribu",
    "postal_code": "21167"
  }
]