[
  {
    "id": 760307,
    "province_id": 76,
    "regency_id": 7603,
    "district_id": 760307,
    "value": "Makuang",
    "postal_code": "91361"
  },
  {
    "id": 760307,
    "province_id": 76,
    "regency_id": 7603,
    "district_id": 760307,
    "value": "Malimbong",
    "postal_code": "91361"
  },
  {
    "id": 760307,
    "province_id": 76,
    "regency_id": 7603,
    "district_id": 760307,
    "value": "Matande",
    "postal_code": "91361"
  },
  {
    "id": 760307,
    "province_id": 76,
    "regency_id": 7603,
    "district_id": 760307,
    "value": "Messawa",
    "postal_code": "91361"
  },
  {
    "id": 760307,
    "province_id": 76,
    "regency_id": 7603,
    "district_id": 760307,
    "value": "Pasma Mambu",
    "postal_code": "91361"
  },
  {
    "id": 760307,
    "province_id": 76,
    "regency_id": 7603,
    "district_id": 760307,
    "value": "Rippung",
    "postal_code": "91361"
  },
  {
    "id": 760307,
    "province_id": 76,
    "regency_id": 7603,
    "district_id": 760307,
    "value": "Sepang",
    "postal_code": "91361"
  },
  {
    "id": 760307,
    "province_id": 76,
    "regency_id": 7603,
    "district_id": 760307,
    "value": "Sipai",
    "postal_code": "91361"
  },
  {
    "id": 760307,
    "province_id": 76,
    "regency_id": 7603,
    "district_id": 760307,
    "value": "Tanete Batu",
    "postal_code": "91361"
  }
]