[
  {
    "id": 332308,
    "province_id": 33,
    "regency_id": 3323,
    "district_id": 332308,
    "value": "Bagusan",
    "postal_code": "56254"
  },
  {
    "id": 332308,
    "province_id": 33,
    "regency_id": 3323,
    "district_id": 332308,
    "value": "Campursalam",
    "postal_code": "56254"
  },
  {
    "id": 332308,
    "province_id": 33,
    "regency_id": 3323,
    "district_id": 332308,
    "value": "Caturanom",
    "postal_code": "56254"
  },
  {
    "id": 332308,
    "province_id": 33,
    "regency_id": 3323,
    "district_id": 332308,
    "value": "Dangkel",
    "postal_code": "56254"
  },
  {
    "id": 332308,
    "province_id": 33,
    "regency_id": 3323,
    "district_id": 332308,
    "value": "Depokharjo",
    "postal_code": "56254"
  },
  {
    "id": 332308,
    "province_id": 33,
    "regency_id": 3323,
    "district_id": 332308,
    "value": "Glapansari",
    "postal_code": "56254"
  },
  {
    "id": 332308,
    "province_id": 33,
    "regency_id": 3323,
    "district_id": 332308,
    "value": "Mandisari",
    "postal_code": "56254"
  },
  {
    "id": 332308,
    "province_id": 33,
    "regency_id": 3323,
    "district_id": 332308,
    "value": "Nglondong",
    "postal_code": "56254"
  },
  {
    "id": 332308,
    "province_id": 33,
    "regency_id": 3323,
    "district_id": 332308,
    "value": "Parakan Kauman",
    "postal_code": "56254"
  },
  {
    "id": 332308,
    "province_id": 33,
    "regency_id": 3323,
    "district_id": 332308,
    "value": "Parakan Wetan",
    "postal_code": "56254"
  },
  {
    "id": 332308,
    "province_id": 33,
    "regency_id": 3323,
    "district_id": 332308,
    "value": "Ringinanom",
    "postal_code": "56254"
  },
  {
    "id": 332308,
    "province_id": 33,
    "regency_id": 3323,
    "district_id": 332308,
    "value": "Sunggingsari",
    "postal_code": "56254"
  },
  {
    "id": 332308,
    "province_id": 33,
    "regency_id": 3323,
    "district_id": 332308,
    "value": "Tegalroso",
    "postal_code": "56254"
  },
  {
    "id": 332308,
    "province_id": 33,
    "regency_id": 3323,
    "district_id": 332308,
    "value": "Traji",
    "postal_code": "56254"
  },
  {
    "id": 332308,
    "province_id": 33,
    "regency_id": 3323,
    "district_id": 332308,
    "value": "Wanutengah",
    "postal_code": "56254"
  },
  {
    "id": 332308,
    "province_id": 33,
    "regency_id": 3323,
    "district_id": 332308,
    "value": "Watukumpul",
    "postal_code": "56254"
  }
]