[
  {
    "id": 731410,
    "province_id": 73,
    "regency_id": 7314,
    "district_id": 731410,
    "value": "Ajubissue",
    "postal_code": "91683"
  },
  {
    "id": 731410,
    "province_id": 73,
    "regency_id": 7314,
    "district_id": 731410,
    "value": "Anabannae",
    "postal_code": "91683"
  },
  {
    "id": 731410,
    "province_id": 73,
    "regency_id": 7314,
    "district_id": 731410,
    "value": "Betao",
    "postal_code": "91683"
  },
  {
    "id": 731410,
    "province_id": 73,
    "regency_id": 7314,
    "district_id": 731410,
    "value": "Betao Riase",
    "postal_code": "91683"
  },
  {
    "id": 731410,
    "province_id": 73,
    "regency_id": 7314,
    "district_id": 731410,
    "value": "Bulucenrana",
    "postal_code": "91683"
  },
  {
    "id": 731410,
    "province_id": 73,
    "regency_id": 7314,
    "district_id": 731410,
    "value": "Dongi",
    "postal_code": "91683"
  },
  {
    "id": 731410,
    "province_id": 73,
    "regency_id": 7314,
    "district_id": 731410,
    "value": "Kalempang",
    "postal_code": "91683"
  },
  {
    "id": 731410,
    "province_id": 73,
    "regency_id": 7314,
    "district_id": 731410,
    "value": "Lancirang",
    "postal_code": "91683"
  },
  {
    "id": 731410,
    "province_id": 73,
    "regency_id": 7314,
    "district_id": 731410,
    "value": "Lasiwala",
    "postal_code": "91683"
  },
  {
    "id": 731410,
    "province_id": 73,
    "regency_id": 7314,
    "district_id": 731410,
    "value": "Otting",
    "postal_code": "91683"
  },
  {
    "id": 731410,
    "province_id": 73,
    "regency_id": 7314,
    "district_id": 731410,
    "value": "PongrangaE",
    "postal_code": "91683"
  },
  {
    "id": 731410,
    "province_id": 73,
    "regency_id": 7314,
    "district_id": 731410,
    "value": "Sumpangmango",
    "postal_code": "91683"
  }
]