[
  {
    "id": 197104,
    "province_id": 19,
    "regency_id": 1971,
    "district_id": 197104,
    "value": "Asam",
    "postal_code": "33135"
  },
  {
    "id": 197104,
    "province_id": 19,
    "regency_id": 1971,
    "district_id": 197104,
    "value": "Bintang",
    "postal_code": "33138"
  },
  {
    "id": 197104,
    "province_id": 19,
    "regency_id": 1971,
    "district_id": 197104,
    "value": "Gajah Mada",
    "postal_code": "33139"
  },
  {
    "id": 197104,
    "province_id": 19,
    "regency_id": 1971,
    "district_id": 197104,
    "value": "Keramat",
    "postal_code": "33134"
  },
  {
    "id": 197104,
    "province_id": 19,
    "regency_id": 1971,
    "district_id": 197104,
    "value": "Masjid Jamik",
    "postal_code": "33132"
  },
  {
    "id": 197104,
    "province_id": 19,
    "regency_id": 1971,
    "district_id": 197104,
    "value": "Melintang",
    "postal_code": "33136"
  },
  {
    "id": 197104,
    "province_id": 19,
    "regency_id": 1971,
    "district_id": 197104,
    "value": "Parit Lalang",
    "postal_code": "33137"
  },
  {
    "id": 197104,
    "province_id": 19,
    "regency_id": 1971,
    "district_id": 197104,
    "value": "Pintu Air",
    "postal_code": "33133"
  }
]