[
  {
    "id": 1205092003,
    "province_id": 12,
    "regency_id": 1205,
    "district_id": 120509,
    "value": "Cinta Raja",
    "postal_code": "20855"
  },
  {
    "id": 1205091004,
    "province_id": 12,
    "regency_id": 1205,
    "district_id": 120509,
    "value": "Hinai Kiri",
    "postal_code": "20855"
  },
  {
    "id": 1205092011,
    "province_id": 12,
    "regency_id": 1205,
    "district_id": 120509,
    "value": "Jaring Halus",
    "postal_code": "20855"
  },
  {
    "id": 1205092015,
    "province_id": 12,
    "regency_id": 1205,
    "district_id": 120509,
    "value": "Karang Anyar",
    "postal_code": "20855"
  },
  {
    "id": 1205092010,
    "province_id": 12,
    "regency_id": 1205,
    "district_id": 120509,
    "value": "Karang Gading",
    "postal_code": "20855"
  },
  {
    "id": 1205092005,
    "province_id": 12,
    "regency_id": 1205,
    "district_id": 120509,
    "value": "Kebun Kelapa",
    "postal_code": "20855"
  },
  {
    "id": 1205092001,
    "province_id": 12,
    "regency_id": 1205,
    "district_id": 120509,
    "value": "Kepala Sungai",
    "postal_code": "20855"
  },
  {
    "id": 1205092014,
    "province_id": 12,
    "regency_id": 1205,
    "district_id": 120509,
    "value": "Kwala Besar",
    "postal_code": "20855"
  },
  {
    "id": 1205092016,
    "province_id": 12,
    "regency_id": 1205,
    "district_id": 120509,
    "value": "Pantai Gading",
    "postal_code": "20855"
  },
  {
    "id": 1205092013,
    "province_id": 12,
    "regency_id": 1205,
    "district_id": 120509,
    "value": "Perkotaan",
    "postal_code": "20855"
  },
  {
    "id": 1205092008,
    "province_id": 12,
    "regency_id": 1205,
    "district_id": 120509,
    "value": "Secanggang",
    "postal_code": "20855"
  },
  {
    "id": 1205092009,
    "province_id": 12,
    "regency_id": 1205,
    "district_id": 120509,
    "value": "Selotong",
    "postal_code": "20855"
  },
  {
    "id": 1205092017,
    "province_id": 12,
    "regency_id": 1205,
    "district_id": 120509,
    "value": "Suka Mulia",
    "postal_code": "20855"
  },
  {
    "id": 1205092006,
    "province_id": 12,
    "regency_id": 1205,
    "district_id": 120509,
    "value": "Sungai Ular",
    "postal_code": "20855"
  },
  {
    "id": 1205092007,
    "province_id": 12,
    "regency_id": 1205,
    "district_id": 120509,
    "value": "Tanjung Ibus",
    "postal_code": "20855"
  },
  {
    "id": 1205092012,
    "province_id": 12,
    "regency_id": 1205,
    "district_id": 120509,
    "value": "Telaga Jernih",
    "postal_code": "20855"
  },
  {
    "id": 1205092002,
    "province_id": 12,
    "regency_id": 1205,
    "district_id": 120509,
    "value": "Teluk",
    "postal_code": "20855"
  }
]