[
  {
    "id": 520417,
    "province_id": 52,
    "regency_id": 5204,
    "district_id": 520417,
    "value": "Gontar",
    "postal_code": "84354"
  },
  {
    "id": 520417,
    "province_id": 52,
    "regency_id": 5204,
    "district_id": 520417,
    "value": "Gontar Baru",
    "postal_code": "84354"
  },
  {
    "id": 520417,
    "province_id": 52,
    "regency_id": 5204,
    "district_id": 520417,
    "value": "Labuhan Mapin (Labuan Mapin)",
    "postal_code": "84354"
  },
  {
    "id": 520417,
    "province_id": 52,
    "regency_id": 5204,
    "district_id": 520417,
    "value": "Lekong",
    "postal_code": "84354"
  },
  {
    "id": 520417,
    "province_id": 52,
    "regency_id": 5204,
    "district_id": 520417,
    "value": "Mapin Beru (Mapin Baru)",
    "postal_code": "84354"
  },
  {
    "id": 520417,
    "province_id": 52,
    "regency_id": 5204,
    "district_id": 520417,
    "value": "Mapin Kebak",
    "postal_code": "84354"
  },
  {
    "id": 520417,
    "province_id": 52,
    "regency_id": 5204,
    "district_id": 520417,
    "value": "Mapin Rea",
    "postal_code": "84354"
  },
  {
    "id": 520417,
    "province_id": 52,
    "regency_id": 5204,
    "district_id": 520417,
    "value": "Usar Mapin",
    "postal_code": "84354"
  }
]