[
  {
    "id": 330706,
    "province_id": 33,
    "regency_id": 3307,
    "district_id": 330706,
    "value": "Adiwarno",
    "postal_code": "56361"
  },
  {
    "id": 330706,
    "province_id": 33,
    "regency_id": 3307,
    "district_id": 330706,
    "value": "Balekambang",
    "postal_code": "56361"
  },
  {
    "id": 330706,
    "province_id": 33,
    "regency_id": 3307,
    "district_id": 330706,
    "value": "Bumitirto",
    "postal_code": "56361"
  },
  {
    "id": 330706,
    "province_id": 33,
    "regency_id": 3307,
    "district_id": 330706,
    "value": "Candi",
    "postal_code": "56361"
  },
  {
    "id": 330706,
    "province_id": 33,
    "regency_id": 3307,
    "district_id": 330706,
    "value": "Gunungtawang",
    "postal_code": "56361"
  },
  {
    "id": 330706,
    "province_id": 33,
    "regency_id": 3307,
    "district_id": 330706,
    "value": "Kadipaten",
    "postal_code": "56361"
  },
  {
    "id": 330706,
    "province_id": 33,
    "regency_id": 3307,
    "district_id": 330706,
    "value": "Kalierang",
    "postal_code": "56361"
  },
  {
    "id": 330706,
    "province_id": 33,
    "regency_id": 3307,
    "district_id": 330706,
    "value": "Kaliputih",
    "postal_code": "56361"
  },
  {
    "id": 330706,
    "province_id": 33,
    "regency_id": 3307,
    "district_id": 330706,
    "value": "Karangrejo",
    "postal_code": "56361"
  },
  {
    "id": 330706,
    "province_id": 33,
    "regency_id": 3307,
    "district_id": 330706,
    "value": "Kecis",
    "postal_code": "56361"
  },
  {
    "id": 330706,
    "province_id": 33,
    "regency_id": 3307,
    "district_id": 330706,
    "value": "Krasak",
    "postal_code": "56361"
  },
  {
    "id": 330706,
    "province_id": 33,
    "regency_id": 3307,
    "district_id": 330706,
    "value": "Ngadimulyo",
    "postal_code": "56361"
  },
  {
    "id": 330706,
    "province_id": 33,
    "regency_id": 3307,
    "district_id": 330706,
    "value": "Pakuncen",
    "postal_code": "56361"
  },
  {
    "id": 330706,
    "province_id": 33,
    "regency_id": 3307,
    "district_id": 330706,
    "value": "Plobangan",
    "postal_code": "56361"
  },
  {
    "id": 330706,
    "province_id": 33,
    "regency_id": 3307,
    "district_id": 330706,
    "value": "Selomerto",
    "postal_code": "56361"
  },
  {
    "id": 330706,
    "province_id": 33,
    "regency_id": 3307,
    "district_id": 330706,
    "value": "Semayu",
    "postal_code": "56361"
  },
  {
    "id": 330706,
    "province_id": 33,
    "regency_id": 3307,
    "district_id": 330706,
    "value": "Sidorejo",
    "postal_code": "56361"
  },
  {
    "id": 330706,
    "province_id": 33,
    "regency_id": 3307,
    "district_id": 330706,
    "value": "Simbarejo",
    "postal_code": "56361"
  },
  {
    "id": 330706,
    "province_id": 33,
    "regency_id": 3307,
    "district_id": 330706,
    "value": "Sinduagung",
    "postal_code": "56361"
  },
  {
    "id": 330706,
    "province_id": 33,
    "regency_id": 3307,
    "district_id": 330706,
    "value": "Sumberwulan",
    "postal_code": "56361"
  },
  {
    "id": 330706,
    "province_id": 33,
    "regency_id": 3307,
    "district_id": 330706,
    "value": "Tumenggungan",
    "postal_code": "56361"
  },
  {
    "id": 330706,
    "province_id": 33,
    "regency_id": 3307,
    "district_id": 330706,
    "value": "Wilayu",
    "postal_code": "56361"
  },
  {
    "id": 330706,
    "province_id": 33,
    "regency_id": 3307,
    "district_id": 330706,
    "value": "Wonorejo",
    "postal_code": "56361"
  },
  {
    "id": 330706,
    "province_id": 33,
    "regency_id": 3307,
    "district_id": 330706,
    "value": "Wulungsari",
    "postal_code": "56361"
  }
]