[
  {
    "id": 741002,
    "province_id": 74,
    "regency_id": 7410,
    "district_id": 741002,
    "value": "Baluara",
    "postal_code": "93674"
  },
  {
    "id": 741002,
    "province_id": 74,
    "regency_id": 7410,
    "district_id": 741002,
    "value": "Bente",
    "postal_code": "93674"
  },
  {
    "id": 741002,
    "province_id": 74,
    "regency_id": 7410,
    "district_id": 741002,
    "value": "Bubu",
    "postal_code": "93674"
  },
  {
    "id": 741002,
    "province_id": 74,
    "regency_id": 7410,
    "district_id": 741002,
    "value": "Bubu Barat",
    "postal_code": "93674"
  },
  {
    "id": 741002,
    "province_id": 74,
    "regency_id": 7410,
    "district_id": 741002,
    "value": "Kambowa",
    "postal_code": "93674"
  },
  {
    "id": 741002,
    "province_id": 74,
    "regency_id": 7410,
    "district_id": 741002,
    "value": "Konde (Kondo)",
    "postal_code": "93674"
  },
  {
    "id": 741002,
    "province_id": 74,
    "regency_id": 7410,
    "district_id": 741002,
    "value": "Lagundi",
    "postal_code": "93674"
  },
  {
    "id": 741002,
    "province_id": 74,
    "regency_id": 7410,
    "district_id": 741002,
    "value": "Lahumoko (Lahamoko Jaya)",
    "postal_code": "93674"
  },
  {
    "id": 741002,
    "province_id": 74,
    "regency_id": 7410,
    "district_id": 741002,
    "value": "Mata",
    "postal_code": "93674"
  },
  {
    "id": 741002,
    "province_id": 74,
    "regency_id": 7410,
    "district_id": 741002,
    "value": "Morindino",
    "postal_code": "93674"
  },
  {
    "id": 741002,
    "province_id": 74,
    "regency_id": 7410,
    "district_id": 741002,
    "value": "Pongkowulu (Pongkawulu)",
    "postal_code": "93674"
  }
]