[
  {
    "id": 820407,
    "province_id": 82,
    "regency_id": 8204,
    "district_id": 820407,
    "value": "Babang",
    "postal_code": "97791"
  },
  {
    "id": 820407,
    "province_id": 82,
    "regency_id": 8204,
    "district_id": 820407,
    "value": "Bori",
    "postal_code": "97791"
  },
  {
    "id": 820407,
    "province_id": 82,
    "regency_id": 8204,
    "district_id": 820407,
    "value": "Goro Goro",
    "postal_code": "97791"
  },
  {
    "id": 820407,
    "province_id": 82,
    "regency_id": 8204,
    "district_id": 820407,
    "value": "Kaireu",
    "postal_code": "97791"
  },
  {
    "id": 820407,
    "province_id": 82,
    "regency_id": 8204,
    "district_id": 820407,
    "value": "Nyonyifi",
    "postal_code": "97791"
  },
  {
    "id": 820407,
    "province_id": 82,
    "regency_id": 8204,
    "district_id": 820407,
    "value": "Sabatang",
    "postal_code": "97791"
  },
  {
    "id": 820407,
    "province_id": 82,
    "regency_id": 8204,
    "district_id": 820407,
    "value": "Sali Kecil",
    "postal_code": "97791"
  },
  {
    "id": 820407,
    "province_id": 82,
    "regency_id": 8204,
    "district_id": 820407,
    "value": "Sayoang",
    "postal_code": "97791"
  },
  {
    "id": 820407,
    "province_id": 82,
    "regency_id": 8204,
    "district_id": 820407,
    "value": "Timlonga",
    "postal_code": "97791"
  },
  {
    "id": 820407,
    "province_id": 82,
    "regency_id": 8204,
    "district_id": 820407,
    "value": "Wayamiga",
    "postal_code": "97791"
  }
]