[
  {
    "id": 9502022020,
    "province_id": 95,
    "regency_id": 9502,
    "district_id": 950202,
    "value": "Asua",
    "postal_code": "99421"
  },
  {
    "id": 9502022010,
    "province_id": 95,
    "regency_id": 9502,
    "district_id": 950202,
    "value": "Berusaha",
    "postal_code": "99421"
  },
  {
    "id": 9502022025,
    "province_id": 95,
    "regency_id": 9502,
    "district_id": 950202,
    "value": "Delpem",
    "postal_code": "99421"
  },
  {
    "id": 9502022024,
    "province_id": 95,
    "regency_id": 9502,
    "district_id": 950202,
    "value": "Diip",
    "postal_code": "99421"
  },
  {
    "id": 9502022007,
    "province_id": 95,
    "regency_id": 9502,
    "district_id": 950202,
    "value": "Kiwi",
    "postal_code": "99421"
  },
  {
    "id": 9502022004,
    "province_id": 95,
    "regency_id": 9502,
    "district_id": 950202,
    "value": "Kukihil",
    "postal_code": "99421"
  },
  {
    "id": 9502022022,
    "province_id": 95,
    "regency_id": 9502,
    "district_id": 950202,
    "value": "Lolim",
    "postal_code": "99421"
  },
  {
    "id": 9502022026,
    "province_id": 95,
    "regency_id": 9502,
    "district_id": 950202,
    "value": "Mangoldoki",
    "postal_code": "99421"
  },
  {
    "id": 9502022001,
    "province_id": 95,
    "regency_id": 9502,
    "district_id": 950202,
    "value": "Oknanggul",
    "postal_code": "99421"
  },
  {
    "id": 9502022015,
    "province_id": 95,
    "regency_id": 9502,
    "district_id": 950202,
    "value": "Pelebib",
    "postal_code": "99421"
  },
  {
    "id": 9502022023,
    "province_id": 95,
    "regency_id": 9502,
    "district_id": 950202,
    "value": "Pomding",
    "postal_code": "99421"
  },
  {
    "id": 9502022018,
    "province_id": 95,
    "regency_id": 9502,
    "district_id": 950202,
    "value": "Sopamikma",
    "postal_code": "99421"
  }
]