[
  {
    "id": 731202,
    "province_id": 73,
    "regency_id": 7312,
    "district_id": 731202,
    "value": "Appanang",
    "postal_code": "90863"
  },
  {
    "id": 731202,
    "province_id": 73,
    "regency_id": 7312,
    "district_id": 731202,
    "value": "Barang",
    "postal_code": "90863"
  },
  {
    "id": 731202,
    "province_id": 73,
    "regency_id": 7312,
    "district_id": 731202,
    "value": "Galung",
    "postal_code": "90863"
  },
  {
    "id": 731202,
    "province_id": 73,
    "regency_id": 7312,
    "district_id": 731202,
    "value": "Jampu",
    "postal_code": "90863"
  },
  {
    "id": 731202,
    "province_id": 73,
    "regency_id": 7312,
    "district_id": 731202,
    "value": "Jennae",
    "postal_code": "90863"
  },
  {
    "id": 731202,
    "province_id": 73,
    "regency_id": 7312,
    "district_id": 731202,
    "value": "Pattojo",
    "postal_code": "90863"
  },
  {
    "id": 731202,
    "province_id": 73,
    "regency_id": 7312,
    "district_id": 731202,
    "value": "Rompegading",
    "postal_code": "90863"
  },
  {
    "id": 731202,
    "province_id": 73,
    "regency_id": 7312,
    "district_id": 731202,
    "value": "Timusu",
    "postal_code": "90863"
  }
]