[
  {
    "id": 3309022003,
    "province_id": 33,
    "regency_id": 3309,
    "district_id": 330902,
    "value": "Banyuanyar",
    "postal_code": "57352"
  },
  {
    "id": 3309022010,
    "province_id": 33,
    "regency_id": 3309,
    "district_id": 330902,
    "value": "Candi",
    "postal_code": "57352"
  },
  {
    "id": 3309022009,
    "province_id": 33,
    "regency_id": 3309,
    "district_id": 330902,
    "value": "Gondangslamet (Gondang Slamet)",
    "postal_code": "57352"
  },
  {
    "id": 3309022008,
    "province_id": 33,
    "regency_id": 3309,
    "district_id": 330902,
    "value": "Ngampon",
    "postal_code": "57352"
  },
  {
    "id": 3309022005,
    "province_id": 33,
    "regency_id": 3309,
    "district_id": 330902,
    "value": "Ngargosari",
    "postal_code": "57352"
  },
  {
    "id": 3309022007,
    "province_id": 33,
    "regency_id": 3309,
    "district_id": 330902,
    "value": "Ngenden",
    "postal_code": "57352"
  },
  {
    "id": 3309022006,
    "province_id": 33,
    "regency_id": 3309,
    "district_id": 330902,
    "value": "Selodoko",
    "postal_code": "57352"
  },
  {
    "id": 3309022004,
    "province_id": 33,
    "regency_id": 3309,
    "district_id": 330902,
    "value": "Sidomulyo",
    "postal_code": "57316"
  },
  {
    "id": 3309022002,
    "province_id": 33,
    "regency_id": 3309,
    "district_id": 330902,
    "value": "Tanduk",
    "postal_code": "57352"
  },
  {
    "id": 3309022011,
    "province_id": 33,
    "regency_id": 3309,
    "district_id": 330902,
    "value": "Urutsewu",
    "postal_code": "57352"
  }
]