[
  {
    "id": 7314041001,
    "province_id": 73,
    "regency_id": 7314,
    "district_id": 731404,
    "value": "Baranti",
    "postal_code": "91652"
  },
  {
    "id": 7314041003,
    "province_id": 73,
    "regency_id": 7314,
    "district_id": 731404,
    "value": "Benteng",
    "postal_code": "91652"
  },
  {
    "id": 7314041002,
    "province_id": 73,
    "regency_id": 7314,
    "district_id": 731404,
    "value": "Duampanua",
    "postal_code": "91652"
  },
  {
    "id": 7314041004,
    "province_id": 73,
    "regency_id": 7314,
    "district_id": 731404,
    "value": "Manisa",
    "postal_code": "91652"
  },
  {
    "id": 7314041005,
    "province_id": 73,
    "regency_id": 7314,
    "district_id": 731404,
    "value": "Panreng",
    "postal_code": "91652"
  },
  {
    "id": 7314042006,
    "province_id": 73,
    "regency_id": 7314,
    "district_id": 731404,
    "value": "Passeno",
    "postal_code": "91652"
  },
  {
    "id": 7314042007,
    "province_id": 73,
    "regency_id": 7314,
    "district_id": 731404,
    "value": "Sipodeceng",
    "postal_code": "91652"
  },
  {
    "id": 7314042009,
    "province_id": 73,
    "regency_id": 7314,
    "district_id": 731404,
    "value": "Tonrong Rijang",
    "postal_code": "91653"
  },
  {
    "id": 7314042008,
    "province_id": 73,
    "regency_id": 7314,
    "district_id": 731404,
    "value": "Tonrongnge (Tonronge)",
    "postal_code": "91652"
  }
]