[
  {
    "id": 740508,
    "province_id": 74,
    "regency_id": 7405,
    "district_id": 740508,
    "value": "Ambaipua",
    "postal_code": "93870"
  },
  {
    "id": 740508,
    "province_id": 74,
    "regency_id": 7405,
    "district_id": 740508,
    "value": "Amoito",
    "postal_code": "93870"
  },
  {
    "id": 740508,
    "province_id": 74,
    "regency_id": 7405,
    "district_id": 740508,
    "value": "Amoito Siama",
    "postal_code": "93870"
  },
  {
    "id": 740508,
    "province_id": 74,
    "regency_id": 7405,
    "district_id": 740508,
    "value": "Boro-Boro R",
    "postal_code": "93870"
  },
  {
    "id": 740508,
    "province_id": 74,
    "regency_id": 7405,
    "district_id": 740508,
    "value": "Duduria",
    "postal_code": "93870"
  },
  {
    "id": 740508,
    "province_id": 74,
    "regency_id": 7405,
    "district_id": 740508,
    "value": "Kota Bangun",
    "postal_code": "93870"
  },
  {
    "id": 740508,
    "province_id": 74,
    "regency_id": 7405,
    "district_id": 740508,
    "value": "Laikaha",
    "postal_code": "93870"
  },
  {
    "id": 740508,
    "province_id": 74,
    "regency_id": 7405,
    "district_id": 740508,
    "value": "Langgea",
    "postal_code": "93870"
  },
  {
    "id": 740508,
    "province_id": 74,
    "regency_id": 7405,
    "district_id": 740508,
    "value": "Onewila",
    "postal_code": "93870"
  },
  {
    "id": 740508,
    "province_id": 74,
    "regency_id": 7405,
    "district_id": 740508,
    "value": "Rambu-Rambu Jaya",
    "postal_code": "93870"
  },
  {
    "id": 740508,
    "province_id": 74,
    "regency_id": 7405,
    "district_id": 740508,
    "value": "Ranomeeto",
    "postal_code": "93870"
  },
  {
    "id": 740508,
    "province_id": 74,
    "regency_id": 7405,
    "district_id": 740508,
    "value": "Ranooha",
    "postal_code": "93870"
  }
]