[
  {
    "id": 320605,
    "province_id": 32,
    "regency_id": 3206,
    "district_id": 320605,
    "value": "Cayur",
    "postal_code": "46193"
  },
  {
    "id": 320605,
    "province_id": 32,
    "regency_id": 3206,
    "district_id": 320605,
    "value": "Cilumba",
    "postal_code": "46193"
  },
  {
    "id": 320605,
    "province_id": 32,
    "regency_id": 3206,
    "district_id": 320605,
    "value": "Cogreg",
    "postal_code": "46193"
  },
  {
    "id": 320605,
    "province_id": 32,
    "regency_id": 3206,
    "district_id": 320605,
    "value": "Gunungsari",
    "postal_code": "46193"
  },
  {
    "id": 320605,
    "province_id": 32,
    "regency_id": 3206,
    "district_id": 320605,
    "value": "Lengkongbarang",
    "postal_code": "46193"
  },
  {
    "id": 320605,
    "province_id": 32,
    "regency_id": 3206,
    "district_id": 320605,
    "value": "Linggalaksana",
    "postal_code": "46193"
  },
  {
    "id": 320605,
    "province_id": 32,
    "regency_id": 3206,
    "district_id": 320605,
    "value": "Pakemitan",
    "postal_code": "46193"
  },
  {
    "id": 320605,
    "province_id": 32,
    "regency_id": 3206,
    "district_id": 320605,
    "value": "Sindangasih",
    "postal_code": "46193"
  },
  {
    "id": 320605,
    "province_id": 32,
    "regency_id": 3206,
    "district_id": 320605,
    "value": "Tanjungbarang",
    "postal_code": "46193"
  }
]