[
  {
    "id": 9403022004,
    "province_id": 94,
    "regency_id": 9403,
    "district_id": 940302,
    "value": "Beko",
    "postal_code": "98723"
  },
  {
    "id": 9403022013,
    "province_id": 94,
    "regency_id": 9403,
    "district_id": 940302,
    "value": "Digiugii",
    "postal_code": "98723"
  },
  {
    "id": 9403022009,
    "province_id": 94,
    "regency_id": 9403,
    "district_id": 940302,
    "value": "Ekinauwo",
    "postal_code": "98723"
  },
  {
    "id": 9403022006,
    "province_id": 94,
    "regency_id": 9403,
    "district_id": 940302,
    "value": "Epo Obano",
    "postal_code": "98723"
  },
  {
    "id": 9403022002,
    "province_id": 94,
    "regency_id": 9403,
    "district_id": 940302,
    "value": "Kegouda",
    "postal_code": "98723"
  },
  {
    "id": 9403022010,
    "province_id": 94,
    "regency_id": 9403,
    "district_id": 940302,
    "value": "Kigodide",
    "postal_code": "98723"
  },
  {
    "id": 9403021001,
    "province_id": 94,
    "regency_id": 9403,
    "district_id": 940302,
    "value": "Obano",
    "postal_code": "98723"
  },
  {
    "id": 9403022011,
    "province_id": 94,
    "regency_id": 9403,
    "district_id": 940302,
    "value": "Putakogopa",
    "postal_code": "98723"
  },
  {
    "id": 9403022005,
    "province_id": 94,
    "regency_id": 9403,
    "district_id": 940302,
    "value": "Tipakotu",
    "postal_code": "98723"
  },
  {
    "id": 9403022003,
    "province_id": 94,
    "regency_id": 9403,
    "district_id": 940302,
    "value": "Totiyo",
    "postal_code": "98723"
  },
  {
    "id": 9403022007,
    "province_id": 94,
    "regency_id": 9403,
    "district_id": 940302,
    "value": "Towauwo",
    "postal_code": "98723"
  },
  {
    "id": 9403022012,
    "province_id": 94,
    "regency_id": 9403,
    "district_id": 940302,
    "value": "Waukotopa",
    "postal_code": "98723"
  },
  {
    "id": 9403022008,
    "province_id": 94,
    "regency_id": 9403,
    "district_id": 940302,
    "value": "Wiyogei",
    "postal_code": "98723"
  }
]