[
  {
    "id": 741108,
    "province_id": 74,
    "regency_id": 7411,
    "district_id": 741108,
    "value": "Amokuni",
    "postal_code": "93574"
  },
  {
    "id": 741108,
    "province_id": 74,
    "regency_id": 7411,
    "district_id": 741108,
    "value": "Amololu",
    "postal_code": "93574"
  },
  {
    "id": 741108,
    "province_id": 74,
    "regency_id": 7411,
    "district_id": 741108,
    "value": "Aukora",
    "postal_code": "93574"
  },
  {
    "id": 741108,
    "province_id": 74,
    "regency_id": 7411,
    "district_id": 741108,
    "value": "Lalombai (Lalombaia)",
    "postal_code": "93574"
  },
  {
    "id": 741108,
    "province_id": 74,
    "regency_id": 7411,
    "district_id": 741108,
    "value": "Pehanggo",
    "postal_code": "93574"
  },
  {
    "id": 741108,
    "province_id": 74,
    "regency_id": 7411,
    "district_id": 741108,
    "value": "Sanggona",
    "postal_code": "93574"
  },
  {
    "id": 741108,
    "province_id": 74,
    "regency_id": 7411,
    "district_id": 741108,
    "value": "Tawanga",
    "postal_code": "93574"
  },
  {
    "id": 741108,
    "province_id": 74,
    "regency_id": 7411,
    "district_id": 741108,
    "value": "Tondowatu",
    "postal_code": "93574"
  },
  {
    "id": 741108,
    "province_id": 74,
    "regency_id": 7411,
    "district_id": 741108,
    "value": "Uete",
    "postal_code": "93574"
  },
  {
    "id": 741108,
    "province_id": 74,
    "regency_id": 7411,
    "district_id": 741108,
    "value": "Undolo",
    "postal_code": "93574"
  }
]