[
  {
    "id": 350215,
    "province_id": 35,
    "regency_id": 3502,
    "district_id": 350215,
    "value": "Bangunrejo",
    "postal_code": "63453"
  },
  {
    "id": 350215,
    "province_id": 35,
    "regency_id": 3502,
    "district_id": 350215,
    "value": "Gandukepuh",
    "postal_code": "63453"
  },
  {
    "id": 350215,
    "province_id": 35,
    "regency_id": 3502,
    "district_id": 350215,
    "value": "Gegeran",
    "postal_code": "63453"
  },
  {
    "id": 350215,
    "province_id": 35,
    "regency_id": 3502,
    "district_id": 350215,
    "value": "Gelang Lor (Gelanglor)",
    "postal_code": "63453"
  },
  {
    "id": 350215,
    "province_id": 35,
    "regency_id": 3502,
    "district_id": 350215,
    "value": "Golan",
    "postal_code": "63453"
  },
  {
    "id": 350215,
    "province_id": 35,
    "regency_id": 3502,
    "district_id": 350215,
    "value": "Kalimalang",
    "postal_code": "63453"
  },
  {
    "id": 350215,
    "province_id": 35,
    "regency_id": 3502,
    "district_id": 350215,
    "value": "Karanglo Lor",
    "postal_code": "63453"
  },
  {
    "id": 350215,
    "province_id": 35,
    "regency_id": 3502,
    "district_id": 350215,
    "value": "Kedungbanteng (Kedung Banteng)",
    "postal_code": "63453"
  },
  {
    "id": 350215,
    "province_id": 35,
    "regency_id": 3502,
    "district_id": 350215,
    "value": "Kranggan",
    "postal_code": "63453"
  },
  {
    "id": 350215,
    "province_id": 35,
    "regency_id": 3502,
    "district_id": 350215,
    "value": "Lengkong",
    "postal_code": "63453"
  },
  {
    "id": 350215,
    "province_id": 35,
    "regency_id": 3502,
    "district_id": 350215,
    "value": "Morosari",
    "postal_code": "63453"
  },
  {
    "id": 350215,
    "province_id": 35,
    "regency_id": 3502,
    "district_id": 350215,
    "value": "Nambangrejo",
    "postal_code": "63453"
  },
  {
    "id": 350215,
    "province_id": 35,
    "regency_id": 3502,
    "district_id": 350215,
    "value": "Nampan",
    "postal_code": "63453"
  },
  {
    "id": 350215,
    "province_id": 35,
    "regency_id": 3502,
    "district_id": 350215,
    "value": "Prajegan",
    "postal_code": "63453"
  },
  {
    "id": 350215,
    "province_id": 35,
    "regency_id": 3502,
    "district_id": 350215,
    "value": "Serangan",
    "postal_code": "63453"
  },
  {
    "id": 350215,
    "province_id": 35,
    "regency_id": 3502,
    "district_id": 350215,
    "value": "Sidorejo",
    "postal_code": "63453"
  },
  {
    "id": 350215,
    "province_id": 35,
    "regency_id": 3502,
    "district_id": 350215,
    "value": "Sragi",
    "postal_code": "63453"
  },
  {
    "id": 350215,
    "province_id": 35,
    "regency_id": 3502,
    "district_id": 350215,
    "value": "Sukorejo",
    "postal_code": "63453"
  }
]