[
  {
    "id": 820607,
    "province_id": 82,
    "regency_id": 8206,
    "district_id": 820607,
    "value": "Akedaga (Ake Daga)",
    "postal_code": "97868"
  },
  {
    "id": 820607,
    "province_id": 82,
    "regency_id": 8206,
    "district_id": 820607,
    "value": "Daka Ino",
    "postal_code": "97868"
  },
  {
    "id": 820607,
    "province_id": 82,
    "regency_id": 8206,
    "district_id": 820607,
    "value": "Dodaga",
    "postal_code": "97868"
  },
  {
    "id": 820607,
    "province_id": 82,
    "regency_id": 8206,
    "district_id": 820607,
    "value": "Rawamangun",
    "postal_code": "97868"
  },
  {
    "id": 820607,
    "province_id": 82,
    "regency_id": 8206,
    "district_id": 820607,
    "value": "Sidomulyo",
    "postal_code": "97868"
  },
  {
    "id": 820607,
    "province_id": 82,
    "regency_id": 8206,
    "district_id": 820607,
    "value": "Tobo Ino (Toboino)",
    "postal_code": "97868"
  },
  {
    "id": 820607,
    "province_id": 82,
    "regency_id": 8206,
    "district_id": 820607,
    "value": "Tutuling Jaya",
    "postal_code": "97868"
  },
  {
    "id": 820607,
    "province_id": 82,
    "regency_id": 8206,
    "district_id": 820607,
    "value": "Woka Jaya",
    "postal_code": "97868"
  }
]