[
  {
    "id": 647205,
    "province_id": 64,
    "regency_id": 6472,
    "district_id": 647205,
    "value": "Budaya Pampang",
    "postal_code": "75118"
  },
  {
    "id": 647205,
    "province_id": 64,
    "regency_id": 6472,
    "district_id": 647205,
    "value": "Lempake",
    "postal_code": "75118"
  },
  {
    "id": 647205,
    "province_id": 64,
    "regency_id": 6472,
    "district_id": 647205,
    "value": "Sempaja Barat",
    "postal_code": "75119"
  },
  {
    "id": 647205,
    "province_id": 64,
    "regency_id": 6472,
    "district_id": 647205,
    "value": "Sempaja Selatan",
    "postal_code": "75119"
  },
  {
    "id": 647205,
    "province_id": 64,
    "regency_id": 6472,
    "district_id": 647205,
    "value": "Sempaja Timur",
    "postal_code": "75119"
  },
  {
    "id": 647205,
    "province_id": 64,
    "regency_id": 6472,
    "district_id": 647205,
    "value": "Sempaja Utara",
    "postal_code": "75119"
  },
  {
    "id": 647205,
    "province_id": 64,
    "regency_id": 6472,
    "district_id": 647205,
    "value": "Sungai Siring",
    "postal_code": "75118"
  },
  {
    "id": 647205,
    "province_id": 64,
    "regency_id": 6472,
    "district_id": 647205,
    "value": "Tanah Merah",
    "postal_code": "75119"
  }
]