[
  {
    "id": 630509,
    "province_id": 63,
    "regency_id": 6305,
    "district_id": 630509,
    "value": "Banua Padang",
    "postal_code": "71153"
  },
  {
    "id": 630509,
    "province_id": 63,
    "regency_id": 6305,
    "district_id": 630509,
    "value": "Banua Padang Hilir",
    "postal_code": "71153"
  },
  {
    "id": 630509,
    "province_id": 63,
    "regency_id": 6305,
    "district_id": 630509,
    "value": "Bungur",
    "postal_code": "71153"
  },
  {
    "id": 630509,
    "province_id": 63,
    "regency_id": 6305,
    "district_id": 630509,
    "value": "Bungur Baru",
    "postal_code": "71153"
  },
  {
    "id": 630509,
    "province_id": 63,
    "regency_id": 6305,
    "district_id": 630509,
    "value": "Hangui",
    "postal_code": "71153"
  },
  {
    "id": 630509,
    "province_id": 63,
    "regency_id": 6305,
    "district_id": 630509,
    "value": "Kalumpang",
    "postal_code": "71153"
  },
  {
    "id": 630509,
    "province_id": 63,
    "regency_id": 6305,
    "district_id": 630509,
    "value": "Linuh",
    "postal_code": "71153"
  },
  {
    "id": 630509,
    "province_id": 63,
    "regency_id": 6305,
    "district_id": 630509,
    "value": "Paring Guling",
    "postal_code": "71153"
  },
  {
    "id": 630509,
    "province_id": 63,
    "regency_id": 6305,
    "district_id": 630509,
    "value": "Purut",
    "postal_code": "71153"
  },
  {
    "id": 630509,
    "province_id": 63,
    "regency_id": 6305,
    "district_id": 630509,
    "value": "Rantau Bujur",
    "postal_code": "71153"
  },
  {
    "id": 630509,
    "province_id": 63,
    "regency_id": 6305,
    "district_id": 630509,
    "value": "Shabah",
    "postal_code": "71153"
  },
  {
    "id": 630509,
    "province_id": 63,
    "regency_id": 6305,
    "district_id": 630509,
    "value": "Timbung",
    "postal_code": "71153"
  }
]