[
  {
    "id": 731716,
    "province_id": 73,
    "regency_id": 7317,
    "district_id": 731716,
    "value": "Basso (Bosso)",
    "postal_code": "91953"
  },
  {
    "id": 731716,
    "province_id": 73,
    "regency_id": 7317,
    "district_id": 731716,
    "value": "Bolong",
    "postal_code": "91953"
  },
  {
    "id": 731716,
    "province_id": 73,
    "regency_id": 7317,
    "district_id": 731716,
    "value": "Bosso Timur",
    "postal_code": "91953"
  },
  {
    "id": 731716,
    "province_id": 73,
    "regency_id": 7317,
    "district_id": 731716,
    "value": "Buntu Awo' (Buntu Awo)",
    "postal_code": "91953"
  },
  {
    "id": 731716,
    "province_id": 73,
    "regency_id": 7317,
    "district_id": 731716,
    "value": "Limbong",
    "postal_code": "91953"
  },
  {
    "id": 731716,
    "province_id": 73,
    "regency_id": 7317,
    "district_id": 731716,
    "value": "Marabuana",
    "postal_code": "91953"
  },
  {
    "id": 731716,
    "province_id": 73,
    "regency_id": 7317,
    "district_id": 731716,
    "value": "Pongko",
    "postal_code": "91953"
  },
  {
    "id": 731716,
    "province_id": 73,
    "regency_id": 7317,
    "district_id": 731716,
    "value": "Salulino",
    "postal_code": "91953"
  },
  {
    "id": 731716,
    "province_id": 73,
    "regency_id": 7317,
    "district_id": 731716,
    "value": "Salutubu",
    "postal_code": "91953"
  },
  {
    "id": 731716,
    "province_id": 73,
    "regency_id": 7317,
    "district_id": 731716,
    "value": "Sangtandung",
    "postal_code": "91953"
  },
  {
    "id": 731716,
    "province_id": 73,
    "regency_id": 7317,
    "district_id": 731716,
    "value": "Siteba",
    "postal_code": "91953"
  }
]