[
  {
    "id": 360124,
    "province_id": 36,
    "regency_id": 3601,
    "district_id": 360124,
    "value": "Babakankeusik",
    "postal_code": "42266"
  },
  {
    "id": 360124,
    "province_id": 36,
    "regency_id": 3601,
    "district_id": 360124,
    "value": "Ciawi",
    "postal_code": "42266"
  },
  {
    "id": 360124,
    "province_id": 36,
    "regency_id": 3601,
    "district_id": 360124,
    "value": "Cimoyan",
    "postal_code": "42266"
  },
  {
    "id": 360124,
    "province_id": 36,
    "regency_id": 3601,
    "district_id": 360124,
    "value": "Idaman",
    "postal_code": "42266"
  },
  {
    "id": 360124,
    "province_id": 36,
    "regency_id": 3601,
    "district_id": 360124,
    "value": "Pasirgadung",
    "postal_code": "42266"
  },
  {
    "id": 360124,
    "province_id": 36,
    "regency_id": 3601,
    "district_id": 360124,
    "value": "Patia",
    "postal_code": "42266"
  },
  {
    "id": 360124,
    "province_id": 36,
    "regency_id": 3601,
    "district_id": 360124,
    "value": "Rahayu",
    "postal_code": "42266"
  },
  {
    "id": 360124,
    "province_id": 36,
    "regency_id": 3601,
    "district_id": 360124,
    "value": "Simpangtiga",
    "postal_code": "42266"
  },
  {
    "id": 360124,
    "province_id": 36,
    "regency_id": 3601,
    "district_id": 360124,
    "value": "Surianeun",
    "postal_code": "42266"
  },
  {
    "id": 360124,
    "province_id": 36,
    "regency_id": 3601,
    "district_id": 360124,
    "value": "Turus",
    "postal_code": "42266"
  }
]