[
  {
    "id": 950432,
    "province_id": 95,
    "regency_id": 9504,
    "district_id": 950432,
    "value": "Gembileme",
    "postal_code": "99037"
  },
  {
    "id": 950432,
    "province_id": 95,
    "regency_id": 9504,
    "district_id": 950432,
    "value": "Kanggilo",
    "postal_code": "99037"
  },
  {
    "id": 950432,
    "province_id": 95,
    "regency_id": 9504,
    "district_id": 950432,
    "value": "Mopi",
    "postal_code": "99037"
  },
  {
    "id": 950432,
    "province_id": 95,
    "regency_id": 9504,
    "district_id": 950432,
    "value": "Omibur",
    "postal_code": "99037"
  },
  {
    "id": 950432,
    "province_id": 95,
    "regency_id": 9504,
    "district_id": 950432,
    "value": "Tenabaga",
    "postal_code": "99037"
  },
  {
    "id": 950432,
    "province_id": 95,
    "regency_id": 9504,
    "district_id": 950432,
    "value": "Umar",
    "postal_code": "99037"
  },
  {
    "id": 950432,
    "province_id": 95,
    "regency_id": 9504,
    "district_id": 950432,
    "value": "Wenome",
    "postal_code": "99037"
  },
  {
    "id": 950432,
    "province_id": 95,
    "regency_id": 9504,
    "district_id": 950432,
    "value": "Wonabunggame",
    "postal_code": "99037"
  },
  {
    "id": 950432,
    "province_id": 95,
    "regency_id": 9504,
    "district_id": 950432,
    "value": "Yido",
    "postal_code": "99037"
  },
  {
    "id": 950432,
    "province_id": 95,
    "regency_id": 9504,
    "district_id": 950432,
    "value": "Yudimba",
    "postal_code": "99037"
  },
  {
    "id": 950432,
    "province_id": 95,
    "regency_id": 9504,
    "district_id": 950432,
    "value": "Yuneri",
    "postal_code": "99037"
  }
]