[
  {
    "id": 940525,
    "province_id": 94,
    "regency_id": 9405,
    "district_id": 940525,
    "value": "Ai Arama",
    "postal_code": "98962"
  },
  {
    "id": 940525,
    "province_id": 94,
    "regency_id": 9405,
    "district_id": 940525,
    "value": "Amungkonin",
    "postal_code": "98962"
  },
  {
    "id": 940525,
    "province_id": 94,
    "regency_id": 9405,
    "district_id": 940525,
    "value": "Bomogin",
    "postal_code": "98962"
  },
  {
    "id": 940525,
    "province_id": 94,
    "regency_id": 9405,
    "district_id": 940525,
    "value": "Erelmakawia",
    "postal_code": "98962"
  },
  {
    "id": 940525,
    "province_id": 94,
    "regency_id": 9405,
    "district_id": 940525,
    "value": "Ipmangkop",
    "postal_code": "98962"
  },
  {
    "id": 940525,
    "province_id": 94,
    "regency_id": 9405,
    "district_id": 940525,
    "value": "Kalpamonora",
    "postal_code": "98962"
  },
  {
    "id": 940525,
    "province_id": 94,
    "regency_id": 9405,
    "district_id": 940525,
    "value": "Mamoldema",
    "postal_code": "98962"
  },
  {
    "id": 940525,
    "province_id": 94,
    "regency_id": 9405,
    "district_id": 940525,
    "value": "Tamagun",
    "postal_code": "98962"
  },
  {
    "id": 940525,
    "province_id": 94,
    "regency_id": 9405,
    "district_id": 940525,
    "value": "Wamagun",
    "postal_code": "98962"
  }
]