[
  {
    "id": 3320162006,
    "province_id": 33,
    "regency_id": 3320,
    "district_id": 332016,
    "value": "Bandungharjo",
    "postal_code": "59454"
  },
  {
    "id": 3320162004,
    "province_id": 33,
    "regency_id": 3320,
    "district_id": 332016,
    "value": "Banyumanis",
    "postal_code": "59454"
  },
  {
    "id": 3320162007,
    "province_id": 33,
    "regency_id": 3320,
    "district_id": 332016,
    "value": "Blingoh",
    "postal_code": "59454"
  },
  {
    "id": 3320162002,
    "province_id": 33,
    "regency_id": 3320,
    "district_id": 332016,
    "value": "Clering",
    "postal_code": "59454"
  },
  {
    "id": 3320162008,
    "province_id": 33,
    "regency_id": 3320,
    "district_id": 332016,
    "value": "Jugo",
    "postal_code": "59454"
  },
  {
    "id": 3320162001,
    "province_id": 33,
    "regency_id": 3320,
    "district_id": 332016,
    "value": "Sumberrejo (Sumber Rejo)",
    "postal_code": "59454"
  },
  {
    "id": 3320162005,
    "province_id": 33,
    "regency_id": 3320,
    "district_id": 332016,
    "value": "Tulakan",
    "postal_code": "59454"
  },
  {
    "id": 3320162003,
    "province_id": 33,
    "regency_id": 3320,
    "district_id": 332016,
    "value": "Ujungwatu",
    "postal_code": "59454"
  }
]