[
  {
    "id": 1608072022,
    "province_id": 16,
    "regency_id": 1608,
    "district_id": 160807,
    "value": "Agung Jati",
    "postal_code": "32362"
  },
  {
    "id": 1608072003,
    "province_id": 16,
    "regency_id": 1608,
    "district_id": 160807,
    "value": "Gunung Terang",
    "postal_code": "32362"
  },
  {
    "id": 1608072014,
    "province_id": 16,
    "regency_id": 1608,
    "district_id": 160807,
    "value": "Harjo Mulyo",
    "postal_code": "32362"
  },
  {
    "id": 1608072024,
    "province_id": 16,
    "regency_id": 1608,
    "district_id": 160807,
    "value": "Harjo Mulyo Jaya",
    "postal_code": "32362"
  },
  {
    "id": 1608072019,
    "province_id": 16,
    "regency_id": 1608,
    "district_id": 160807,
    "value": "Jati Sari (Jatisari)",
    "postal_code": "32362"
  },
  {
    "id": 1608072015,
    "province_id": 16,
    "regency_id": 1608,
    "district_id": 160807,
    "value": "Jaya Bakti",
    "postal_code": "32362"
  },
  {
    "id": 1608072004,
    "province_id": 16,
    "regency_id": 1608,
    "district_id": 160807,
    "value": "Karta Mulya",
    "postal_code": "32362"
  },
  {
    "id": 1608072002,
    "province_id": 16,
    "regency_id": 1608,
    "district_id": 160807,
    "value": "Mendayun",
    "postal_code": "32362"
  },
  {
    "id": 1608072017,
    "province_id": 16,
    "regency_id": 1608,
    "district_id": 160807,
    "value": "Mengulak",
    "postal_code": "32362"
  },
  {
    "id": 1608072016,
    "province_id": 16,
    "regency_id": 1608,
    "district_id": 160807,
    "value": "Rasuan",
    "postal_code": "32362"
  },
  {
    "id": 1608072023,
    "province_id": 16,
    "regency_id": 1608,
    "district_id": 160807,
    "value": "Rasuan Darat",
    "postal_code": "32362"
  },
  {
    "id": 1608072007,
    "province_id": 16,
    "regency_id": 1608,
    "district_id": 160807,
    "value": "SP. Kerta Mulya (Simpang Karta Mulya)",
    "postal_code": "32362"
  },
  {
    "id": 1608072021,
    "province_id": 16,
    "regency_id": 1608,
    "district_id": 160807,
    "value": "Tri Dadi (Tridadi)",
    "postal_code": "32362"
  }
]