[
  {
    "id": 731007,
    "province_id": 73,
    "regency_id": 7310,
    "district_id": 731007,
    "value": "Bara Batu",
    "postal_code": "90653"
  },
  {
    "id": 731007,
    "province_id": 73,
    "regency_id": 7310,
    "district_id": 731007,
    "value": "Batara",
    "postal_code": "90653"
  },
  {
    "id": 731007,
    "province_id": 73,
    "regency_id": 7310,
    "district_id": 731007,
    "value": "Bonto Manai",
    "postal_code": "90653"
  },
  {
    "id": 731007,
    "province_id": 73,
    "regency_id": 7310,
    "district_id": 731007,
    "value": "Borimasunggu",
    "postal_code": "90653"
  },
  {
    "id": 731007,
    "province_id": 73,
    "regency_id": 7310,
    "district_id": 731007,
    "value": "Gentung",
    "postal_code": "90653"
  },
  {
    "id": 731007,
    "province_id": 73,
    "regency_id": 7310,
    "district_id": 731007,
    "value": "Kanaungan",
    "postal_code": "90653"
  },
  {
    "id": 731007,
    "province_id": 73,
    "regency_id": 7310,
    "district_id": 731007,
    "value": "Kassi Loe",
    "postal_code": "90653"
  },
  {
    "id": 731007,
    "province_id": 73,
    "regency_id": 7310,
    "district_id": 731007,
    "value": "Labakkang",
    "postal_code": "90653"
  },
  {
    "id": 731007,
    "province_id": 73,
    "regency_id": 7310,
    "district_id": 731007,
    "value": "Manakku",
    "postal_code": "90653"
  },
  {
    "id": 731007,
    "province_id": 73,
    "regency_id": 7310,
    "district_id": 731007,
    "value": "Mangallekana",
    "postal_code": "90653"
  },
  {
    "id": 731007,
    "province_id": 73,
    "regency_id": 7310,
    "district_id": 731007,
    "value": "Pattalassang (Patallassang)",
    "postal_code": "90653"
  },
  {
    "id": 731007,
    "province_id": 73,
    "regency_id": 7310,
    "district_id": 731007,
    "value": "Pundata Baji",
    "postal_code": "90653"
  },
  {
    "id": 731007,
    "province_id": 73,
    "regency_id": 7310,
    "district_id": 731007,
    "value": "Taraweang",
    "postal_code": "90653"
  }
]