[
  {
    "id": 170110,
    "province_id": 17,
    "regency_id": 1701,
    "district_id": 170110,
    "value": "Gindo Suli (Gindosuli)",
    "postal_code": "38511"
  },
  {
    "id": 170110,
    "province_id": 17,
    "regency_id": 1701,
    "district_id": 170110,
    "value": "Gunung Kayo",
    "postal_code": "38511"
  },
  {
    "id": 170110,
    "province_id": 17,
    "regency_id": 1701,
    "district_id": 170110,
    "value": "Kuripan",
    "postal_code": "38511"
  },
  {
    "id": 170110,
    "province_id": 17,
    "regency_id": 1701,
    "district_id": 170110,
    "value": "Padang Burnai",
    "postal_code": "38511"
  },
  {
    "id": 170110,
    "province_id": 17,
    "regency_id": 1701,
    "district_id": 170110,
    "value": "Padang Jawi",
    "postal_code": "38511"
  },
  {
    "id": 170110,
    "province_id": 17,
    "regency_id": 1701,
    "district_id": 170110,
    "value": "Padang Nibung",
    "postal_code": "38511"
  },
  {
    "id": 170110,
    "province_id": 17,
    "regency_id": 1701,
    "district_id": 170110,
    "value": "Talang Indah",
    "postal_code": "38511"
  },
  {
    "id": 170110,
    "province_id": 17,
    "regency_id": 1701,
    "district_id": 170110,
    "value": "Tanjung Aur",
    "postal_code": "38511"
  },
  {
    "id": 170110,
    "province_id": 17,
    "regency_id": 1701,
    "district_id": 170110,
    "value": "Tanjung Tebat",
    "postal_code": "38511"
  },
  {
    "id": 170110,
    "province_id": 17,
    "regency_id": 1701,
    "district_id": 170110,
    "value": "Tumbak Tebing (Tumbuk Tebing)",
    "postal_code": "38511"
  }
]