[
  {
    "id": 930416,
    "province_id": 93,
    "regency_id": 9304,
    "district_id": 930416,
    "value": "Aworket",
    "postal_code": "99774"
  },
  {
    "id": 930416,
    "province_id": 93,
    "regency_id": 9304,
    "district_id": 930416,
    "value": "Bayun",
    "postal_code": "99774"
  },
  {
    "id": 930416,
    "province_id": 93,
    "regency_id": 9304,
    "district_id": 930416,
    "value": "Emene",
    "postal_code": "99774"
  },
  {
    "id": 930416,
    "province_id": 93,
    "regency_id": 9304,
    "district_id": 930416,
    "value": "Itersok (Jitorsok)",
    "postal_code": "99774"
  },
  {
    "id": 930416,
    "province_id": 93,
    "regency_id": 9304,
    "district_id": 930416,
    "value": "Kayirim",
    "postal_code": "99774"
  },
  {
    "id": 930416,
    "province_id": 93,
    "regency_id": 9304,
    "district_id": 930416,
    "value": "Primapun",
    "postal_code": "99774"
  },
  {
    "id": 930416,
    "province_id": 93,
    "regency_id": 9304,
    "district_id": 930416,
    "value": "Saman",
    "postal_code": "99774"
  },
  {
    "id": 930416,
    "province_id": 93,
    "regency_id": 9304,
    "district_id": 930416,
    "value": "Santambor",
    "postal_code": "99774"
  },
  {
    "id": 930416,
    "province_id": 93,
    "regency_id": 9304,
    "district_id": 930416,
    "value": "Semendoro",
    "postal_code": "99774"
  },
  {
    "id": 930416,
    "province_id": 93,
    "regency_id": 9304,
    "district_id": 930416,
    "value": "Simsagar",
    "postal_code": "99774"
  },
  {
    "id": 930416,
    "province_id": 93,
    "regency_id": 9304,
    "district_id": 930416,
    "value": "Tareo",
    "postal_code": "99774"
  },
  {
    "id": 930416,
    "province_id": 93,
    "regency_id": 9304,
    "district_id": 930416,
    "value": "Yaptambor",
    "postal_code": "99774"
  }
]