[
  {
    "id": 1604122019,
    "province_id": 16,
    "regency_id": 1604,
    "district_id": 160412,
    "value": "Aceh",
    "postal_code": "31356"
  },
  {
    "id": 1604122003,
    "province_id": 16,
    "regency_id": 1604,
    "district_id": 160412,
    "value": "Bantunan",
    "postal_code": "31356"
  },
  {
    "id": 1604122028,
    "province_id": 16,
    "regency_id": 1604,
    "district_id": 160412,
    "value": "Benua Raja",
    "postal_code": "31356"
  },
  {
    "id": 1604122009,
    "province_id": 16,
    "regency_id": 1604,
    "district_id": 160412,
    "value": "Gelung Sakti",
    "postal_code": "31356"
  },
  {
    "id": 1604122026,
    "province_id": 16,
    "regency_id": 1604,
    "district_id": 160412,
    "value": "Jenti'an (Jentian)",
    "postal_code": "31356"
  },
  {
    "id": 1604122025,
    "province_id": 16,
    "regency_id": 1604,
    "district_id": 160412,
    "value": "Kota Raya Darat",
    "postal_code": "31356"
  },
  {
    "id": 1604122007,
    "province_id": 16,
    "regency_id": 1604,
    "district_id": 160412,
    "value": "Kota Raya Lembak",
    "postal_code": "31356"
  },
  {
    "id": 1604122006,
    "province_id": 16,
    "regency_id": 1604,
    "district_id": 160412,
    "value": "Pajar Bulan",
    "postal_code": "31356"
  },
  {
    "id": 1604122020,
    "province_id": 16,
    "regency_id": 1604,
    "district_id": 160412,
    "value": "Pajar Tinggi",
    "postal_code": "31356"
  },
  {
    "id": 1604122010,
    "province_id": 16,
    "regency_id": 1604,
    "district_id": 160412,
    "value": "Pulau",
    "postal_code": "31356"
  },
  {
    "id": 1604122005,
    "province_id": 16,
    "regency_id": 1604,
    "district_id": 160412,
    "value": "Pulau Panggung",
    "postal_code": "31356"
  },
  {
    "id": 1604122004,
    "province_id": 16,
    "regency_id": 1604,
    "district_id": 160412,
    "value": "Suka Bumi (Sukabumi)",
    "postal_code": "31356"
  },
  {
    "id": 1604122008,
    "province_id": 16,
    "regency_id": 1604,
    "district_id": 160412,
    "value": "Sumur",
    "postal_code": "31356"
  },
  {
    "id": 1604122001,
    "province_id": 16,
    "regency_id": 1604,
    "district_id": 160412,
    "value": "Talang Baru",
    "postal_code": "31356"
  },
  {
    "id": 1604122029,
    "province_id": 16,
    "regency_id": 1604,
    "district_id": 160412,
    "value": "Talang Mengkenang",
    "postal_code": "31356"
  },
  {
    "id": 1604122012,
    "province_id": 16,
    "regency_id": 1604,
    "district_id": 160412,
    "value": "Talang Padang Tinggi",
    "postal_code": "31356"
  },
  {
    "id": 1604122002,
    "province_id": 16,
    "regency_id": 1604,
    "district_id": 160412,
    "value": "Talang Pagar Agung",
    "postal_code": "31356"
  },
  {
    "id": 1604122030,
    "province_id": 16,
    "regency_id": 1604,
    "district_id": 160412,
    "value": "Talang Tangsi",
    "postal_code": "31356"
  },
  {
    "id": 1604122027,
    "province_id": 16,
    "regency_id": 1604,
    "district_id": 160412,
    "value": "Tongkok",
    "postal_code": "31356"
  },
  {
    "id": 1604122011,
    "province_id": 16,
    "regency_id": 1604,
    "district_id": 160412,
    "value": "Ulak Bandung",
    "postal_code": "31356"
  }
]