[
  {
    "id": 741403,
    "province_id": 74,
    "regency_id": 7414,
    "district_id": 741403,
    "value": "Gundu Gundu",
    "postal_code": "93764"
  },
  {
    "id": 741403,
    "province_id": 74,
    "regency_id": 7414,
    "district_id": 741403,
    "value": "Katukobari",
    "postal_code": "93764"
  },
  {
    "id": 741403,
    "province_id": 74,
    "regency_id": 7414,
    "district_id": 741403,
    "value": "Lakorua",
    "postal_code": "93764"
  },
  {
    "id": 741403,
    "province_id": 74,
    "regency_id": 7414,
    "district_id": 741403,
    "value": "Lalibo",
    "postal_code": "93764"
  },
  {
    "id": 741403,
    "province_id": 74,
    "regency_id": 7414,
    "district_id": 741403,
    "value": "Langkomu",
    "postal_code": "93764"
  },
  {
    "id": 741403,
    "province_id": 74,
    "regency_id": 7414,
    "district_id": 741403,
    "value": "Lanto",
    "postal_code": "93764"
  },
  {
    "id": 741403,
    "province_id": 74,
    "regency_id": 7414,
    "district_id": 741403,
    "value": "Lantongau",
    "postal_code": "93764"
  },
  {
    "id": 741403,
    "province_id": 74,
    "regency_id": 7414,
    "district_id": 741403,
    "value": "Morikana",
    "postal_code": "93764"
  },
  {
    "id": 741403,
    "province_id": 74,
    "regency_id": 7414,
    "district_id": 741403,
    "value": "Watorumbe (Watorambe)",
    "postal_code": "93764"
  },
  {
    "id": 741403,
    "province_id": 74,
    "regency_id": 7414,
    "district_id": 741403,
    "value": "Watorumbe Bata (Watorambe Bata)",
    "postal_code": "93764"
  }
]