[
  {
    "id": 530116,
    "province_id": 53,
    "regency_id": 5301,
    "district_id": 530116,
    "value": "Bismark (Bismarak)",
    "postal_code": "85390"
  },
  {
    "id": 530116,
    "province_id": 53,
    "regency_id": 5301,
    "district_id": 530116,
    "value": "Bone",
    "postal_code": "85390"
  },
  {
    "id": 530116,
    "province_id": 53,
    "regency_id": 5301,
    "district_id": 530116,
    "value": "Oben",
    "postal_code": "85390"
  },
  {
    "id": 530116,
    "province_id": 53,
    "regency_id": 5301,
    "district_id": 530116,
    "value": "Oelomin",
    "postal_code": "85390"
  },
  {
    "id": 530116,
    "province_id": 53,
    "regency_id": 5301,
    "district_id": 530116,
    "value": "Oemasi",
    "postal_code": "85390"
  },
  {
    "id": 530116,
    "province_id": 53,
    "regency_id": 5301,
    "district_id": 530116,
    "value": "Oenif",
    "postal_code": "85390"
  },
  {
    "id": 530116,
    "province_id": 53,
    "regency_id": 5301,
    "district_id": 530116,
    "value": "Oepaha",
    "postal_code": "85390"
  },
  {
    "id": 530116,
    "province_id": 53,
    "regency_id": 5301,
    "district_id": 530116,
    "value": "Taloitan (Taloetan)",
    "postal_code": "85390"
  },
  {
    "id": 530116,
    "province_id": 53,
    "regency_id": 5301,
    "district_id": 530116,
    "value": "Tasikona",
    "postal_code": "85390"
  },
  {
    "id": 530116,
    "province_id": 53,
    "regency_id": 5301,
    "district_id": 530116,
    "value": "Tunfeu",
    "postal_code": "85390"
  },
  {
    "id": 530116,
    "province_id": 53,
    "regency_id": 5301,
    "district_id": 530116,
    "value": "Usapi Sonbai (Usapisonbai)",
    "postal_code": "85390"
  }
]