[
  {
    "id": 630202,
    "province_id": 63,
    "regency_id": 6302,
    "district_id": 630202,
    "value": "Gemuruh",
    "postal_code": "72153"
  },
  {
    "id": 630202,
    "province_id": 63,
    "regency_id": 6302,
    "district_id": 630202,
    "value": "Lontar Selatan",
    "postal_code": "72153"
  },
  {
    "id": 630202,
    "province_id": 63,
    "regency_id": 6302,
    "district_id": 630202,
    "value": "Lontar Timur",
    "postal_code": "72153"
  },
  {
    "id": 630202,
    "province_id": 63,
    "regency_id": 6302,
    "district_id": 630202,
    "value": "Lontar Utara",
    "postal_code": "72153"
  },
  {
    "id": 630202,
    "province_id": 63,
    "regency_id": 6302,
    "district_id": 630202,
    "value": "Sebanti",
    "postal_code": "72153"
  },
  {
    "id": 630202,
    "province_id": 63,
    "regency_id": 6302,
    "district_id": 630202,
    "value": "Semaras",
    "postal_code": "72153"
  },
  {
    "id": 630202,
    "province_id": 63,
    "regency_id": 6302,
    "district_id": 630202,
    "value": "Sepagar",
    "postal_code": "72153"
  },
  {
    "id": 630202,
    "province_id": 63,
    "regency_id": 6302,
    "district_id": 630202,
    "value": "Subur Makmur",
    "postal_code": "72153"
  },
  {
    "id": 630202,
    "province_id": 63,
    "regency_id": 6302,
    "district_id": 630202,
    "value": "Sumber Sari",
    "postal_code": "72153"
  },
  {
    "id": 630202,
    "province_id": 63,
    "regency_id": 6302,
    "district_id": 630202,
    "value": "Tapian Balai (Tepian Balai)",
    "postal_code": "72153"
  },
  {
    "id": 630202,
    "province_id": 63,
    "regency_id": 6302,
    "district_id": 630202,
    "value": "Terangkih (Terangkeh)",
    "postal_code": "72153"
  }
]