[
  {
    "id": 730825,
    "province_id": 73,
    "regency_id": 7308,
    "district_id": 730825,
    "value": "Batu Putih",
    "postal_code": "92771"
  },
  {
    "id": 730825,
    "province_id": 73,
    "regency_id": 7308,
    "district_id": 730825,
    "value": "Bonto Masunggu",
    "postal_code": "92771"
  },
  {
    "id": 730825,
    "province_id": 73,
    "regency_id": 7308,
    "district_id": 730825,
    "value": "Gaya Baru",
    "postal_code": "92771"
  },
  {
    "id": 730825,
    "province_id": 73,
    "regency_id": 7308,
    "district_id": 730825,
    "value": "Lagori",
    "postal_code": "92771"
  },
  {
    "id": 730825,
    "province_id": 73,
    "regency_id": 7308,
    "district_id": 730825,
    "value": "Pallawa",
    "postal_code": "92771"
  },
  {
    "id": 730825,
    "province_id": 73,
    "regency_id": 7308,
    "district_id": 730825,
    "value": "Polewali",
    "postal_code": "92771"
  },
  {
    "id": 730825,
    "province_id": 73,
    "regency_id": 7308,
    "district_id": 730825,
    "value": "Sadar",
    "postal_code": "92771"
  },
  {
    "id": 730825,
    "province_id": 73,
    "regency_id": 7308,
    "district_id": 730825,
    "value": "Samaenre",
    "postal_code": "92771"
  },
  {
    "id": 730825,
    "province_id": 73,
    "regency_id": 7308,
    "district_id": 730825,
    "value": "Tapong",
    "postal_code": "92771"
  },
  {
    "id": 730825,
    "province_id": 73,
    "regency_id": 7308,
    "district_id": 730825,
    "value": "Tellang Kere (Tellangkere)",
    "postal_code": "92771"
  },
  {
    "id": 730825,
    "province_id": 73,
    "regency_id": 7308,
    "district_id": 730825,
    "value": "Tondong",
    "postal_code": "92771"
  }
]