[
  {
    "id": 920217,
    "province_id": 92,
    "regency_id": 9202,
    "district_id": 920217,
    "value": "Ayawi",
    "postal_code": "98315"
  },
  {
    "id": 920217,
    "province_id": 92,
    "regency_id": 9202,
    "district_id": 920217,
    "value": "Cuyehep",
    "postal_code": "98315"
  },
  {
    "id": 920217,
    "province_id": 92,
    "regency_id": 9202,
    "district_id": 920217,
    "value": "Hanghouw",
    "postal_code": "98315"
  },
  {
    "id": 920217,
    "province_id": 92,
    "regency_id": 9202,
    "district_id": 920217,
    "value": "Imbeisika I (Imbeisika)",
    "postal_code": "98315"
  },
  {
    "id": 920217,
    "province_id": 92,
    "regency_id": 9202,
    "district_id": 920217,
    "value": "Imbeisika II (Imboisika)",
    "postal_code": "98315"
  },
  {
    "id": 920217,
    "province_id": 92,
    "regency_id": 9202,
    "district_id": 920217,
    "value": "Imboiti",
    "postal_code": "98315"
  },
  {
    "id": 920217,
    "province_id": 92,
    "regency_id": 9202,
    "district_id": 920217,
    "value": "Imhasuma",
    "postal_code": "98315"
  },
  {
    "id": 920217,
    "province_id": 92,
    "regency_id": 9202,
    "district_id": 920217,
    "value": "Indibo",
    "postal_code": "98315"
  },
  {
    "id": 920217,
    "province_id": 92,
    "regency_id": 9202,
    "district_id": 920217,
    "value": "Mbatma",
    "postal_code": "98315"
  },
  {
    "id": 920217,
    "province_id": 92,
    "regency_id": 9202,
    "district_id": 920217,
    "value": "Menyumfoku",
    "postal_code": "98315"
  },
  {
    "id": 920217,
    "province_id": 92,
    "regency_id": 9202,
    "district_id": 920217,
    "value": "Mirowi (Mironi)",
    "postal_code": "98315"
  },
  {
    "id": 920217,
    "province_id": 92,
    "regency_id": 9202,
    "district_id": 920217,
    "value": "Misabugoid",
    "postal_code": "98315"
  },
  {
    "id": 920217,
    "province_id": 92,
    "regency_id": 9202,
    "district_id": 920217,
    "value": "Ningdip",
    "postal_code": "98315"
  },
  {
    "id": 920217,
    "province_id": 92,
    "regency_id": 9202,
    "district_id": 920217,
    "value": "Rembuy",
    "postal_code": "98315"
  },
  {
    "id": 920217,
    "province_id": 92,
    "regency_id": 9202,
    "district_id": 920217,
    "value": "Ukemboisi",
    "postal_code": "98315"
  },
  {
    "id": 920217,
    "province_id": 92,
    "regency_id": 9202,
    "district_id": 920217,
    "value": "Ukopti",
    "postal_code": "98315"
  },
  {
    "id": 920217,
    "province_id": 92,
    "regency_id": 9202,
    "district_id": 920217,
    "value": "Umnum",
    "postal_code": "98315"
  },
  {
    "id": 920217,
    "province_id": 92,
    "regency_id": 9202,
    "district_id": 920217,
    "value": "Urwambei",
    "postal_code": "98315"
  },
  {
    "id": 920217,
    "province_id": 92,
    "regency_id": 9202,
    "district_id": 920217,
    "value": "Warami",
    "postal_code": "98315"
  },
  {
    "id": 920217,
    "province_id": 92,
    "regency_id": 9202,
    "district_id": 920217,
    "value": "Wariari",
    "postal_code": "98315"
  },
  {
    "id": 920217,
    "province_id": 92,
    "regency_id": 9202,
    "district_id": 920217,
    "value": "Warkapi",
    "postal_code": "98315"
  },
  {
    "id": 920217,
    "province_id": 92,
    "regency_id": 9202,
    "district_id": 920217,
    "value": "Warmawai",
    "postal_code": "98315"
  },
  {
    "id": 920217,
    "province_id": 92,
    "regency_id": 9202,
    "district_id": 920217,
    "value": "Warnyeti",
    "postal_code": "98315"
  },
  {
    "id": 920217,
    "province_id": 92,
    "regency_id": 9202,
    "district_id": 920217,
    "value": "Wedoni",
    "postal_code": "98315"
  }
]