[
  {
    "id": 110203,
    "province_id": 11,
    "regency_id": 1102,
    "district_id": 110203,
    "value": "Ampera",
    "postal_code": "24672"
  },
  {
    "id": 110203,
    "province_id": 11,
    "regency_id": 1102,
    "district_id": 110203,
    "value": "Bambel",
    "postal_code": "24672"
  },
  {
    "id": 110203,
    "province_id": 11,
    "regency_id": 1102,
    "district_id": 110203,
    "value": "Bambel Gabungan",
    "postal_code": "24672"
  },
  {
    "id": 110203,
    "province_id": 11,
    "regency_id": 1102,
    "district_id": 110203,
    "value": "Biak Muli",
    "postal_code": "24672"
  },
  {
    "id": 110203,
    "province_id": 11,
    "regency_id": 1102,
    "district_id": 110203,
    "value": "Biak Muli Baru (Biak Muli Bakhu)",
    "postal_code": "24672"
  },
  {
    "id": 110203,
    "province_id": 11,
    "regency_id": 1102,
    "district_id": 110203,
    "value": "Biak Muli Pantai Raja",
    "postal_code": "24672"
  },
  {
    "id": 110203,
    "province_id": 11,
    "regency_id": 1102,
    "district_id": 110203,
    "value": "Biak Muli Sejahtera",
    "postal_code": "24672"
  },
  {
    "id": 110203,
    "province_id": 11,
    "regency_id": 1102,
    "district_id": 110203,
    "value": "Cinta Damai",
    "postal_code": "24672"
  },
  {
    "id": 110203,
    "province_id": 11,
    "regency_id": 1102,
    "district_id": 110203,
    "value": "Kisam",
    "postal_code": "24672"
  },
  {
    "id": 110203,
    "province_id": 11,
    "regency_id": 1102,
    "district_id": 110203,
    "value": "Kuning I",
    "postal_code": "24672"
  },
  {
    "id": 110203,
    "province_id": 11,
    "regency_id": 1102,
    "district_id": 110203,
    "value": "Kuning II",
    "postal_code": "24672"
  },
  {
    "id": 110203,
    "province_id": 11,
    "regency_id": 1102,
    "district_id": 110203,
    "value": "Kuta Antara (Kute Antara)",
    "postal_code": "24672"
  },
  {
    "id": 110203,
    "province_id": 11,
    "regency_id": 1102,
    "district_id": 110203,
    "value": "Kute Lang Lang",
    "postal_code": "24672"
  },
  {
    "id": 110203,
    "province_id": 11,
    "regency_id": 1102,
    "district_id": 110203,
    "value": "Kute Lang Lang Bakhu",
    "postal_code": "24672"
  },
  {
    "id": 110203,
    "province_id": 11,
    "regency_id": 1102,
    "district_id": 110203,
    "value": "Kute Seri",
    "postal_code": "24672"
  },
  {
    "id": 110203,
    "province_id": 11,
    "regency_id": 1102,
    "district_id": 110203,
    "value": "Lawe Hijo",
    "postal_code": "24672"
  },
  {
    "id": 110203,
    "province_id": 11,
    "regency_id": 1102,
    "district_id": 110203,
    "value": "Lawe Hijo Metuah",
    "postal_code": "24672"
  },
  {
    "id": 110203,
    "province_id": 11,
    "regency_id": 1102,
    "district_id": 110203,
    "value": "Lawe Kihing",
    "postal_code": "24672"
  },
  {
    "id": 110203,
    "province_id": 11,
    "regency_id": 1102,
    "district_id": 110203,
    "value": "Lembah Haji",
    "postal_code": "24672"
  },
  {
    "id": 110203,
    "province_id": 11,
    "regency_id": 1102,
    "district_id": 110203,
    "value": "Likat",
    "postal_code": "24672"
  },
  {
    "id": 110203,
    "province_id": 11,
    "regency_id": 1102,
    "district_id": 110203,
    "value": "Pancakh Iman",
    "postal_code": "24672"
  },
  {
    "id": 110203,
    "province_id": 11,
    "regency_id": 1102,
    "district_id": 110203,
    "value": "Pedesi",
    "postal_code": "24672"
  },
  {
    "id": 110203,
    "province_id": 11,
    "regency_id": 1102,
    "district_id": 110203,
    "value": "Pinding",
    "postal_code": "24672"
  },
  {
    "id": 110203,
    "province_id": 11,
    "regency_id": 1102,
    "district_id": 110203,
    "value": "Pulo Kendondong (Pulo Kedondong)",
    "postal_code": "24672"
  },
  {
    "id": 110203,
    "province_id": 11,
    "regency_id": 1102,
    "district_id": 110203,
    "value": "Pulo Perengge",
    "postal_code": "24672"
  },
  {
    "id": 110203,
    "province_id": 11,
    "regency_id": 1102,
    "district_id": 110203,
    "value": "Rikit",
    "postal_code": "24672"
  },
  {
    "id": 110203,
    "province_id": 11,
    "regency_id": 1102,
    "district_id": 110203,
    "value": "Tembilakh Mbakhu (Tembilakh Bakhu)",
    "postal_code": "24672"
  },
  {
    "id": 110203,
    "province_id": 11,
    "regency_id": 1102,
    "district_id": 110203,
    "value": "Terutung Megara Asli",
    "postal_code": "24672"
  },
  {
    "id": 110203,
    "province_id": 11,
    "regency_id": 1102,
    "district_id": 110203,
    "value": "Terutung Payung Gabungan",
    "postal_code": "24672"
  },
  {
    "id": 110203,
    "province_id": 11,
    "regency_id": 1102,
    "district_id": 110203,
    "value": "Terutung Payung Hilir",
    "postal_code": "24672"
  },
  {
    "id": 110203,
    "province_id": 11,
    "regency_id": 1102,
    "district_id": 110203,
    "value": "Terutung Payung Hulu",
    "postal_code": "24672"
  },
  {
    "id": 110203,
    "province_id": 11,
    "regency_id": 1102,
    "district_id": 110203,
    "value": "Terutung Seperai",
    "postal_code": "24672"
  },
  {
    "id": 110203,
    "province_id": 11,
    "regency_id": 1102,
    "district_id": 110203,
    "value": "Tualang Sembilar",
    "postal_code": "24672"
  }
]