[
  {
    "id": 520601,
    "province_id": 52,
    "regency_id": 5206,
    "district_id": 520601,
    "value": "Baralau",
    "postal_code": "84172"
  },
  {
    "id": 520601,
    "province_id": 52,
    "regency_id": 5206,
    "district_id": 520601,
    "value": "Monta",
    "postal_code": "84172"
  },
  {
    "id": 520601,
    "province_id": 52,
    "regency_id": 5206,
    "district_id": 520601,
    "value": "Nontotera",
    "postal_code": "84172"
  },
  {
    "id": 520601,
    "province_id": 52,
    "regency_id": 5206,
    "district_id": 520601,
    "value": "Pela",
    "postal_code": "84172"
  },
  {
    "id": 520601,
    "province_id": 52,
    "regency_id": 5206,
    "district_id": 520601,
    "value": "Sakuru (Sekuru)",
    "postal_code": "84172"
  },
  {
    "id": 520601,
    "province_id": 52,
    "regency_id": 5206,
    "district_id": 520601,
    "value": "Sie",
    "postal_code": "84172"
  },
  {
    "id": 520601,
    "province_id": 52,
    "regency_id": 5206,
    "district_id": 520601,
    "value": "Simpasai",
    "postal_code": "84172"
  },
  {
    "id": 520601,
    "province_id": 52,
    "regency_id": 5206,
    "district_id": 520601,
    "value": "Sondo",
    "postal_code": "84172"
  },
  {
    "id": 520601,
    "province_id": 52,
    "regency_id": 5206,
    "district_id": 520601,
    "value": "Tangga",
    "postal_code": "84172"
  },
  {
    "id": 520601,
    "province_id": 52,
    "regency_id": 5206,
    "district_id": 520601,
    "value": "Tangga Baru",
    "postal_code": "84172"
  },
  {
    "id": 520601,
    "province_id": 52,
    "regency_id": 5206,
    "district_id": 520601,
    "value": "Tolotangga",
    "postal_code": "84172"
  },
  {
    "id": 520601,
    "province_id": 52,
    "regency_id": 5206,
    "district_id": 520601,
    "value": "Tolouwi",
    "postal_code": "84172"
  },
  {
    "id": 520601,
    "province_id": 52,
    "regency_id": 5206,
    "district_id": 520601,
    "value": "Waro",
    "postal_code": "84172"
  },
  {
    "id": 520601,
    "province_id": 52,
    "regency_id": 5206,
    "district_id": 520601,
    "value": "Wilamaci",
    "postal_code": "84172"
  }
]