[
  {
    "id": 1801222001,
    "province_id": 18,
    "regency_id": 1801,
    "district_id": 180122,
    "value": "Bangun Sari (Bangunsari)",
    "postal_code": "35360"
  },
  {
    "id": 1801222007,
    "province_id": 18,
    "regency_id": 1801,
    "district_id": 180122,
    "value": "Kertosari",
    "postal_code": "35360"
  },
  {
    "id": 1801222008,
    "province_id": 18,
    "regency_id": 1801,
    "district_id": 180122,
    "value": "Malangsari (Malang Sari)",
    "postal_code": "35360"
  },
  {
    "id": 1801222005,
    "province_id": 18,
    "regency_id": 1801,
    "district_id": 180122,
    "value": "Mulyosari (Mulyo Sari)",
    "postal_code": "35360"
  },
  {
    "id": 1801222002,
    "province_id": 18,
    "regency_id": 1801,
    "district_id": 180122,
    "value": "Purwodadi Dalam",
    "postal_code": "35360"
  },
  {
    "id": 1801222003,
    "province_id": 18,
    "regency_id": 1801,
    "district_id": 180122,
    "value": "Sidomukti",
    "postal_code": "35360"
  },
  {
    "id": 1801222004,
    "province_id": 18,
    "regency_id": 1801,
    "district_id": 180122,
    "value": "Wawasan",
    "postal_code": "35360"
  },
  {
    "id": 1801222006,
    "province_id": 18,
    "regency_id": 1801,
    "district_id": 180122,
    "value": "Wonodadi",
    "postal_code": "35360"
  }
]