[
  {
    "id": 9504312004,
    "province_id": 95,
    "regency_id": 9504,
    "district_id": 950431,
    "value": "Bini",
    "postal_code": "99017"
  },
  {
    "id": 9504312005,
    "province_id": 95,
    "regency_id": 9504,
    "district_id": 950431,
    "value": "Dunda",
    "postal_code": "99017"
  },
  {
    "id": 9504312006,
    "province_id": 95,
    "regency_id": 9504,
    "district_id": 950431,
    "value": "Getiem",
    "postal_code": "99017"
  },
  {
    "id": 9504312010,
    "province_id": 95,
    "regency_id": 9504,
    "district_id": 950431,
    "value": "Lamaluk",
    "postal_code": "99017"
  },
  {
    "id": 9504312002,
    "province_id": 95,
    "regency_id": 9504,
    "district_id": 950431,
    "value": "Logi",
    "postal_code": "99017"
  },
  {
    "id": 9504312007,
    "province_id": 95,
    "regency_id": 9504,
    "district_id": 950431,
    "value": "Rumbepaga",
    "postal_code": "99017"
  },
  {
    "id": 9504312001,
    "province_id": 95,
    "regency_id": 9504,
    "district_id": 950431,
    "value": "Silo",
    "postal_code": "99017"
  },
  {
    "id": 9504312003,
    "province_id": 95,
    "regency_id": 9504,
    "district_id": 950431,
    "value": "Tagi",
    "postal_code": "99017"
  },
  {
    "id": 9504312009,
    "province_id": 95,
    "regency_id": 9504,
    "district_id": 950431,
    "value": "Wanuk",
    "postal_code": "99017"
  },
  {
    "id": 9504312008,
    "province_id": 95,
    "regency_id": 9504,
    "district_id": 950431,
    "value": "Yimabnime",
    "postal_code": "99017"
  }
]