[
  {
    "id": 950107,
    "province_id": 95,
    "regency_id": 9501,
    "district_id": 950107,
    "value": "Abulukmo",
    "postal_code": "99533"
  },
  {
    "id": 950107,
    "province_id": 95,
    "regency_id": 9501,
    "district_id": 950107,
    "value": "Anegara (Anegera)",
    "postal_code": "99533"
  },
  {
    "id": 950107,
    "province_id": 95,
    "regency_id": 9501,
    "district_id": 950107,
    "value": "Elabukama",
    "postal_code": "99533"
  },
  {
    "id": 950107,
    "province_id": 95,
    "regency_id": 9501,
    "district_id": 950107,
    "value": "Hamuhi",
    "postal_code": "99533"
  },
  {
    "id": 950107,
    "province_id": 95,
    "regency_id": 9501,
    "district_id": 950107,
    "value": "Kosihave",
    "postal_code": "99533"
  },
  {
    "id": 950107,
    "province_id": 95,
    "regency_id": 9501,
    "district_id": 950107,
    "value": "Mulupalek",
    "postal_code": "99533"
  },
  {
    "id": 950107,
    "province_id": 95,
    "regency_id": 9501,
    "district_id": 950107,
    "value": "Pumasili",
    "postal_code": "99533"
  },
  {
    "id": 950107,
    "province_id": 95,
    "regency_id": 9501,
    "district_id": 950107,
    "value": "Siapma",
    "postal_code": "99533"
  },
  {
    "id": 950107,
    "province_id": 95,
    "regency_id": 9501,
    "district_id": 950107,
    "value": "Temia",
    "postal_code": "99533"
  },
  {
    "id": 950107,
    "province_id": 95,
    "regency_id": 9501,
    "district_id": 950107,
    "value": "Yumugima",
    "postal_code": "99533"
  }
]