[
  {
    "id": 620508,
    "province_id": 62,
    "regency_id": 6205,
    "district_id": 620508,
    "value": "Bintang Ninggi I (Satu)",
    "postal_code": "73814"
  },
  {
    "id": 620508,
    "province_id": 62,
    "regency_id": 6205,
    "district_id": 620508,
    "value": "Bintang Ninggi II (Dua)",
    "postal_code": "73814"
  },
  {
    "id": 620508,
    "province_id": 62,
    "regency_id": 6205,
    "district_id": 620508,
    "value": "Bukit Sawit",
    "postal_code": "73814"
  },
  {
    "id": 620508,
    "province_id": 62,
    "regency_id": 6205,
    "district_id": 620508,
    "value": "Buntok Baru",
    "postal_code": "73814"
  },
  {
    "id": 620508,
    "province_id": 62,
    "regency_id": 6205,
    "district_id": 620508,
    "value": "Butong",
    "postal_code": "73814"
  },
  {
    "id": 620508,
    "province_id": 62,
    "regency_id": 6205,
    "district_id": 620508,
    "value": "Pandran Permai",
    "postal_code": "73814"
  },
  {
    "id": 620508,
    "province_id": 62,
    "regency_id": 6205,
    "district_id": 620508,
    "value": "Pandran Raya",
    "postal_code": "73814"
  },
  {
    "id": 620508,
    "province_id": 62,
    "regency_id": 6205,
    "district_id": 620508,
    "value": "Tawan Jaya",
    "postal_code": "73814"
  },
  {
    "id": 620508,
    "province_id": 62,
    "regency_id": 6205,
    "district_id": 620508,
    "value": "Terinsing/Trinsing",
    "postal_code": "73814"
  },
  {
    "id": 620508,
    "province_id": 62,
    "regency_id": 6205,
    "district_id": 620508,
    "value": "Trahean",
    "postal_code": "73814"
  }
]