[
  {
    "id": 351210,
    "province_id": 35,
    "regency_id": 3512,
    "district_id": 351210,
    "value": "Curah Cotok (Corak Cotok)",
    "postal_code": "68362"
  },
  {
    "id": 351210,
    "province_id": 35,
    "regency_id": 3512,
    "district_id": 351210,
    "value": "Gebangan",
    "postal_code": "68362"
  },
  {
    "id": 351210,
    "province_id": 35,
    "regency_id": 3512,
    "district_id": 351210,
    "value": "Kandang",
    "postal_code": "68362"
  },
  {
    "id": 351210,
    "province_id": 35,
    "regency_id": 3512,
    "district_id": 351210,
    "value": "Kapongan",
    "postal_code": "68362"
  },
  {
    "id": 351210,
    "province_id": 35,
    "regency_id": 3512,
    "district_id": 351210,
    "value": "Kesambirampak (Kesambi Rampak)",
    "postal_code": "68362"
  },
  {
    "id": 351210,
    "province_id": 35,
    "regency_id": 3512,
    "district_id": 351210,
    "value": "Landangan",
    "postal_code": "68362"
  },
  {
    "id": 351210,
    "province_id": 35,
    "regency_id": 3512,
    "district_id": 351210,
    "value": "Peleyan",
    "postal_code": "68362"
  },
  {
    "id": 351210,
    "province_id": 35,
    "regency_id": 3512,
    "district_id": 351210,
    "value": "Pokaan (Poka'an)",
    "postal_code": "68362"
  },
  {
    "id": 351210,
    "province_id": 35,
    "regency_id": 3512,
    "district_id": 351210,
    "value": "Seletreng",
    "postal_code": "68362"
  },
  {
    "id": 351210,
    "province_id": 35,
    "regency_id": 3512,
    "district_id": 351210,
    "value": "Wonokoyo",
    "postal_code": "68362"
  }
]