[
  {
    "id": 137302,
    "province_id": 13,
    "regency_id": 1373,
    "district_id": 137302,
    "value": "Balai Batu Sadara (Balai Batu Sandaran)",
    "postal_code": "27422"
  },
  {
    "id": 137302,
    "province_id": 13,
    "regency_id": 1373,
    "district_id": 137302,
    "value": "Durian I",
    "postal_code": "27425"
  },
  {
    "id": 137302,
    "province_id": 13,
    "regency_id": 1373,
    "district_id": 137302,
    "value": "Durian II",
    "postal_code": "27425"
  },
  {
    "id": 137302,
    "province_id": 13,
    "regency_id": 1373,
    "district_id": 137302,
    "value": "Kolok Mudik/Mudiak",
    "postal_code": "27425"
  },
  {
    "id": 137302,
    "province_id": 13,
    "regency_id": 1373,
    "district_id": 137302,
    "value": "Kolok Nan Tuo",
    "postal_code": "27427"
  },
  {
    "id": 137302,
    "province_id": 13,
    "regency_id": 1373,
    "district_id": 137302,
    "value": "Lubang Panjang",
    "postal_code": "27424"
  },
  {
    "id": 137302,
    "province_id": 13,
    "regency_id": 1373,
    "district_id": 137302,
    "value": "Lumindai",
    "postal_code": "27421"
  },
  {
    "id": 137302,
    "province_id": 13,
    "regency_id": 1373,
    "district_id": 137302,
    "value": "Santur/Santua",
    "postal_code": "27424"
  },
  {
    "id": 137302,
    "province_id": 13,
    "regency_id": 1373,
    "district_id": 137302,
    "value": "Saringan",
    "postal_code": "27421"
  },
  {
    "id": 137302,
    "province_id": 13,
    "regency_id": 1373,
    "district_id": 137302,
    "value": "Talago Gunung/Gunuang",
    "postal_code": "27423"
  }
]