[
  {
    "id": 1409092002,
    "province_id": 14,
    "regency_id": 1409,
    "district_id": 140909,
    "value": "Koto Pangian/Pangean",
    "postal_code": "29553"
  },
  {
    "id": 1409092009,
    "province_id": 14,
    "regency_id": 1409,
    "district_id": 140909,
    "value": "Padang Kunik",
    "postal_code": "29553"
  },
  {
    "id": 1409092008,
    "province_id": 14,
    "regency_id": 1409,
    "district_id": 140909,
    "value": "Padang Tanggung",
    "postal_code": "29553"
  },
  {
    "id": 1409092001,
    "province_id": 14,
    "regency_id": 1409,
    "district_id": 140909,
    "value": "Pasar Baru Pangean",
    "postal_code": "29553"
  },
  {
    "id": 1409092011,
    "province_id": 14,
    "regency_id": 1409,
    "district_id": 140909,
    "value": "Pauh Angit",
    "postal_code": "29553"
  },
  {
    "id": 1409092017,
    "province_id": 14,
    "regency_id": 1409,
    "district_id": 140909,
    "value": "Pauh Angit Hulu",
    "postal_code": "29553"
  },
  {
    "id": 1409092010,
    "province_id": 14,
    "regency_id": 1409,
    "district_id": 140909,
    "value": "Pembatang",
    "postal_code": "29553"
  },
  {
    "id": 1409092005,
    "province_id": 14,
    "regency_id": 1409,
    "district_id": 140909,
    "value": "Pulauderas (Pulau Deras)",
    "postal_code": "29553"
  },
  {
    "id": 1409092003,
    "province_id": 14,
    "regency_id": 1409,
    "district_id": 140909,
    "value": "Pulaukumpai (Pulau Kumpai)",
    "postal_code": "29553"
  },
  {
    "id": 1409092013,
    "province_id": 14,
    "regency_id": 1409,
    "district_id": 140909,
    "value": "Pulaurengas (Pulau Rengas)",
    "postal_code": "29553"
  },
  {
    "id": 1409092004,
    "province_id": 14,
    "regency_id": 1409,
    "district_id": 140909,
    "value": "Pulautongah (Pulau Tengah / Tongah)",
    "postal_code": "29553"
  },
  {
    "id": 1409092014,
    "province_id": 14,
    "regency_id": 1409,
    "district_id": 140909,
    "value": "Rawang Binjai",
    "postal_code": "29553"
  },
  {
    "id": 1409092015,
    "province_id": 14,
    "regency_id": 1409,
    "district_id": 140909,
    "value": "Sako",
    "postal_code": "29553"
  },
  {
    "id": 1409092012,
    "province_id": 14,
    "regency_id": 1409,
    "district_id": 140909,
    "value": "Sukaping",
    "postal_code": "29553"
  },
  {
    "id": 1409092016,
    "province_id": 14,
    "regency_id": 1409,
    "district_id": 140909,
    "value": "Sungailangsat (Sungai Langsat)",
    "postal_code": "29553"
  },
  {
    "id": 1409092007,
    "province_id": 14,
    "regency_id": 1409,
    "district_id": 140909,
    "value": "Tanah Bekali",
    "postal_code": "29553"
  },
  {
    "id": 1409092006,
    "province_id": 14,
    "regency_id": 1409,
    "district_id": 140909,
    "value": "Telukpauh (Teluk Pauh)",
    "postal_code": "29553"
  }
]