[
  {
    "id": 3306112016,
    "province_id": 33,
    "regency_id": 3306,
    "district_id": 330611,
    "value": "Blekatuk",
    "postal_code": "54263"
  },
  {
    "id": 3306112036,
    "province_id": 33,
    "regency_id": 3306,
    "district_id": 330611,
    "value": "Brengkol",
    "postal_code": "54263"
  },
  {
    "id": 3306112017,
    "province_id": 33,
    "regency_id": 3306,
    "district_id": 330611,
    "value": "Dlisen Wetan",
    "postal_code": "54263"
  },
  {
    "id": 3306112018,
    "province_id": 33,
    "regency_id": 3306,
    "district_id": 330611,
    "value": "Dlisenkulon (Dlisen Kulon)",
    "postal_code": "54263"
  },
  {
    "id": 3306112037,
    "province_id": 33,
    "regency_id": 3306,
    "district_id": 330611,
    "value": "Girigondo",
    "postal_code": "54263"
  },
  {
    "id": 3306112011,
    "province_id": 33,
    "regency_id": 3306,
    "district_id": 330611,
    "value": "Gumawangrejo",
    "postal_code": "54263"
  },
  {
    "id": 3306112046,
    "province_id": 33,
    "regency_id": 3306,
    "district_id": 330611,
    "value": "Kaligintung",
    "postal_code": "54263"
  },
  {
    "id": 3306112045,
    "province_id": 33,
    "regency_id": 3306,
    "district_id": 330611,
    "value": "Kaligondang",
    "postal_code": "54263"
  },
  {
    "id": 3306112043,
    "province_id": 33,
    "regency_id": 3306,
    "district_id": 330611,
    "value": "Kalijering",
    "postal_code": "54263"
  },
  {
    "id": 3306112039,
    "province_id": 33,
    "regency_id": 3306,
    "district_id": 330611,
    "value": "Kalikotes",
    "postal_code": "54263"
  },
  {
    "id": 3306112002,
    "province_id": 33,
    "regency_id": 3306,
    "district_id": 330611,
    "value": "Kalimati",
    "postal_code": "54263"
  },
  {
    "id": 3306112031,
    "province_id": 33,
    "regency_id": 3306,
    "district_id": 330611,
    "value": "Karanganyar",
    "postal_code": "54263"
  },
  {
    "id": 3306112022,
    "province_id": 33,
    "regency_id": 3306,
    "district_id": 330611,
    "value": "Karanggetas",
    "postal_code": "54263"
  },
  {
    "id": 3306112012,
    "province_id": 33,
    "regency_id": 3306,
    "district_id": 330611,
    "value": "Keburusan",
    "postal_code": "54263"
  },
  {
    "id": 3306112041,
    "province_id": 33,
    "regency_id": 3306,
    "district_id": 330611,
    "value": "Kedungbatur (Kedung Batur)",
    "postal_code": "54263"
  },
  {
    "id": 3306112034,
    "province_id": 33,
    "regency_id": 3306,
    "district_id": 330611,
    "value": "Kembangkuning",
    "postal_code": "54263"
  },
  {
    "id": 3306112001,
    "province_id": 33,
    "regency_id": 3306,
    "district_id": 330611,
    "value": "Kendalrejo",
    "postal_code": "54263"
  },
  {
    "id": 3306112040,
    "province_id": 33,
    "regency_id": 3306,
    "district_id": 330611,
    "value": "Kesawen",
    "postal_code": "54263"
  },
  {
    "id": 3306112023,
    "province_id": 33,
    "regency_id": 3306,
    "district_id": 330611,
    "value": "Luweng Kidul",
    "postal_code": "54263"
  },
  {
    "id": 3306112035,
    "province_id": 33,
    "regency_id": 3306,
    "district_id": 330611,
    "value": "Luwenglor (Luweng Lor)",
    "postal_code": "54263"
  },
  {
    "id": 3306112025,
    "province_id": 33,
    "regency_id": 3306,
    "district_id": 330611,
    "value": "Megulungkidul (Megulung Kidul)",
    "postal_code": "54263"
  },
  {
    "id": 3306112032,
    "province_id": 33,
    "regency_id": 3306,
    "district_id": 330611,
    "value": "Megulunglor (Megulung Lor)",
    "postal_code": "54263"
  },
  {
    "id": 3306112028,
    "province_id": 33,
    "regency_id": 3306,
    "district_id": 330611,
    "value": "Ngampel",
    "postal_code": "54263"
  },
  {
    "id": 3306112030,
    "province_id": 33,
    "regency_id": 3306,
    "district_id": 330611,
    "value": "Ngandagan",
    "postal_code": "54263"
  },
  {
    "id": 3306112049,
    "province_id": 33,
    "regency_id": 3306,
    "district_id": 330611,
    "value": "Pamriyan",
    "postal_code": "54263"
  },
  {
    "id": 3306112009,
    "province_id": 33,
    "regency_id": 3306,
    "district_id": 330611,
    "value": "Pangkalan",
    "postal_code": "54263"
  },
  {
    "id": 3306112021,
    "province_id": 33,
    "regency_id": 3306,
    "district_id": 330611,
    "value": "Pekacangan",
    "postal_code": "54263"
  },
  {
    "id": 3306112003,
    "province_id": 33,
    "regency_id": 3306,
    "district_id": 330611,
    "value": "Pepe",
    "postal_code": "54263"
  },
  {
    "id": 3306112020,
    "province_id": 33,
    "regency_id": 3306,
    "district_id": 330611,
    "value": "Petuguran",
    "postal_code": "54263"
  },
  {
    "id": 3306112026,
    "province_id": 33,
    "regency_id": 3306,
    "district_id": 330611,
    "value": "Pituruh",
    "postal_code": "54263"
  },
  {
    "id": 3306112042,
    "province_id": 33,
    "regency_id": 3306,
    "district_id": 330611,
    "value": "Polowangi",
    "postal_code": "54263"
  },
  {
    "id": 3306112033,
    "province_id": 33,
    "regency_id": 3306,
    "district_id": 330611,
    "value": "Prapagkidul (Prapag Kidul)",
    "postal_code": "54263"
  },
  {
    "id": 3306112038,
    "province_id": 33,
    "regency_id": 3306,
    "district_id": 330611,
    "value": "Prapaglor (Prapag Lor)",
    "postal_code": "54263"
  },
  {
    "id": 3306112029,
    "province_id": 33,
    "regency_id": 3306,
    "district_id": 330611,
    "value": "Prigelan",
    "postal_code": "54263"
  },
  {
    "id": 3306112024,
    "province_id": 33,
    "regency_id": 3306,
    "district_id": 330611,
    "value": "Sambeng",
    "postal_code": "54263"
  },
  {
    "id": 3306112047,
    "province_id": 33,
    "regency_id": 3306,
    "district_id": 330611,
    "value": "Sawangan",
    "postal_code": "54263"
  },
  {
    "id": 3306112005,
    "province_id": 33,
    "regency_id": 3306,
    "district_id": 330611,
    "value": "Sekartejo",
    "postal_code": "54263"
  },
  {
    "id": 3306112019,
    "province_id": 33,
    "regency_id": 3306,
    "district_id": 330611,
    "value": "Semampir",
    "postal_code": "54263"
  },
  {
    "id": 3306112027,
    "province_id": 33,
    "regency_id": 3306,
    "district_id": 330611,
    "value": "Sikambang",
    "postal_code": "54263"
  },
  {
    "id": 3306112044,
    "province_id": 33,
    "regency_id": 3306,
    "district_id": 330611,
    "value": "Somogede",
    "postal_code": "54263"
  },
  {
    "id": 3306112010,
    "province_id": 33,
    "regency_id": 3306,
    "district_id": 330611,
    "value": "Sumber",
    "postal_code": "54263"
  },
  {
    "id": 3306112014,
    "province_id": 33,
    "regency_id": 3306,
    "district_id": 330611,
    "value": "Tapen",
    "postal_code": "54263"
  },
  {
    "id": 3306112008,
    "province_id": 33,
    "regency_id": 3306,
    "district_id": 330611,
    "value": "Tasikmadu",
    "postal_code": "54263"
  },
  {
    "id": 3306112007,
    "province_id": 33,
    "regency_id": 3306,
    "district_id": 330611,
    "value": "Tersidikidul (Tersidi Kidul)",
    "postal_code": "54263"
  },
  {
    "id": 3306112006,
    "province_id": 33,
    "regency_id": 3306,
    "district_id": 330611,
    "value": "Tersidilor (Tersidi Lor)",
    "postal_code": "54263"
  },
  {
    "id": 3306112004,
    "province_id": 33,
    "regency_id": 3306,
    "district_id": 330611,
    "value": "Tunjungtejo",
    "postal_code": "54263"
  },
  {
    "id": 3306112015,
    "province_id": 33,
    "regency_id": 3306,
    "district_id": 330611,
    "value": "Waru",
    "postal_code": "54263"
  },
  {
    "id": 3306112048,
    "province_id": 33,
    "regency_id": 3306,
    "district_id": 330611,
    "value": "Wonosido",
    "postal_code": "54263"
  },
  {
    "id": 3306112013,
    "province_id": 33,
    "regency_id": 3306,
    "district_id": 330611,
    "value": "Wonoyoso",
    "postal_code": "54263"
  }
]