[
  {
    "id": 1205222004,
    "province_id": 12,
    "regency_id": 1205,
    "district_id": 120522,
    "value": "Kaperas",
    "postal_code": "20773"
  },
  {
    "id": 1205222002,
    "province_id": 12,
    "regency_id": 1205,
    "district_id": 120522,
    "value": "Kuta Gajah (Kutagajah)",
    "postal_code": "20773"
  },
  {
    "id": 1205222008,
    "province_id": 12,
    "regency_id": 1205,
    "district_id": 120522,
    "value": "Kutambaru",
    "postal_code": "20773"
  },
  {
    "id": 1205222005,
    "province_id": 12,
    "regency_id": 1205,
    "district_id": 120522,
    "value": "Namoteras",
    "postal_code": "20773"
  },
  {
    "id": 1205222001,
    "province_id": 12,
    "regency_id": 1205,
    "district_id": 120522,
    "value": "Namotogan (Perkebunan Namotongan)",
    "postal_code": "20773"
  },
  {
    "id": 1205222003,
    "province_id": 12,
    "regency_id": 1205,
    "district_id": 120522,
    "value": "Perkebunan Marike (Perkebunan Marikie)",
    "postal_code": "20773"
  },
  {
    "id": 1205222006,
    "province_id": 12,
    "regency_id": 1205,
    "district_id": 120522,
    "value": "Rampah",
    "postal_code": "20773"
  },
  {
    "id": 1205222007,
    "province_id": 12,
    "regency_id": 1205,
    "district_id": 120522,
    "value": "Sulkam",
    "postal_code": "20773"
  }
]