[
  {
    "id": 6311052004,
    "province_id": 63,
    "regency_id": 6311,
    "district_id": 631105,
    "value": "Batu Merah",
    "postal_code": "71661"
  },
  {
    "id": 6311052022,
    "province_id": 63,
    "regency_id": 6311,
    "district_id": 631105,
    "value": "Hilir Pasar",
    "postal_code": "71661"
  },
  {
    "id": 6311052020,
    "province_id": 63,
    "regency_id": 6311,
    "district_id": 631105,
    "value": "Jimamun",
    "postal_code": "71661"
  },
  {
    "id": 6311052018,
    "province_id": 63,
    "regency_id": 6311,
    "district_id": 631105,
    "value": "Jungkal",
    "postal_code": "71661"
  },
  {
    "id": 6311052026,
    "province_id": 63,
    "regency_id": 6311,
    "district_id": 631105,
    "value": "Kandang Jaya",
    "postal_code": "71661"
  },
  {
    "id": 6311052014,
    "province_id": 63,
    "regency_id": 6311,
    "district_id": 631105,
    "value": "Kupang",
    "postal_code": "71661"
  },
  {
    "id": 6311052010,
    "province_id": 63,
    "regency_id": 6311,
    "district_id": 631105,
    "value": "Kusambi Hilir",
    "postal_code": "71661"
  },
  {
    "id": 6311052009,
    "province_id": 63,
    "regency_id": 6311,
    "district_id": 631105,
    "value": "Kusambi Hulu",
    "postal_code": "71661"
  },
  {
    "id": 6311052008,
    "province_id": 63,
    "regency_id": 6311,
    "district_id": 631105,
    "value": "Lajar",
    "postal_code": "71661"
  },
  {
    "id": 6311052005,
    "province_id": 63,
    "regency_id": 6311,
    "district_id": 631105,
    "value": "Lampihong Kanan",
    "postal_code": "71661"
  },
  {
    "id": 6311052007,
    "province_id": 63,
    "regency_id": 6311,
    "district_id": 631105,
    "value": "Lampihong Kiri",
    "postal_code": "71661"
  },
  {
    "id": 6311052006,
    "province_id": 63,
    "regency_id": 6311,
    "district_id": 631105,
    "value": "Lampihong Selatan",
    "postal_code": "71661"
  },
  {
    "id": 6311052013,
    "province_id": 63,
    "regency_id": 6311,
    "district_id": 631105,
    "value": "Lok Hamawang",
    "postal_code": "71661"
  },
  {
    "id": 6311052017,
    "province_id": 63,
    "regency_id": 6311,
    "district_id": 631105,
    "value": "Lok Panginangan",
    "postal_code": "71661"
  },
  {
    "id": 6311052016,
    "province_id": 63,
    "regency_id": 6311,
    "district_id": 631105,
    "value": "Matang Hanau",
    "postal_code": "71661"
  },
  {
    "id": 6311052012,
    "province_id": 63,
    "regency_id": 6311,
    "district_id": 631105,
    "value": "Matang Lurus",
    "postal_code": "71661"
  },
  {
    "id": 6311052027,
    "province_id": 63,
    "regency_id": 6311,
    "district_id": 631105,
    "value": "Mundar",
    "postal_code": "71661"
  },
  {
    "id": 6311052002,
    "province_id": 63,
    "regency_id": 6311,
    "district_id": 631105,
    "value": "Panaitan",
    "postal_code": "71661"
  },
  {
    "id": 6311052021,
    "province_id": 63,
    "regency_id": 6311,
    "district_id": 631105,
    "value": "Pimping",
    "postal_code": "71661"
  },
  {
    "id": 6311052024,
    "province_id": 63,
    "regency_id": 6311,
    "district_id": 631105,
    "value": "Pupuyuan",
    "postal_code": "71661"
  },
  {
    "id": 6311052025,
    "province_id": 63,
    "regency_id": 6311,
    "district_id": 631105,
    "value": "Sei/Sungai Awang",
    "postal_code": "71661"
  },
  {
    "id": 6311052019,
    "province_id": 63,
    "regency_id": 6311,
    "district_id": 631105,
    "value": "Sei/Sungai Tabuk",
    "postal_code": "71661"
  },
  {
    "id": 6311052011,
    "province_id": 63,
    "regency_id": 6311,
    "district_id": 631105,
    "value": "Simpang Tiga",
    "postal_code": "71661"
  },
  {
    "id": 6311052015,
    "province_id": 63,
    "regency_id": 6311,
    "district_id": 631105,
    "value": "Tampang",
    "postal_code": "71661"
  },
  {
    "id": 6311052003,
    "province_id": 63,
    "regency_id": 6311,
    "district_id": 631105,
    "value": "Tanah Habang Kanan",
    "postal_code": "71661"
  },
  {
    "id": 6311052001,
    "province_id": 63,
    "regency_id": 6311,
    "district_id": 631105,
    "value": "Tanah Habang Kiri",
    "postal_code": "71661"
  },
  {
    "id": 6311052023,
    "province_id": 63,
    "regency_id": 6311,
    "district_id": 631105,
    "value": "Teluk Karya",
    "postal_code": "71661"
  }
]