[
  {
    "id": 3525122011,
    "province_id": 35,
    "regency_id": 3525,
    "district_id": 352512,
    "value": "Abar-Abir",
    "postal_code": "61152"
  },
  {
    "id": 3525122018,
    "province_id": 35,
    "regency_id": 3525,
    "district_id": 352512,
    "value": "Bedanten",
    "postal_code": "61152"
  },
  {
    "id": 3525122012,
    "province_id": 35,
    "regency_id": 3525,
    "district_id": 352512,
    "value": "Bungah",
    "postal_code": "61152"
  },
  {
    "id": 3525122015,
    "province_id": 35,
    "regency_id": 3525,
    "district_id": 352512,
    "value": "Gumeng",
    "postal_code": "61152"
  },
  {
    "id": 3525122017,
    "province_id": 35,
    "regency_id": 3525,
    "district_id": 352512,
    "value": "Indrodelik",
    "postal_code": "61152"
  },
  {
    "id": 3525122013,
    "province_id": 35,
    "regency_id": 3525,
    "district_id": 352512,
    "value": "Kemangi",
    "postal_code": "61152"
  },
  {
    "id": 3525122014,
    "province_id": 35,
    "regency_id": 3525,
    "district_id": 352512,
    "value": "Kisik",
    "postal_code": "61152"
  },
  {
    "id": 3525122022,
    "province_id": 35,
    "regency_id": 3525,
    "district_id": 352512,
    "value": "Kramat",
    "postal_code": "61152"
  },
  {
    "id": 3525122007,
    "province_id": 35,
    "regency_id": 3525,
    "district_id": 352512,
    "value": "Masangan",
    "postal_code": "61152"
  },
  {
    "id": 3525122004,
    "province_id": 35,
    "regency_id": 3525,
    "district_id": 352512,
    "value": "Melirang",
    "postal_code": "61152"
  },
  {
    "id": 3525122002,
    "province_id": 35,
    "regency_id": 3525,
    "district_id": 352512,
    "value": "Mojopurogede (Mojopuro Gede)",
    "postal_code": "61152"
  },
  {
    "id": 3525122003,
    "province_id": 35,
    "regency_id": 3525,
    "district_id": 352512,
    "value": "Mojopurowetan (Mojopuro Wetan)",
    "postal_code": "61152"
  },
  {
    "id": 3525122009,
    "province_id": 35,
    "regency_id": 3525,
    "district_id": 352512,
    "value": "Pegundan",
    "postal_code": "61152"
  },
  {
    "id": 3525122006,
    "province_id": 35,
    "regency_id": 3525,
    "district_id": 352512,
    "value": "Raciwetan",
    "postal_code": "61152"
  },
  {
    "id": 3525122008,
    "province_id": 35,
    "regency_id": 3525,
    "district_id": 352512,
    "value": "Sidokumpul",
    "postal_code": "61152"
  },
  {
    "id": 3525122001,
    "province_id": 35,
    "regency_id": 3525,
    "district_id": 352512,
    "value": "Sidomukti",
    "postal_code": "61152"
  },
  {
    "id": 3525122005,
    "province_id": 35,
    "regency_id": 3525,
    "district_id": 352512,
    "value": "Sidorejo",
    "postal_code": "61152"
  },
  {
    "id": 3525122016,
    "province_id": 35,
    "regency_id": 3525,
    "district_id": 352512,
    "value": "Sukorejo",
    "postal_code": "61152"
  },
  {
    "id": 3525122010,
    "province_id": 35,
    "regency_id": 3525,
    "district_id": 352512,
    "value": "Sukowati",
    "postal_code": "61152"
  },
  {
    "id": 3525122019,
    "province_id": 35,
    "regency_id": 3525,
    "district_id": 352512,
    "value": "Sungonlegowo",
    "postal_code": "61152"
  },
  {
    "id": 3525122020,
    "province_id": 35,
    "regency_id": 3525,
    "district_id": 352512,
    "value": "Tanjung Widoro (Tajung Widoro)",
    "postal_code": "61152"
  },
  {
    "id": 3525122021,
    "province_id": 35,
    "regency_id": 3525,
    "district_id": 352512,
    "value": "Watuagung",
    "postal_code": "61152"
  }
]