[
  {
    "id": 3204061002,
    "province_id": 32,
    "regency_id": 3204,
    "district_id": 320406,
    "value": "Cibeunying",
    "postal_code": "40191"
  },
  {
    "id": 3204062006,
    "province_id": 32,
    "regency_id": 3204,
    "district_id": 320406,
    "value": "Ciburial",
    "postal_code": "40198"
  },
  {
    "id": 3204062005,
    "province_id": 32,
    "regency_id": 3204,
    "district_id": 320406,
    "value": "Cikadut",
    "postal_code": "40191"
  },
  {
    "id": 3204062003,
    "province_id": 32,
    "regency_id": 3204,
    "district_id": 320406,
    "value": "Cimenyan",
    "postal_code": "40197"
  },
  {
    "id": 3204062004,
    "province_id": 32,
    "regency_id": 3204,
    "district_id": 320406,
    "value": "Mandalamekar",
    "postal_code": "40193"
  },
  {
    "id": 3204062009,
    "province_id": 32,
    "regency_id": 3204,
    "district_id": 320406,
    "value": "Mekarmanik",
    "postal_code": "40196"
  },
  {
    "id": 3204062008,
    "province_id": 32,
    "regency_id": 3204,
    "district_id": 320406,
    "value": "Mekarsaluyu",
    "postal_code": "40198"
  },
  {
    "id": 3204061001,
    "province_id": 32,
    "regency_id": 3204,
    "district_id": 320406,
    "value": "Padasuka",
    "postal_code": "40191"
  },
  {
    "id": 3204062007,
    "province_id": 32,
    "regency_id": 3204,
    "district_id": 320406,
    "value": "Sindanglaya",
    "postal_code": "40195"
  }
]