[
  {
    "id": 731708,
    "province_id": 73,
    "regency_id": 7317,
    "district_id": 731708,
    "value": "Barowa",
    "postal_code": "91991"
  },
  {
    "id": 731708,
    "province_id": 73,
    "regency_id": 7317,
    "district_id": 731708,
    "value": "Bukit Harapan",
    "postal_code": "91991"
  },
  {
    "id": 731708,
    "province_id": 73,
    "regency_id": 7317,
    "district_id": 731708,
    "value": "Karang-Karangan",
    "postal_code": "91991"
  },
  {
    "id": 731708,
    "province_id": 73,
    "regency_id": 7317,
    "district_id": 731708,
    "value": "Lare-Lare",
    "postal_code": "91991"
  },
  {
    "id": 731708,
    "province_id": 73,
    "regency_id": 7317,
    "district_id": 731708,
    "value": "Lengkong",
    "postal_code": "91991"
  },
  {
    "id": 731708,
    "province_id": 73,
    "regency_id": 7317,
    "district_id": 731708,
    "value": "Pabbaresseng",
    "postal_code": "91991"
  },
  {
    "id": 731708,
    "province_id": 73,
    "regency_id": 7317,
    "district_id": 731708,
    "value": "Padang Kalua",
    "postal_code": "91991"
  },
  {
    "id": 731708,
    "province_id": 73,
    "regency_id": 7317,
    "district_id": 731708,
    "value": "Pammesakang (Pamessakang)",
    "postal_code": "91991"
  },
  {
    "id": 731708,
    "province_id": 73,
    "regency_id": 7317,
    "district_id": 731708,
    "value": "Posi",
    "postal_code": "91991"
  },
  {
    "id": 731708,
    "province_id": 73,
    "regency_id": 7317,
    "district_id": 731708,
    "value": "Puty",
    "postal_code": "91991"
  },
  {
    "id": 731708,
    "province_id": 73,
    "regency_id": 7317,
    "district_id": 731708,
    "value": "Raja",
    "postal_code": "91991"
  },
  {
    "id": 731708,
    "province_id": 73,
    "regency_id": 7317,
    "district_id": 731708,
    "value": "Sakti",
    "postal_code": "91991"
  },
  {
    "id": 731708,
    "province_id": 73,
    "regency_id": 7317,
    "district_id": 731708,
    "value": "Tana Rigella (Tana Rigellan / Tanah Rigella)",
    "postal_code": "91991"
  },
  {
    "id": 731708,
    "province_id": 73,
    "regency_id": 7317,
    "district_id": 731708,
    "value": "Tiromanda",
    "postal_code": "91991"
  },
  {
    "id": 731708,
    "province_id": 73,
    "regency_id": 7317,
    "district_id": 731708,
    "value": "Toddopuli",
    "postal_code": "91991"
  }
]