[
  {
    "id": 1605212003,
    "province_id": 16,
    "regency_id": 1605,
    "district_id": 160521,
    "value": "Bangun Rejo",
    "postal_code": "31665"
  },
  {
    "id": 1605212004,
    "province_id": 16,
    "regency_id": 1605,
    "district_id": 160521,
    "value": "Ciptodadi",
    "postal_code": "31665"
  },
  {
    "id": 1605212008,
    "province_id": 16,
    "regency_id": 1605,
    "district_id": 160521,
    "value": "Ciptodadi II",
    "postal_code": "31665"
  },
  {
    "id": 1605212007,
    "province_id": 16,
    "regency_id": 1605,
    "district_id": 160521,
    "value": "Rantau Alih",
    "postal_code": "31665"
  },
  {
    "id": 1605212002,
    "province_id": 16,
    "regency_id": 1605,
    "district_id": 160521,
    "value": "Sugih Waras",
    "postal_code": "31665"
  },
  {
    "id": 1605212005,
    "province_id": 16,
    "regency_id": 1605,
    "district_id": 160521,
    "value": "Sukarena",
    "postal_code": "31665"
  },
  {
    "id": 1605212001,
    "province_id": 16,
    "regency_id": 1605,
    "district_id": 160521,
    "value": "Sukowarno",
    "postal_code": "31665"
  },
  {
    "id": 1605212006,
    "province_id": 16,
    "regency_id": 1605,
    "district_id": 160521,
    "value": "Yudha Karya Bakti (Yudha Karya Bhakti)",
    "postal_code": "31665"
  }
]