[
  {
    "id": 3529032005,
    "province_id": 35,
    "regency_id": 3529,
    "district_id": 352903,
    "value": "Gadding",
    "postal_code": "69452"
  },
  {
    "id": 3529032006,
    "province_id": 35,
    "regency_id": 3529,
    "district_id": 352903,
    "value": "Giring",
    "postal_code": "69452"
  },
  {
    "id": 3529032007,
    "province_id": 35,
    "regency_id": 3529,
    "district_id": 352903,
    "value": "Gunung Kembar",
    "postal_code": "69452"
  },
  {
    "id": 3529032008,
    "province_id": 35,
    "regency_id": 3529,
    "district_id": 352903,
    "value": "Jaba'an",
    "postal_code": "69452"
  },
  {
    "id": 3529032001,
    "province_id": 35,
    "regency_id": 3529,
    "district_id": 352903,
    "value": "Kasengan",
    "postal_code": "69452"
  },
  {
    "id": 3529032002,
    "province_id": 35,
    "regency_id": 3529,
    "district_id": 352903,
    "value": "Lalangon",
    "postal_code": "69452"
  },
  {
    "id": 3529032004,
    "province_id": 35,
    "regency_id": 3529,
    "district_id": 352903,
    "value": "Lanjuk",
    "postal_code": "69452"
  },
  {
    "id": 3529032011,
    "province_id": 35,
    "regency_id": 3529,
    "district_id": 352903,
    "value": "Manding Daya",
    "postal_code": "69452"
  },
  {
    "id": 3529032009,
    "province_id": 35,
    "regency_id": 3529,
    "district_id": 352903,
    "value": "Manding Laok",
    "postal_code": "69452"
  },
  {
    "id": 3529032010,
    "province_id": 35,
    "regency_id": 3529,
    "district_id": 352903,
    "value": "Manding Timur",
    "postal_code": "69452"
  },
  {
    "id": 3529032003,
    "province_id": 35,
    "regency_id": 3529,
    "district_id": 352903,
    "value": "Tenonan",
    "postal_code": "69452"
  }
]