[
  {
    "id": 530404,
    "province_id": 53,
    "regency_id": 5304,
    "district_id": 530404,
    "value": "Bakustulama",
    "postal_code": "85753"
  },
  {
    "id": 530404,
    "province_id": 53,
    "regency_id": 5304,
    "district_id": 530404,
    "value": "Derokfaturene (Derok Faturene)",
    "postal_code": "85753"
  },
  {
    "id": 530404,
    "province_id": 53,
    "regency_id": 5304,
    "district_id": 530404,
    "value": "Lawalutolus",
    "postal_code": "85753"
  },
  {
    "id": 530404,
    "province_id": 53,
    "regency_id": 5304,
    "district_id": 530404,
    "value": "Lookeu",
    "postal_code": "85753"
  },
  {
    "id": 530404,
    "province_id": 53,
    "regency_id": 5304,
    "district_id": 530404,
    "value": "Naekasa",
    "postal_code": "85753"
  },
  {
    "id": 530404,
    "province_id": 53,
    "regency_id": 5304,
    "district_id": 530404,
    "value": "Naitimu",
    "postal_code": "85753"
  },
  {
    "id": 530404,
    "province_id": 53,
    "regency_id": 5304,
    "district_id": 530404,
    "value": "Rinbesihat",
    "postal_code": "85753"
  },
  {
    "id": 530404,
    "province_id": 53,
    "regency_id": 5304,
    "district_id": 530404,
    "value": "Tukuneno",
    "postal_code": "85753"
  }
]