[
  {
    "id": 911510,
    "province_id": 91,
    "regency_id": 9115,
    "district_id": 911510,
    "value": "Aru Antu (Antu Aru)",
    "postal_code": "98673"
  },
  {
    "id": 911510,
    "province_id": 91,
    "regency_id": 9115,
    "district_id": 911510,
    "value": "Dairi",
    "postal_code": "98673"
  },
  {
    "id": 911510,
    "province_id": 91,
    "regency_id": 9115,
    "district_id": 911510,
    "value": "Dirou",
    "postal_code": "98673"
  },
  {
    "id": 911510,
    "province_id": 91,
    "regency_id": 9115,
    "district_id": 911510,
    "value": "Diwah (Diwa)",
    "postal_code": "98673"
  },
  {
    "id": 911510,
    "province_id": 91,
    "regency_id": 9115,
    "district_id": 911510,
    "value": "Foira (Poira)",
    "postal_code": "98673"
  },
  {
    "id": 911510,
    "province_id": 91,
    "regency_id": 9115,
    "district_id": 911510,
    "value": "Kawari",
    "postal_code": "98673"
  },
  {
    "id": 911510,
    "province_id": 91,
    "regency_id": 9115,
    "district_id": 911510,
    "value": "Kuaisa",
    "postal_code": "98673"
  },
  {
    "id": 911510,
    "province_id": 91,
    "regency_id": 9115,
    "district_id": 911510,
    "value": "Sooh",
    "postal_code": "98673"
  },
  {
    "id": 911510,
    "province_id": 91,
    "regency_id": 9115,
    "district_id": 911510,
    "value": "Spoiri",
    "postal_code": "98673"
  },
  {
    "id": 911510,
    "province_id": 91,
    "regency_id": 9115,
    "district_id": 911510,
    "value": "Wafuka",
    "postal_code": "98673"
  }
]