[
  {
    "id": 9507322001,
    "province_id": 95,
    "regency_id": 9507,
    "district_id": 950732,
    "value": "Ayafofa",
    "postal_code": "99568"
  },
  {
    "id": 9507322006,
    "province_id": 95,
    "regency_id": 9507,
    "district_id": 950732,
    "value": "Delegari",
    "postal_code": "99568"
  },
  {
    "id": 9507322007,
    "province_id": 95,
    "regency_id": 9507,
    "district_id": 950732,
    "value": "Igimbua",
    "postal_code": "99568"
  },
  {
    "id": 9507322002,
    "province_id": 95,
    "regency_id": 9507,
    "district_id": 950732,
    "value": "Salemo",
    "postal_code": "99568"
  },
  {
    "id": 9507322004,
    "province_id": 95,
    "regency_id": 9507,
    "district_id": 950732,
    "value": "Towoluk",
    "postal_code": "99568"
  },
  {
    "id": 9507322005,
    "province_id": 95,
    "regency_id": 9507,
    "district_id": 950732,
    "value": "Tunume",
    "postal_code": "99568"
  },
  {
    "id": 9507322008,
    "province_id": 95,
    "regency_id": 9507,
    "district_id": 950732,
    "value": "Yilokdu",
    "postal_code": "99568"
  },
  {
    "id": 9507322003,
    "province_id": 95,
    "regency_id": 9507,
    "district_id": 950732,
    "value": "Yudani",
    "postal_code": "99568"
  }
]