[
  {
    "id": 340312,
    "province_id": 34,
    "regency_id": 3403,
    "district_id": 340312,
    "value": "Bendung",
    "postal_code": "55854"
  },
  {
    "id": 340312,
    "province_id": 34,
    "regency_id": 3403,
    "district_id": 340312,
    "value": "Bulurejo",
    "postal_code": "55854"
  },
  {
    "id": 340312,
    "province_id": 34,
    "regency_id": 3403,
    "district_id": 340312,
    "value": "Candirejo (Candi Rejo)",
    "postal_code": "55854"
  },
  {
    "id": 340312,
    "province_id": 34,
    "regency_id": 3403,
    "district_id": 340312,
    "value": "Kalitekuk",
    "postal_code": "55854"
  },
  {
    "id": 340312,
    "province_id": 34,
    "regency_id": 3403,
    "district_id": 340312,
    "value": "Karangsari (Karang Sari)",
    "postal_code": "55854"
  },
  {
    "id": 340312,
    "province_id": 34,
    "regency_id": 3403,
    "district_id": 340312,
    "value": "Kemejing",
    "postal_code": "55854"
  },
  {
    "id": 340312,
    "province_id": 34,
    "regency_id": 3403,
    "district_id": 340312,
    "value": "Pundungsari (Pundung Sari)",
    "postal_code": "55854"
  },
  {
    "id": 340312,
    "province_id": 34,
    "regency_id": 3403,
    "district_id": 340312,
    "value": "Rejosari",
    "postal_code": "55854"
  },
  {
    "id": 340312,
    "province_id": 34,
    "regency_id": 3403,
    "district_id": 340312,
    "value": "Semin",
    "postal_code": "55854"
  },
  {
    "id": 340312,
    "province_id": 34,
    "regency_id": 3403,
    "district_id": 340312,
    "value": "Sumberejo (Sumberrejo)",
    "postal_code": "55854"
  }
]