[
  {
    "id": 7210112007,
    "province_id": 72,
    "regency_id": 7210,
    "district_id": 721011,
    "value": "Balamoa",
    "postal_code": "94360"
  },
  {
    "id": 7210112011,
    "province_id": 72,
    "regency_id": 7210,
    "district_id": 721011,
    "value": "Balaroa Pewenu",
    "postal_code": "94360"
  },
  {
    "id": 7210112006,
    "province_id": 72,
    "regency_id": 7210,
    "district_id": 721011,
    "value": "Balumpewa",
    "postal_code": "94360"
  },
  {
    "id": 7210112010,
    "province_id": 72,
    "regency_id": 7210,
    "district_id": 721011,
    "value": "Bobo",
    "postal_code": "94360"
  },
  {
    "id": 7210112004,
    "province_id": 72,
    "regency_id": 7210,
    "district_id": 721011,
    "value": "Kaleke",
    "postal_code": "94360"
  },
  {
    "id": 7210112002,
    "province_id": 72,
    "regency_id": 7210,
    "district_id": 721011,
    "value": "Kaluku Tinggu",
    "postal_code": "94360"
  },
  {
    "id": 7210112012,
    "province_id": 72,
    "regency_id": 7210,
    "district_id": 721011,
    "value": "Luku",
    "postal_code": "94360"
  },
  {
    "id": 7210112009,
    "province_id": 72,
    "regency_id": 7210,
    "district_id": 721011,
    "value": "Mantikole",
    "postal_code": "94360"
  },
  {
    "id": 7210112008,
    "province_id": 72,
    "regency_id": 7210,
    "district_id": 721011,
    "value": "Pesaku",
    "postal_code": "94360"
  },
  {
    "id": 7210112003,
    "province_id": 72,
    "regency_id": 7210,
    "district_id": 721011,
    "value": "Pewunu",
    "postal_code": "94360"
  },
  {
    "id": 7210112005,
    "province_id": 72,
    "regency_id": 7210,
    "district_id": 721011,
    "value": "Rarampadende",
    "postal_code": "94360"
  },
  {
    "id": 7210112001,
    "province_id": 72,
    "regency_id": 7210,
    "district_id": 721011,
    "value": "Sibonu",
    "postal_code": "94360"
  }
]