[
  {
    "id": 122507,
    "province_id": 12,
    "regency_id": 1225,
    "district_id": 122507,
    "value": "Ambukha",
    "postal_code": "22875"
  },
  {
    "id": 122507,
    "province_id": 12,
    "regency_id": 1225,
    "district_id": 122507,
    "value": "Duria",
    "postal_code": "22875"
  },
  {
    "id": 122507,
    "province_id": 12,
    "regency_id": 1225,
    "district_id": 122507,
    "value": "Hilimbowo Mau",
    "postal_code": "22875"
  },
  {
    "id": 122507,
    "province_id": 12,
    "regency_id": 1225,
    "district_id": 122507,
    "value": "Hilimbuasi",
    "postal_code": "22875"
  },
  {
    "id": 122507,
    "province_id": 12,
    "regency_id": 1225,
    "district_id": 122507,
    "value": "Hiliuso",
    "postal_code": "22875"
  },
  {
    "id": 122507,
    "province_id": 12,
    "regency_id": 1225,
    "district_id": 122507,
    "value": "Lolofitu",
    "postal_code": "22875"
  },
  {
    "id": 122507,
    "province_id": 12,
    "regency_id": 1225,
    "district_id": 122507,
    "value": "Sisobawino II",
    "postal_code": "22875"
  },
  {
    "id": 122507,
    "province_id": 12,
    "regency_id": 1225,
    "district_id": 122507,
    "value": "Wango",
    "postal_code": "22875"
  }
]