[
  {
    "id": 5318022007,
    "province_id": 53,
    "regency_id": 5318,
    "district_id": 531802,
    "value": "Bodo Ponda",
    "postal_code": "87251"
  },
  {
    "id": 5318022011,
    "province_id": 53,
    "regency_id": 5318,
    "district_id": 531802,
    "value": "Djela Manu",
    "postal_code": "87251"
  },
  {
    "id": 5318022001,
    "province_id": 53,
    "regency_id": 5318,
    "district_id": 531802,
    "value": "Mali Mada",
    "postal_code": "87251"
  },
  {
    "id": 5318022004,
    "province_id": 53,
    "regency_id": 5318,
    "district_id": 531802,
    "value": "Mata Loko (Mataloko)",
    "postal_code": "87251"
  },
  {
    "id": 5318022012,
    "province_id": 53,
    "regency_id": 5318,
    "district_id": 531802,
    "value": "Mawo Maliti",
    "postal_code": "87251"
  },
  {
    "id": 5318022009,
    "province_id": 53,
    "regency_id": 5318,
    "district_id": 531802,
    "value": "Odi Paurata",
    "postal_code": "87251"
  },
  {
    "id": 5318022010,
    "province_id": 53,
    "regency_id": 5318,
    "district_id": 531802,
    "value": "Pandua Tana",
    "postal_code": "87251"
  },
  {
    "id": 5318022006,
    "province_id": 53,
    "regency_id": 5318,
    "district_id": 531802,
    "value": "Puu Potto",
    "postal_code": "87251"
  },
  {
    "id": 5318022008,
    "province_id": 53,
    "regency_id": 5318,
    "district_id": 531802,
    "value": "Reda Wano",
    "postal_code": "87251"
  },
  {
    "id": 5318022002,
    "province_id": 53,
    "regency_id": 5318,
    "district_id": 531802,
    "value": "Wano Talla",
    "postal_code": "87251"
  },
  {
    "id": 5318022005,
    "province_id": 53,
    "regency_id": 5318,
    "district_id": 531802,
    "value": "Wee Namba",
    "postal_code": "87251"
  },
  {
    "id": 5318022003,
    "province_id": 53,
    "regency_id": 5318,
    "district_id": 531802,
    "value": "Wee Paboba",
    "postal_code": "87251"
  }
]