[
  {
    "id": 140420,
    "province_id": 14,
    "regency_id": 1404,
    "district_id": 140420,
    "value": "Benteng",
    "postal_code": "29270"
  },
  {
    "id": 140420,
    "province_id": 14,
    "regency_id": 1404,
    "district_id": 140420,
    "value": "Benteng Barat",
    "postal_code": "29270"
  },
  {
    "id": 140420,
    "province_id": 14,
    "regency_id": 1404,
    "district_id": 140420,
    "value": "Benteng Utara",
    "postal_code": "29270"
  },
  {
    "id": 140420,
    "province_id": 14,
    "regency_id": 1404,
    "district_id": 140420,
    "value": "Kuala Patah Parang",
    "postal_code": "29270"
  },
  {
    "id": 140420,
    "province_id": 14,
    "regency_id": 1404,
    "district_id": 140420,
    "value": "Kuala Sungai Batang",
    "postal_code": "29270"
  },
  {
    "id": 140420,
    "province_id": 14,
    "regency_id": 1404,
    "district_id": 140420,
    "value": "Mugo Mulyo",
    "postal_code": "29270"
  },
  {
    "id": 140420,
    "province_id": 14,
    "regency_id": 1404,
    "district_id": 140420,
    "value": "Pandan Sari",
    "postal_code": "29270"
  },
  {
    "id": 140420,
    "province_id": 14,
    "regency_id": 1404,
    "district_id": 140420,
    "value": "Pasenggerahan (Pesanggerahan / Pasenggarahan)",
    "postal_code": "29270"
  }
]