[
  {
    "id": 130805,
    "province_id": 13,
    "regency_id": 1308,
    "district_id": 130805,
    "value": "Aia Manggih",
    "postal_code": "26318"
  },
  {
    "id": 130805,
    "province_id": 13,
    "regency_id": 1308,
    "district_id": 130805,
    "value": "Aia Manggih Barat",
    "postal_code": "26318"
  },
  {
    "id": 130805,
    "province_id": 13,
    "regency_id": 1308,
    "district_id": 130805,
    "value": "Aia Manggih Selatan",
    "postal_code": "26318"
  },
  {
    "id": 130805,
    "province_id": 13,
    "regency_id": 1308,
    "district_id": 130805,
    "value": "Aia Manggih Utara",
    "postal_code": "26318"
  },
  {
    "id": 130805,
    "province_id": 13,
    "regency_id": 1308,
    "district_id": 130805,
    "value": "Durian Tinggi",
    "postal_code": "26318"
  },
  {
    "id": 130805,
    "province_id": 13,
    "regency_id": 1308,
    "district_id": 130805,
    "value": "Jambak",
    "postal_code": "26318"
  },
  {
    "id": 130805,
    "province_id": 13,
    "regency_id": 1308,
    "district_id": 130805,
    "value": "Pauah",
    "postal_code": "26318"
  },
  {
    "id": 130805,
    "province_id": 13,
    "regency_id": 1308,
    "district_id": 130805,
    "value": "Sundata",
    "postal_code": "26318"
  },
  {
    "id": 130805,
    "province_id": 13,
    "regency_id": 1308,
    "district_id": 130805,
    "value": "Sundata Selatan",
    "postal_code": "26318"
  },
  {
    "id": 130805,
    "province_id": 13,
    "regency_id": 1308,
    "district_id": 130805,
    "value": "Sundata Utara",
    "postal_code": "26318"
  },
  {
    "id": 130805,
    "province_id": 13,
    "regency_id": 1308,
    "district_id": 130805,
    "value": "Tanjuang Baringin",
    "postal_code": "26318"
  },
  {
    "id": 130805,
    "province_id": 13,
    "regency_id": 1308,
    "district_id": 130805,
    "value": "Tanjuang Baringin Selatan",
    "postal_code": "26318"
  },
  {
    "id": 130805,
    "province_id": 13,
    "regency_id": 1308,
    "district_id": 130805,
    "value": "Tanjuang Baringin Utara",
    "postal_code": "26318"
  }
]