[
  {
    "id": 7210132002,
    "province_id": 72,
    "regency_id": 7210,
    "district_id": 721013,
    "value": "Balane",
    "postal_code": "94362"
  },
  {
    "id": 7210132005,
    "province_id": 72,
    "regency_id": 7210,
    "district_id": 721013,
    "value": "Bolobia",
    "postal_code": "94362"
  },
  {
    "id": 7210132009,
    "province_id": 72,
    "regency_id": 7210,
    "district_id": 721013,
    "value": "Daenggune",
    "postal_code": "94362"
  },
  {
    "id": 7210132006,
    "province_id": 72,
    "regency_id": 7210,
    "district_id": 721013,
    "value": "Doda",
    "postal_code": "94362"
  },
  {
    "id": 7210132007,
    "province_id": 72,
    "regency_id": 7210,
    "district_id": 721013,
    "value": "Kalora",
    "postal_code": "94362"
  },
  {
    "id": 7210132008,
    "province_id": 72,
    "regency_id": 7210,
    "district_id": 721013,
    "value": "Kanuna",
    "postal_code": "94362"
  },
  {
    "id": 7210132010,
    "province_id": 72,
    "regency_id": 7210,
    "district_id": 721013,
    "value": "Kayumpia",
    "postal_code": "94362"
  },
  {
    "id": 7210132001,
    "province_id": 72,
    "regency_id": 7210,
    "district_id": 721013,
    "value": "Porame",
    "postal_code": "94362"
  },
  {
    "id": 7210132004,
    "province_id": 72,
    "regency_id": 7210,
    "district_id": 721013,
    "value": "Rondingo",
    "postal_code": "94362"
  },
  {
    "id": 7210132003,
    "province_id": 72,
    "regency_id": 7210,
    "district_id": 721013,
    "value": "Uwemanje",
    "postal_code": "94362"
  }
]