[
  {
    "id": 920308,
    "province_id": 92,
    "regency_id": 9203,
    "district_id": 920308,
    "value": "Bahbadan",
    "postal_code": "98017"
  },
  {
    "id": 920308,
    "province_id": 92,
    "regency_id": 9203,
    "district_id": 920308,
    "value": "Gewab",
    "postal_code": "98017"
  },
  {
    "id": 920308,
    "province_id": 92,
    "regency_id": 9203,
    "district_id": 920308,
    "value": "Kramongmongga",
    "postal_code": "98017"
  },
  {
    "id": 920308,
    "province_id": 92,
    "regency_id": 9203,
    "district_id": 920308,
    "value": "Kwamkwamur",
    "postal_code": "98017"
  },
  {
    "id": 920308,
    "province_id": 92,
    "regency_id": 9203,
    "district_id": 920308,
    "value": "Mamur",
    "postal_code": "98017"
  },
  {
    "id": 920308,
    "province_id": 92,
    "regency_id": 9203,
    "district_id": 920308,
    "value": "Mbaham Ma Youn",
    "postal_code": "98017"
  },
  {
    "id": 920308,
    "province_id": 92,
    "regency_id": 9203,
    "district_id": 920308,
    "value": "Nembukteb",
    "postal_code": "98017"
  },
  {
    "id": 920308,
    "province_id": 92,
    "regency_id": 9203,
    "district_id": 920308,
    "value": "Pikpik",
    "postal_code": "98017"
  },
  {
    "id": 920308,
    "province_id": 92,
    "regency_id": 9203,
    "district_id": 920308,
    "value": "Tentreda",
    "postal_code": "98017"
  },
  {
    "id": 920308,
    "province_id": 92,
    "regency_id": 9203,
    "district_id": 920308,
    "value": "Wargep",
    "postal_code": "98017"
  }
]