[
  {
    "id": 7203081028,
    "province_id": 72,
    "regency_id": 7203,
    "district_id": 720308,
    "value": "Boneoge",
    "postal_code": "94351"
  },
  {
    "id": 7203081026,
    "province_id": 72,
    "regency_id": 7203,
    "district_id": 720308,
    "value": "Boya",
    "postal_code": "94351"
  },
  {
    "id": 7203081020,
    "province_id": 72,
    "regency_id": 7203,
    "district_id": 720308,
    "value": "Ganti",
    "postal_code": "94351"
  },
  {
    "id": 7203081023,
    "province_id": 72,
    "regency_id": 7203,
    "district_id": 720308,
    "value": "Gunung Bale",
    "postal_code": "94351"
  },
  {
    "id": 7203081021,
    "province_id": 72,
    "regency_id": 7203,
    "district_id": 720308,
    "value": "Kabonga Besar",
    "postal_code": "94351"
  },
  {
    "id": 7203081022,
    "province_id": 72,
    "regency_id": 7203,
    "district_id": 720308,
    "value": "Kabonga Kecil",
    "postal_code": "94351"
  },
  {
    "id": 7203081027,
    "province_id": 72,
    "regency_id": 7203,
    "district_id": 720308,
    "value": "Labuan Bajo",
    "postal_code": "94351"
  },
  {
    "id": 7203082030,
    "province_id": 72,
    "regency_id": 7203,
    "district_id": 720308,
    "value": "Loli Dondo",
    "postal_code": "94351"
  },
  {
    "id": 7203082012,
    "province_id": 72,
    "regency_id": 7203,
    "district_id": 720308,
    "value": "Loli Oge (Lolioge)",
    "postal_code": "94351"
  },
  {
    "id": 7203082029,
    "province_id": 72,
    "regency_id": 7203,
    "district_id": 720308,
    "value": "Loli Pesua",
    "postal_code": "94351"
  },
  {
    "id": 7203082031,
    "province_id": 72,
    "regency_id": 7203,
    "district_id": 720308,
    "value": "Loli Saluran",
    "postal_code": "94351"
  },
  {
    "id": 7203082013,
    "province_id": 72,
    "regency_id": 7203,
    "district_id": 720308,
    "value": "Loli Tasibori (Tasiburi)",
    "postal_code": "94351"
  },
  {
    "id": 7203081024,
    "province_id": 72,
    "regency_id": 7203,
    "district_id": 720308,
    "value": "Maleni",
    "postal_code": "94351"
  },
  {
    "id": 7203081025,
    "province_id": 72,
    "regency_id": 7203,
    "district_id": 720308,
    "value": "Tanjung Batu",
    "postal_code": "94351"
  }
]