[
  {
    "id": 731711,
    "province_id": 73,
    "regency_id": 7317,
    "district_id": 731711,
    "value": "Buntu Kamiri",
    "postal_code": "91999"
  },
  {
    "id": 731711,
    "province_id": 73,
    "regency_id": 7317,
    "district_id": 731711,
    "value": "Buntu Nanna (Buntu Kanna)",
    "postal_code": "91999"
  },
  {
    "id": 731711,
    "province_id": 73,
    "regency_id": 7317,
    "district_id": 731711,
    "value": "Mario",
    "postal_code": "91999"
  },
  {
    "id": 731711,
    "province_id": 73,
    "regency_id": 7317,
    "district_id": 731711,
    "value": "Muladimeng (Maladimeng)",
    "postal_code": "91999"
  },
  {
    "id": 731711,
    "province_id": 73,
    "regency_id": 7317,
    "district_id": 731711,
    "value": "Padang Sappa",
    "postal_code": "91999"
  },
  {
    "id": 731711,
    "province_id": 73,
    "regency_id": 7317,
    "district_id": 731711,
    "value": "Padang Subur",
    "postal_code": "91999"
  },
  {
    "id": 731711,
    "province_id": 73,
    "regency_id": 7317,
    "district_id": 731711,
    "value": "Parekaju",
    "postal_code": "91999"
  },
  {
    "id": 731711,
    "province_id": 73,
    "regency_id": 7317,
    "district_id": 731711,
    "value": "Tampa",
    "postal_code": "91999"
  },
  {
    "id": 731711,
    "province_id": 73,
    "regency_id": 7317,
    "district_id": 731711,
    "value": "Tirowali",
    "postal_code": "91999"
  },
  {
    "id": 731711,
    "province_id": 73,
    "regency_id": 7317,
    "district_id": 731711,
    "value": "Tumale",
    "postal_code": "91999"
  }
]