[
  {
    "id": 5107062003,
    "province_id": 51,
    "regency_id": 5107,
    "district_id": 510706,
    "value": "Bebanden (Bebandem)",
    "postal_code": "80861"
  },
  {
    "id": 5107062007,
    "province_id": 51,
    "regency_id": 5107,
    "district_id": 510706,
    "value": "Buana Giri",
    "postal_code": "80861"
  },
  {
    "id": 5107062002,
    "province_id": 51,
    "regency_id": 5107,
    "district_id": 510706,
    "value": "Budekeling (Budakeling / Bude Keling)",
    "postal_code": "80861"
  },
  {
    "id": 5107062001,
    "province_id": 51,
    "regency_id": 5107,
    "district_id": 510706,
    "value": "Bungaya (Bungaya Kauh)",
    "postal_code": "80861"
  },
  {
    "id": 5107062006,
    "province_id": 51,
    "regency_id": 5107,
    "district_id": 510706,
    "value": "Bungaya Kangin",
    "postal_code": "80861"
  },
  {
    "id": 5107062005,
    "province_id": 51,
    "regency_id": 5107,
    "district_id": 510706,
    "value": "Jungutan",
    "postal_code": "80861"
  },
  {
    "id": 5107062008,
    "province_id": 51,
    "regency_id": 5107,
    "district_id": 510706,
    "value": "Macang",
    "postal_code": "80861"
  },
  {
    "id": 5107062004,
    "province_id": 51,
    "regency_id": 5107,
    "district_id": 510706,
    "value": "Sibetan",
    "postal_code": "80861"
  }
]