[
  {
    "id": 351819,
    "province_id": 35,
    "regency_id": 3518,
    "district_id": 351819,
    "value": "Balongasem (Balong Asem)",
    "postal_code": "64393"
  },
  {
    "id": 351819,
    "province_id": 35,
    "regency_id": 3518,
    "district_id": 351819,
    "value": "Bangle (Banggle)",
    "postal_code": "64393"
  },
  {
    "id": 351819,
    "province_id": 35,
    "regency_id": 3518,
    "district_id": 351819,
    "value": "Banjardowo (Banjar Dowo)",
    "postal_code": "64393"
  },
  {
    "id": 351819,
    "province_id": 35,
    "regency_id": 3518,
    "district_id": 351819,
    "value": "Jatipunggur (Jati Punggur)",
    "postal_code": "64393"
  },
  {
    "id": 351819,
    "province_id": 35,
    "regency_id": 3518,
    "district_id": 351819,
    "value": "Jegreg",
    "postal_code": "64393"
  },
  {
    "id": 351819,
    "province_id": 35,
    "regency_id": 3518,
    "district_id": 351819,
    "value": "Kedungmlaten (Kedung Mlaten)",
    "postal_code": "64393"
  },
  {
    "id": 351819,
    "province_id": 35,
    "regency_id": 3518,
    "district_id": 351819,
    "value": "Ketandan",
    "postal_code": "64393"
  },
  {
    "id": 351819,
    "province_id": 35,
    "regency_id": 3518,
    "district_id": 351819,
    "value": "Lengkong",
    "postal_code": "64393"
  },
  {
    "id": 351819,
    "province_id": 35,
    "regency_id": 3518,
    "district_id": 351819,
    "value": "Ngepung",
    "postal_code": "64393"
  },
  {
    "id": 351819,
    "province_id": 35,
    "regency_id": 3518,
    "district_id": 351819,
    "value": "Ngringin",
    "postal_code": "64393"
  },
  {
    "id": 351819,
    "province_id": 35,
    "regency_id": 3518,
    "district_id": 351819,
    "value": "Pinggir",
    "postal_code": "64393"
  },
  {
    "id": 351819,
    "province_id": 35,
    "regency_id": 3518,
    "district_id": 351819,
    "value": "Prayungan",
    "postal_code": "64393"
  },
  {
    "id": 351819,
    "province_id": 35,
    "regency_id": 3518,
    "district_id": 351819,
    "value": "Sawahan",
    "postal_code": "64393"
  },
  {
    "id": 351819,
    "province_id": 35,
    "regency_id": 3518,
    "district_id": 351819,
    "value": "Sumberkepuh (Sumber Kepuh)",
    "postal_code": "64393"
  },
  {
    "id": 351819,
    "province_id": 35,
    "regency_id": 3518,
    "district_id": 351819,
    "value": "Sumbermiri",
    "postal_code": "64393"
  },
  {
    "id": 351819,
    "province_id": 35,
    "regency_id": 3518,
    "district_id": 351819,
    "value": "Sumbersono",
    "postal_code": "64393"
  }
]