[
  {
    "id": 320233,
    "province_id": 32,
    "regency_id": 3202,
    "district_id": 320233,
    "value": "Cisarua",
    "postal_code": "43192"
  },
  {
    "id": 320233,
    "province_id": 32,
    "regency_id": 3202,
    "district_id": 320233,
    "value": "Langensari",
    "postal_code": "43192"
  },
  {
    "id": 320233,
    "province_id": 32,
    "regency_id": 3202,
    "district_id": 320233,
    "value": "Limbangan",
    "postal_code": "43192"
  },
  {
    "id": 320233,
    "province_id": 32,
    "regency_id": 3202,
    "district_id": 320233,
    "value": "Margaluyu",
    "postal_code": "43192"
  },
  {
    "id": 320233,
    "province_id": 32,
    "regency_id": 3202,
    "district_id": 320233,
    "value": "Pasirhalang",
    "postal_code": "43192"
  },
  {
    "id": 320233,
    "province_id": 32,
    "regency_id": 3202,
    "district_id": 320233,
    "value": "Selawangi",
    "postal_code": "43192"
  },
  {
    "id": 320233,
    "province_id": 32,
    "regency_id": 3202,
    "district_id": 320233,
    "value": "Selawi (Selaawi)",
    "postal_code": "43192"
  },
  {
    "id": 320233,
    "province_id": 32,
    "regency_id": 3202,
    "district_id": 320233,
    "value": "Sukamekar",
    "postal_code": "43192"
  },
  {
    "id": 320233,
    "province_id": 32,
    "regency_id": 3202,
    "district_id": 320233,
    "value": "Sukaraja",
    "postal_code": "43192"
  }
]