[
  {
    "id": 3526142010,
    "province_id": 35,
    "regency_id": 3526,
    "district_id": 352614,
    "value": "Alang Alang",
    "postal_code": "69165"
  },
  {
    "id": 3526142013,
    "province_id": 35,
    "regency_id": 3526,
    "district_id": 352614,
    "value": "Bajeman",
    "postal_code": "69165"
  },
  {
    "id": 3526142016,
    "province_id": 35,
    "regency_id": 3526,
    "district_id": 352614,
    "value": "Bancang",
    "postal_code": "69165"
  },
  {
    "id": 3526142004,
    "province_id": 35,
    "regency_id": 3526,
    "district_id": 352614,
    "value": "Banyubeseh (Banyu Beseh)",
    "postal_code": "69165"
  },
  {
    "id": 3526142008,
    "province_id": 35,
    "regency_id": 3526,
    "district_id": 352614,
    "value": "Duko Tambin (Dukotambin)",
    "postal_code": "69165"
  },
  {
    "id": 3526142017,
    "province_id": 35,
    "regency_id": 3526,
    "district_id": 352614,
    "value": "Jaah",
    "postal_code": "69165"
  },
  {
    "id": 3526142014,
    "province_id": 35,
    "regency_id": 3526,
    "district_id": 352614,
    "value": "Jaddung",
    "postal_code": "69165"
  },
  {
    "id": 3526142007,
    "province_id": 35,
    "regency_id": 3526,
    "district_id": 352614,
    "value": "Karang Leman/Lemen",
    "postal_code": "69165"
  },
  {
    "id": 3526142011,
    "province_id": 35,
    "regency_id": 3526,
    "district_id": 352614,
    "value": "Kemoneng (Kemoning)",
    "postal_code": "69165"
  },
  {
    "id": 3526142009,
    "province_id": 35,
    "regency_id": 3526,
    "district_id": 352614,
    "value": "Keteleng",
    "postal_code": "69165"
  },
  {
    "id": 3526142018,
    "province_id": 35,
    "regency_id": 3526,
    "district_id": 352614,
    "value": "Masaran",
    "postal_code": "69165"
  },
  {
    "id": 3526142015,
    "province_id": 35,
    "regency_id": 3526,
    "district_id": 352614,
    "value": "Pacangan",
    "postal_code": "69165"
  },
  {
    "id": 3526142003,
    "province_id": 35,
    "regency_id": 3526,
    "district_id": 352614,
    "value": "Pamorah",
    "postal_code": "69165"
  },
  {
    "id": 3526142005,
    "province_id": 35,
    "regency_id": 3526,
    "district_id": 352614,
    "value": "Pocong",
    "postal_code": "69165"
  },
  {
    "id": 3526142002,
    "province_id": 35,
    "regency_id": 3526,
    "district_id": 352614,
    "value": "Soket Dajah",
    "postal_code": "69165"
  },
  {
    "id": 3526142001,
    "province_id": 35,
    "regency_id": 3526,
    "district_id": 352614,
    "value": "Soket Laok",
    "postal_code": "69165"
  },
  {
    "id": 3526142012,
    "province_id": 35,
    "regency_id": 3526,
    "district_id": 352614,
    "value": "Tambin",
    "postal_code": "69165"
  },
  {
    "id": 3526142006,
    "province_id": 35,
    "regency_id": 3526,
    "district_id": 352614,
    "value": "Tragah",
    "postal_code": "69165"
  }
]