[
  {
    "id": 820402,
    "province_id": 82,
    "regency_id": 8204,
    "district_id": 820402,
    "value": "Bajo",
    "postal_code": "97780"
  },
  {
    "id": 820402,
    "province_id": 82,
    "regency_id": 8204,
    "district_id": 820402,
    "value": "Buli",
    "postal_code": "97780"
  },
  {
    "id": 820402,
    "province_id": 82,
    "regency_id": 8204,
    "district_id": 820402,
    "value": "Dorolamo",
    "postal_code": "97780"
  },
  {
    "id": 820402,
    "province_id": 82,
    "regency_id": 8204,
    "district_id": 820402,
    "value": "Gafi",
    "postal_code": "97780"
  },
  {
    "id": 820402,
    "province_id": 82,
    "regency_id": 8204,
    "district_id": 820402,
    "value": "Gunange",
    "postal_code": "97780"
  },
  {
    "id": 820402,
    "province_id": 82,
    "regency_id": 8204,
    "district_id": 820402,
    "value": "Guruapin",
    "postal_code": "97780"
  },
  {
    "id": 820402,
    "province_id": 82,
    "regency_id": 8204,
    "district_id": 820402,
    "value": "Karamat",
    "postal_code": "97780"
  },
  {
    "id": 820402,
    "province_id": 82,
    "regency_id": 8204,
    "district_id": 820402,
    "value": "Kida",
    "postal_code": "97780"
  },
  {
    "id": 820402,
    "province_id": 82,
    "regency_id": 8204,
    "district_id": 820402,
    "value": "Laigoma",
    "postal_code": "97780"
  },
  {
    "id": 820402,
    "province_id": 82,
    "regency_id": 8204,
    "district_id": 820402,
    "value": "Lelei",
    "postal_code": "97780"
  },
  {
    "id": 820402,
    "province_id": 82,
    "regency_id": 8204,
    "district_id": 820402,
    "value": "Ligua",
    "postal_code": "97780"
  },
  {
    "id": 820402,
    "province_id": 82,
    "regency_id": 8204,
    "district_id": 820402,
    "value": "Siko",
    "postal_code": "97780"
  },
  {
    "id": 820402,
    "province_id": 82,
    "regency_id": 8204,
    "district_id": 820402,
    "value": "Talimau",
    "postal_code": "97780"
  },
  {
    "id": 820402,
    "province_id": 82,
    "regency_id": 8204,
    "district_id": 820402,
    "value": "Tawabi",
    "postal_code": "97780"
  }
]