[
  {
    "id": 3513102007,
    "province_id": 35,
    "regency_id": 3513,
    "district_id": 351310,
    "value": "Alaspandan (Alas Pandan)",
    "postal_code": "67290"
  },
  {
    "id": 3513102013,
    "province_id": 35,
    "regency_id": 3513,
    "district_id": 351310,
    "value": "Bimo",
    "postal_code": "67290"
  },
  {
    "id": 3513102017,
    "province_id": 35,
    "regency_id": 3513,
    "district_id": 351310,
    "value": "Blimbing",
    "postal_code": "67290"
  },
  {
    "id": 3513102011,
    "province_id": 35,
    "regency_id": 3513,
    "district_id": 351310,
    "value": "Bucor Kulon",
    "postal_code": "67290"
  },
  {
    "id": 3513102012,
    "province_id": 35,
    "regency_id": 3513,
    "district_id": 351310,
    "value": "Bucor Wetan",
    "postal_code": "67290"
  },
  {
    "id": 3513102010,
    "province_id": 35,
    "regency_id": 3513,
    "district_id": 351310,
    "value": "Glagah",
    "postal_code": "67290"
  },
  {
    "id": 3513102015,
    "province_id": 35,
    "regency_id": 3513,
    "district_id": 351310,
    "value": "Gondosuli",
    "postal_code": "67290"
  },
  {
    "id": 3513102003,
    "province_id": 35,
    "regency_id": 3513,
    "district_id": 351310,
    "value": "Gunggungan Kidul",
    "postal_code": "67290"
  },
  {
    "id": 3513102004,
    "province_id": 35,
    "regency_id": 3513,
    "district_id": 351310,
    "value": "Gunggungan Lor",
    "postal_code": "67290"
  },
  {
    "id": 3513102016,
    "province_id": 35,
    "regency_id": 3513,
    "district_id": 351310,
    "value": "Kalidandan",
    "postal_code": "67290"
  },
  {
    "id": 3513102002,
    "province_id": 35,
    "regency_id": 3513,
    "district_id": 351310,
    "value": "Kedungsumur",
    "postal_code": "67290"
  },
  {
    "id": 3513102014,
    "province_id": 35,
    "regency_id": 3513,
    "district_id": 351310,
    "value": "Kertonegoro",
    "postal_code": "67290"
  },
  {
    "id": 3513102006,
    "province_id": 35,
    "regency_id": 3513,
    "district_id": 351310,
    "value": "Pakuniran",
    "postal_code": "67290"
  },
  {
    "id": 3513102005,
    "province_id": 35,
    "regency_id": 3513,
    "district_id": 351310,
    "value": "Petemon Kulon (Patemon Kulon)",
    "postal_code": "67290"
  },
  {
    "id": 3513102001,
    "province_id": 35,
    "regency_id": 3513,
    "district_id": 351310,
    "value": "Ranon",
    "postal_code": "67290"
  },
  {
    "id": 3513102009,
    "province_id": 35,
    "regency_id": 3513,
    "district_id": 351310,
    "value": "Sogaan",
    "postal_code": "67290"
  },
  {
    "id": 3513102008,
    "province_id": 35,
    "regency_id": 3513,
    "district_id": 351310,
    "value": "Sumberkembar (Sumber Kembar)",
    "postal_code": "67290"
  }
]