[
  {
    "id": 1301092002,
    "province_id": 13,
    "regency_id": 1301,
    "district_id": 130109,
    "value": "Air Haji",
    "postal_code": "25668"
  },
  {
    "id": 1301092011,
    "province_id": 13,
    "regency_id": 1301,
    "district_id": 130109,
    "value": "Air Haji Barat",
    "postal_code": "25668"
  },
  {
    "id": 1301092012,
    "province_id": 13,
    "regency_id": 1301,
    "district_id": 130109,
    "value": "Air Haji Tengah",
    "postal_code": "25668"
  },
  {
    "id": 1301092008,
    "province_id": 13,
    "regency_id": 1301,
    "district_id": 130109,
    "value": "Air Haji Tenggara",
    "postal_code": "25668"
  },
  {
    "id": 1301092007,
    "province_id": 13,
    "regency_id": 1301,
    "district_id": 130109,
    "value": "Lagan Hilir Punggasan",
    "postal_code": "25668"
  },
  {
    "id": 1301092006,
    "province_id": 13,
    "regency_id": 1301,
    "district_id": 130109,
    "value": "Lagan Mudik Punggasan",
    "postal_code": "25668"
  },
  {
    "id": 1301092014,
    "province_id": 13,
    "regency_id": 1301,
    "district_id": 130109,
    "value": "Muara Gadang Air Haji (Muaragadang Air Haji)",
    "postal_code": "25668"
  },
  {
    "id": 1301092016,
    "province_id": 13,
    "regency_id": 1301,
    "district_id": 130109,
    "value": "Muara Kandis Punggasan (Muarakandis Punggasan)",
    "postal_code": "25668"
  },
  {
    "id": 1301092005,
    "province_id": 13,
    "regency_id": 1301,
    "district_id": 130109,
    "value": "Padang XI Punggasan",
    "postal_code": "25668"
  },
  {
    "id": 1301092010,
    "province_id": 13,
    "regency_id": 1301,
    "district_id": 130109,
    "value": "Pasar Bukit Air Haji",
    "postal_code": "25668"
  },
  {
    "id": 1301092009,
    "province_id": 13,
    "regency_id": 1301,
    "district_id": 130109,
    "value": "Pasar Lama Muara Air Haji",
    "postal_code": "25668"
  },
  {
    "id": 1301092001,
    "province_id": 13,
    "regency_id": 1301,
    "district_id": 130109,
    "value": "Punggasan",
    "postal_code": "25668"
  },
  {
    "id": 1301092004,
    "province_id": 13,
    "regency_id": 1301,
    "district_id": 130109,
    "value": "Punggasan Timur",
    "postal_code": "25668"
  },
  {
    "id": 1301092003,
    "province_id": 13,
    "regency_id": 1301,
    "district_id": 130109,
    "value": "Punggasan Utara",
    "postal_code": "25668"
  },
  {
    "id": 1301092013,
    "province_id": 13,
    "regency_id": 1301,
    "district_id": 130109,
    "value": "Rantau Simalenang Air Haji",
    "postal_code": "25668"
  },
  {
    "id": 1301092015,
    "province_id": 13,
    "regency_id": 1301,
    "district_id": 130109,
    "value": "Sungai Sirah Air Haji (Sungaisirah Air Haji)",
    "postal_code": "25668"
  }
]