[
  {
    "id": 3209272005,
    "province_id": 32,
    "regency_id": 3209,
    "district_id": 320927,
    "value": "Bojong Kulon",
    "postal_code": "45166"
  },
  {
    "id": 3209272009,
    "province_id": 32,
    "regency_id": 3209,
    "district_id": 320927,
    "value": "Bunder",
    "postal_code": "45166"
  },
  {
    "id": 3209272004,
    "province_id": 32,
    "regency_id": 3209,
    "district_id": 320927,
    "value": "Gintung Lor",
    "postal_code": "45166"
  },
  {
    "id": 3209272012,
    "province_id": 32,
    "regency_id": 3209,
    "district_id": 320927,
    "value": "Jatianom",
    "postal_code": "45166"
  },
  {
    "id": 3209272010,
    "province_id": 32,
    "regency_id": 3209,
    "district_id": 320927,
    "value": "Jatipura",
    "postal_code": "45166"
  },
  {
    "id": 3209272003,
    "province_id": 32,
    "regency_id": 3209,
    "district_id": 320927,
    "value": "Kedongdong",
    "postal_code": "45166"
  },
  {
    "id": 3209272006,
    "province_id": 32,
    "regency_id": 3209,
    "district_id": 320927,
    "value": "Kejiwan",
    "postal_code": "45166"
  },
  {
    "id": 3209272008,
    "province_id": 32,
    "regency_id": 3209,
    "district_id": 320927,
    "value": "Luwung Kencana",
    "postal_code": "45166"
  },
  {
    "id": 3209272007,
    "province_id": 32,
    "regency_id": 3209,
    "district_id": 320927,
    "value": "Susukan",
    "postal_code": "45166"
  },
  {
    "id": 3209272001,
    "province_id": 32,
    "regency_id": 3209,
    "district_id": 320927,
    "value": "Tangkil",
    "postal_code": "45166"
  },
  {
    "id": 3209272011,
    "province_id": 32,
    "regency_id": 3209,
    "district_id": 320927,
    "value": "Ujunggebang",
    "postal_code": "45166"
  },
  {
    "id": 3209272002,
    "province_id": 32,
    "regency_id": 3209,
    "district_id": 320927,
    "value": "Wiyong",
    "postal_code": "45166"
  }
]