[
  {
    "id": 121316,
    "province_id": 12,
    "regency_id": 1213,
    "district_id": 121316,
    "value": "Balimbing",
    "postal_code": "22987"
  },
  {
    "id": 121316,
    "province_id": 12,
    "regency_id": 1213,
    "district_id": 121316,
    "value": "Bintuas",
    "postal_code": "22987"
  },
  {
    "id": 121316,
    "province_id": 12,
    "regency_id": 1213,
    "district_id": 121316,
    "value": "Bonda Kase",
    "postal_code": "22987"
  },
  {
    "id": 121316,
    "province_id": 12,
    "regency_id": 1213,
    "district_id": 121316,
    "value": "Buburan",
    "postal_code": "22987"
  },
  {
    "id": 121316,
    "province_id": 12,
    "regency_id": 1213,
    "district_id": 121316,
    "value": "Kampung Sawah",
    "postal_code": "22987"
  },
  {
    "id": 121316,
    "province_id": 12,
    "regency_id": 1213,
    "district_id": 121316,
    "value": "Kun-Kun",
    "postal_code": "22987"
  },
  {
    "id": 121316,
    "province_id": 12,
    "regency_id": 1213,
    "district_id": 121316,
    "value": "Panggautan (Panggarutan)",
    "postal_code": "22987"
  },
  {
    "id": 121316,
    "province_id": 12,
    "regency_id": 1213,
    "district_id": 121316,
    "value": "Pardamean Baru",
    "postal_code": "22987"
  },
  {
    "id": 121316,
    "province_id": 12,
    "regency_id": 1213,
    "district_id": 121316,
    "value": "Pasar I Natal",
    "postal_code": "22987"
  },
  {
    "id": 121316,
    "province_id": 12,
    "regency_id": 1213,
    "district_id": 121316,
    "value": "Pasar II Natal",
    "postal_code": "22987"
  },
  {
    "id": 121316,
    "province_id": 12,
    "regency_id": 1213,
    "district_id": 121316,
    "value": "Pasar III Natal",
    "postal_code": "22987"
  },
  {
    "id": 121316,
    "province_id": 12,
    "regency_id": 1213,
    "district_id": 121316,
    "value": "Pasar V Natal (Pasar IV Natal)",
    "postal_code": "22987"
  },
  {
    "id": 121316,
    "province_id": 12,
    "regency_id": 1213,
    "district_id": 121316,
    "value": "Pasar VI Natal",
    "postal_code": "22987"
  },
  {
    "id": 121316,
    "province_id": 12,
    "regency_id": 1213,
    "district_id": 121316,
    "value": "Patiluban Hilir",
    "postal_code": "22987"
  },
  {
    "id": 121316,
    "province_id": 12,
    "regency_id": 1213,
    "district_id": 121316,
    "value": "Patiluban Mudik",
    "postal_code": "22987"
  },
  {
    "id": 121316,
    "province_id": 12,
    "regency_id": 1213,
    "district_id": 121316,
    "value": "Perkebunan Patiluban",
    "postal_code": "22987"
  },
  {
    "id": 121316,
    "province_id": 12,
    "regency_id": 1213,
    "district_id": 121316,
    "value": "Rukun Jaya",
    "postal_code": "22987"
  },
  {
    "id": 121316,
    "province_id": 12,
    "regency_id": 1213,
    "district_id": 121316,
    "value": "Sasaran",
    "postal_code": "22987"
  },
  {
    "id": 121316,
    "province_id": 12,
    "regency_id": 1213,
    "district_id": 121316,
    "value": "Setia Karya",
    "postal_code": "22987"
  },
  {
    "id": 121316,
    "province_id": 12,
    "regency_id": 1213,
    "district_id": 121316,
    "value": "Sikara Kara",
    "postal_code": "22987"
  },
  {
    "id": 121316,
    "province_id": 12,
    "regency_id": 1213,
    "district_id": 121316,
    "value": "Sikara Kara I",
    "postal_code": "22987"
  },
  {
    "id": 121316,
    "province_id": 12,
    "regency_id": 1213,
    "district_id": 121316,
    "value": "Sikara Kara II",
    "postal_code": "22987"
  },
  {
    "id": 121316,
    "province_id": 12,
    "regency_id": 1213,
    "district_id": 121316,
    "value": "Sikara Kara III",
    "postal_code": "22987"
  },
  {
    "id": 121316,
    "province_id": 12,
    "regency_id": 1213,
    "district_id": 121316,
    "value": "Sikara Kara IV",
    "postal_code": "22987"
  },
  {
    "id": 121316,
    "province_id": 12,
    "regency_id": 1213,
    "district_id": 121316,
    "value": "Sinunukan V",
    "postal_code": "22987"
  },
  {
    "id": 121316,
    "province_id": 12,
    "regency_id": 1213,
    "district_id": 121316,
    "value": "Suka Maju",
    "postal_code": "22987"
  },
  {
    "id": 121316,
    "province_id": 12,
    "regency_id": 1213,
    "district_id": 121316,
    "value": "Sundutan Tigo",
    "postal_code": "22987"
  },
  {
    "id": 121316,
    "province_id": 12,
    "regency_id": 1213,
    "district_id": 121316,
    "value": "Taluk",
    "postal_code": "22987"
  },
  {
    "id": 121316,
    "province_id": 12,
    "regency_id": 1213,
    "district_id": 121316,
    "value": "Tegal Sari",
    "postal_code": "22987"
  },
  {
    "id": 121316,
    "province_id": 12,
    "regency_id": 1213,
    "district_id": 121316,
    "value": "Tunas Karya",
    "postal_code": "22987"
  }
]