[
  {
    "id": 3604342007,
    "province_id": 36,
    "regency_id": 3604,
    "district_id": 360434,
    "value": "Babakan",
    "postal_code": "42176"
  },
  {
    "id": 3604342001,
    "province_id": 36,
    "regency_id": 3604,
    "district_id": 360434,
    "value": "Bandung",
    "postal_code": "42176"
  },
  {
    "id": 3604342006,
    "province_id": 36,
    "regency_id": 3604,
    "district_id": 360434,
    "value": "Blokang",
    "postal_code": "42176"
  },
  {
    "id": 3604342005,
    "province_id": 36,
    "regency_id": 3604,
    "district_id": 360434,
    "value": "Malabar",
    "postal_code": "42176"
  },
  {
    "id": 3604342002,
    "province_id": 36,
    "regency_id": 3604,
    "district_id": 360434,
    "value": "Mander",
    "postal_code": "42176"
  },
  {
    "id": 3604342004,
    "province_id": 36,
    "regency_id": 3604,
    "district_id": 360434,
    "value": "Pangawinan",
    "postal_code": "42176"
  },
  {
    "id": 3604342003,
    "province_id": 36,
    "regency_id": 3604,
    "district_id": 360434,
    "value": "Penamping (Panamping)",
    "postal_code": "42176"
  },
  {
    "id": 3604342008,
    "province_id": 36,
    "regency_id": 3604,
    "district_id": 360434,
    "value": "Pringwulung",
    "postal_code": "42176"
  }
]