[
  {
    "id": 921020,
    "province_id": 92,
    "regency_id": 9210,
    "district_id": 921020,
    "value": "Bawy",
    "postal_code": "98245"
  },
  {
    "id": 921020,
    "province_id": 92,
    "regency_id": 9210,
    "district_id": 921020,
    "value": "Fiane",
    "postal_code": "98245"
  },
  {
    "id": 921020,
    "province_id": 92,
    "regency_id": 9210,
    "district_id": 921020,
    "value": "Hufioh",
    "postal_code": "98245"
  },
  {
    "id": 921020,
    "province_id": 92,
    "regency_id": 9210,
    "district_id": 921020,
    "value": "Isme",
    "postal_code": "98245"
  },
  {
    "id": 921020,
    "province_id": 92,
    "regency_id": 9210,
    "district_id": 921020,
    "value": "Kartapura",
    "postal_code": "98245"
  },
  {
    "id": 921020,
    "province_id": 92,
    "regency_id": 9210,
    "district_id": 921020,
    "value": "Men",
    "postal_code": "98245"
  },
  {
    "id": 921020,
    "province_id": 92,
    "regency_id": 9210,
    "district_id": 921020,
    "value": "Rindu",
    "postal_code": "98245"
  },
  {
    "id": 921020,
    "province_id": 92,
    "regency_id": 9210,
    "district_id": 921020,
    "value": "Semu",
    "postal_code": "98245"
  },
  {
    "id": 921020,
    "province_id": 92,
    "regency_id": 9210,
    "district_id": 921020,
    "value": "Tut",
    "postal_code": "98245"
  },
  {
    "id": 921020,
    "province_id": 92,
    "regency_id": 9210,
    "district_id": 921020,
    "value": "Yohwer",
    "postal_code": "98245"
  }
]