[
  {
    "id": 357103,
    "province_id": 35,
    "regency_id": 3571,
    "district_id": 357103,
    "value": "Banaran",
    "postal_code": "64133"
  },
  {
    "id": 357103,
    "province_id": 35,
    "regency_id": 3571,
    "district_id": 357103,
    "value": "Bangsal",
    "postal_code": "64131"
  },
  {
    "id": 357103,
    "province_id": 35,
    "regency_id": 3571,
    "district_id": 357103,
    "value": "Bawang",
    "postal_code": "64136"
  },
  {
    "id": 357103,
    "province_id": 35,
    "regency_id": 3571,
    "district_id": 357103,
    "value": "Betet",
    "postal_code": "64134"
  },
  {
    "id": 357103,
    "province_id": 35,
    "regency_id": 3571,
    "district_id": 357103,
    "value": "Blabak",
    "postal_code": "64135"
  },
  {
    "id": 357103,
    "province_id": 35,
    "regency_id": 3571,
    "district_id": 357103,
    "value": "Burengan",
    "postal_code": "64131"
  },
  {
    "id": 357103,
    "province_id": 35,
    "regency_id": 3571,
    "district_id": 357103,
    "value": "Jamsaren",
    "postal_code": "64132"
  },
  {
    "id": 357103,
    "province_id": 35,
    "regency_id": 3571,
    "district_id": 357103,
    "value": "Ketami",
    "postal_code": "64139"
  },
  {
    "id": 357103,
    "province_id": 35,
    "regency_id": 3571,
    "district_id": 357103,
    "value": "Ngletih",
    "postal_code": "64137"
  },
  {
    "id": 357103,
    "province_id": 35,
    "regency_id": 3571,
    "district_id": 357103,
    "value": "Pakunden",
    "postal_code": "64132"
  },
  {
    "id": 357103,
    "province_id": 35,
    "regency_id": 3571,
    "district_id": 357103,
    "value": "Pesantren",
    "postal_code": "64131"
  },
  {
    "id": 357103,
    "province_id": 35,
    "regency_id": 3571,
    "district_id": 357103,
    "value": "Singonegaran",
    "postal_code": "64132"
  },
  {
    "id": 357103,
    "province_id": 35,
    "regency_id": 3571,
    "district_id": 357103,
    "value": "Tampurejo (Tempurejo)",
    "postal_code": "64138"
  },
  {
    "id": 357103,
    "province_id": 35,
    "regency_id": 3571,
    "district_id": 357103,
    "value": "Tinalan",
    "postal_code": "64132"
  },
  {
    "id": 357103,
    "province_id": 35,
    "regency_id": 3571,
    "district_id": 357103,
    "value": "Tosaren",
    "postal_code": "64133"
  }
]