[
  {
    "id": 3529112013,
    "province_id": 35,
    "regency_id": 3529,
    "district_id": 352911,
    "value": "Aeng Panas (Aengpanas)",
    "postal_code": "69465"
  },
  {
    "id": 3529112009,
    "province_id": 35,
    "regency_id": 3529,
    "district_id": 352911,
    "value": "Jaddung",
    "postal_code": "69465"
  },
  {
    "id": 3529112001,
    "province_id": 35,
    "regency_id": 3529,
    "district_id": 352911,
    "value": "Kaduara Timur",
    "postal_code": "69465"
  },
  {
    "id": 3529112014,
    "province_id": 35,
    "regency_id": 3529,
    "district_id": 352911,
    "value": "Karduluk",
    "postal_code": "69465"
  },
  {
    "id": 3529112005,
    "province_id": 35,
    "regency_id": 3529,
    "district_id": 352911,
    "value": "Larangan Perreng (Larangan Pereng)",
    "postal_code": "69465"
  },
  {
    "id": 3529112007,
    "province_id": 35,
    "regency_id": 3529,
    "district_id": 352911,
    "value": "Pakamban Daya",
    "postal_code": "69465"
  },
  {
    "id": 3529112008,
    "province_id": 35,
    "regency_id": 3529,
    "district_id": 352911,
    "value": "Pakamban Laok",
    "postal_code": "69465"
  },
  {
    "id": 3529112011,
    "province_id": 35,
    "regency_id": 3529,
    "district_id": 352911,
    "value": "Pragaan Daya",
    "postal_code": "69465"
  },
  {
    "id": 3529112010,
    "province_id": 35,
    "regency_id": 3529,
    "district_id": 352911,
    "value": "Pragaan Laok",
    "postal_code": "69465"
  },
  {
    "id": 3529112012,
    "province_id": 35,
    "regency_id": 3529,
    "district_id": 352911,
    "value": "Prenduan",
    "postal_code": "69465"
  },
  {
    "id": 3529112003,
    "province_id": 35,
    "regency_id": 3529,
    "district_id": 352911,
    "value": "Rombasan",
    "postal_code": "69465"
  },
  {
    "id": 3529112002,
    "province_id": 35,
    "regency_id": 3529,
    "district_id": 352911,
    "value": "Sendang",
    "postal_code": "69465"
  },
  {
    "id": 3529112006,
    "province_id": 35,
    "regency_id": 3529,
    "district_id": 352911,
    "value": "Sentol Daya",
    "postal_code": "69465"
  },
  {
    "id": 3529112004,
    "province_id": 35,
    "regency_id": 3529,
    "district_id": 352911,
    "value": "Sentol Laok",
    "postal_code": "69465"
  }
]