[
  {
    "id": 6112052010,
    "province_id": 61,
    "regency_id": 6112,
    "district_id": 611205,
    "value": "Ambarawa",
    "postal_code": "78385"
  },
  {
    "id": 6112052002,
    "province_id": 61,
    "regency_id": 6112,
    "district_id": 611205,
    "value": "Batu Ampar",
    "postal_code": "78385"
  },
  {
    "id": 6112052015,
    "province_id": 61,
    "regency_id": 6112,
    "district_id": 611205,
    "value": "Medan Mas",
    "postal_code": "78385"
  },
  {
    "id": 6112052014,
    "province_id": 61,
    "regency_id": 6112,
    "district_id": 611205,
    "value": "Muara Tiga",
    "postal_code": "78385"
  },
  {
    "id": 6112052009,
    "province_id": 61,
    "regency_id": 6112,
    "district_id": 611205,
    "value": "Nipah Panjang",
    "postal_code": "78385"
  },
  {
    "id": 6112052005,
    "province_id": 61,
    "regency_id": 6112,
    "district_id": 611205,
    "value": "Padang Tikar Dua (Padang Tikar II)",
    "postal_code": "78385"
  },
  {
    "id": 6112052004,
    "province_id": 61,
    "regency_id": 6112,
    "district_id": 611205,
    "value": "Padang Tikar Satu (Padang Tikar I)",
    "postal_code": "78385"
  },
  {
    "id": 6112052013,
    "province_id": 61,
    "regency_id": 6112,
    "district_id": 611205,
    "value": "Sumber Agung",
    "postal_code": "78385"
  },
  {
    "id": 6112052007,
    "province_id": 61,
    "regency_id": 6112,
    "district_id": 611205,
    "value": "Sungaibesar (Sei / Sungai Besar)",
    "postal_code": "78385"
  },
  {
    "id": 6112052008,
    "province_id": 61,
    "regency_id": 6112,
    "district_id": 611205,
    "value": "Sungaijawi (Sei / Sungai Jawi)",
    "postal_code": "78385"
  },
  {
    "id": 6112052012,
    "province_id": 61,
    "regency_id": 6112,
    "district_id": 611205,
    "value": "Sungaikerawang (Sei / Sungai Kerawang)",
    "postal_code": "78385"
  },
  {
    "id": 6112052001,
    "province_id": 61,
    "regency_id": 6112,
    "district_id": 611205,
    "value": "Tanjungberingin (Tanjung Beringin)",
    "postal_code": "78385"
  },
  {
    "id": 6112052011,
    "province_id": 61,
    "regency_id": 6112,
    "district_id": 611205,
    "value": "Tanjungharapan (Tanjung Harapan)",
    "postal_code": "78385"
  },
  {
    "id": 6112052006,
    "province_id": 61,
    "regency_id": 6112,
    "district_id": 611205,
    "value": "Tasik Malaya",
    "postal_code": "78385"
  },
  {
    "id": 6112052003,
    "province_id": 61,
    "regency_id": 6112,
    "district_id": 611205,
    "value": "Teluknibung (Teluk Nibung)",
    "postal_code": "78385"
  }
]