[
  {
    "id": 5206182002,
    "province_id": 52,
    "regency_id": 5206,
    "district_id": 520618,
    "value": "Belo",
    "postal_code": "84174"
  },
  {
    "id": 5206182013,
    "province_id": 52,
    "regency_id": 5206,
    "district_id": 520618,
    "value": "Bre",
    "postal_code": "84174"
  },
  {
    "id": 5206182008,
    "province_id": 52,
    "regency_id": 5206,
    "district_id": 520618,
    "value": "Dore",
    "postal_code": "84174"
  },
  {
    "id": 5206182007,
    "province_id": 52,
    "regency_id": 5206,
    "district_id": 520618,
    "value": "Nata",
    "postal_code": "84174"
  },
  {
    "id": 5206182006,
    "province_id": 52,
    "regency_id": 5206,
    "district_id": 520618,
    "value": "Ntonggu",
    "postal_code": "84174"
  },
  {
    "id": 5206182012,
    "province_id": 52,
    "regency_id": 5206,
    "district_id": 520618,
    "value": "Padolo",
    "postal_code": "84174"
  },
  {
    "id": 5206182001,
    "province_id": 52,
    "regency_id": 5206,
    "district_id": 520618,
    "value": "Panda",
    "postal_code": "84174"
  },
  {
    "id": 5206182011,
    "province_id": 52,
    "regency_id": 5206,
    "district_id": 520618,
    "value": "Ragi",
    "postal_code": "84174"
  },
  {
    "id": 5206182009,
    "province_id": 52,
    "regency_id": 5206,
    "district_id": 520618,
    "value": "Roi",
    "postal_code": "84174"
  },
  {
    "id": 5206182005,
    "province_id": 52,
    "regency_id": 5206,
    "district_id": 520618,
    "value": "Teke",
    "postal_code": "84174"
  },
  {
    "id": 5206182003,
    "province_id": 52,
    "regency_id": 5206,
    "district_id": 520618,
    "value": "Tolongondoa",
    "postal_code": "84174"
  },
  {
    "id": 5206182004,
    "province_id": 52,
    "regency_id": 5206,
    "district_id": 520618,
    "value": "Tonggorisa",
    "postal_code": "84174"
  }
]