[
  {
    "id": 720606,
    "province_id": 72,
    "regency_id": 7206,
    "district_id": 720606,
    "value": "Bakala",
    "postal_code": "94979"
  },
  {
    "id": 720606,
    "province_id": 72,
    "regency_id": 7206,
    "district_id": 720606,
    "value": "Boelimau",
    "postal_code": "94979"
  },
  {
    "id": 720606,
    "province_id": 72,
    "regency_id": 7206,
    "district_id": 720606,
    "value": "Buajangka",
    "postal_code": "94979"
  },
  {
    "id": 720606,
    "province_id": 72,
    "regency_id": 7206,
    "district_id": 720606,
    "value": "Bungingkela",
    "postal_code": "94979"
  },
  {
    "id": 720606,
    "province_id": 72,
    "regency_id": 7206,
    "district_id": 720606,
    "value": "Bungintende",
    "postal_code": "94979"
  },
  {
    "id": 720606,
    "province_id": 72,
    "regency_id": 7206,
    "district_id": 720606,
    "value": "Buton",
    "postal_code": "94979"
  },
  {
    "id": 720606,
    "province_id": 72,
    "regency_id": 7206,
    "district_id": 720606,
    "value": "Jawi-Jawi",
    "postal_code": "94979"
  },
  {
    "id": 720606,
    "province_id": 72,
    "regency_id": 7206,
    "district_id": 720606,
    "value": "Kaleroang",
    "postal_code": "94979"
  },
  {
    "id": 720606,
    "province_id": 72,
    "regency_id": 7206,
    "district_id": 720606,
    "value": "Koburu",
    "postal_code": "94979"
  },
  {
    "id": 720606,
    "province_id": 72,
    "regency_id": 7206,
    "district_id": 720606,
    "value": "Lalemo",
    "postal_code": "94979"
  },
  {
    "id": 720606,
    "province_id": 72,
    "regency_id": 7206,
    "district_id": 720606,
    "value": "Lamontoli",
    "postal_code": "94979"
  },
  {
    "id": 720606,
    "province_id": 72,
    "regency_id": 7206,
    "district_id": 720606,
    "value": "Lokombulo",
    "postal_code": "94979"
  },
  {
    "id": 720606,
    "province_id": 72,
    "regency_id": 7206,
    "district_id": 720606,
    "value": "Padabale",
    "postal_code": "94979"
  },
  {
    "id": 720606,
    "province_id": 72,
    "regency_id": 7206,
    "district_id": 720606,
    "value": "Pado-Pado",
    "postal_code": "94979"
  },
  {
    "id": 720606,
    "province_id": 72,
    "regency_id": 7206,
    "district_id": 720606,
    "value": "Paku",
    "postal_code": "94979"
  },
  {
    "id": 720606,
    "province_id": 72,
    "regency_id": 7206,
    "district_id": 720606,
    "value": "Panimbawang",
    "postal_code": "94979"
  },
  {
    "id": 720606,
    "province_id": 72,
    "regency_id": 7206,
    "district_id": 720606,
    "value": "Po'o",
    "postal_code": "94979"
  },
  {
    "id": 720606,
    "province_id": 72,
    "regency_id": 7206,
    "district_id": 720606,
    "value": "Poaro",
    "postal_code": "94979"
  },
  {
    "id": 720606,
    "province_id": 72,
    "regency_id": 7206,
    "district_id": 720606,
    "value": "Polewali",
    "postal_code": "94979"
  },
  {
    "id": 720606,
    "province_id": 72,
    "regency_id": 7206,
    "district_id": 720606,
    "value": "Pulau Dua",
    "postal_code": "94979"
  },
  {
    "id": 720606,
    "province_id": 72,
    "regency_id": 7206,
    "district_id": 720606,
    "value": "Pulau Dua Darat",
    "postal_code": "94979"
  },
  {
    "id": 720606,
    "province_id": 72,
    "regency_id": 7206,
    "district_id": 720606,
    "value": "Pulaubapa",
    "postal_code": "94979"
  },
  {
    "id": 720606,
    "province_id": 72,
    "regency_id": 7206,
    "district_id": 720606,
    "value": "Sainoa",
    "postal_code": "94979"
  },
  {
    "id": 720606,
    "province_id": 72,
    "regency_id": 7206,
    "district_id": 720606,
    "value": "Umbele",
    "postal_code": "94979"
  },
  {
    "id": 720606,
    "province_id": 72,
    "regency_id": 7206,
    "district_id": 720606,
    "value": "Umbele Lama",
    "postal_code": "94979"
  },
  {
    "id": 720606,
    "province_id": 72,
    "regency_id": 7206,
    "district_id": 720606,
    "value": "Waru-Waru",
    "postal_code": "94979"
  }
]