[
  {
    "id": 6201032001,
    "province_id": 62,
    "regency_id": 6201,
    "district_id": 620103,
    "value": "Babual Baboti",
    "postal_code": "74161"
  },
  {
    "id": 6201032005,
    "province_id": 62,
    "regency_id": 6201,
    "district_id": 620103,
    "value": "Dawak",
    "postal_code": "74161"
  },
  {
    "id": 6201032016,
    "province_id": 62,
    "regency_id": 6201,
    "district_id": 620103,
    "value": "Ipuh Bangun Jaya",
    "postal_code": "74161"
  },
  {
    "id": 6201032004,
    "province_id": 62,
    "regency_id": 6201,
    "district_id": 620103,
    "value": "Kinjil",
    "postal_code": "74161"
  },
  {
    "id": 6201032011,
    "province_id": 62,
    "regency_id": 6201,
    "district_id": 620103,
    "value": "Kondang",
    "postal_code": "74161"
  },
  {
    "id": 6201031008,
    "province_id": 62,
    "regency_id": 6201,
    "district_id": 620103,
    "value": "Kotawaringin Hilir (Kota Waringin Hilir)",
    "postal_code": "74161"
  },
  {
    "id": 6201031007,
    "province_id": 62,
    "regency_id": 6201,
    "district_id": 620103,
    "value": "Kotawaringin Hulu",
    "postal_code": "74161"
  },
  {
    "id": 6201032009,
    "province_id": 62,
    "regency_id": 6201,
    "district_id": 620103,
    "value": "Lalang",
    "postal_code": "74161"
  },
  {
    "id": 6201032015,
    "province_id": 62,
    "regency_id": 6201,
    "district_id": 620103,
    "value": "Palih Baru",
    "postal_code": "74161"
  },
  {
    "id": 6201032006,
    "province_id": 62,
    "regency_id": 6201,
    "district_id": 620103,
    "value": "Riam Durian",
    "postal_code": "74161"
  },
  {
    "id": 6201032010,
    "province_id": 62,
    "regency_id": 6201,
    "district_id": 620103,
    "value": "Rungun",
    "postal_code": "74161"
  },
  {
    "id": 6201032017,
    "province_id": 62,
    "regency_id": 6201,
    "district_id": 620103,
    "value": "Sagu Suka Mulya (Sagu / Dusun Sukamulya)",
    "postal_code": "74161"
  },
  {
    "id": 6201032003,
    "province_id": 62,
    "regency_id": 6201,
    "district_id": 620103,
    "value": "Sakabulin",
    "postal_code": "74161"
  },
  {
    "id": 6201032012,
    "province_id": 62,
    "regency_id": 6201,
    "district_id": 620103,
    "value": "Suka Jaya (Sukajaya)",
    "postal_code": "74161"
  },
  {
    "id": 6201032013,
    "province_id": 62,
    "regency_id": 6201,
    "district_id": 620103,
    "value": "Suka Makmur",
    "postal_code": "74161"
  },
  {
    "id": 6201032014,
    "province_id": 62,
    "regency_id": 6201,
    "district_id": 620103,
    "value": "Sumber Mukti",
    "postal_code": "74161"
  },
  {
    "id": 6201032002,
    "province_id": 62,
    "regency_id": 6201,
    "district_id": 620103,
    "value": "Tempayung",
    "postal_code": "74161"
  }
]