[
  {
    "id": 710313,
    "province_id": 71,
    "regency_id": 7103,
    "district_id": 710313,
    "value": "Bakalaeng",
    "postal_code": "95853"
  },
  {
    "id": 710313,
    "province_id": 71,
    "regency_id": 7103,
    "district_id": 710313,
    "value": "Barangka",
    "postal_code": "95853"
  },
  {
    "id": 710313,
    "province_id": 71,
    "regency_id": 7103,
    "district_id": 710313,
    "value": "Barangkalang",
    "postal_code": "95853"
  },
  {
    "id": 710313,
    "province_id": 71,
    "regency_id": 7103,
    "district_id": 710313,
    "value": "Belengang",
    "postal_code": "95853"
  },
  {
    "id": 710313,
    "province_id": 71,
    "regency_id": 7103,
    "district_id": 710313,
    "value": "Bengka",
    "postal_code": "95853"
  },
  {
    "id": 710313,
    "province_id": 71,
    "regency_id": 7103,
    "district_id": 710313,
    "value": "Hiung",
    "postal_code": "95853"
  },
  {
    "id": 710313,
    "province_id": 71,
    "regency_id": 7103,
    "district_id": 710313,
    "value": "Karatung I",
    "postal_code": "95853"
  },
  {
    "id": 710313,
    "province_id": 71,
    "regency_id": 7103,
    "district_id": 710313,
    "value": "Karatung II",
    "postal_code": "95853"
  },
  {
    "id": 710313,
    "province_id": 71,
    "regency_id": 7103,
    "district_id": 710313,
    "value": "Kauhis",
    "postal_code": "95853"
  },
  {
    "id": 710313,
    "province_id": 71,
    "regency_id": 7103,
    "district_id": 710313,
    "value": "Lebo",
    "postal_code": "95853"
  },
  {
    "id": 710313,
    "province_id": 71,
    "regency_id": 7103,
    "district_id": 710313,
    "value": "Mala",
    "postal_code": "95853"
  },
  {
    "id": 710313,
    "province_id": 71,
    "regency_id": 7103,
    "district_id": 710313,
    "value": "Manumpitaeng",
    "postal_code": "95853"
  },
  {
    "id": 710313,
    "province_id": 71,
    "regency_id": 7103,
    "district_id": 710313,
    "value": "Nahepese",
    "postal_code": "95853"
  },
  {
    "id": 710313,
    "province_id": 71,
    "regency_id": 7103,
    "district_id": 710313,
    "value": "Pinebentengang",
    "postal_code": "95853"
  },
  {
    "id": 710313,
    "province_id": 71,
    "regency_id": 7103,
    "district_id": 710313,
    "value": "Sesiwung",
    "postal_code": "95853"
  },
  {
    "id": 710313,
    "province_id": 71,
    "regency_id": 7103,
    "district_id": 710313,
    "value": "Taloarane",
    "postal_code": "95853"
  },
  {
    "id": 710313,
    "province_id": 71,
    "regency_id": 7103,
    "district_id": 710313,
    "value": "Taloarane I",
    "postal_code": "95853"
  },
  {
    "id": 710313,
    "province_id": 71,
    "regency_id": 7103,
    "district_id": 710313,
    "value": "Tawoali",
    "postal_code": "95853"
  }
]