[
  {
    "id": 7202082008,
    "province_id": 72,
    "regency_id": 7202,
    "district_id": 720208,
    "value": "Baleura (Baliura)",
    "postal_code": "94656"
  },
  {
    "id": 7202082004,
    "province_id": 72,
    "regency_id": 7202,
    "district_id": 720208,
    "value": "Bariri",
    "postal_code": "94656"
  },
  {
    "id": 7202082003,
    "province_id": 72,
    "regency_id": 7202,
    "district_id": 720208,
    "value": "Doda",
    "postal_code": "94656"
  },
  {
    "id": 7202082001,
    "province_id": 72,
    "regency_id": 7202,
    "district_id": 720208,
    "value": "Hangira (Hanggira)",
    "postal_code": "94656"
  },
  {
    "id": 7202082006,
    "province_id": 72,
    "regency_id": 7202,
    "district_id": 720208,
    "value": "Katu",
    "postal_code": "94656"
  },
  {
    "id": 7202082002,
    "province_id": 72,
    "regency_id": 7202,
    "district_id": 720208,
    "value": "Lempe",
    "postal_code": "94656"
  },
  {
    "id": 7202082007,
    "province_id": 72,
    "regency_id": 7202,
    "district_id": 720208,
    "value": "Rompo",
    "postal_code": "94656"
  },
  {
    "id": 7202082005,
    "province_id": 72,
    "regency_id": 7202,
    "district_id": 720208,
    "value": "Torire",
    "postal_code": "94656"
  }
]