[
  {
    "id": 9407042011,
    "province_id": 94,
    "regency_id": 9407,
    "district_id": 940704,
    "value": "Aneya",
    "postal_code": "98784"
  },
  {
    "id": 9407042002,
    "province_id": 94,
    "regency_id": 9407,
    "district_id": 940704,
    "value": "Biandoga",
    "postal_code": "98784"
  },
  {
    "id": 9407042003,
    "province_id": 94,
    "regency_id": 9407,
    "district_id": 940704,
    "value": "Bugalaga",
    "postal_code": "98784"
  },
  {
    "id": 9407042001,
    "province_id": 94,
    "regency_id": 9407,
    "district_id": 940704,
    "value": "Danggatadi",
    "postal_code": "98784"
  },
  {
    "id": 9407042005,
    "province_id": 94,
    "regency_id": 9407,
    "district_id": 940704,
    "value": "Kalawa",
    "postal_code": "98784"
  },
  {
    "id": 9407042012,
    "province_id": 94,
    "regency_id": 9407,
    "district_id": 940704,
    "value": "Kigitadi",
    "postal_code": "98784"
  },
  {
    "id": 9407042007,
    "province_id": 94,
    "regency_id": 9407,
    "district_id": 940704,
    "value": "Maniuwo",
    "postal_code": "98784"
  },
  {
    "id": 9407042010,
    "province_id": 94,
    "regency_id": 9407,
    "district_id": 940704,
    "value": "Maolagi",
    "postal_code": "98784"
  },
  {
    "id": 9407042014,
    "province_id": 94,
    "regency_id": 9407,
    "district_id": 940704,
    "value": "Moyomataga",
    "postal_code": "98784"
  },
  {
    "id": 9407042013,
    "province_id": 94,
    "regency_id": 9407,
    "district_id": 940704,
    "value": "Ndabatadi",
    "postal_code": "98784"
  },
  {
    "id": 9407042009,
    "province_id": 94,
    "regency_id": 9407,
    "district_id": 940704,
    "value": "Pagamba",
    "postal_code": "98784"
  },
  {
    "id": 9407042015,
    "province_id": 94,
    "regency_id": 9407,
    "district_id": 940704,
    "value": "Pitadi",
    "postal_code": "98784"
  },
  {
    "id": 9407042008,
    "province_id": 94,
    "regency_id": 9407,
    "district_id": 940704,
    "value": "Tunggapo",
    "postal_code": "98784"
  },
  {
    "id": 9407042016,
    "province_id": 94,
    "regency_id": 9407,
    "district_id": 940704,
    "value": "Ular Merah",
    "postal_code": "98784"
  },
  {
    "id": 9407042004,
    "province_id": 94,
    "regency_id": 9407,
    "district_id": 940704,
    "value": "Yagaito",
    "postal_code": "98784"
  },
  {
    "id": 9407042006,
    "province_id": 94,
    "regency_id": 9407,
    "district_id": 940704,
    "value": "Yanei",
    "postal_code": "98784"
  }
]