[
  {
    "id": 7102092009,
    "province_id": 71,
    "regency_id": 7102,
    "district_id": 710209,
    "value": "Amongena Dua (II)",
    "postal_code": "95696"
  },
  {
    "id": 7102092008,
    "province_id": 71,
    "regency_id": 7102,
    "district_id": 710209,
    "value": "Amongena Satu (I)",
    "postal_code": "95696"
  },
  {
    "id": 7102092018,
    "province_id": 71,
    "regency_id": 7102,
    "district_id": 710209,
    "value": "Amongena Tiga",
    "postal_code": "95696"
  },
  {
    "id": 7102092006,
    "province_id": 71,
    "regency_id": 7102,
    "district_id": 710209,
    "value": "Karondoran",
    "postal_code": "95696"
  },
  {
    "id": 7102092010,
    "province_id": 71,
    "regency_id": 7102,
    "district_id": 710209,
    "value": "Sumarayar",
    "postal_code": "95696"
  },
  {
    "id": 7102092005,
    "province_id": 71,
    "regency_id": 7102,
    "district_id": 710209,
    "value": "Teep",
    "postal_code": "95696"
  },
  {
    "id": 7102092007,
    "province_id": 71,
    "regency_id": 7102,
    "district_id": 710209,
    "value": "Waleure",
    "postal_code": "95696"
  },
  {
    "id": 7102092004,
    "province_id": 71,
    "regency_id": 7102,
    "district_id": 710209,
    "value": "Wolaang",
    "postal_code": "95696"
  }
]