[
  {
    "id": 710220,
    "province_id": 71,
    "regency_id": 7102,
    "district_id": 710220,
    "value": "Bukit Tinggi",
    "postal_code": "95682"
  },
  {
    "id": 710220,
    "province_id": 71,
    "regency_id": 7102,
    "district_id": 710220,
    "value": "Kalawiran",
    "postal_code": "95682"
  },
  {
    "id": 710220,
    "province_id": 71,
    "regency_id": 7102,
    "district_id": 710220,
    "value": "Panasen",
    "postal_code": "95682"
  },
  {
    "id": 710220,
    "province_id": 71,
    "regency_id": 7102,
    "district_id": 710220,
    "value": "Passo (Paso)",
    "postal_code": "95682"
  },
  {
    "id": 710220,
    "province_id": 71,
    "regency_id": 7102,
    "district_id": 710220,
    "value": "Simbel",
    "postal_code": "95682"
  },
  {
    "id": 710220,
    "province_id": 71,
    "regency_id": 7102,
    "district_id": 710220,
    "value": "Totolan",
    "postal_code": "95682"
  },
  {
    "id": 710220,
    "province_id": 71,
    "regency_id": 7102,
    "district_id": 710220,
    "value": "Touliang",
    "postal_code": "95682"
  },
  {
    "id": 710220,
    "province_id": 71,
    "regency_id": 7102,
    "district_id": 710220,
    "value": "Tountimomor",
    "postal_code": "95682"
  },
  {
    "id": 710220,
    "province_id": 71,
    "regency_id": 7102,
    "district_id": 710220,
    "value": "Wailang",
    "postal_code": "95682"
  },
  {
    "id": 710220,
    "province_id": 71,
    "regency_id": 7102,
    "district_id": 710220,
    "value": "Wasian",
    "postal_code": "95682"
  }
]