[
  {
    "id": 3313062006,
    "province_id": 33,
    "regency_id": 3313,
    "district_id": 331306,
    "value": "Bandardawung",
    "postal_code": "57792"
  },
  {
    "id": 3313061002,
    "province_id": 33,
    "regency_id": 3313,
    "district_id": 331306,
    "value": "Blumbang",
    "postal_code": "57792"
  },
  {
    "id": 3313062001,
    "province_id": 33,
    "regency_id": 3313,
    "district_id": 331306,
    "value": "Gondosuli",
    "postal_code": "57792"
  },
  {
    "id": 3313061003,
    "province_id": 33,
    "regency_id": 3313,
    "district_id": 331306,
    "value": "Kalisoro",
    "postal_code": "57792"
  },
  {
    "id": 3313062007,
    "province_id": 33,
    "regency_id": 3313,
    "district_id": 331306,
    "value": "Karanglo",
    "postal_code": "57792"
  },
  {
    "id": 3313062008,
    "province_id": 33,
    "regency_id": 3313,
    "district_id": 331306,
    "value": "Nglebak",
    "postal_code": "57792"
  },
  {
    "id": 3313062009,
    "province_id": 33,
    "regency_id": 3313,
    "district_id": 331306,
    "value": "Plumbon",
    "postal_code": "57792"
  },
  {
    "id": 3313062005,
    "province_id": 33,
    "regency_id": 3313,
    "district_id": 331306,
    "value": "Sepanjang",
    "postal_code": "57792"
  },
  {
    "id": 3313061004,
    "province_id": 33,
    "regency_id": 3313,
    "district_id": 331306,
    "value": "Tawangmangu",
    "postal_code": "57792"
  },
  {
    "id": 3313062010,
    "province_id": 33,
    "regency_id": 3313,
    "district_id": 331306,
    "value": "Tengklik",
    "postal_code": "57792"
  }
]