[
  {
    "id": 740608,
    "province_id": 74,
    "regency_id": 7406,
    "district_id": 740608,
    "value": "Batusampe Indah",
    "postal_code": "93770"
  },
  {
    "id": 740608,
    "province_id": 74,
    "regency_id": 7406,
    "district_id": 740608,
    "value": "Hambawa",
    "postal_code": "93770"
  },
  {
    "id": 740608,
    "province_id": 74,
    "regency_id": 7406,
    "district_id": 740608,
    "value": "Laloa",
    "postal_code": "93770"
  },
  {
    "id": 740608,
    "province_id": 74,
    "regency_id": 7406,
    "district_id": 740608,
    "value": "Liano",
    "postal_code": "93770"
  },
  {
    "id": 740608,
    "province_id": 74,
    "regency_id": 7406,
    "district_id": 740608,
    "value": "Lora",
    "postal_code": "93770"
  },
  {
    "id": 740608,
    "province_id": 74,
    "regency_id": 7406,
    "district_id": 740608,
    "value": "Mawar",
    "postal_code": "93770"
  },
  {
    "id": 740608,
    "province_id": 74,
    "regency_id": 7406,
    "district_id": 740608,
    "value": "Pomontoro",
    "postal_code": "93770"
  },
  {
    "id": 740608,
    "province_id": 74,
    "regency_id": 7406,
    "district_id": 740608,
    "value": "Pu'u Waeya",
    "postal_code": "93770"
  },
  {
    "id": 740608,
    "province_id": 74,
    "regency_id": 7406,
    "district_id": 740608,
    "value": "Pulau Tambako",
    "postal_code": "93770"
  },
  {
    "id": 740608,
    "province_id": 74,
    "regency_id": 7406,
    "district_id": 740608,
    "value": "Tajuncu",
    "postal_code": "93770"
  },
  {
    "id": 740608,
    "province_id": 74,
    "regency_id": 7406,
    "district_id": 740608,
    "value": "Toli-Toli",
    "postal_code": "93770"
  }
]