[
  {
    "id": 1219092004,
    "province_id": 12,
    "regency_id": 1219,
    "district_id": 121909,
    "value": "Barung-Barung",
    "postal_code": "21255"
  },
  {
    "id": 1219092009,
    "province_id": 12,
    "regency_id": 1219,
    "district_id": 121909,
    "value": "Bulan-Bulan",
    "postal_code": "21255"
  },
  {
    "id": 1219092001,
    "province_id": 12,
    "regency_id": 1219,
    "district_id": 121909,
    "value": "Gambus Laut",
    "postal_code": "21255"
  },
  {
    "id": 1219092003,
    "province_id": 12,
    "regency_id": 1219,
    "district_id": 121909,
    "value": "Guntung",
    "postal_code": "21255"
  },
  {
    "id": 1219092010,
    "province_id": 12,
    "regency_id": 1219,
    "district_id": 121909,
    "value": "Gunung Bandung",
    "postal_code": "21255"
  },
  {
    "id": 1219092011,
    "province_id": 12,
    "regency_id": 1219,
    "district_id": 121909,
    "value": "Lubuk Cuik",
    "postal_code": "21255"
  },
  {
    "id": 1219092006,
    "province_id": 12,
    "regency_id": 1219,
    "district_id": 121909,
    "value": "Pasir Permit",
    "postal_code": "21255"
  },
  {
    "id": 1219092008,
    "province_id": 12,
    "regency_id": 1219,
    "district_id": 121909,
    "value": "Pematang Panjang",
    "postal_code": "21255"
  },
  {
    "id": 1219092013,
    "province_id": 12,
    "regency_id": 1219,
    "district_id": 121909,
    "value": "Pematang Tengah",
    "postal_code": "21255"
  },
  {
    "id": 1219092002,
    "province_id": 12,
    "regency_id": 1219,
    "district_id": 121909,
    "value": "Perupuk",
    "postal_code": "21255"
  },
  {
    "id": 1219092012,
    "province_id": 12,
    "regency_id": 1219,
    "district_id": 121909,
    "value": "Tanah Itam Ilir",
    "postal_code": "21255"
  },
  {
    "id": 1219092007,
    "province_id": 12,
    "regency_id": 1219,
    "district_id": 121909,
    "value": "Titi Merah",
    "postal_code": "21255"
  },
  {
    "id": 1219092005,
    "province_id": 12,
    "regency_id": 1219,
    "district_id": 121909,
    "value": "Titi Putih",
    "postal_code": "21255"
  }
]