[
  {
    "id": 170223,
    "province_id": 17,
    "regency_id": 1702,
    "district_id": 170223,
    "value": "Balai Buntar/Butar",
    "postal_code": "39184"
  },
  {
    "id": 170223,
    "province_id": 17,
    "regency_id": 1702,
    "district_id": 170223,
    "value": "Lubuk Belimbing I",
    "postal_code": "39184"
  },
  {
    "id": 170223,
    "province_id": 17,
    "regency_id": 1702,
    "district_id": 170223,
    "value": "Lubuk Belimbing II",
    "postal_code": "39184"
  },
  {
    "id": 170223,
    "province_id": 17,
    "regency_id": 1702,
    "district_id": 170223,
    "value": "Lubuk Bingin Baru",
    "postal_code": "39184"
  },
  {
    "id": 170223,
    "province_id": 17,
    "regency_id": 1702,
    "district_id": 170223,
    "value": "Lubuk Tanjung/Tunjung",
    "postal_code": "39184"
  },
  {
    "id": 170223,
    "province_id": 17,
    "regency_id": 1702,
    "district_id": 170223,
    "value": "Merantau",
    "postal_code": "39184"
  },
  {
    "id": 170223,
    "province_id": 17,
    "regency_id": 1702,
    "district_id": 170223,
    "value": "Periang",
    "postal_code": "39184"
  },
  {
    "id": 170223,
    "province_id": 17,
    "regency_id": 1702,
    "district_id": 170223,
    "value": "Sari Pulau",
    "postal_code": "39184"
  },
  {
    "id": 170223,
    "province_id": 17,
    "regency_id": 1702,
    "district_id": 170223,
    "value": "Suka karya (Sukakarya)",
    "postal_code": "39184"
  },
  {
    "id": 170223,
    "province_id": 17,
    "regency_id": 1702,
    "district_id": 170223,
    "value": "Suka Merindu",
    "postal_code": "39184"
  }
]