[
  {
    "id": 9504192016,
    "province_id": 95,
    "regency_id": 9504,
    "district_id": 950419,
    "value": "Barenggo (Berenggo / Berengga)",
    "postal_code": "99046"
  },
  {
    "id": 9504192003,
    "province_id": 95,
    "regency_id": 9504,
    "district_id": 950419,
    "value": "Belep",
    "postal_code": "99046"
  },
  {
    "id": 9504192009,
    "province_id": 95,
    "regency_id": 9504,
    "district_id": 950419,
    "value": "Delelah (Delelak)",
    "postal_code": "99046"
  },
  {
    "id": 9504192012,
    "province_id": 95,
    "regency_id": 9504,
    "district_id": 950419,
    "value": "Derek",
    "postal_code": "99046"
  },
  {
    "id": 9504192010,
    "province_id": 95,
    "regency_id": 9504,
    "district_id": 950419,
    "value": "Gilo",
    "postal_code": "99046"
  },
  {
    "id": 9504192023,
    "province_id": 95,
    "regency_id": 9504,
    "district_id": 950419,
    "value": "Kabumanggen (Kabomangen / Kubumangen)",
    "postal_code": "99046"
  },
  {
    "id": 9504192014,
    "province_id": 95,
    "regency_id": 9504,
    "district_id": 950419,
    "value": "Kanggineri",
    "postal_code": "99046"
  },
  {
    "id": 9504192007,
    "province_id": 95,
    "regency_id": 9504,
    "district_id": 950419,
    "value": "Kilungga",
    "postal_code": "99046"
  },
  {
    "id": 9504192025,
    "province_id": 95,
    "regency_id": 9504,
    "district_id": 950419,
    "value": "Kipino",
    "postal_code": "99046"
  },
  {
    "id": 9504192024,
    "province_id": 95,
    "regency_id": 9504,
    "district_id": 950419,
    "value": "Kondangwi",
    "postal_code": "99046"
  },
  {
    "id": 9504192002,
    "province_id": 95,
    "regency_id": 9504,
    "district_id": 950419,
    "value": "Kononda (Kokondao)",
    "postal_code": "99046"
  },
  {
    "id": 9504192019,
    "province_id": 95,
    "regency_id": 9504,
    "district_id": 950419,
    "value": "Kubalo",
    "postal_code": "99046"
  },
  {
    "id": 9504192022,
    "province_id": 95,
    "regency_id": 9504,
    "district_id": 950419,
    "value": "Kunipaga (Konipaga)",
    "postal_code": "99046"
  },
  {
    "id": 9504192004,
    "province_id": 95,
    "regency_id": 9504,
    "district_id": 950419,
    "value": "Kuripaga (Kuripara)",
    "postal_code": "99046"
  },
  {
    "id": 9504192021,
    "province_id": 95,
    "regency_id": 9504,
    "district_id": 950419,
    "value": "Mololowa",
    "postal_code": "99046"
  },
  {
    "id": 9504192008,
    "province_id": 95,
    "regency_id": 9504,
    "district_id": 950419,
    "value": "Nombori",
    "postal_code": "99046"
  },
  {
    "id": 9504192013,
    "province_id": 95,
    "regency_id": 9504,
    "district_id": 950419,
    "value": "Numbe",
    "postal_code": "99046"
  },
  {
    "id": 9504192001,
    "province_id": 95,
    "regency_id": 9504,
    "district_id": 950419,
    "value": "Nunggawi",
    "postal_code": "99046"
  },
  {
    "id": 9504192005,
    "province_id": 95,
    "regency_id": 9504,
    "district_id": 950419,
    "value": "Timobur (Kimobur)",
    "postal_code": "99046"
  },
  {
    "id": 9504192020,
    "province_id": 95,
    "regency_id": 9504,
    "district_id": 950419,
    "value": "Tinoweno",
    "postal_code": "99046"
  },
  {
    "id": 9504192026,
    "province_id": 95,
    "regency_id": 9504,
    "district_id": 950419,
    "value": "Tomobur (Timopur)",
    "postal_code": "99046"
  },
  {
    "id": 9504192017,
    "province_id": 95,
    "regency_id": 9504,
    "district_id": 950419,
    "value": "Tunibur",
    "postal_code": "99046"
  },
  {
    "id": 9504192011,
    "province_id": 95,
    "regency_id": 9504,
    "district_id": 950419,
    "value": "Undi",
    "postal_code": "99046"
  },
  {
    "id": 9504192006,
    "province_id": 95,
    "regency_id": 9504,
    "district_id": 950419,
    "value": "Wondame",
    "postal_code": "99046"
  },
  {
    "id": 9504192015,
    "province_id": 95,
    "regency_id": 9504,
    "district_id": 950419,
    "value": "Wonoluk",
    "postal_code": "99046"
  },
  {
    "id": 9504192018,
    "province_id": 95,
    "regency_id": 9504,
    "district_id": 950419,
    "value": "Woyi",
    "postal_code": "99046"
  }
]