[
  {
    "id": 3207112010,
    "province_id": 32,
    "regency_id": 3207,
    "district_id": 320711,
    "value": "Bangbayang",
    "postal_code": "46252"
  },
  {
    "id": 3207112001,
    "province_id": 32,
    "regency_id": 3207,
    "district_id": 320711,
    "value": "Buniseuri",
    "postal_code": "46252"
  },
  {
    "id": 3207112012,
    "province_id": 32,
    "regency_id": 3207,
    "district_id": 320711,
    "value": "Ciakar",
    "postal_code": "46252"
  },
  {
    "id": 3207112005,
    "province_id": 32,
    "regency_id": 3207,
    "district_id": 320711,
    "value": "Cieurih",
    "postal_code": "46252"
  },
  {
    "id": 3207112004,
    "province_id": 32,
    "regency_id": 3207,
    "district_id": 320711,
    "value": "Cipaku",
    "postal_code": "46252"
  },
  {
    "id": 3207112006,
    "province_id": 32,
    "regency_id": 3207,
    "district_id": 320711,
    "value": "Gereba",
    "postal_code": "46252"
  },
  {
    "id": 3207112003,
    "province_id": 32,
    "regency_id": 3207,
    "district_id": 320711,
    "value": "Jalatrang",
    "postal_code": "46252"
  },
  {
    "id": 3207112008,
    "province_id": 32,
    "regency_id": 3207,
    "district_id": 320711,
    "value": "Mekarsari",
    "postal_code": "46252"
  },
  {
    "id": 3207112007,
    "province_id": 32,
    "regency_id": 3207,
    "district_id": 320711,
    "value": "Muktisari",
    "postal_code": "46252"
  },
  {
    "id": 3207112009,
    "province_id": 32,
    "regency_id": 3207,
    "district_id": 320711,
    "value": "Pusakasari",
    "postal_code": "46252"
  },
  {
    "id": 3207112002,
    "province_id": 32,
    "regency_id": 3207,
    "district_id": 320711,
    "value": "Selacai",
    "postal_code": "46252"
  },
  {
    "id": 3207112011,
    "province_id": 32,
    "regency_id": 3207,
    "district_id": 320711,
    "value": "Selamanik",
    "postal_code": "46252"
  },
  {
    "id": 3207112013,
    "province_id": 32,
    "regency_id": 3207,
    "district_id": 320711,
    "value": "Sukawening",
    "postal_code": "46252"
  }
]