[
  {
    "id": 810804,
    "province_id": 81,
    "regency_id": 8108,
    "district_id": 810804,
    "value": "Hertuti",
    "postal_code": "97451"
  },
  {
    "id": 810804,
    "province_id": 81,
    "regency_id": 8108,
    "district_id": 810804,
    "value": "Imroing",
    "postal_code": "97451"
  },
  {
    "id": 810804,
    "province_id": 81,
    "regency_id": 8108,
    "district_id": 810804,
    "value": "Letsiara",
    "postal_code": "97451"
  },
  {
    "id": 810804,
    "province_id": 81,
    "regency_id": 8108,
    "district_id": 810804,
    "value": "Lewah",
    "postal_code": "97451"
  },
  {
    "id": 810804,
    "province_id": 81,
    "regency_id": 8108,
    "district_id": 810804,
    "value": "Sinairusi",
    "postal_code": "97451"
  },
  {
    "id": 810804,
    "province_id": 81,
    "regency_id": 8108,
    "district_id": 810804,
    "value": "Tela",
    "postal_code": "97451"
  },
  {
    "id": 810804,
    "province_id": 81,
    "regency_id": 8108,
    "district_id": 810804,
    "value": "Tepa",
    "postal_code": "97451"
  },
  {
    "id": 810804,
    "province_id": 81,
    "regency_id": 8108,
    "district_id": 810804,
    "value": "Wanuwui (Manuwui)",
    "postal_code": "97451"
  },
  {
    "id": 810804,
    "province_id": 81,
    "regency_id": 8108,
    "district_id": 810804,
    "value": "Yaltubung",
    "postal_code": "97451"
  }
]