[
  {
    "id": 741102,
    "province_id": 74,
    "regency_id": 7411,
    "district_id": 741102,
    "value": "Iwoikondo",
    "postal_code": "93581"
  },
  {
    "id": 741102,
    "province_id": 74,
    "regency_id": 7411,
    "district_id": 741102,
    "value": "Lalowura",
    "postal_code": "93581"
  },
  {
    "id": 741102,
    "province_id": 74,
    "regency_id": 7411,
    "district_id": 741102,
    "value": "Lamoare",
    "postal_code": "93581"
  },
  {
    "id": 741102,
    "province_id": 74,
    "regency_id": 7411,
    "district_id": 741102,
    "value": "Loea",
    "postal_code": "93581"
  },
  {
    "id": 741102,
    "province_id": 74,
    "regency_id": 7411,
    "district_id": 741102,
    "value": "Mataiwoi",
    "postal_code": "93581"
  },
  {
    "id": 741102,
    "province_id": 74,
    "regency_id": 7411,
    "district_id": 741102,
    "value": "Peatoa",
    "postal_code": "93581"
  },
  {
    "id": 741102,
    "province_id": 74,
    "regency_id": 7411,
    "district_id": 741102,
    "value": "Simbalae (Simbalai)",
    "postal_code": "93581"
  },
  {
    "id": 741102,
    "province_id": 74,
    "regency_id": 7411,
    "district_id": 741102,
    "value": "Teposua",
    "postal_code": "93581"
  },
  {
    "id": 741102,
    "province_id": 74,
    "regency_id": 7411,
    "district_id": 741102,
    "value": "Tinomu",
    "postal_code": "93581"
  }
]