[
  {
    "id": 1117102009,
    "province_id": 11,
    "regency_id": 1117,
    "district_id": 111710,
    "value": "Alam Jaya",
    "postal_code": "24553"
  },
  {
    "id": 1117102002,
    "province_id": 11,
    "regency_id": 1117,
    "district_id": 111710,
    "value": "Gajah Putih",
    "postal_code": "24553"
  },
  {
    "id": 1117102003,
    "province_id": 11,
    "regency_id": 1117,
    "district_id": 111710,
    "value": "Gayo Setie",
    "postal_code": "24553"
  },
  {
    "id": 1117102006,
    "province_id": 11,
    "regency_id": 1117,
    "district_id": 111710,
    "value": "Meriah Jaya",
    "postal_code": "24553"
  },
  {
    "id": 1117102008,
    "province_id": 11,
    "regency_id": 1117,
    "district_id": 111710,
    "value": "Pantan Lues",
    "postal_code": "24553"
  },
  {
    "id": 1117102005,
    "province_id": 11,
    "regency_id": 1117,
    "district_id": 111710,
    "value": "Pante Karya",
    "postal_code": "24553"
  },
  {
    "id": 1117102010,
    "province_id": 11,
    "regency_id": 1117,
    "district_id": 111710,
    "value": "Rerongga (Reronga)",
    "postal_code": "24553"
  },
  {
    "id": 1117102001,
    "province_id": 11,
    "regency_id": 1117,
    "district_id": 111710,
    "value": "Simpang Rahmat",
    "postal_code": "24553"
  },
  {
    "id": 1117102007,
    "province_id": 11,
    "regency_id": 1117,
    "district_id": 111710,
    "value": "Timang Gajah",
    "postal_code": "24553"
  },
  {
    "id": 1117102004,
    "province_id": 11,
    "regency_id": 1117,
    "district_id": 111710,
    "value": "Umah Besi",
    "postal_code": "24553"
  }
]