[
  {
    "id": 721105,
    "province_id": 72,
    "regency_id": 7211,
    "district_id": 721105,
    "value": "Alasan",
    "postal_code": "94893"
  },
  {
    "id": 721105,
    "province_id": 72,
    "regency_id": 7211,
    "district_id": 721105,
    "value": "Bontosi",
    "postal_code": "94893"
  },
  {
    "id": 721105,
    "province_id": 72,
    "regency_id": 7211,
    "district_id": 721105,
    "value": "Lalong",
    "postal_code": "94893"
  },
  {
    "id": 721105,
    "province_id": 72,
    "regency_id": 7211,
    "district_id": 721105,
    "value": "Lipu Talas (Liputalas)",
    "postal_code": "94893"
  },
  {
    "id": 721105,
    "province_id": 72,
    "regency_id": 7211,
    "district_id": 721105,
    "value": "Lipulalongo",
    "postal_code": "94893"
  },
  {
    "id": 721105,
    "province_id": 72,
    "regency_id": 7211,
    "district_id": 721105,
    "value": "Mansalean",
    "postal_code": "94893"
  },
  {
    "id": 721105,
    "province_id": 72,
    "regency_id": 7211,
    "district_id": 721105,
    "value": "Padingkian",
    "postal_code": "94893"
  },
  {
    "id": 721105,
    "province_id": 72,
    "regency_id": 7211,
    "district_id": 721105,
    "value": "Paisulamo",
    "postal_code": "94893"
  }
]