[
  {
    "id": 940609,
    "province_id": 94,
    "regency_id": 9406,
    "district_id": 940609,
    "value": "Adauwo",
    "postal_code": "98873"
  },
  {
    "id": 940609,
    "province_id": 94,
    "regency_id": 9406,
    "district_id": 940609,
    "value": "Atou (Tuamani)",
    "postal_code": "98873"
  },
  {
    "id": 940609,
    "province_id": 94,
    "regency_id": 9406,
    "district_id": 940609,
    "value": "Diyeugi",
    "postal_code": "98873"
  },
  {
    "id": 940609,
    "province_id": 94,
    "regency_id": 9406,
    "district_id": 940609,
    "value": "Gabaikunu",
    "postal_code": "98873"
  },
  {
    "id": 940609,
    "province_id": 94,
    "regency_id": 9406,
    "district_id": 940609,
    "value": "Magaikebo (Megaikebo)",
    "postal_code": "98873"
  },
  {
    "id": 940609,
    "province_id": 94,
    "regency_id": 9406,
    "district_id": 940609,
    "value": "Modio",
    "postal_code": "98873"
  },
  {
    "id": 940609,
    "province_id": 94,
    "regency_id": 9406,
    "district_id": 940609,
    "value": "Piyakunu",
    "postal_code": "98873"
  },
  {
    "id": 940609,
    "province_id": 94,
    "regency_id": 9406,
    "district_id": 940609,
    "value": "Putapa",
    "postal_code": "98873"
  },
  {
    "id": 940609,
    "province_id": 94,
    "regency_id": 9406,
    "district_id": 940609,
    "value": "Timopa (Timepa)",
    "postal_code": "98873"
  },
  {
    "id": 940609,
    "province_id": 94,
    "regency_id": 9406,
    "district_id": 940609,
    "value": "Upibega (Ukudawata)",
    "postal_code": "98873"
  }
]