[
  {
    "id": 3504062011,
    "province_id": 35,
    "regency_id": 3504,
    "district_id": 350406,
    "value": "Gambiran",
    "postal_code": "66262"
  },
  {
    "id": 3504062010,
    "province_id": 35,
    "regency_id": 3504,
    "district_id": 350406,
    "value": "Gondanggunung",
    "postal_code": "66262"
  },
  {
    "id": 3504062002,
    "province_id": 35,
    "regency_id": 3504,
    "district_id": 350406,
    "value": "Kedungcangkring",
    "postal_code": "66262"
  },
  {
    "id": 3504062008,
    "province_id": 35,
    "regency_id": 3504,
    "district_id": 350406,
    "value": "Kradinan",
    "postal_code": "66262"
  },
  {
    "id": 3504062003,
    "province_id": 35,
    "regency_id": 3504,
    "district_id": 350406,
    "value": "Mulyosari",
    "postal_code": "66262"
  },
  {
    "id": 3504062007,
    "province_id": 35,
    "regency_id": 3504,
    "district_id": 350406,
    "value": "Pagerwojo",
    "postal_code": "66262"
  },
  {
    "id": 3504062006,
    "province_id": 35,
    "regency_id": 3504,
    "district_id": 350406,
    "value": "Penjor",
    "postal_code": "66262"
  },
  {
    "id": 3504062005,
    "province_id": 35,
    "regency_id": 3504,
    "district_id": 350406,
    "value": "Samar",
    "postal_code": "66262"
  },
  {
    "id": 3504062004,
    "province_id": 35,
    "regency_id": 3504,
    "district_id": 350406,
    "value": "Segawe",
    "postal_code": "66262"
  },
  {
    "id": 3504062009,
    "province_id": 35,
    "regency_id": 3504,
    "district_id": 350406,
    "value": "Sidomulyo",
    "postal_code": "66262"
  },
  {
    "id": 3504062001,
    "province_id": 35,
    "regency_id": 3504,
    "district_id": 350406,
    "value": "Wonorejo",
    "postal_code": "66262"
  }
]