[
  {
    "id": 7409092014,
    "province_id": 74,
    "regency_id": 7409,
    "district_id": 740909,
    "value": "Ambake",
    "postal_code": "93356"
  },
  {
    "id": 7409092011,
    "province_id": 74,
    "regency_id": 7409,
    "district_id": 740909,
    "value": "Amolame",
    "postal_code": "93356"
  },
  {
    "id": 7409091001,
    "province_id": 74,
    "regency_id": 7409,
    "district_id": 740909,
    "value": "Andowia",
    "postal_code": "93356"
  },
  {
    "id": 7409092012,
    "province_id": 74,
    "regency_id": 7409,
    "district_id": 740909,
    "value": "Anggolohipo",
    "postal_code": "93356"
  },
  {
    "id": 7409092010,
    "province_id": 74,
    "regency_id": 7409,
    "district_id": 740909,
    "value": "Banggarema",
    "postal_code": "93356"
  },
  {
    "id": 7409092006,
    "province_id": 74,
    "regency_id": 7409,
    "district_id": 740909,
    "value": "Labungga",
    "postal_code": "93356"
  },
  {
    "id": 7409092002,
    "province_id": 74,
    "regency_id": 7409,
    "district_id": 740909,
    "value": "Lahimbua",
    "postal_code": "93356"
  },
  {
    "id": 7409092004,
    "province_id": 74,
    "regency_id": 7409,
    "district_id": 740909,
    "value": "Lambudoni",
    "postal_code": "93356"
  },
  {
    "id": 7409092005,
    "province_id": 74,
    "regency_id": 7409,
    "district_id": 740909,
    "value": "Lamondowo",
    "postal_code": "93356"
  },
  {
    "id": 7409092008,
    "province_id": 74,
    "regency_id": 7409,
    "district_id": 740909,
    "value": "Larobende",
    "postal_code": "93356"
  },
  {
    "id": 7409092003,
    "province_id": 74,
    "regency_id": 7409,
    "district_id": 740909,
    "value": "Laronanga",
    "postal_code": "93356"
  },
  {
    "id": 7409092007,
    "province_id": 74,
    "regency_id": 7409,
    "district_id": 740909,
    "value": "Mataiwoi",
    "postal_code": "93356"
  },
  {
    "id": 7409092009,
    "province_id": 74,
    "regency_id": 7409,
    "district_id": 740909,
    "value": "Puusuli",
    "postal_code": "93356"
  },
  {
    "id": 7409092013,
    "province_id": 74,
    "regency_id": 7409,
    "district_id": 740909,
    "value": "Puuwonua",
    "postal_code": "93356"
  },
  {
    "id": 7409092015,
    "province_id": 74,
    "regency_id": 7409,
    "district_id": 740909,
    "value": "Waworate",
    "postal_code": "93356"
  }
]