[
  {
    "id": 1208012013,
    "province_id": 12,
    "regency_id": 1208,
    "district_id": 120801,
    "value": "Dolok Hataran",
    "postal_code": "21151"
  },
  {
    "id": 1208012003,
    "province_id": 12,
    "regency_id": 1208,
    "district_id": 120801,
    "value": "Dolok Marlawan",
    "postal_code": "21151"
  },
  {
    "id": 1208012008,
    "province_id": 12,
    "regency_id": 1208,
    "district_id": 120801,
    "value": "Karang Bangun",
    "postal_code": "21151"
  },
  {
    "id": 1208012012,
    "province_id": 12,
    "regency_id": 1208,
    "district_id": 120801,
    "value": "Laras Dua",
    "postal_code": "21151"
  },
  {
    "id": 1208012011,
    "province_id": 12,
    "regency_id": 1208,
    "district_id": 120801,
    "value": "Lestari Indah",
    "postal_code": "21151"
  },
  {
    "id": 1208012002,
    "province_id": 12,
    "regency_id": 1208,
    "district_id": 120801,
    "value": "Marihat Baris",
    "postal_code": "21151"
  },
  {
    "id": 1208012009,
    "province_id": 12,
    "regency_id": 1208,
    "district_id": 120801,
    "value": "Nusa Harapan",
    "postal_code": "21151"
  },
  {
    "id": 1208012014,
    "province_id": 12,
    "regency_id": 1208,
    "district_id": 120801,
    "value": "Pantoan Maju",
    "postal_code": "21151"
  },
  {
    "id": 1208012017,
    "province_id": 12,
    "regency_id": 1208,
    "district_id": 120801,
    "value": "Pematang Silampuyang",
    "postal_code": "21151"
  },
  {
    "id": 1208012015,
    "province_id": 12,
    "regency_id": 1208,
    "district_id": 120801,
    "value": "Pematang Simalungun",
    "postal_code": "21151"
  },
  {
    "id": 1208012004,
    "province_id": 12,
    "regency_id": 1208,
    "district_id": 120801,
    "value": "Rambung Merah",
    "postal_code": "21151"
  },
  {
    "id": 1208012006,
    "province_id": 12,
    "regency_id": 1208,
    "district_id": 120801,
    "value": "Sejahtera",
    "postal_code": "21151"
  },
  {
    "id": 1208012007,
    "province_id": 12,
    "regency_id": 1208,
    "district_id": 120801,
    "value": "Siantar Estate",
    "postal_code": "21151"
  },
  {
    "id": 1208012001,
    "province_id": 12,
    "regency_id": 1208,
    "district_id": 120801,
    "value": "Silampuyang",
    "postal_code": "21151"
  },
  {
    "id": 1208012016,
    "province_id": 12,
    "regency_id": 1208,
    "district_id": 120801,
    "value": "Silau Malaha",
    "postal_code": "21151"
  },
  {
    "id": 1208012005,
    "province_id": 12,
    "regency_id": 1208,
    "district_id": 120801,
    "value": "Silou Manik (Silau Manik)",
    "postal_code": "21151"
  },
  {
    "id": 1208012010,
    "province_id": 12,
    "regency_id": 1208,
    "district_id": 120801,
    "value": "Sitalasari",
    "postal_code": "21151"
  }
]