[
  {
    "id": 127703,
    "province_id": 12,
    "regency_id": 1277,
    "district_id": 127703,
    "value": "Aek Bayur",
    "postal_code": "22731"
  },
  {
    "id": 127703,
    "province_id": 12,
    "regency_id": 1277,
    "district_id": 127703,
    "value": "Aek Najaji",
    "postal_code": "22731"
  },
  {
    "id": 127703,
    "province_id": 12,
    "regency_id": 1277,
    "district_id": 127703,
    "value": "Aek Tuhul",
    "postal_code": "22731"
  },
  {
    "id": 127703,
    "province_id": 12,
    "regency_id": 1277,
    "district_id": 127703,
    "value": "Bargottopong (Bargot Topong)",
    "postal_code": "22731"
  },
  {
    "id": 127703,
    "province_id": 12,
    "regency_id": 1277,
    "district_id": 127703,
    "value": "Baruas",
    "postal_code": "22731"
  },
  {
    "id": 127703,
    "province_id": 12,
    "regency_id": 1277,
    "district_id": 127703,
    "value": "Batang Bahal",
    "postal_code": "22731"
  },
  {
    "id": 127703,
    "province_id": 12,
    "regency_id": 1277,
    "district_id": 127703,
    "value": "Batunadua Jae",
    "postal_code": "22731"
  },
  {
    "id": 127703,
    "province_id": 12,
    "regency_id": 1277,
    "district_id": 127703,
    "value": "Batunadua Julu",
    "postal_code": "22731"
  },
  {
    "id": 127703,
    "province_id": 12,
    "regency_id": 1277,
    "district_id": 127703,
    "value": "Gunung Hasahatan",
    "postal_code": "22731"
  },
  {
    "id": 127703,
    "province_id": 12,
    "regency_id": 1277,
    "district_id": 127703,
    "value": "Pudun Jae",
    "postal_code": "22731"
  },
  {
    "id": 127703,
    "province_id": 12,
    "regency_id": 1277,
    "district_id": 127703,
    "value": "Pudun Julu",
    "postal_code": "22731"
  },
  {
    "id": 127703,
    "province_id": 12,
    "regency_id": 1277,
    "district_id": 127703,
    "value": "Purwodadi",
    "postal_code": "22731"
  },
  {
    "id": 127703,
    "province_id": 12,
    "regency_id": 1277,
    "district_id": 127703,
    "value": "Siloting",
    "postal_code": "22731"
  },
  {
    "id": 127703,
    "province_id": 12,
    "regency_id": 1277,
    "district_id": 127703,
    "value": "Simirik",
    "postal_code": "22731"
  },
  {
    "id": 127703,
    "province_id": 12,
    "regency_id": 1277,
    "district_id": 127703,
    "value": "Ujunggurap (Ujung Gurab)",
    "postal_code": "22731"
  }
]