[
  {
    "id": 3323162005,
    "province_id": 33,
    "regency_id": 3323,
    "district_id": 332316,
    "value": "Balesari",
    "postal_code": "56265"
  },
  {
    "id": 3323162001,
    "province_id": 33,
    "regency_id": 3323,
    "district_id": 332316,
    "value": "Bansari",
    "postal_code": "56265"
  },
  {
    "id": 3323162011,
    "province_id": 33,
    "regency_id": 3323,
    "district_id": 332316,
    "value": "Campuranom",
    "postal_code": "56265"
  },
  {
    "id": 3323162010,
    "province_id": 33,
    "regency_id": 3323,
    "district_id": 332316,
    "value": "Candisari",
    "postal_code": "56265"
  },
  {
    "id": 3323162012,
    "province_id": 33,
    "regency_id": 3323,
    "district_id": 332316,
    "value": "Gentingsari",
    "postal_code": "56265"
  },
  {
    "id": 3323162004,
    "province_id": 33,
    "regency_id": 3323,
    "district_id": 332316,
    "value": "Gunungsari",
    "postal_code": "56265"
  },
  {
    "id": 3323162002,
    "province_id": 33,
    "regency_id": 3323,
    "district_id": 332316,
    "value": "Mojosari",
    "postal_code": "56265"
  },
  {
    "id": 3323162008,
    "province_id": 33,
    "regency_id": 3323,
    "district_id": 332316,
    "value": "Mranggen Kidul",
    "postal_code": "56265"
  },
  {
    "id": 3323162009,
    "province_id": 33,
    "regency_id": 3323,
    "district_id": 332316,
    "value": "Mranggen Tengah",
    "postal_code": "56265"
  },
  {
    "id": 3323162006,
    "province_id": 33,
    "regency_id": 3323,
    "district_id": 332316,
    "value": "Purborejo",
    "postal_code": "56265"
  },
  {
    "id": 3323162003,
    "province_id": 33,
    "regency_id": 3323,
    "district_id": 332316,
    "value": "Rejosari",
    "postal_code": "56265"
  },
  {
    "id": 3323162013,
    "province_id": 33,
    "regency_id": 3323,
    "district_id": 332316,
    "value": "Tanurejo",
    "postal_code": "56265"
  },
  {
    "id": 3323162007,
    "province_id": 33,
    "regency_id": 3323,
    "district_id": 332316,
    "value": "Tlogowero",
    "postal_code": "56265"
  }
]