[
  {
    "id": 760215,
    "province_id": 76,
    "regency_id": 7602,
    "district_id": 760215,
    "value": "Banuada",
    "postal_code": "91562"
  },
  {
    "id": 760215,
    "province_id": 76,
    "regency_id": 7602,
    "district_id": 760215,
    "value": "Bonehau",
    "postal_code": "91562"
  },
  {
    "id": 760215,
    "province_id": 76,
    "regency_id": 7602,
    "district_id": 760215,
    "value": "Buttuada",
    "postal_code": "91562"
  },
  {
    "id": 760215,
    "province_id": 76,
    "regency_id": 7602,
    "district_id": 760215,
    "value": "Hinua",
    "postal_code": "91562"
  },
  {
    "id": 760215,
    "province_id": 76,
    "regency_id": 7602,
    "district_id": 760215,
    "value": "Kinatang",
    "postal_code": "91562"
  },
  {
    "id": 760215,
    "province_id": 76,
    "regency_id": 7602,
    "district_id": 760215,
    "value": "Lumika",
    "postal_code": "91562"
  },
  {
    "id": 760215,
    "province_id": 76,
    "regency_id": 7602,
    "district_id": 760215,
    "value": "Mappu",
    "postal_code": "91562"
  },
  {
    "id": 760215,
    "province_id": 76,
    "regency_id": 7602,
    "district_id": 760215,
    "value": "Salutiwo",
    "postal_code": "91562"
  },
  {
    "id": 760215,
    "province_id": 76,
    "regency_id": 7602,
    "district_id": 760215,
    "value": "Tamalea (Talondo I)",
    "postal_code": "91562"
  }
]