[
  {
    "id": 110206,
    "province_id": 11,
    "regency_id": 1102,
    "district_id": 110206,
    "value": "Cinta Damai",
    "postal_code": "24673"
  },
  {
    "id": 110206,
    "province_id": 11,
    "regency_id": 1102,
    "district_id": 110206,
    "value": "Cinta Makmur",
    "postal_code": "24673"
  },
  {
    "id": 110206,
    "province_id": 11,
    "regency_id": 1102,
    "district_id": 110206,
    "value": "Kute Bakti",
    "postal_code": "24673"
  },
  {
    "id": 110206,
    "province_id": 11,
    "regency_id": 1102,
    "district_id": 110206,
    "value": "Kute Makmur",
    "postal_code": "24673"
  },
  {
    "id": 110206,
    "province_id": 11,
    "regency_id": 1102,
    "district_id": 110206,
    "value": "Lawe Desky Jaya",
    "postal_code": "24673"
  },
  {
    "id": 110206,
    "province_id": 11,
    "regency_id": 1102,
    "district_id": 110206,
    "value": "Lawe Desky Sabas",
    "postal_code": "24673"
  },
  {
    "id": 110206,
    "province_id": 11,
    "regency_id": 1102,
    "district_id": 110206,
    "value": "Lawe Desky Tongah",
    "postal_code": "24673"
  },
  {
    "id": 110206,
    "province_id": 11,
    "regency_id": 1102,
    "district_id": 110206,
    "value": "Lawe Desky/Deski I",
    "postal_code": "24673"
  },
  {
    "id": 110206,
    "province_id": 11,
    "regency_id": 1102,
    "district_id": 110206,
    "value": "Lawe Mantik",
    "postal_code": "24673"
  },
  {
    "id": 110206,
    "province_id": 11,
    "regency_id": 1102,
    "district_id": 110206,
    "value": "Lawe Tawakh",
    "postal_code": "24673"
  },
  {
    "id": 110206,
    "province_id": 11,
    "regency_id": 1102,
    "district_id": 110206,
    "value": "Muara Setia",
    "postal_code": "24673"
  },
  {
    "id": 110206,
    "province_id": 11,
    "regency_id": 1102,
    "district_id": 110206,
    "value": "Muara Situlen",
    "postal_code": "24673"
  },
  {
    "id": 110206,
    "province_id": 11,
    "regency_id": 1102,
    "district_id": 110206,
    "value": "Pardamean",
    "postal_code": "24673"
  },
  {
    "id": 110206,
    "province_id": 11,
    "regency_id": 1102,
    "district_id": 110206,
    "value": "Pardamean",
    "postal_code": "24673"
  },
  {
    "id": 110206,
    "province_id": 11,
    "regency_id": 1102,
    "district_id": 110206,
    "value": "Pardomuan I",
    "postal_code": "24673"
  },
  {
    "id": 110206,
    "province_id": 11,
    "regency_id": 1102,
    "district_id": 110206,
    "value": "Pardomuan II",
    "postal_code": "24673"
  },
  {
    "id": 110206,
    "province_id": 11,
    "regency_id": 1102,
    "district_id": 110206,
    "value": "Pintu Alas",
    "postal_code": "24673"
  },
  {
    "id": 110206,
    "province_id": 11,
    "regency_id": 1102,
    "district_id": 110206,
    "value": "Sabilussalam (Sibulussalam)",
    "postal_code": "24673"
  },
  {
    "id": 110206,
    "province_id": 11,
    "regency_id": 1102,
    "district_id": 110206,
    "value": "Sejahtera",
    "postal_code": "24673"
  },
  {
    "id": 110206,
    "province_id": 11,
    "regency_id": 1102,
    "district_id": 110206,
    "value": "Sejahtera Baru",
    "postal_code": "24673"
  },
  {
    "id": 110206,
    "province_id": 11,
    "regency_id": 1102,
    "district_id": 110206,
    "value": "Tanoh Alas",
    "postal_code": "24673"
  }
]