[
  {
    "id": 1605011001,
    "province_id": 16,
    "regency_id": 1605,
    "district_id": 160501,
    "value": "B. Srikaton",
    "postal_code": "31662"
  },
  {
    "id": 1605012012,
    "province_id": 16,
    "regency_id": 1605,
    "district_id": 160501,
    "value": "Dwijaya",
    "postal_code": "31662"
  },
  {
    "id": 1605012005,
    "province_id": 16,
    "regency_id": 1605,
    "district_id": 160501,
    "value": "Kalibening",
    "postal_code": "31662"
  },
  {
    "id": 1605012014,
    "province_id": 16,
    "regency_id": 1605,
    "district_id": 160501,
    "value": "Mataram",
    "postal_code": "31662"
  },
  {
    "id": 1605012008,
    "province_id": 16,
    "regency_id": 1605,
    "district_id": 160501,
    "value": "Nawangsasi (Nawangsari)",
    "postal_code": "31662"
  },
  {
    "id": 1605012011,
    "province_id": 16,
    "regency_id": 1605,
    "district_id": 160501,
    "value": "Ngadirejo",
    "postal_code": "31662"
  },
  {
    "id": 1605012017,
    "province_id": 16,
    "regency_id": 1605,
    "district_id": 160501,
    "value": "Sidoharjo",
    "postal_code": "31662"
  },
  {
    "id": 1605012013,
    "province_id": 16,
    "regency_id": 1605,
    "district_id": 160501,
    "value": "Siti Harjo",
    "postal_code": "31662"
  },
  {
    "id": 1605012009,
    "province_id": 16,
    "regency_id": 1605,
    "district_id": 160501,
    "value": "Sukomulyo",
    "postal_code": "31662"
  },
  {
    "id": 1605012002,
    "province_id": 16,
    "regency_id": 1605,
    "district_id": 160501,
    "value": "Surodadi",
    "postal_code": "31662"
  },
  {
    "id": 1605012015,
    "province_id": 16,
    "regency_id": 1605,
    "district_id": 160501,
    "value": "Tambahasri",
    "postal_code": "31662"
  },
  {
    "id": 1605012003,
    "province_id": 16,
    "regency_id": 1605,
    "district_id": 160501,
    "value": "Tegal Rejo",
    "postal_code": "31662"
  },
  {
    "id": 1605012004,
    "province_id": 16,
    "regency_id": 1605,
    "district_id": 160501,
    "value": "Trikoyo",
    "postal_code": "31662"
  },
  {
    "id": 1605012018,
    "province_id": 16,
    "regency_id": 1605,
    "district_id": 160501,
    "value": "Triwikaton",
    "postal_code": "31662"
  },
  {
    "id": 1605012006,
    "province_id": 16,
    "regency_id": 1605,
    "district_id": 160501,
    "value": "Widodo",
    "postal_code": "31662"
  },
  {
    "id": 1605012007,
    "province_id": 16,
    "regency_id": 1605,
    "district_id": 160501,
    "value": "Wonokerto",
    "postal_code": "31662"
  },
  {
    "id": 1605012016,
    "province_id": 16,
    "regency_id": 1605,
    "district_id": 160501,
    "value": "Wonorejo",
    "postal_code": "31662"
  },
  {
    "id": 1605012010,
    "province_id": 16,
    "regency_id": 1605,
    "district_id": 160501,
    "value": "Wukirsari",
    "postal_code": "31662"
  }
]