[
  {
    "id": 160502,
    "province_id": 16,
    "regency_id": 1605,
    "district_id": 160502,
    "value": "Anyar",
    "postal_code": "31666"
  },
  {
    "id": 160502,
    "province_id": 16,
    "regency_id": 1605,
    "district_id": 160502,
    "value": "Bumi Makmur (Bumi Makmur Jaya)",
    "postal_code": "31666"
  },
  {
    "id": 160502,
    "province_id": 16,
    "regency_id": 1605,
    "district_id": 160502,
    "value": "Harapan Makmur",
    "postal_code": "31666"
  },
  {
    "id": 160502,
    "province_id": 16,
    "regency_id": 1605,
    "district_id": 160502,
    "value": "Lubuk Pandan",
    "postal_code": "31666"
  },
  {
    "id": 160502,
    "province_id": 16,
    "regency_id": 1605,
    "district_id": 160502,
    "value": "Marga Baru",
    "postal_code": "31666"
  },
  {
    "id": 160502,
    "province_id": 16,
    "regency_id": 1605,
    "district_id": 160502,
    "value": "Muara Lakitan",
    "postal_code": "31666"
  },
  {
    "id": 160502,
    "province_id": 16,
    "regency_id": 1605,
    "district_id": 160502,
    "value": "Muara Rengas",
    "postal_code": "31666"
  },
  {
    "id": 160502,
    "province_id": 16,
    "regency_id": 1605,
    "district_id": 160502,
    "value": "Mukti Karya",
    "postal_code": "31666"
  },
  {
    "id": 160502,
    "province_id": 16,
    "regency_id": 1605,
    "district_id": 160502,
    "value": "Pelita Jaya",
    "postal_code": "31666"
  },
  {
    "id": 160502,
    "province_id": 16,
    "regency_id": 1605,
    "district_id": 160502,
    "value": "Pendingan",
    "postal_code": "31666"
  },
  {
    "id": 160502,
    "province_id": 16,
    "regency_id": 1605,
    "district_id": 160502,
    "value": "Pian Raya (Pian Jaya)",
    "postal_code": "31666"
  },
  {
    "id": 160502,
    "province_id": 16,
    "regency_id": 1605,
    "district_id": 160502,
    "value": "Prabumulih I",
    "postal_code": "31666"
  },
  {
    "id": 160502,
    "province_id": 16,
    "regency_id": 1605,
    "district_id": 160502,
    "value": "Prabumulih II",
    "postal_code": "31666"
  },
  {
    "id": 160502,
    "province_id": 16,
    "regency_id": 1605,
    "district_id": 160502,
    "value": "Semanggus Baru (Semangus Baru)",
    "postal_code": "31666"
  },
  {
    "id": 160502,
    "province_id": 16,
    "regency_id": 1605,
    "district_id": 160502,
    "value": "Semangus",
    "postal_code": "31666"
  },
  {
    "id": 160502,
    "province_id": 16,
    "regency_id": 1605,
    "district_id": 160502,
    "value": "Semeteh",
    "postal_code": "31666"
  },
  {
    "id": 160502,
    "province_id": 16,
    "regency_id": 1605,
    "district_id": 160502,
    "value": "Sidomulyo (Sido Mulyo)",
    "postal_code": "31666"
  },
  {
    "id": 160502,
    "province_id": 16,
    "regency_id": 1605,
    "district_id": 160502,
    "value": "Sindang Laya (Sindang Jaya)",
    "postal_code": "31666"
  },
  {
    "id": 160502,
    "province_id": 16,
    "regency_id": 1605,
    "district_id": 160502,
    "value": "Sungai Pinang",
    "postal_code": "31666"
  },
  {
    "id": 160502,
    "province_id": 16,
    "regency_id": 1605,
    "district_id": 160502,
    "value": "Tri Anggun Jaya (Tri Anggunjaya)",
    "postal_code": "31666"
  }
]