[
  {
    "id": 150602,
    "province_id": 15,
    "regency_id": 1506,
    "district_id": 150602,
    "value": "Kampung Nelayan",
    "postal_code": "36557"
  },
  {
    "id": 150602,
    "province_id": 15,
    "regency_id": 1506,
    "district_id": 150602,
    "value": "Patunas",
    "postal_code": "36557"
  },
  {
    "id": 150602,
    "province_id": 15,
    "regency_id": 1506,
    "district_id": 150602,
    "value": "Sriwijaya",
    "postal_code": "36557"
  },
  {
    "id": 150602,
    "province_id": 15,
    "regency_id": 1506,
    "district_id": 150602,
    "value": "Sungainibung",
    "postal_code": "36557"
  },
  {
    "id": 150602,
    "province_id": 15,
    "regency_id": 1506,
    "district_id": 150602,
    "value": "Teluksialang (Teluk Sialang)",
    "postal_code": "36557"
  },
  {
    "id": 150602,
    "province_id": 15,
    "regency_id": 1506,
    "district_id": 150602,
    "value": "Tungkal Empat Kota",
    "postal_code": "36557"
  },
  {
    "id": 150602,
    "province_id": 15,
    "regency_id": 1506,
    "district_id": 150602,
    "value": "Tungkal Harapan",
    "postal_code": "36557"
  },
  {
    "id": 150602,
    "province_id": 15,
    "regency_id": 1506,
    "district_id": 150602,
    "value": "Tungkal I",
    "postal_code": "36557"
  },
  {
    "id": 150602,
    "province_id": 15,
    "regency_id": 1506,
    "district_id": 150602,
    "value": "Tungkal II",
    "postal_code": "36557"
  },
  {
    "id": 150602,
    "province_id": 15,
    "regency_id": 1506,
    "district_id": 150602,
    "value": "Tungkal III",
    "postal_code": "36557"
  }
]