[
  {
    "id": 150308,
    "province_id": 15,
    "regency_id": 1503,
    "district_id": 150308,
    "value": "Bangun Jayo",
    "postal_code": "37480"
  },
  {
    "id": 150308,
    "province_id": 15,
    "regency_id": 1503,
    "district_id": 150308,
    "value": "Batu Penyabung",
    "postal_code": "37480"
  },
  {
    "id": 150308,
    "province_id": 15,
    "regency_id": 1503,
    "district_id": 150308,
    "value": "Dusun Dalam",
    "postal_code": "37480"
  },
  {
    "id": 150308,
    "province_id": 15,
    "regency_id": 1503,
    "district_id": 150308,
    "value": "Limbur Tembesi",
    "postal_code": "37480"
  },
  {
    "id": 150308,
    "province_id": 15,
    "regency_id": 1503,
    "district_id": 150308,
    "value": "Muara Lati (Muaralati)",
    "postal_code": "37480"
  },
  {
    "id": 150308,
    "province_id": 15,
    "regency_id": 1503,
    "district_id": 150308,
    "value": "Penarun",
    "postal_code": "37480"
  },
  {
    "id": 150308,
    "province_id": 15,
    "regency_id": 1503,
    "district_id": 150308,
    "value": "Pulau Buayo (Pulaubuayo)",
    "postal_code": "37480"
  },
  {
    "id": 150308,
    "province_id": 15,
    "regency_id": 1503,
    "district_id": 150308,
    "value": "Pulau Lintang",
    "postal_code": "37480"
  },
  {
    "id": 150308,
    "province_id": 15,
    "regency_id": 1503,
    "district_id": 150308,
    "value": "Pulau Melako (Pulaumelako)",
    "postal_code": "37480"
  },
  {
    "id": 150308,
    "province_id": 15,
    "regency_id": 1503,
    "district_id": 150308,
    "value": "Rantau Gedang",
    "postal_code": "37480"
  },
  {
    "id": 150308,
    "province_id": 15,
    "regency_id": 1503,
    "district_id": 150308,
    "value": "Suka Jadi (Sukajadi)",
    "postal_code": "37480"
  },
  {
    "id": 150308,
    "province_id": 15,
    "regency_id": 1503,
    "district_id": 150308,
    "value": "Tanjung",
    "postal_code": "37480"
  },
  {
    "id": 150308,
    "province_id": 15,
    "regency_id": 1503,
    "district_id": 150308,
    "value": "Tanjung Gagak (Tanjunggagak)",
    "postal_code": "37480"
  },
  {
    "id": 150308,
    "province_id": 15,
    "regency_id": 1503,
    "district_id": 150308,
    "value": "Teluk Kecimbung (Sikumbang)",
    "postal_code": "37480"
  },
  {
    "id": 150308,
    "province_id": 15,
    "regency_id": 1503,
    "district_id": 150308,
    "value": "Teluk Mancur",
    "postal_code": "37480"
  }
]