[
  {
    "id": 920310,
    "province_id": 92,
    "regency_id": 9203,
    "district_id": 920310,
    "value": "Dulanpokpok",
    "postal_code": "98013"
  },
  {
    "id": 920310,
    "province_id": 92,
    "regency_id": 9203,
    "district_id": 920310,
    "value": "Kapaurtutin",
    "postal_code": "98013"
  },
  {
    "id": 920310,
    "province_id": 92,
    "regency_id": 9203,
    "district_id": 920310,
    "value": "Sekban",
    "postal_code": "98013"
  },
  {
    "id": 920310,
    "province_id": 92,
    "regency_id": 9203,
    "district_id": 920310,
    "value": "Sekru",
    "postal_code": "98013"
  },
  {
    "id": 920310,
    "province_id": 92,
    "regency_id": 9203,
    "district_id": 920310,
    "value": "Sukuru Tuare",
    "postal_code": "98013"
  },
  {
    "id": 920310,
    "province_id": 92,
    "regency_id": 9203,
    "district_id": 920310,
    "value": "Tanama",
    "postal_code": "98013"
  },
  {
    "id": 920310,
    "province_id": 92,
    "regency_id": 9203,
    "district_id": 920310,
    "value": "Torea",
    "postal_code": "98013"
  },
  {
    "id": 920310,
    "province_id": 92,
    "regency_id": 9203,
    "district_id": 920310,
    "value": "Wagom",
    "postal_code": "98013"
  },
  {
    "id": 920310,
    "province_id": 92,
    "regency_id": 9203,
    "district_id": 920310,
    "value": "Wagom Utara",
    "postal_code": "98013"
  }
]