[
  {
    "id": 6302062015,
    "province_id": 63,
    "regency_id": 6302,
    "district_id": 630206,
    "value": "Dirgahayu",
    "postal_code": "72116"
  },
  {
    "id": 6302062025,
    "province_id": 63,
    "regency_id": 6302,
    "district_id": 630206,
    "value": "Gunung Sari",
    "postal_code": "72114"
  },
  {
    "id": 6302062022,
    "province_id": 63,
    "regency_id": 6302,
    "district_id": 630206,
    "value": "Gunung Ulin",
    "postal_code": "72114"
  },
  {
    "id": 6302061001,
    "province_id": 63,
    "regency_id": 6302,
    "district_id": 630206,
    "value": "Kotabaru Hulu",
    "postal_code": "72114"
  },
  {
    "id": 6302062009,
    "province_id": 63,
    "regency_id": 6302,
    "district_id": 630206,
    "value": "Megasari (Mega Sari)",
    "postal_code": "72114"
  },
  {
    "id": 6302062012,
    "province_id": 63,
    "regency_id": 6302,
    "district_id": 630206,
    "value": "Rampa",
    "postal_code": "72114"
  },
  {
    "id": 6302062010,
    "province_id": 63,
    "regency_id": 6302,
    "district_id": 630206,
    "value": "Sebelimbingan",
    "postal_code": "72114"
  },
  {
    "id": 6302062014,
    "province_id": 63,
    "regency_id": 6302,
    "district_id": 630206,
    "value": "Semayap",
    "postal_code": "72117"
  },
  {
    "id": 6302062011,
    "province_id": 63,
    "regency_id": 6302,
    "district_id": 630206,
    "value": "Stagen",
    "postal_code": "72114"
  },
  {
    "id": 6302062013,
    "province_id": 63,
    "regency_id": 6302,
    "district_id": 630206,
    "value": "Sungai Taib",
    "postal_code": "72114"
  }
]