[
  {
    "id": 920708,
    "province_id": 92,
    "regency_id": 9207,
    "district_id": 920708,
    "value": "Isey (Isei)",
    "postal_code": "98343"
  },
  {
    "id": 920708,
    "province_id": 92,
    "regency_id": 9207,
    "district_id": 920708,
    "value": "Nggatum",
    "postal_code": "98343"
  },
  {
    "id": 920708,
    "province_id": 92,
    "regency_id": 9207,
    "district_id": 920708,
    "value": "Rasiey (Rasiei)",
    "postal_code": "98343"
  },
  {
    "id": 920708,
    "province_id": 92,
    "regency_id": 9207,
    "district_id": 920708,
    "value": "Sasirey (Sasirei)",
    "postal_code": "98343"
  },
  {
    "id": 920708,
    "province_id": 92,
    "regency_id": 9207,
    "district_id": 920708,
    "value": "Senderawoy / Senderawoi (Sindrawoi)",
    "postal_code": "98343"
  },
  {
    "id": 920708,
    "province_id": 92,
    "regency_id": 9207,
    "district_id": 920708,
    "value": "Tandia",
    "postal_code": "98343"
  },
  {
    "id": 920708,
    "province_id": 92,
    "regency_id": 9207,
    "district_id": 920708,
    "value": "Torey",
    "postal_code": "98343"
  },
  {
    "id": 920708,
    "province_id": 92,
    "regency_id": 9207,
    "district_id": 920708,
    "value": "Uryemi (Uriyem/Uriemi)",
    "postal_code": "98343"
  },
  {
    "id": 920708,
    "province_id": 92,
    "regency_id": 9207,
    "district_id": 920708,
    "value": "Webi",
    "postal_code": "98343"
  }
]