[
  {
    "id": 5309061013,
    "province_id": 53,
    "regency_id": 5309,
    "district_id": 530906,
    "value": "Bajawa",
    "postal_code": "86413"
  },
  {
    "id": 5309062009,
    "province_id": 53,
    "regency_id": 5309,
    "district_id": 530906,
    "value": "Beiwali",
    "postal_code": "86413"
  },
  {
    "id": 5309062001,
    "province_id": 53,
    "regency_id": 5309,
    "district_id": 530906,
    "value": "Beja",
    "postal_code": "86413"
  },
  {
    "id": 5309062028,
    "province_id": 53,
    "regency_id": 5309,
    "district_id": 530906,
    "value": "Bela",
    "postal_code": "86413"
  },
  {
    "id": 5309062030,
    "province_id": 53,
    "regency_id": 5309,
    "district_id": 530906,
    "value": "Bolonga",
    "postal_code": "86417"
  },
  {
    "id": 5309062002,
    "province_id": 53,
    "regency_id": 5309,
    "district_id": 530906,
    "value": "Bomari",
    "postal_code": "86413"
  },
  {
    "id": 5309062031,
    "province_id": 53,
    "regency_id": 5309,
    "district_id": 530906,
    "value": "Boradho",
    "postal_code": "86413"
  },
  {
    "id": 5309062022,
    "province_id": 53,
    "regency_id": 5309,
    "district_id": 530906,
    "value": "Borani",
    "postal_code": "86413"
  },
  {
    "id": 5309062025,
    "province_id": 53,
    "regency_id": 5309,
    "district_id": 530906,
    "value": "Bowali",
    "postal_code": "86413"
  },
  {
    "id": 5309061020,
    "province_id": 53,
    "regency_id": 5309,
    "district_id": 530906,
    "value": "Faobata",
    "postal_code": "86419"
  },
  {
    "id": 5309061016,
    "province_id": 53,
    "regency_id": 5309,
    "district_id": 530906,
    "value": "Jawameze",
    "postal_code": "86416"
  },
  {
    "id": 5309061015,
    "province_id": 53,
    "regency_id": 5309,
    "district_id": 530906,
    "value": "Kisanata",
    "postal_code": "86411"
  },
  {
    "id": 5309062023,
    "province_id": 53,
    "regency_id": 5309,
    "district_id": 530906,
    "value": "Langagedha",
    "postal_code": "86418"
  },
  {
    "id": 5309062034,
    "province_id": 53,
    "regency_id": 5309,
    "district_id": 530906,
    "value": "Langagedha I",
    "postal_code": "86418"
  },
  {
    "id": 5309061019,
    "province_id": 53,
    "regency_id": 5309,
    "district_id": 530906,
    "value": "Lebijaga",
    "postal_code": "86418"
  },
  {
    "id": 5309062032,
    "province_id": 53,
    "regency_id": 5309,
    "district_id": 530906,
    "value": "Mukuvoka",
    "postal_code": "86413"
  },
  {
    "id": 5309062005,
    "province_id": 53,
    "regency_id": 5309,
    "district_id": 530906,
    "value": "Naru (Natu)",
    "postal_code": "86413"
  },
  {
    "id": 5309062029,
    "province_id": 53,
    "regency_id": 5309,
    "district_id": 530906,
    "value": "Ngadhamana",
    "postal_code": "86413"
  },
  {
    "id": 5309061018,
    "province_id": 53,
    "regency_id": 5309,
    "district_id": 530906,
    "value": "Ngedukelu",
    "postal_code": "86415"
  },
  {
    "id": 5309062026,
    "province_id": 53,
    "regency_id": 5309,
    "district_id": 530906,
    "value": "Ngoranale",
    "postal_code": "86413"
  },
  {
    "id": 5309062024,
    "province_id": 53,
    "regency_id": 5309,
    "district_id": 530906,
    "value": "Pape",
    "postal_code": "86413"
  },
  {
    "id": 5309061021,
    "province_id": 53,
    "regency_id": 5309,
    "district_id": 530906,
    "value": "Susu",
    "postal_code": "86417"
  },
  {
    "id": 5309061014,
    "province_id": 53,
    "regency_id": 5309,
    "district_id": 530906,
    "value": "Tanalodu",
    "postal_code": "86412"
  },
  {
    "id": 5309061017,
    "province_id": 53,
    "regency_id": 5309,
    "district_id": 530906,
    "value": "Trikora",
    "postal_code": "86414"
  },
  {
    "id": 5309062004,
    "province_id": 53,
    "regency_id": 5309,
    "district_id": 530906,
    "value": "Ubedolumolo",
    "postal_code": "86413"
  },
  {
    "id": 5309062033,
    "province_id": 53,
    "regency_id": 5309,
    "district_id": 530906,
    "value": "Ubedolumolo II",
    "postal_code": "86413"
  },
  {
    "id": 5309062027,
    "province_id": 53,
    "regency_id": 5309,
    "district_id": 530906,
    "value": "Ubedolumolo Satu",
    "postal_code": "86413"
  },
  {
    "id": 5309062003,
    "province_id": 53,
    "regency_id": 5309,
    "district_id": 530906,
    "value": "Wawowae",
    "postal_code": "86413"
  }
]