[
  {
    "id": 620703,
    "province_id": 62,
    "regency_id": 6207,
    "district_id": 620703,
    "value": "Banua Usang",
    "postal_code": "74261"
  },
  {
    "id": 620703,
    "province_id": 62,
    "regency_id": 6207,
    "district_id": 620703,
    "value": "Cempaka Baru",
    "postal_code": "74261"
  },
  {
    "id": 620703,
    "province_id": 62,
    "regency_id": 6207,
    "district_id": 620703,
    "value": "Palingkau",
    "postal_code": "74261"
  },
  {
    "id": 620703,
    "province_id": 62,
    "regency_id": 6207,
    "district_id": 620703,
    "value": "Paren",
    "postal_code": "74261"
  },
  {
    "id": 620703,
    "province_id": 62,
    "regency_id": 6207,
    "district_id": 620703,
    "value": "Sembuluh I (Satu)",
    "postal_code": "74261"
  },
  {
    "id": 620703,
    "province_id": 62,
    "regency_id": 6207,
    "district_id": 620703,
    "value": "Sembuluh II (Dua)",
    "postal_code": "74261"
  },
  {
    "id": 620703,
    "province_id": 62,
    "regency_id": 6207,
    "district_id": 620703,
    "value": "Telaga Pulang",
    "postal_code": "74261"
  },
  {
    "id": 620703,
    "province_id": 62,
    "regency_id": 6207,
    "district_id": 620703,
    "value": "Ulak Batu",
    "postal_code": "74261"
  }
]