[
  {
    "id": 650105,
    "province_id": 65,
    "regency_id": 6501,
    "district_id": 650105,
    "value": "Apung",
    "postal_code": "77212"
  },
  {
    "id": 650105,
    "province_id": 65,
    "regency_id": 6501,
    "district_id": 650105,
    "value": "Bumi Rahayu",
    "postal_code": "77212"
  },
  {
    "id": 650105,
    "province_id": 65,
    "regency_id": 6501,
    "district_id": 650105,
    "value": "Gunung Sari",
    "postal_code": "77212"
  },
  {
    "id": 650105,
    "province_id": 65,
    "regency_id": 6501,
    "district_id": 650105,
    "value": "Gunung Seriang",
    "postal_code": "77212"
  },
  {
    "id": 650105,
    "province_id": 65,
    "regency_id": 6501,
    "district_id": 650105,
    "value": "Jelarai Selor",
    "postal_code": "77212"
  },
  {
    "id": 650105,
    "province_id": 65,
    "regency_id": 6501,
    "district_id": 650105,
    "value": "Tanjung Selor Ilir/Hilir",
    "postal_code": "77212"
  },
  {
    "id": 650105,
    "province_id": 65,
    "regency_id": 6501,
    "district_id": 650105,
    "value": "Tanjung Selor Timur",
    "postal_code": "77212"
  },
  {
    "id": 650105,
    "province_id": 65,
    "regency_id": 6501,
    "district_id": 650105,
    "value": "Tanjung Selor Ulu/Hulu",
    "postal_code": "77211"
  },
  {
    "id": 650105,
    "province_id": 65,
    "regency_id": 6501,
    "district_id": 650105,
    "value": "Tengkapak",
    "postal_code": "77212"
  }
]