[
  {
    "id": 122501,
    "province_id": 12,
    "regency_id": 1225,
    "district_id": 122501,
    "value": "Bawozamaiwo",
    "postal_code": "22864"
  },
  {
    "id": 122501,
    "province_id": 12,
    "regency_id": 1225,
    "district_id": 122501,
    "value": "Haliadulo (Hiliadulo)",
    "postal_code": "22864"
  },
  {
    "id": 122501,
    "province_id": 12,
    "regency_id": 1225,
    "district_id": 122501,
    "value": "Iraonogaila",
    "postal_code": "22864"
  },
  {
    "id": 122501,
    "province_id": 12,
    "regency_id": 1225,
    "district_id": 122501,
    "value": "Lologundre",
    "postal_code": "22864"
  },
  {
    "id": 122501,
    "province_id": 12,
    "regency_id": 1225,
    "district_id": 122501,
    "value": "Lolowau",
    "postal_code": "22864"
  },
  {
    "id": 122501,
    "province_id": 12,
    "regency_id": 1225,
    "district_id": 122501,
    "value": "Onolimbu (Ono Limbu)",
    "postal_code": "22864"
  },
  {
    "id": 122501,
    "province_id": 12,
    "regency_id": 1225,
    "district_id": 122501,
    "value": "Onowaembo (Ono Waembo)",
    "postal_code": "22864"
  },
  {
    "id": 122501,
    "province_id": 12,
    "regency_id": 1225,
    "district_id": 122501,
    "value": "Sisobambowo",
    "postal_code": "22864"
  },
  {
    "id": 122501,
    "province_id": 12,
    "regency_id": 1225,
    "district_id": 122501,
    "value": "Sisobaoho",
    "postal_code": "22864"
  },
  {
    "id": 122501,
    "province_id": 12,
    "regency_id": 1225,
    "district_id": 122501,
    "value": "Sitolubanua (Sitolu Banua)",
    "postal_code": "22864"
  },
  {
    "id": 122501,
    "province_id": 12,
    "regency_id": 1225,
    "district_id": 122501,
    "value": "Tigaserangkai (Tiga Serangkai)",
    "postal_code": "22864"
  }
]