[
  {
    "id": 5309142001,
    "province_id": 53,
    "regency_id": 5309,
    "district_id": 530914,
    "value": "Benteng Tawa",
    "postal_code": "86421"
  },
  {
    "id": 5309142008,
    "province_id": 53,
    "regency_id": 5309,
    "district_id": 530914,
    "value": "Benteng Tawa I",
    "postal_code": "86421"
  },
  {
    "id": 5309142011,
    "province_id": 53,
    "regency_id": 5309,
    "district_id": 530914,
    "value": "Benteng Tawa II",
    "postal_code": "86421"
  },
  {
    "id": 5309142012,
    "province_id": 53,
    "regency_id": 5309,
    "district_id": 530914,
    "value": "Benteng Tawa III",
    "postal_code": "86421"
  },
  {
    "id": 5309142017,
    "province_id": 53,
    "regency_id": 5309,
    "district_id": 530914,
    "value": "Benteng Tawa IV",
    "postal_code": "86421"
  },
  {
    "id": 5309142018,
    "province_id": 53,
    "regency_id": 5309,
    "district_id": 530914,
    "value": "Benteng Tawa V",
    "postal_code": "86421"
  },
  {
    "id": 5309142014,
    "province_id": 53,
    "regency_id": 5309,
    "district_id": 530914,
    "value": "Kembang",
    "postal_code": "86421"
  },
  {
    "id": 5309142002,
    "province_id": 53,
    "regency_id": 5309,
    "district_id": 530914,
    "value": "Lanamai",
    "postal_code": "86421"
  },
  {
    "id": 5309142009,
    "province_id": 53,
    "regency_id": 5309,
    "district_id": 530914,
    "value": "Lanamai I",
    "postal_code": "86421"
  },
  {
    "id": 5309142013,
    "province_id": 53,
    "regency_id": 5309,
    "district_id": 530914,
    "value": "Lanamai II",
    "postal_code": "86421"
  },
  {
    "id": 5309142005,
    "province_id": 53,
    "regency_id": 5309,
    "district_id": 530914,
    "value": "Ngara",
    "postal_code": "86421"
  },
  {
    "id": 5309142016,
    "province_id": 53,
    "regency_id": 5309,
    "district_id": 530914,
    "value": "Ngara I",
    "postal_code": "86421"
  },
  {
    "id": 5309142019,
    "province_id": 53,
    "regency_id": 5309,
    "district_id": 530914,
    "value": "Nili Waru Sae",
    "postal_code": "86421"
  },
  {
    "id": 5309142004,
    "province_id": 53,
    "regency_id": 5309,
    "district_id": 530914,
    "value": "Ria",
    "postal_code": "86421"
  },
  {
    "id": 5309142006,
    "province_id": 53,
    "regency_id": 5309,
    "district_id": 530914,
    "value": "Ria I",
    "postal_code": "86421"
  },
  {
    "id": 5309142015,
    "province_id": 53,
    "regency_id": 5309,
    "district_id": 530914,
    "value": "Wate",
    "postal_code": "86421"
  },
  {
    "id": 5309142003,
    "province_id": 53,
    "regency_id": 5309,
    "district_id": 530914,
    "value": "Wolomeze",
    "postal_code": "86421"
  },
  {
    "id": 5309142007,
    "province_id": 53,
    "regency_id": 5309,
    "district_id": 530914,
    "value": "Wolomeze I",
    "postal_code": "86421"
  },
  {
    "id": 5309142010,
    "province_id": 53,
    "regency_id": 5309,
    "district_id": 530914,
    "value": "Wolomeze II (Wolomese Dua)",
    "postal_code": "86421"
  }
]