[
  {
    "id": 332103,
    "province_id": 33,
    "regency_id": 3321,
    "district_id": 332103,
    "value": "Bakalrejo",
    "postal_code": "59565"
  },
  {
    "id": 332103,
    "province_id": 33,
    "regency_id": 3321,
    "district_id": 332103,
    "value": "Banjarejo",
    "postal_code": "59565"
  },
  {
    "id": 332103,
    "province_id": 33,
    "regency_id": 3321,
    "district_id": 332103,
    "value": "Blerong",
    "postal_code": "59565"
  },
  {
    "id": 332103,
    "province_id": 33,
    "regency_id": 3321,
    "district_id": 332103,
    "value": "Bogosari",
    "postal_code": "59565"
  },
  {
    "id": 332103,
    "province_id": 33,
    "regency_id": 3321,
    "district_id": 332103,
    "value": "Bumiharjo",
    "postal_code": "59565"
  },
  {
    "id": 332103,
    "province_id": 33,
    "regency_id": 3321,
    "district_id": 332103,
    "value": "Gaji",
    "postal_code": "59565"
  },
  {
    "id": 332103,
    "province_id": 33,
    "regency_id": 3321,
    "district_id": 332103,
    "value": "Guntur",
    "postal_code": "59565"
  },
  {
    "id": 332103,
    "province_id": 33,
    "regency_id": 3321,
    "district_id": 332103,
    "value": "Krandon",
    "postal_code": "59565"
  },
  {
    "id": 332103,
    "province_id": 33,
    "regency_id": 3321,
    "district_id": 332103,
    "value": "Pamongan",
    "postal_code": "59565"
  },
  {
    "id": 332103,
    "province_id": 33,
    "regency_id": 3321,
    "district_id": 332103,
    "value": "Sarirejo",
    "postal_code": "59565"
  },
  {
    "id": 332103,
    "province_id": 33,
    "regency_id": 3321,
    "district_id": 332103,
    "value": "Sidoharjo",
    "postal_code": "59565"
  },
  {
    "id": 332103,
    "province_id": 33,
    "regency_id": 3321,
    "district_id": 332103,
    "value": "Sidokumpul",
    "postal_code": "59565"
  },
  {
    "id": 332103,
    "province_id": 33,
    "regency_id": 3321,
    "district_id": 332103,
    "value": "Sukorejo",
    "postal_code": "59565"
  },
  {
    "id": 332103,
    "province_id": 33,
    "regency_id": 3321,
    "district_id": 332103,
    "value": "Tangkis",
    "postal_code": "59565"
  },
  {
    "id": 332103,
    "province_id": 33,
    "regency_id": 3321,
    "district_id": 332103,
    "value": "Temuroso",
    "postal_code": "59565"
  },
  {
    "id": 332103,
    "province_id": 33,
    "regency_id": 3321,
    "district_id": 332103,
    "value": "Tlogorejo",
    "postal_code": "59565"
  },
  {
    "id": 332103,
    "province_id": 33,
    "regency_id": 3321,
    "district_id": 332103,
    "value": "Tlogoweru",
    "postal_code": "59565"
  },
  {
    "id": 332103,
    "province_id": 33,
    "regency_id": 3321,
    "district_id": 332103,
    "value": "Trimulyo",
    "postal_code": "59565"
  },
  {
    "id": 332103,
    "province_id": 33,
    "regency_id": 3321,
    "district_id": 332103,
    "value": "Turitempel",
    "postal_code": "59565"
  },
  {
    "id": 332103,
    "province_id": 33,
    "regency_id": 3321,
    "district_id": 332103,
    "value": "Wonorejo",
    "postal_code": "59565"
  }
]