[
  {
    "id": 352803,
    "province_id": 35,
    "regency_id": 3528,
    "district_id": 352803,
    "value": "Artodung",
    "postal_code": "69382"
  },
  {
    "id": 352803,
    "province_id": 35,
    "regency_id": 3528,
    "district_id": 352803,
    "value": "Bulay",
    "postal_code": "69382"
  },
  {
    "id": 352803,
    "province_id": 35,
    "regency_id": 3528,
    "district_id": 352803,
    "value": "Galis",
    "postal_code": "69382"
  },
  {
    "id": 352803,
    "province_id": 35,
    "regency_id": 3528,
    "district_id": 352803,
    "value": "Konang",
    "postal_code": "69382"
  },
  {
    "id": 352803,
    "province_id": 35,
    "regency_id": 3528,
    "district_id": 352803,
    "value": "Lembung",
    "postal_code": "69382"
  },
  {
    "id": 352803,
    "province_id": 35,
    "regency_id": 3528,
    "district_id": 352803,
    "value": "Pagendingan",
    "postal_code": "69382"
  },
  {
    "id": 352803,
    "province_id": 35,
    "regency_id": 3528,
    "district_id": 352803,
    "value": "Pandan",
    "postal_code": "69382"
  },
  {
    "id": 352803,
    "province_id": 35,
    "regency_id": 3528,
    "district_id": 352803,
    "value": "Polagan",
    "postal_code": "69382"
  },
  {
    "id": 352803,
    "province_id": 35,
    "regency_id": 3528,
    "district_id": 352803,
    "value": "Ponteh",
    "postal_code": "69382"
  },
  {
    "id": 352803,
    "province_id": 35,
    "regency_id": 3528,
    "district_id": 352803,
    "value": "Tobungan",
    "postal_code": "69382"
  }
]