[
  {
    "id": 320431,
    "province_id": 32,
    "regency_id": 3204,
    "district_id": 320431,
    "value": "Cibeureum",
    "postal_code": "40386"
  },
  {
    "id": 320431,
    "province_id": 32,
    "regency_id": 3204,
    "district_id": 320431,
    "value": "Cihawuk",
    "postal_code": "40386"
  },
  {
    "id": 320431,
    "province_id": 32,
    "regency_id": 3204,
    "district_id": 320431,
    "value": "Cikembang",
    "postal_code": "40386"
  },
  {
    "id": 320431,
    "province_id": 32,
    "regency_id": 3204,
    "district_id": 320431,
    "value": "Neglawangi",
    "postal_code": "40386"
  },
  {
    "id": 320431,
    "province_id": 32,
    "regency_id": 3204,
    "district_id": 320431,
    "value": "Resmi Tingal",
    "postal_code": "40386"
  },
  {
    "id": 320431,
    "province_id": 32,
    "regency_id": 3204,
    "district_id": 320431,
    "value": "Santosa",
    "postal_code": "40386"
  },
  {
    "id": 320431,
    "province_id": 32,
    "regency_id": 3204,
    "district_id": 320431,
    "value": "Sukapura",
    "postal_code": "40386"
  },
  {
    "id": 320431,
    "province_id": 32,
    "regency_id": 3204,
    "district_id": 320431,
    "value": "Tarumajaya",
    "postal_code": "40386"
  }
]