[
  {
    "id": 7322152007,
    "province_id": 73,
    "regency_id": 7322,
    "district_id": 732215,
    "value": "Batu Alang",
    "postal_code": "92955"
  },
  {
    "id": 7322152008,
    "province_id": 73,
    "regency_id": 7322,
    "district_id": 732215,
    "value": "Bone Subur",
    "postal_code": "92955"
  },
  {
    "id": 7322152001,
    "province_id": 73,
    "regency_id": 7322,
    "district_id": 732215,
    "value": "Buangin",
    "postal_code": "92955"
  },
  {
    "id": 7322152003,
    "province_id": 73,
    "regency_id": 7322,
    "district_id": 732215,
    "value": "Dandang",
    "postal_code": "92955"
  },
  {
    "id": 7322152006,
    "province_id": 73,
    "regency_id": 7322,
    "district_id": 732215,
    "value": "Kalotok",
    "postal_code": "92955"
  },
  {
    "id": 7322152004,
    "province_id": 73,
    "regency_id": 7322,
    "district_id": 732215,
    "value": "Kampung Baru",
    "postal_code": "92955"
  },
  {
    "id": 7322152010,
    "province_id": 73,
    "regency_id": 7322,
    "district_id": 732215,
    "value": "Mari-Mari",
    "postal_code": "92955"
  },
  {
    "id": 7322152009,
    "province_id": 73,
    "regency_id": 7322,
    "district_id": 732215,
    "value": "Pompaniki",
    "postal_code": "92955"
  },
  {
    "id": 7322152005,
    "province_id": 73,
    "regency_id": 7322,
    "district_id": 732215,
    "value": "Teteuri",
    "postal_code": "92955"
  },
  {
    "id": 7322152002,
    "province_id": 73,
    "regency_id": 7322,
    "district_id": 732215,
    "value": "Torpedo Jaya",
    "postal_code": "92955"
  }
]