[
  {
    "id": 710404,
    "province_id": 71,
    "regency_id": 7104,
    "district_id": 710404,
    "value": "Bulude",
    "postal_code": "95883"
  },
  {
    "id": 710404,
    "province_id": 71,
    "regency_id": 7104,
    "district_id": 710404,
    "value": "Bulude Selatan",
    "postal_code": "95883"
  },
  {
    "id": 710404,
    "province_id": 71,
    "regency_id": 7104,
    "district_id": 710404,
    "value": "Essang",
    "postal_code": "95883"
  },
  {
    "id": 710404,
    "province_id": 71,
    "regency_id": 7104,
    "district_id": 710404,
    "value": "Essang Selatan",
    "postal_code": "95883"
  },
  {
    "id": 710404,
    "province_id": 71,
    "regency_id": 7104,
    "district_id": 710404,
    "value": "Lalue",
    "postal_code": "95883"
  },
  {
    "id": 710404,
    "province_id": 71,
    "regency_id": 7104,
    "district_id": 710404,
    "value": "Lalue Tengah",
    "postal_code": "95883"
  },
  {
    "id": 710404,
    "province_id": 71,
    "regency_id": 7104,
    "district_id": 710404,
    "value": "Lalue Utara",
    "postal_code": "95883"
  },
  {
    "id": 710404,
    "province_id": 71,
    "regency_id": 7104,
    "district_id": 710404,
    "value": "Maririk",
    "postal_code": "95883"
  }
]