[
  {
    "id": 3509201001,
    "province_id": 35,
    "regency_id": 3509,
    "district_id": 350920,
    "value": "Banjarsengon (Banjar Sengon)",
    "postal_code": "68118"
  },
  {
    "id": 3509201008,
    "province_id": 35,
    "regency_id": 3509,
    "district_id": 350920,
    "value": "Baratan",
    "postal_code": "68112"
  },
  {
    "id": 3509201005,
    "province_id": 35,
    "regency_id": 3509,
    "district_id": 350920,
    "value": "Bintoro",
    "postal_code": "68113"
  },
  {
    "id": 3509201003,
    "province_id": 35,
    "regency_id": 3509,
    "district_id": 350920,
    "value": "Gebang",
    "postal_code": "68117"
  },
  {
    "id": 3509201006,
    "province_id": 35,
    "regency_id": 3509,
    "district_id": 350920,
    "value": "Jemberlor (Jember Lor)",
    "postal_code": "68118"
  },
  {
    "id": 3509201002,
    "province_id": 35,
    "regency_id": 3509,
    "district_id": 350920,
    "value": "Jumerto",
    "postal_code": "68114"
  },
  {
    "id": 3509201007,
    "province_id": 35,
    "regency_id": 3509,
    "district_id": 350920,
    "value": "Patrang",
    "postal_code": "68111"
  },
  {
    "id": 3509201004,
    "province_id": 35,
    "regency_id": 3509,
    "district_id": 350920,
    "value": "Slawu",
    "postal_code": "68116"
  }
]