[
  {
    "id": 121429,
    "province_id": 12,
    "regency_id": 1214,
    "district_id": 121429,
    "value": "Bawolawindra",
    "postal_code": "22883"
  },
  {
    "id": 121429,
    "province_id": 12,
    "regency_id": 1214,
    "district_id": 121429,
    "value": "Bawositora",
    "postal_code": "22883"
  },
  {
    "id": 121429,
    "province_id": 12,
    "regency_id": 1214,
    "district_id": 121429,
    "value": "Bintuang",
    "postal_code": "22883"
  },
  {
    "id": 121429,
    "province_id": 12,
    "regency_id": 1214,
    "district_id": 121429,
    "value": "Fuge",
    "postal_code": "22883"
  },
  {
    "id": 121429,
    "province_id": 12,
    "regency_id": 1214,
    "district_id": 121429,
    "value": "Hayo",
    "postal_code": "22883"
  },
  {
    "id": 121429,
    "province_id": 12,
    "regency_id": 1214,
    "district_id": 121429,
    "value": "Hilizamorogotano",
    "postal_code": "22883"
  },
  {
    "id": 121429,
    "province_id": 12,
    "regency_id": 1214,
    "district_id": 121429,
    "value": "Luaha Idano Pono (Luaha Idanopono)",
    "postal_code": "22883"
  },
  {
    "id": 121429,
    "province_id": 12,
    "regency_id": 1214,
    "district_id": 121429,
    "value": "Sibaranun",
    "postal_code": "22883"
  },
  {
    "id": 121429,
    "province_id": 12,
    "regency_id": 1214,
    "district_id": 121429,
    "value": "Sigese",
    "postal_code": "22883"
  }
]