[
  {
    "id": 1302092005,
    "province_id": 13,
    "regency_id": 1302,
    "district_id": 130209,
    "value": "Bukik Bais (Bukit Bais)",
    "postal_code": "27388"
  },
  {
    "id": 1302092007,
    "province_id": 13,
    "regency_id": 1302,
    "district_id": 130209,
    "value": "Guguak Sarai (Guguk Sarai)",
    "postal_code": "27388"
  },
  {
    "id": 1302092009,
    "province_id": 13,
    "regency_id": 1302,
    "district_id": 130209,
    "value": "Indudur",
    "postal_code": "27388"
  },
  {
    "id": 1302092008,
    "province_id": 13,
    "regency_id": 1302,
    "district_id": 130209,
    "value": "Koto Laweh",
    "postal_code": "27388"
  },
  {
    "id": 1302092003,
    "province_id": 13,
    "regency_id": 1302,
    "district_id": 130209,
    "value": "Pianggu",
    "postal_code": "27388"
  },
  {
    "id": 1302092002,
    "province_id": 13,
    "regency_id": 1302,
    "district_id": 130209,
    "value": "Siaro Aro",
    "postal_code": "27388"
  },
  {
    "id": 1302092004,
    "province_id": 13,
    "regency_id": 1302,
    "district_id": 130209,
    "value": "Sungai Durian",
    "postal_code": "27388"
  },
  {
    "id": 1302092006,
    "province_id": 13,
    "regency_id": 1302,
    "district_id": 130209,
    "value": "Sungai Jambur",
    "postal_code": "27388"
  },
  {
    "id": 1302092001,
    "province_id": 13,
    "regency_id": 1302,
    "district_id": 130209,
    "value": "Taruang Taruang",
    "postal_code": "27388"
  }
]