[
  {
    "id": 330512,
    "province_id": 33,
    "regency_id": 3305,
    "district_id": 330512,
    "value": "Adikarso",
    "postal_code": "54317"
  },
  {
    "id": 330512,
    "province_id": 33,
    "regency_id": 3305,
    "district_id": 330512,
    "value": "Argopeni",
    "postal_code": "54317"
  },
  {
    "id": 330512,
    "province_id": 33,
    "regency_id": 3305,
    "district_id": 330512,
    "value": "Bandung",
    "postal_code": "54317"
  },
  {
    "id": 330512,
    "province_id": 33,
    "regency_id": 3305,
    "district_id": 330512,
    "value": "Bumirejo",
    "postal_code": "54316"
  },
  {
    "id": 330512,
    "province_id": 33,
    "regency_id": 3305,
    "district_id": 330512,
    "value": "Candimulyo",
    "postal_code": "54317"
  },
  {
    "id": 330512,
    "province_id": 33,
    "regency_id": 3305,
    "district_id": 330512,
    "value": "Candiwulan",
    "postal_code": "54317"
  },
  {
    "id": 330512,
    "province_id": 33,
    "regency_id": 3305,
    "district_id": 330512,
    "value": "Depokrejo",
    "postal_code": "54317"
  },
  {
    "id": 330512,
    "province_id": 33,
    "regency_id": 3305,
    "district_id": 330512,
    "value": "Gemeksekti",
    "postal_code": "54317"
  },
  {
    "id": 330512,
    "province_id": 33,
    "regency_id": 3305,
    "district_id": 330512,
    "value": "Gesikan",
    "postal_code": "54317"
  },
  {
    "id": 330512,
    "province_id": 33,
    "regency_id": 3305,
    "district_id": 330512,
    "value": "Jatisari",
    "postal_code": "54317"
  },
  {
    "id": 330512,
    "province_id": 33,
    "regency_id": 3305,
    "district_id": 330512,
    "value": "Jemur",
    "postal_code": "54317"
  },
  {
    "id": 330512,
    "province_id": 33,
    "regency_id": 3305,
    "district_id": 330512,
    "value": "Kalibagor",
    "postal_code": "54317"
  },
  {
    "id": 330512,
    "province_id": 33,
    "regency_id": 3305,
    "district_id": 330512,
    "value": "Kalijirek",
    "postal_code": "54317"
  },
  {
    "id": 330512,
    "province_id": 33,
    "regency_id": 3305,
    "district_id": 330512,
    "value": "Kalirejo",
    "postal_code": "54317"
  },
  {
    "id": 330512,
    "province_id": 33,
    "regency_id": 3305,
    "district_id": 330512,
    "value": "Karangsari",
    "postal_code": "54317"
  },
  {
    "id": 330512,
    "province_id": 33,
    "regency_id": 3305,
    "district_id": 330512,
    "value": "Kawedusan",
    "postal_code": "54317"
  },
  {
    "id": 330512,
    "province_id": 33,
    "regency_id": 3305,
    "district_id": 330512,
    "value": "Kebumen",
    "postal_code": "54311"
  },
  {
    "id": 330512,
    "province_id": 33,
    "regency_id": 3305,
    "district_id": 330512,
    "value": "Kembaran",
    "postal_code": "54315"
  },
  {
    "id": 330512,
    "province_id": 33,
    "regency_id": 3305,
    "district_id": 330512,
    "value": "Kutosari",
    "postal_code": "54317"
  },
  {
    "id": 330512,
    "province_id": 33,
    "regency_id": 3305,
    "district_id": 330512,
    "value": "Mengkowo",
    "postal_code": "54317"
  },
  {
    "id": 330512,
    "province_id": 33,
    "regency_id": 3305,
    "district_id": 330512,
    "value": "Muktisari",
    "postal_code": "54317"
  },
  {
    "id": 330512,
    "province_id": 33,
    "regency_id": 3305,
    "district_id": 330512,
    "value": "Murtirejo (Muktirejo)",
    "postal_code": "54317"
  },
  {
    "id": 330512,
    "province_id": 33,
    "regency_id": 3305,
    "district_id": 330512,
    "value": "Panjer",
    "postal_code": "54312"
  },
  {
    "id": 330512,
    "province_id": 33,
    "regency_id": 3305,
    "district_id": 330512,
    "value": "Roworejo",
    "postal_code": "54317"
  },
  {
    "id": 330512,
    "province_id": 33,
    "regency_id": 3305,
    "district_id": 330512,
    "value": "Selang",
    "postal_code": "54314"
  },
  {
    "id": 330512,
    "province_id": 33,
    "regency_id": 3305,
    "district_id": 330512,
    "value": "Sumberadi",
    "postal_code": "54317"
  },
  {
    "id": 330512,
    "province_id": 33,
    "regency_id": 3305,
    "district_id": 330512,
    "value": "Tamanwinangun",
    "postal_code": "54313"
  },
  {
    "id": 330512,
    "province_id": 33,
    "regency_id": 3305,
    "district_id": 330512,
    "value": "Tanahsari",
    "postal_code": "54317"
  },
  {
    "id": 330512,
    "province_id": 33,
    "regency_id": 3305,
    "district_id": 330512,
    "value": "Wonosari",
    "postal_code": "54317"
  }
]