[
  {
    "id": 150217,
    "province_id": 15,
    "regency_id": 1502,
    "district_id": 150217,
    "value": "Baru Pangkalan Jambu",
    "postal_code": "37361"
  },
  {
    "id": 150217,
    "province_id": 15,
    "regency_id": 1502,
    "district_id": 150217,
    "value": "Birun",
    "postal_code": "37361"
  },
  {
    "id": 150217,
    "province_id": 15,
    "regency_id": 1502,
    "district_id": 150217,
    "value": "Bukit Perentak",
    "postal_code": "37361"
  },
  {
    "id": 150217,
    "province_id": 15,
    "regency_id": 1502,
    "district_id": 150217,
    "value": "Bungo Tanjung",
    "postal_code": "37361"
  },
  {
    "id": 150217,
    "province_id": 15,
    "regency_id": 1502,
    "district_id": 150217,
    "value": "Kampung Limo",
    "postal_code": "37361"
  },
  {
    "id": 150217,
    "province_id": 15,
    "regency_id": 1502,
    "district_id": 150217,
    "value": "Sungai Jering",
    "postal_code": "37361"
  },
  {
    "id": 150217,
    "province_id": 15,
    "regency_id": 1502,
    "district_id": 150217,
    "value": "Tanjung Mudo",
    "postal_code": "37361"
  },
  {
    "id": 150217,
    "province_id": 15,
    "regency_id": 1502,
    "district_id": 150217,
    "value": "Tiga Alur (Tiga / Tigo Alur Pangkalan Jambu)",
    "postal_code": "37361"
  }
]