[
  {
    "id": 950306,
    "province_id": 95,
    "regency_id": 9503,
    "district_id": 950306,
    "value": "Bolda",
    "postal_code": "99757"
  },
  {
    "id": 950306,
    "province_id": 95,
    "regency_id": 9503,
    "district_id": 950306,
    "value": "Cenderawasih",
    "postal_code": "99757"
  },
  {
    "id": 950306,
    "province_id": 95,
    "regency_id": 9503,
    "district_id": 950306,
    "value": "Emm",
    "postal_code": "99757"
  },
  {
    "id": 950306,
    "province_id": 95,
    "regency_id": 9503,
    "district_id": 950306,
    "value": "Hein",
    "postal_code": "99757"
  },
  {
    "id": 950306,
    "province_id": 95,
    "regency_id": 9503,
    "district_id": 950306,
    "value": "Imsekla",
    "postal_code": "99757"
  },
  {
    "id": 950306,
    "province_id": 95,
    "regency_id": 9503,
    "district_id": 950306,
    "value": "Luwemna",
    "postal_code": "99757"
  },
  {
    "id": 950306,
    "province_id": 95,
    "regency_id": 9503,
    "district_id": 950306,
    "value": "Manggona",
    "postal_code": "99757"
  },
  {
    "id": 950306,
    "province_id": 95,
    "regency_id": 9503,
    "district_id": 950306,
    "value": "Nalca",
    "postal_code": "99757"
  }
]