[
  {
    "id": 940307,
    "province_id": 94,
    "regency_id": 9403,
    "district_id": 940307,
    "value": "Bua",
    "postal_code": "98724"
  },
  {
    "id": 940307,
    "province_id": 94,
    "regency_id": 9403,
    "district_id": 940307,
    "value": "Bugubutu",
    "postal_code": "98724"
  },
  {
    "id": 940307,
    "province_id": 94,
    "regency_id": 9403,
    "district_id": 940307,
    "value": "Dadou",
    "postal_code": "98724"
  },
  {
    "id": 940307,
    "province_id": 94,
    "regency_id": 9403,
    "district_id": 940307,
    "value": "Degatadi",
    "postal_code": "98724"
  },
  {
    "id": 940307,
    "province_id": 94,
    "regency_id": 9403,
    "district_id": 940307,
    "value": "Dogomouto",
    "postal_code": "98724"
  },
  {
    "id": 940307,
    "province_id": 94,
    "regency_id": 9403,
    "district_id": 940307,
    "value": "Eguai",
    "postal_code": "98724"
  },
  {
    "id": 940307,
    "province_id": 94,
    "regency_id": 9403,
    "district_id": 940307,
    "value": "Giwo",
    "postal_code": "98724"
  },
  {
    "id": 940307,
    "province_id": 94,
    "regency_id": 9403,
    "district_id": 940307,
    "value": "Kepi",
    "postal_code": "98724"
  },
  {
    "id": 940307,
    "province_id": 94,
    "regency_id": 9403,
    "district_id": 940307,
    "value": "Nomokepota",
    "postal_code": "98724"
  },
  {
    "id": 940307,
    "province_id": 94,
    "regency_id": 9403,
    "district_id": 940307,
    "value": "Todia (Tadia/Ayaikebo)",
    "postal_code": "98724"
  },
  {
    "id": 940307,
    "province_id": 94,
    "regency_id": 9403,
    "district_id": 940307,
    "value": "Uwoyupi",
    "postal_code": "98724"
  },
  {
    "id": 940307,
    "province_id": 94,
    "regency_id": 9403,
    "district_id": 940307,
    "value": "Wageme",
    "postal_code": "98724"
  },
  {
    "id": 940307,
    "province_id": 94,
    "regency_id": 9403,
    "district_id": 940307,
    "value": "Wegekebo",
    "postal_code": "98724"
  },
  {
    "id": 940307,
    "province_id": 94,
    "regency_id": 9403,
    "district_id": 940307,
    "value": "Yinotadi",
    "postal_code": "98724"
  }
]