[
  {
    "id": 1604312001,
    "province_id": 16,
    "regency_id": 1604,
    "district_id": 160431,
    "value": "Banjar Negara",
    "postal_code": "31420"
  },
  {
    "id": 1604312005,
    "province_id": 16,
    "regency_id": 1604,
    "district_id": 160431,
    "value": "Karang Anyar",
    "postal_code": "31421"
  },
  {
    "id": 1604312006,
    "province_id": 16,
    "regency_id": 1604,
    "district_id": 160431,
    "value": "Karang Baru",
    "postal_code": "31422"
  },
  {
    "id": 1604312007,
    "province_id": 16,
    "regency_id": 1604,
    "district_id": 160431,
    "value": "Kerung",
    "postal_code": "31426"
  },
  {
    "id": 1604312008,
    "province_id": 16,
    "regency_id": 1604,
    "district_id": 160431,
    "value": "Muara Cawang",
    "postal_code": "31427"
  },
  {
    "id": 1604312004,
    "province_id": 16,
    "regency_id": 1604,
    "district_id": 160431,
    "value": "Nantal",
    "postal_code": "31423"
  },
  {
    "id": 1604312009,
    "province_id": 16,
    "regency_id": 1604,
    "district_id": 160431,
    "value": "Talang Sawah",
    "postal_code": "31428"
  },
  {
    "id": 1604312010,
    "province_id": 16,
    "regency_id": 1604,
    "district_id": 160431,
    "value": "Talang Sejemput",
    "postal_code": "31429"
  },
  {
    "id": 1604312002,
    "province_id": 16,
    "regency_id": 1604,
    "district_id": 160431,
    "value": "Tanjung Payang",
    "postal_code": "31424"
  },
  {
    "id": 1604312003,
    "province_id": 16,
    "regency_id": 1604,
    "district_id": 160431,
    "value": "Tanjung Tebat",
    "postal_code": "31425"
  }
]