[
  {
    "id": 620803,
    "province_id": 62,
    "regency_id": 6208,
    "district_id": 620803,
    "value": "Air Dua",
    "postal_code": "74173"
  },
  {
    "id": 620803,
    "province_id": 62,
    "regency_id": 6208,
    "district_id": 620803,
    "value": "Balai Riam",
    "postal_code": "74173"
  },
  {
    "id": 620803,
    "province_id": 62,
    "regency_id": 6208,
    "district_id": 620803,
    "value": "Bangun Jaya",
    "postal_code": "74173"
  },
  {
    "id": 620803,
    "province_id": 62,
    "regency_id": 6208,
    "district_id": 620803,
    "value": "Bukit Sungkai",
    "postal_code": "74173"
  },
  {
    "id": 620803,
    "province_id": 62,
    "regency_id": 6208,
    "district_id": 620803,
    "value": "Jihing",
    "postal_code": "74173"
  },
  {
    "id": 620803,
    "province_id": 62,
    "regency_id": 6208,
    "district_id": 620803,
    "value": "Lupu Peruca",
    "postal_code": "74173"
  },
  {
    "id": 620803,
    "province_id": 62,
    "regency_id": 6208,
    "district_id": 620803,
    "value": "Pempaning",
    "postal_code": "74173"
  },
  {
    "id": 620803,
    "province_id": 62,
    "regency_id": 6208,
    "district_id": 620803,
    "value": "Sekuningan Baru",
    "postal_code": "74173"
  }
]