[
  {
    "id": 351106,
    "province_id": 35,
    "regency_id": 3511,
    "district_id": 351106,
    "value": "Dadapan",
    "postal_code": "68261"
  },
  {
    "id": 351106,
    "province_id": 35,
    "regency_id": 3511,
    "district_id": 351106,
    "value": "Dawuhan",
    "postal_code": "68261"
  },
  {
    "id": 351106,
    "province_id": 35,
    "regency_id": 3511,
    "district_id": 351106,
    "value": "Grujugan Kidul",
    "postal_code": "68261"
  },
  {
    "id": 351106,
    "province_id": 35,
    "regency_id": 3511,
    "district_id": 351106,
    "value": "Kabuaran",
    "postal_code": "68261"
  },
  {
    "id": 351106,
    "province_id": 35,
    "regency_id": 3511,
    "district_id": 351106,
    "value": "Kejawan",
    "postal_code": "68261"
  },
  {
    "id": 351106,
    "province_id": 35,
    "regency_id": 3511,
    "district_id": 351106,
    "value": "Pekauman",
    "postal_code": "68261"
  },
  {
    "id": 351106,
    "province_id": 35,
    "regency_id": 3511,
    "district_id": 351106,
    "value": "Sumber Pandan (Sumberpandan)",
    "postal_code": "68261"
  },
  {
    "id": 351106,
    "province_id": 35,
    "regency_id": 3511,
    "district_id": 351106,
    "value": "Taman",
    "postal_code": "68261"
  },
  {
    "id": 351106,
    "province_id": 35,
    "regency_id": 3511,
    "district_id": 351106,
    "value": "Tegal Mijin (Tegalmijin)",
    "postal_code": "68261"
  },
  {
    "id": 351106,
    "province_id": 35,
    "regency_id": 3511,
    "district_id": 351106,
    "value": "Wanisodo",
    "postal_code": "68261"
  },
  {
    "id": 351106,
    "province_id": 35,
    "regency_id": 3511,
    "district_id": 351106,
    "value": "Wonosari",
    "postal_code": "68261"
  }
]