[
  {
    "id": 360305,
    "province_id": 36,
    "regency_id": 3603,
    "district_id": 360305,
    "value": "Bojong Loa (Bojongloa)",
    "postal_code": "15730"
  },
  {
    "id": 360305,
    "province_id": 36,
    "regency_id": 3603,
    "district_id": 360305,
    "value": "Carenang",
    "postal_code": "15730"
  },
  {
    "id": 360305,
    "province_id": 36,
    "regency_id": 3603,
    "district_id": 360305,
    "value": "Caringin",
    "postal_code": "15730"
  },
  {
    "id": 360305,
    "province_id": 36,
    "regency_id": 3603,
    "district_id": 360305,
    "value": "Cempaka",
    "postal_code": "15730"
  },
  {
    "id": 360305,
    "province_id": 36,
    "regency_id": 3603,
    "district_id": 360305,
    "value": "Cibugel",
    "postal_code": "15730"
  },
  {
    "id": 360305,
    "province_id": 36,
    "regency_id": 3603,
    "district_id": 360305,
    "value": "Cisoka",
    "postal_code": "15730"
  },
  {
    "id": 360305,
    "province_id": 36,
    "regency_id": 3603,
    "district_id": 360305,
    "value": "Jeungjing (Jeung Jing)",
    "postal_code": "15730"
  },
  {
    "id": 360305,
    "province_id": 36,
    "regency_id": 3603,
    "district_id": 360305,
    "value": "Karang Harja (Karangharja)",
    "postal_code": "15730"
  },
  {
    "id": 360305,
    "province_id": 36,
    "regency_id": 3603,
    "district_id": 360305,
    "value": "Selapajang",
    "postal_code": "15730"
  },
  {
    "id": 360305,
    "province_id": 36,
    "regency_id": 3603,
    "district_id": 360305,
    "value": "Sukatani",
    "postal_code": "15730"
  }
]