[
  {
    "id": 7318292008,
    "province_id": 73,
    "regency_id": 7318,
    "district_id": 731829,
    "value": "Bo'ne Buntu Sisong (Bone Buntu Sisong)",
    "postal_code": "91815"
  },
  {
    "id": 7318292007,
    "province_id": 73,
    "regency_id": 7318,
    "district_id": 731829,
    "value": "Pa'buaran (Pabuaran)",
    "postal_code": "91815"
  },
  {
    "id": 7318291004,
    "province_id": 73,
    "regency_id": 7318,
    "district_id": 731829,
    "value": "Pasang",
    "postal_code": "91815"
  },
  {
    "id": 7318292006,
    "province_id": 73,
    "regency_id": 7318,
    "district_id": 731829,
    "value": "Patekke (Pateke)",
    "postal_code": "91815"
  },
  {
    "id": 7318292005,
    "province_id": 73,
    "regency_id": 7318,
    "district_id": 731829,
    "value": "Randan Batu",
    "postal_code": "91815"
  },
  {
    "id": 7318291002,
    "province_id": 73,
    "regency_id": 7318,
    "district_id": 731829,
    "value": "Sandabilik",
    "postal_code": "91815"
  },
  {
    "id": 7318291001,
    "province_id": 73,
    "regency_id": 7318,
    "district_id": 731829,
    "value": "Tiromanda",
    "postal_code": "91815"
  },
  {
    "id": 7318291003,
    "province_id": 73,
    "regency_id": 7318,
    "district_id": 731829,
    "value": "Tosapan (To' Sapan)",
    "postal_code": "91815"
  }
]