[
  {
    "id": 950423,
    "province_id": 95,
    "regency_id": 9504,
    "district_id": 950423,
    "value": "Bimo",
    "postal_code": "99052"
  },
  {
    "id": 950423,
    "province_id": 95,
    "regency_id": 9504,
    "district_id": 950423,
    "value": "Dugunagep",
    "postal_code": "99052"
  },
  {
    "id": 950423,
    "province_id": 95,
    "regency_id": 9504,
    "district_id": 950423,
    "value": "Dundu",
    "postal_code": "99052"
  },
  {
    "id": 950423,
    "province_id": 95,
    "regency_id": 9504,
    "district_id": 950423,
    "value": "Kembu",
    "postal_code": "99052"
  },
  {
    "id": 950423,
    "province_id": 95,
    "regency_id": 9504,
    "district_id": 950423,
    "value": "Kurupu",
    "postal_code": "99052"
  },
  {
    "id": 950423,
    "province_id": 95,
    "regency_id": 9504,
    "district_id": 950423,
    "value": "Nakwi",
    "postal_code": "99052"
  },
  {
    "id": 950423,
    "province_id": 95,
    "regency_id": 9504,
    "district_id": 950423,
    "value": "Nilogabu",
    "postal_code": "99052"
  },
  {
    "id": 950423,
    "province_id": 95,
    "regency_id": 9504,
    "district_id": 950423,
    "value": "Nini",
    "postal_code": "99052"
  },
  {
    "id": 950423,
    "province_id": 95,
    "regency_id": 9504,
    "district_id": 950423,
    "value": "Nugini",
    "postal_code": "99052"
  },
  {
    "id": 950423,
    "province_id": 95,
    "regency_id": 9504,
    "district_id": 950423,
    "value": "Yiku",
    "postal_code": "99052"
  }
]