[
  {
    "id": 6503072002,
    "province_id": 65,
    "regency_id": 6503,
    "district_id": 650307,
    "value": "Liang Lunuk",
    "postal_code": "77454"
  },
  {
    "id": 6503072010,
    "province_id": 65,
    "regency_id": 6503,
    "district_id": 650307,
    "value": "Long Birar",
    "postal_code": "77454"
  },
  {
    "id": 6503072016,
    "province_id": 65,
    "regency_id": 6503,
    "district_id": 650307,
    "value": "Long Budung",
    "postal_code": "77454"
  },
  {
    "id": 6503072001,
    "province_id": 65,
    "regency_id": 6503,
    "district_id": 650307,
    "value": "Long Pasia",
    "postal_code": "77454"
  },
  {
    "id": 6503072018,
    "province_id": 65,
    "regency_id": 6503,
    "district_id": 650307,
    "value": "Long Pupung",
    "postal_code": "77454"
  },
  {
    "id": 6503072004,
    "province_id": 65,
    "regency_id": 6503,
    "district_id": 650307,
    "value": "Pa' Amai (Pa Amai)",
    "postal_code": "77454"
  },
  {
    "id": 6503072009,
    "province_id": 65,
    "regency_id": 6503,
    "district_id": 650307,
    "value": "Pa' Dalan (Pa Dalan)",
    "postal_code": "77454"
  },
  {
    "id": 6503072003,
    "province_id": 65,
    "regency_id": 6503,
    "district_id": 650307,
    "value": "Pa' Ibang (Pa Ibang)",
    "postal_code": "77454"
  },
  {
    "id": 6503072005,
    "province_id": 65,
    "regency_id": 6503,
    "district_id": 650307,
    "value": "Pa' Kaber (Pa Kaber)",
    "postal_code": "77454"
  },
  {
    "id": 6503072007,
    "province_id": 65,
    "regency_id": 6503,
    "district_id": 650307,
    "value": "Pa' Sing (Pa Sing)",
    "postal_code": "77454"
  },
  {
    "id": 6503072006,
    "province_id": 65,
    "regency_id": 6503,
    "district_id": 650307,
    "value": "Pa' Tera (Pa Tera)",
    "postal_code": "77454"
  },
  {
    "id": 6503072011,
    "province_id": 65,
    "regency_id": 6503,
    "district_id": 650307,
    "value": "Pa' Upan (Pa Upan)",
    "postal_code": "77454"
  },
  {
    "id": 6503072020,
    "province_id": 65,
    "regency_id": 6503,
    "district_id": 650307,
    "value": "Pa' Urang (Pa Urang)",
    "postal_code": "77454"
  }
]