[
  {
    "id": 1806242009,
    "province_id": 18,
    "regency_id": 1806,
    "district_id": 180624,
    "value": "Atar Brak (Antarbrak / Antarberak)",
    "postal_code": "35613"
  },
  {
    "id": 1806242001,
    "province_id": 18,
    "regency_id": 1806,
    "district_id": 180624,
    "value": "Badak",
    "postal_code": "35613"
  },
  {
    "id": 1806242006,
    "province_id": 18,
    "regency_id": 1806,
    "district_id": 180624,
    "value": "Banjar Agung",
    "postal_code": "35613"
  },
  {
    "id": 1806242005,
    "province_id": 18,
    "regency_id": 1806,
    "district_id": 180624,
    "value": "Ketapang",
    "postal_code": "35613"
  },
  {
    "id": 1806242002,
    "province_id": 18,
    "regency_id": 1806,
    "district_id": 180624,
    "value": "Kuripan",
    "postal_code": "35613"
  },
  {
    "id": 1806242003,
    "province_id": 18,
    "regency_id": 1806,
    "district_id": 180624,
    "value": "Padang Ratu",
    "postal_code": "35613"
  },
  {
    "id": 1806242008,
    "province_id": 18,
    "regency_id": 1806,
    "district_id": 180624,
    "value": "Pariaman",
    "postal_code": "35613"
  },
  {
    "id": 1806242007,
    "province_id": 18,
    "regency_id": 1806,
    "district_id": 180624,
    "value": "Pekon Ampai",
    "postal_code": "35613"
  },
  {
    "id": 1806242011,
    "province_id": 18,
    "regency_id": 1806,
    "district_id": 180624,
    "value": "Tanjung Jaya (Tanjungjaya)",
    "postal_code": "35613"
  },
  {
    "id": 1806242010,
    "province_id": 18,
    "regency_id": 1806,
    "district_id": 180624,
    "value": "Tanjung Siom",
    "postal_code": "35613"
  },
  {
    "id": 1806242004,
    "province_id": 18,
    "regency_id": 1806,
    "district_id": 180624,
    "value": "Tegineneng",
    "postal_code": "35613"
  }
]