[
  {
    "id": 510801,
    "province_id": 51,
    "regency_id": 5108,
    "district_id": 510801,
    "value": "Banyupoh",
    "postal_code": "81155"
  },
  {
    "id": 510801,
    "province_id": 51,
    "regency_id": 5108,
    "district_id": 510801,
    "value": "Celukanbawang (Celukan Bawang)",
    "postal_code": "81155"
  },
  {
    "id": 510801,
    "province_id": 51,
    "regency_id": 5108,
    "district_id": 510801,
    "value": "Gerokgak",
    "postal_code": "81155"
  },
  {
    "id": 510801,
    "province_id": 51,
    "regency_id": 5108,
    "district_id": 510801,
    "value": "Musi",
    "postal_code": "81155"
  },
  {
    "id": 510801,
    "province_id": 51,
    "regency_id": 5108,
    "district_id": 510801,
    "value": "Patas",
    "postal_code": "81155"
  },
  {
    "id": 510801,
    "province_id": 51,
    "regency_id": 5108,
    "district_id": 510801,
    "value": "Pejarakan",
    "postal_code": "81155"
  },
  {
    "id": 510801,
    "province_id": 51,
    "regency_id": 5108,
    "district_id": 510801,
    "value": "Pemuteran",
    "postal_code": "81155"
  },
  {
    "id": 510801,
    "province_id": 51,
    "regency_id": 5108,
    "district_id": 510801,
    "value": "Pengulon",
    "postal_code": "81155"
  },
  {
    "id": 510801,
    "province_id": 51,
    "regency_id": 5108,
    "district_id": 510801,
    "value": "Penyambangan (Penyabangan)",
    "postal_code": "81155"
  },
  {
    "id": 510801,
    "province_id": 51,
    "regency_id": 5108,
    "district_id": 510801,
    "value": "Sanggalangit",
    "postal_code": "81155"
  },
  {
    "id": 510801,
    "province_id": 51,
    "regency_id": 5108,
    "district_id": 510801,
    "value": "Sumberkima",
    "postal_code": "81155"
  },
  {
    "id": 510801,
    "province_id": 51,
    "regency_id": 5108,
    "district_id": 510801,
    "value": "Sumberklampok (Sumber Klampok)",
    "postal_code": "81155"
  },
  {
    "id": 510801,
    "province_id": 51,
    "regency_id": 5108,
    "district_id": 510801,
    "value": "Tinga-tinga (Tinga Tinga)",
    "postal_code": "81155"
  },
  {
    "id": 510801,
    "province_id": 51,
    "regency_id": 5108,
    "district_id": 510801,
    "value": "Tukadsumaga (Tukad Sumaga)",
    "postal_code": "81155"
  }
]