[
  {
    "id": 320608,
    "province_id": 32,
    "regency_id": 3206,
    "district_id": 320608,
    "value": "Hegarwangi",
    "postal_code": "46187"
  },
  {
    "id": 320608,
    "province_id": 32,
    "regency_id": 3206,
    "district_id": 320608,
    "value": "Pamijahan",
    "postal_code": "46187"
  },
  {
    "id": 320608,
    "province_id": 32,
    "regency_id": 3206,
    "district_id": 320608,
    "value": "Parakanhonje",
    "postal_code": "46187"
  },
  {
    "id": 320608,
    "province_id": 32,
    "regency_id": 3206,
    "district_id": 320608,
    "value": "Simpang",
    "postal_code": "46187"
  },
  {
    "id": 320608,
    "province_id": 32,
    "regency_id": 3206,
    "district_id": 320608,
    "value": "Sirnagalih",
    "postal_code": "46187"
  },
  {
    "id": 320608,
    "province_id": 32,
    "regency_id": 3206,
    "district_id": 320608,
    "value": "Sukamaju",
    "postal_code": "46188"
  },
  {
    "id": 320608,
    "province_id": 32,
    "regency_id": 3206,
    "district_id": 320608,
    "value": "Wakap",
    "postal_code": "46168"
  },
  {
    "id": 320608,
    "province_id": 32,
    "regency_id": 3206,
    "district_id": 320608,
    "value": "Wangunsari",
    "postal_code": "46187"
  }
]