[
  {
    "id": 7208182009,
    "province_id": 72,
    "regency_id": 7208,
    "district_id": 720818,
    "value": "Bambasiang",
    "postal_code": "94477"
  },
  {
    "id": 7208182010,
    "province_id": 72,
    "regency_id": 7208,
    "district_id": 720818,
    "value": "Beau",
    "postal_code": "94477"
  },
  {
    "id": 7208182001,
    "province_id": 72,
    "regency_id": 7208,
    "district_id": 720818,
    "value": "Bobalo",
    "postal_code": "94477"
  },
  {
    "id": 7208182002,
    "province_id": 72,
    "regency_id": 7208,
    "district_id": 720818,
    "value": "Dongkalan",
    "postal_code": "94477"
  },
  {
    "id": 7208182003,
    "province_id": 72,
    "regency_id": 7208,
    "district_id": 720818,
    "value": "Eeya",
    "postal_code": "94477"
  },
  {
    "id": 7208182011,
    "province_id": 72,
    "regency_id": 7208,
    "district_id": 720818,
    "value": "Ogoansam",
    "postal_code": "94477"
  },
  {
    "id": 7208182007,
    "province_id": 72,
    "regency_id": 7208,
    "district_id": 720818,
    "value": "Palasa Lambori",
    "postal_code": "94477"
  },
  {
    "id": 7208182005,
    "province_id": 72,
    "regency_id": 7208,
    "district_id": 720818,
    "value": "Palasa Tangki",
    "postal_code": "94477"
  },
  {
    "id": 7208182006,
    "province_id": 72,
    "regency_id": 7208,
    "district_id": 720818,
    "value": "Palasa Tengah",
    "postal_code": "94477"
  },
  {
    "id": 7208182008,
    "province_id": 72,
    "regency_id": 7208,
    "district_id": 720818,
    "value": "Pebounang",
    "postal_code": "94477"
  },
  {
    "id": 7208182004,
    "province_id": 72,
    "regency_id": 7208,
    "district_id": 720818,
    "value": "Ulatan",
    "postal_code": "94477"
  }
]