[
  {
    "id": 930424,
    "province_id": 93,
    "regency_id": 9304,
    "district_id": 930424,
    "value": "Abamu",
    "postal_code": "99780"
  },
  {
    "id": 930424,
    "province_id": 93,
    "regency_id": 9304,
    "district_id": 930424,
    "value": "Jifak",
    "postal_code": "99781"
  },
  {
    "id": 930424,
    "province_id": 93,
    "regency_id": 9304,
    "district_id": 930424,
    "value": "Koba",
    "postal_code": "99781"
  },
  {
    "id": 930424,
    "province_id": 93,
    "regency_id": 9304,
    "district_id": 930424,
    "value": "Munu",
    "postal_code": "99780"
  },
  {
    "id": 930424,
    "province_id": 93,
    "regency_id": 9304,
    "district_id": 930424,
    "value": "Sagapu",
    "postal_code": "99781"
  },
  {
    "id": 930424,
    "province_id": 93,
    "regency_id": 9304,
    "district_id": 930424,
    "value": "Tie",
    "postal_code": "99781"
  },
  {
    "id": 930424,
    "province_id": 93,
    "regency_id": 9304,
    "district_id": 930424,
    "value": "Tomor",
    "postal_code": "99780"
  },
  {
    "id": 930424,
    "province_id": 93,
    "regency_id": 9304,
    "district_id": 930424,
    "value": "Yensuku",
    "postal_code": "99781"
  }
]