[
  {
    "id": 161204,
    "province_id": 16,
    "regency_id": 1612,
    "district_id": 161204,
    "value": "Betung",
    "postal_code": "31315"
  },
  {
    "id": 161204,
    "province_id": 16,
    "regency_id": 1612,
    "district_id": 161204,
    "value": "Betung Barat",
    "postal_code": "31315"
  },
  {
    "id": 161204,
    "province_id": 16,
    "regency_id": 1612,
    "district_id": 161204,
    "value": "Betung Selatan",
    "postal_code": "31315"
  },
  {
    "id": 161204,
    "province_id": 16,
    "regency_id": 1612,
    "district_id": 161204,
    "value": "Karang Agung",
    "postal_code": "31315"
  },
  {
    "id": 161204,
    "province_id": 16,
    "regency_id": 1612,
    "district_id": 161204,
    "value": "Pengabuan",
    "postal_code": "31315"
  },
  {
    "id": 161204,
    "province_id": 16,
    "regency_id": 1612,
    "district_id": 161204,
    "value": "Pengabuan Timur (Pengabuhan Timur)",
    "postal_code": "31315"
  },
  {
    "id": 161204,
    "province_id": 16,
    "regency_id": 1612,
    "district_id": 161204,
    "value": "Prambatan",
    "postal_code": "31315"
  },
  {
    "id": 161204,
    "province_id": 16,
    "regency_id": 1612,
    "district_id": 161204,
    "value": "Tanjung Kurung",
    "postal_code": "31315"
  }
]