[
  {
    "id": 1112032024,
    "province_id": 11,
    "regency_id": 1112,
    "district_id": 111203,
    "value": "Blang Manggeng",
    "postal_code": "23760"
  },
  {
    "id": 1112032001,
    "province_id": 11,
    "regency_id": 1112,
    "district_id": 111203,
    "value": "Kedai",
    "postal_code": "23760"
  },
  {
    "id": 1112032009,
    "province_id": 11,
    "regency_id": 1112,
    "district_id": 111203,
    "value": "Ladang Panah",
    "postal_code": "23760"
  },
  {
    "id": 1112032027,
    "province_id": 11,
    "regency_id": 1112,
    "district_id": 111203,
    "value": "Lhok Pawoh",
    "postal_code": "23760"
  },
  {
    "id": 1112032007,
    "province_id": 11,
    "regency_id": 1112,
    "district_id": 111203,
    "value": "Lhok Puntoy",
    "postal_code": "23760"
  },
  {
    "id": 1112032022,
    "province_id": 11,
    "regency_id": 1112,
    "district_id": 111203,
    "value": "Lhueng Baro",
    "postal_code": "23760"
  },
  {
    "id": 1112032002,
    "province_id": 11,
    "regency_id": 1112,
    "district_id": 111203,
    "value": "Padang",
    "postal_code": "23760"
  },
  {
    "id": 1112032031,
    "province_id": 11,
    "regency_id": 1112,
    "district_id": 111203,
    "value": "Pante Cermin",
    "postal_code": "23760"
  },
  {
    "id": 1112032029,
    "province_id": 11,
    "regency_id": 1112,
    "district_id": 111203,
    "value": "Pante Pirak",
    "postal_code": "23760"
  },
  {
    "id": 1112032025,
    "province_id": 11,
    "regency_id": 1112,
    "district_id": 111203,
    "value": "Pante Raja",
    "postal_code": "23760"
  },
  {
    "id": 1112032011,
    "province_id": 11,
    "regency_id": 1112,
    "district_id": 111203,
    "value": "Panton Makmur",
    "postal_code": "23760"
  },
  {
    "id": 1112032005,
    "province_id": 11,
    "regency_id": 1112,
    "district_id": 111203,
    "value": "Paya",
    "postal_code": "23760"
  },
  {
    "id": 1112032010,
    "province_id": 11,
    "regency_id": 1112,
    "district_id": 111203,
    "value": "Pusu Ingin Jaya",
    "postal_code": "23760"
  },
  {
    "id": 1112032026,
    "province_id": 11,
    "regency_id": 1112,
    "district_id": 111203,
    "value": "Sejahtera",
    "postal_code": "23760"
  },
  {
    "id": 1112032006,
    "province_id": 11,
    "regency_id": 1112,
    "district_id": 111203,
    "value": "Seuneulop",
    "postal_code": "23760"
  },
  {
    "id": 1112032003,
    "province_id": 11,
    "regency_id": 1112,
    "district_id": 111203,
    "value": "Tengah",
    "postal_code": "23760"
  },
  {
    "id": 1112032023,
    "province_id": 11,
    "regency_id": 1112,
    "district_id": 111203,
    "value": "Tokoh",
    "postal_code": "23760"
  },
  {
    "id": 1112032030,
    "province_id": 11,
    "regency_id": 1112,
    "district_id": 111203,
    "value": "Ujung Tanah",
    "postal_code": "23760"
  }
]