[
  {
    "id": 630510,
    "province_id": 63,
    "regency_id": 6305,
    "district_id": 630510,
    "value": "Ayunan Papan",
    "postal_code": "71154"
  },
  {
    "id": 630510,
    "province_id": 63,
    "regency_id": 6305,
    "district_id": 630510,
    "value": "Bataratat",
    "postal_code": "71154"
  },
  {
    "id": 630510,
    "province_id": 63,
    "regency_id": 6305,
    "district_id": 630510,
    "value": "Binderang",
    "postal_code": "71154"
  },
  {
    "id": 630510,
    "province_id": 63,
    "regency_id": 6305,
    "district_id": 630510,
    "value": "Bitahan",
    "postal_code": "71154"
  },
  {
    "id": 630510,
    "province_id": 63,
    "regency_id": 6305,
    "district_id": 630510,
    "value": "Bitahan Baru",
    "postal_code": "71154"
  },
  {
    "id": 630510,
    "province_id": 63,
    "regency_id": 6305,
    "district_id": 630510,
    "value": "Budi Mulya",
    "postal_code": "71154"
  },
  {
    "id": 630510,
    "province_id": 63,
    "regency_id": 6305,
    "district_id": 630510,
    "value": "Lokpaikat",
    "postal_code": "71154"
  },
  {
    "id": 630510,
    "province_id": 63,
    "regency_id": 6305,
    "district_id": 630510,
    "value": "Parandakan",
    "postal_code": "71154"
  },
  {
    "id": 630510,
    "province_id": 63,
    "regency_id": 6305,
    "district_id": 630510,
    "value": "Puncak Harapan",
    "postal_code": "71154"
  }
]