[
  {
    "id": 740515,
    "province_id": 74,
    "regency_id": 7405,
    "district_id": 740515,
    "value": "Kondoano",
    "postal_code": "93879"
  },
  {
    "id": 740515,
    "province_id": 74,
    "regency_id": 7405,
    "district_id": 740515,
    "value": "Lalosingi",
    "postal_code": "93879"
  },
  {
    "id": 740515,
    "province_id": 74,
    "regency_id": 7405,
    "district_id": 740515,
    "value": "Lamebara (Lamibara)",
    "postal_code": "93879"
  },
  {
    "id": 740515,
    "province_id": 74,
    "regency_id": 7405,
    "district_id": 740515,
    "value": "Lamelori (Lamolori)",
    "postal_code": "93879"
  },
  {
    "id": 740515,
    "province_id": 74,
    "regency_id": 7405,
    "district_id": 740515,
    "value": "Mataiwoi",
    "postal_code": "93879"
  },
  {
    "id": 740515,
    "province_id": 74,
    "regency_id": 7405,
    "district_id": 740515,
    "value": "Monapa",
    "postal_code": "93879"
  },
  {
    "id": 740515,
    "province_id": 74,
    "regency_id": 7405,
    "district_id": 740515,
    "value": "Mowila",
    "postal_code": "93879"
  },
  {
    "id": 740515,
    "province_id": 74,
    "regency_id": 7405,
    "district_id": 740515,
    "value": "Mulyasari (Mulya Sari / Muliasari)",
    "postal_code": "93879"
  },
  {
    "id": 740515,
    "province_id": 74,
    "regency_id": 7405,
    "district_id": 740515,
    "value": "Pudahoa (Pudohoa)",
    "postal_code": "93879"
  },
  {
    "id": 740515,
    "province_id": 74,
    "regency_id": 7405,
    "district_id": 740515,
    "value": "Punggulahi",
    "postal_code": "93879"
  },
  {
    "id": 740515,
    "province_id": 74,
    "regency_id": 7405,
    "district_id": 740515,
    "value": "Puuwehuko (Puwehuko)",
    "postal_code": "93879"
  },
  {
    "id": 740515,
    "province_id": 74,
    "regency_id": 7405,
    "district_id": 740515,
    "value": "Rakawuta",
    "postal_code": "93879"
  },
  {
    "id": 740515,
    "province_id": 74,
    "regency_id": 7405,
    "district_id": 740515,
    "value": "Ranoaopa (Rano Aopa)",
    "postal_code": "93879"
  },
  {
    "id": 740515,
    "province_id": 74,
    "regency_id": 7405,
    "district_id": 740515,
    "value": "Ranombayasa (Rano Mbayasa)",
    "postal_code": "93879"
  },
  {
    "id": 740515,
    "province_id": 74,
    "regency_id": 7405,
    "district_id": 740515,
    "value": "Tetesingi",
    "postal_code": "93879"
  },
  {
    "id": 740515,
    "province_id": 74,
    "regency_id": 7405,
    "district_id": 740515,
    "value": "Toluwonua",
    "postal_code": "93879"
  },
  {
    "id": 740515,
    "province_id": 74,
    "regency_id": 7405,
    "district_id": 740515,
    "value": "Wanuakongga (Wanua Kongga)",
    "postal_code": "93879"
  },
  {
    "id": 740515,
    "province_id": 74,
    "regency_id": 7405,
    "district_id": 740515,
    "value": "Wonua Monapa",
    "postal_code": "93879"
  },
  {
    "id": 740515,
    "province_id": 74,
    "regency_id": 7405,
    "district_id": 740515,
    "value": "Wonua Sari",
    "postal_code": "93879"
  },
  {
    "id": 740515,
    "province_id": 74,
    "regency_id": 7405,
    "district_id": 740515,
    "value": "Wuura",
    "postal_code": "93879"
  }
]