[
  {
    "id": 320231,
    "province_id": 32,
    "regency_id": 3202,
    "district_id": 320231,
    "value": "Caringin Kulon",
    "postal_code": "43154"
  },
  {
    "id": 320231,
    "province_id": 32,
    "regency_id": 3202,
    "district_id": 320231,
    "value": "Caringin Wetan",
    "postal_code": "43154"
  },
  {
    "id": 320231,
    "province_id": 32,
    "regency_id": 3202,
    "district_id": 320231,
    "value": "Cijengkol",
    "postal_code": "43154"
  },
  {
    "id": 320231,
    "province_id": 32,
    "regency_id": 3202,
    "district_id": 320231,
    "value": "Cikembang",
    "postal_code": "43154"
  },
  {
    "id": 320231,
    "province_id": 32,
    "regency_id": 3202,
    "district_id": 320231,
    "value": "Mekarjaya",
    "postal_code": "43154"
  },
  {
    "id": 320231,
    "province_id": 32,
    "regency_id": 3202,
    "district_id": 320231,
    "value": "Pasir Datar Indah",
    "postal_code": "43154"
  },
  {
    "id": 320231,
    "province_id": 32,
    "regency_id": 3202,
    "district_id": 320231,
    "value": "Seuseupan",
    "postal_code": "43154"
  },
  {
    "id": 320231,
    "province_id": 32,
    "regency_id": 3202,
    "district_id": 320231,
    "value": "Sukamulya",
    "postal_code": "43154"
  },
  {
    "id": 320231,
    "province_id": 32,
    "regency_id": 3202,
    "district_id": 320231,
    "value": "Talaga",
    "postal_code": "43154"
  }
]