[
  {
    "id": 9504272014,
    "province_id": 95,
    "regency_id": 9504,
    "district_id": 950427,
    "value": "Berembanak",
    "postal_code": "99015"
  },
  {
    "id": 9504272018,
    "province_id": 95,
    "regency_id": 9504,
    "district_id": 950427,
    "value": "Habag",
    "postal_code": "99015"
  },
  {
    "id": 9504272026,
    "province_id": 95,
    "regency_id": 9504,
    "district_id": 950427,
    "value": "Kaloniki",
    "postal_code": "99015"
  },
  {
    "id": 9504272021,
    "province_id": 95,
    "regency_id": 9504,
    "district_id": 950427,
    "value": "Kamboniki",
    "postal_code": "99015"
  },
  {
    "id": 9504272020,
    "province_id": 95,
    "regency_id": 9504,
    "district_id": 950427,
    "value": "Kekoli",
    "postal_code": "99015"
  },
  {
    "id": 9504272029,
    "province_id": 95,
    "regency_id": 9504,
    "district_id": 950427,
    "value": "Malta",
    "postal_code": "99015"
  },
  {
    "id": 9504272028,
    "province_id": 95,
    "regency_id": 9504,
    "district_id": 950427,
    "value": "Marbuna",
    "postal_code": "99015"
  },
  {
    "id": 9504272027,
    "province_id": 95,
    "regency_id": 9504,
    "district_id": 950427,
    "value": "Tari",
    "postal_code": "99015"
  }
]