[
  {
    "id": 1214142006,
    "province_id": 12,
    "regency_id": 1214,
    "district_id": 121414,
    "value": "Ambukha",
    "postal_code": "22873"
  },
  {
    "id": 1214142005,
    "province_id": 12,
    "regency_id": 1214,
    "district_id": 121414,
    "value": "Balohili Mola",
    "postal_code": "22873"
  },
  {
    "id": 1214142009,
    "province_id": 12,
    "regency_id": 1214,
    "district_id": 121414,
    "value": "Foikhugaga",
    "postal_code": "22873"
  },
  {
    "id": 1214142008,
    "province_id": 12,
    "regency_id": 1214,
    "district_id": 121414,
    "value": "Hilibadalu",
    "postal_code": "22873"
  },
  {
    "id": 1214142004,
    "province_id": 12,
    "regency_id": 1214,
    "district_id": 121414,
    "value": "Hiliuso",
    "postal_code": "22873"
  },
  {
    "id": 1214142001,
    "province_id": 12,
    "regency_id": 1214,
    "district_id": 121414,
    "value": "Lawindra",
    "postal_code": "22873"
  },
  {
    "id": 1214142011,
    "province_id": 12,
    "regency_id": 1214,
    "district_id": 121414,
    "value": "Orahili Mola",
    "postal_code": "22873"
  },
  {
    "id": 1214142010,
    "province_id": 12,
    "regency_id": 1214,
    "district_id": 121414,
    "value": "Orlin",
    "postal_code": "22873"
  },
  {
    "id": 1214142003,
    "province_id": 12,
    "regency_id": 1214,
    "district_id": 121414,
    "value": "Sifaoro'asi Mola (Sifaoroasi Mola)",
    "postal_code": "22873"
  },
  {
    "id": 1214142007,
    "province_id": 12,
    "regency_id": 1214,
    "district_id": 121414,
    "value": "Tobualo",
    "postal_code": "22873"
  },
  {
    "id": 1214142012,
    "province_id": 12,
    "regency_id": 1214,
    "district_id": 121414,
    "value": "Umbunasi",
    "postal_code": "22873"
  }
]