[
  {
    "id": 640110,
    "province_id": 64,
    "regency_id": 6401,
    "district_id": 640110,
    "value": "Biu",
    "postal_code": "76250"
  },
  {
    "id": 640110,
    "province_id": 64,
    "regency_id": 6401,
    "district_id": 640110,
    "value": "Libur Dinding",
    "postal_code": "76250"
  },
  {
    "id": 640110,
    "province_id": 64,
    "regency_id": 6401,
    "district_id": 640110,
    "value": "Luan (Dilibinti)",
    "postal_code": "76250"
  },
  {
    "id": 640110,
    "province_id": 64,
    "regency_id": 6401,
    "district_id": 640110,
    "value": "Muara Andeh",
    "postal_code": "76250"
  },
  {
    "id": 640110,
    "province_id": 64,
    "regency_id": 6401,
    "district_id": 640110,
    "value": "Muser",
    "postal_code": "76250"
  },
  {
    "id": 640110,
    "province_id": 64,
    "regency_id": 6401,
    "district_id": 640110,
    "value": "Rantau Atas",
    "postal_code": "76250"
  },
  {
    "id": 640110,
    "province_id": 64,
    "regency_id": 6401,
    "district_id": 640110,
    "value": "Rantau Bintungan",
    "postal_code": "76250"
  },
  {
    "id": 640110,
    "province_id": 64,
    "regency_id": 6401,
    "district_id": 640110,
    "value": "Suweto",
    "postal_code": "76250"
  },
  {
    "id": 640110,
    "province_id": 64,
    "regency_id": 6401,
    "district_id": 640110,
    "value": "Tanjung Pinang",
    "postal_code": "76250"
  }
]