[
  {
    "id": 732612,
    "province_id": 73,
    "regency_id": 7326,
    "district_id": 732612,
    "value": "Buntu Tagari",
    "postal_code": "91822"
  },
  {
    "id": 732612,
    "province_id": 73,
    "regency_id": 7326,
    "district_id": 732612,
    "value": "Dende'",
    "postal_code": "91822"
  },
  {
    "id": 732612,
    "province_id": 73,
    "regency_id": 7326,
    "district_id": 732612,
    "value": "Kapolang",
    "postal_code": "91822"
  },
  {
    "id": 732612,
    "province_id": 73,
    "regency_id": 7326,
    "district_id": 732612,
    "value": "Madong (Ma Dong)",
    "postal_code": "91822"
  },
  {
    "id": 732612,
    "province_id": 73,
    "regency_id": 7326,
    "district_id": 732612,
    "value": "Paku",
    "postal_code": "91822"
  },
  {
    "id": 732612,
    "province_id": 73,
    "regency_id": 7326,
    "district_id": 732612,
    "value": "Parinding",
    "postal_code": "91822"
  },
  {
    "id": 732612,
    "province_id": 73,
    "regency_id": 7326,
    "district_id": 732612,
    "value": "Pasang",
    "postal_code": "91822"
  },
  {
    "id": 732612,
    "province_id": 73,
    "regency_id": 7326,
    "district_id": 732612,
    "value": "Piongan",
    "postal_code": "91822"
  }
]