[
  {
    "id": 9503312003,
    "province_id": 95,
    "regency_id": 9503,
    "district_id": 950331,
    "value": "Delon",
    "postal_code": "99754"
  },
  {
    "id": 9503312001,
    "province_id": 95,
    "regency_id": 9503,
    "district_id": 950331,
    "value": "Endomen",
    "postal_code": "99754"
  },
  {
    "id": 9503312007,
    "province_id": 95,
    "regency_id": 9503,
    "district_id": 950331,
    "value": "Galsin",
    "postal_code": "99754"
  },
  {
    "id": 9503312006,
    "province_id": 95,
    "regency_id": 9503,
    "district_id": 950331,
    "value": "Gidomen",
    "postal_code": "99754"
  },
  {
    "id": 9503312008,
    "province_id": 95,
    "regency_id": 9503,
    "district_id": 950331,
    "value": "Kouwet",
    "postal_code": "99754"
  },
  {
    "id": 9503312002,
    "province_id": 95,
    "regency_id": 9503,
    "district_id": 950331,
    "value": "Okloma (Oklahama)",
    "postal_code": "99754"
  },
  {
    "id": 9503312005,
    "province_id": 95,
    "regency_id": 9503,
    "district_id": 950331,
    "value": "Sentul",
    "postal_code": "99754"
  },
  {
    "id": 9503312004,
    "province_id": 95,
    "regency_id": 9503,
    "district_id": 950331,
    "value": "Suron",
    "postal_code": "99754"
  }
]