[
  {
    "id": 640709,
    "province_id": 64,
    "regency_id": 6407,
    "district_id": 640709,
    "value": "Benggeris",
    "postal_code": "75775"
  },
  {
    "id": 640709,
    "province_id": 64,
    "regency_id": 6407,
    "district_id": 640709,
    "value": "Cempedes (Cempedas)",
    "postal_code": "75775"
  },
  {
    "id": 640709,
    "province_id": 64,
    "regency_id": 6407,
    "district_id": 640709,
    "value": "Dingin",
    "postal_code": "75775"
  },
  {
    "id": 640709,
    "province_id": 64,
    "regency_id": 6407,
    "district_id": 640709,
    "value": "Lambing",
    "postal_code": "75775"
  },
  {
    "id": 640709,
    "province_id": 64,
    "regency_id": 6407,
    "district_id": 640709,
    "value": "Lataq/Lotaq",
    "postal_code": "75775"
  },
  {
    "id": 640709,
    "province_id": 64,
    "regency_id": 6407,
    "district_id": 640709,
    "value": "Muara Begai",
    "postal_code": "75775"
  },
  {
    "id": 640709,
    "province_id": 64,
    "regency_id": 6407,
    "district_id": 640709,
    "value": "Muara Lawa",
    "postal_code": "75775"
  },
  {
    "id": 640709,
    "province_id": 64,
    "regency_id": 6407,
    "district_id": 640709,
    "value": "Payang",
    "postal_code": "75775"
  }
]