[
  {
    "id": 360114,
    "province_id": 36,
    "regency_id": 3601,
    "district_id": 360114,
    "value": "Ciandur",
    "postal_code": "42278"
  },
  {
    "id": 360114,
    "province_id": 36,
    "regency_id": 3601,
    "district_id": 360114,
    "value": "Girijaya",
    "postal_code": "42278"
  },
  {
    "id": 360114,
    "province_id": 36,
    "regency_id": 3601,
    "district_id": 360114,
    "value": "Kadudampit",
    "postal_code": "42278"
  },
  {
    "id": 360114,
    "province_id": 36,
    "regency_id": 3601,
    "district_id": 360114,
    "value": "Langensari",
    "postal_code": "42278"
  },
  {
    "id": 360114,
    "province_id": 36,
    "regency_id": 3601,
    "district_id": 360114,
    "value": "Majau",
    "postal_code": "42278"
  },
  {
    "id": 360114,
    "province_id": 36,
    "regency_id": 3601,
    "district_id": 360114,
    "value": "Medalsari",
    "postal_code": "42278"
  },
  {
    "id": 360114,
    "province_id": 36,
    "regency_id": 3601,
    "district_id": 360114,
    "value": "Mekarwangi",
    "postal_code": "42278"
  },
  {
    "id": 360114,
    "province_id": 36,
    "regency_id": 3601,
    "district_id": 360114,
    "value": "Parigi",
    "postal_code": "42278"
  },
  {
    "id": 360114,
    "province_id": 36,
    "regency_id": 3601,
    "district_id": 360114,
    "value": "Saketi",
    "postal_code": "42278"
  },
  {
    "id": 360114,
    "province_id": 36,
    "regency_id": 3601,
    "district_id": 360114,
    "value": "Sindanghayu",
    "postal_code": "42278"
  },
  {
    "id": 360114,
    "province_id": 36,
    "regency_id": 3601,
    "district_id": 360114,
    "value": "Sodong",
    "postal_code": "42278"
  },
  {
    "id": 360114,
    "province_id": 36,
    "regency_id": 3601,
    "district_id": 360114,
    "value": "Sukalangu",
    "postal_code": "42278"
  },
  {
    "id": 360114,
    "province_id": 36,
    "regency_id": 3601,
    "district_id": 360114,
    "value": "Talagasari",
    "postal_code": "42278"
  },
  {
    "id": 360114,
    "province_id": 36,
    "regency_id": 3601,
    "district_id": 360114,
    "value": "Wanagiri",
    "postal_code": "42278"
  }
]