[
  {
    "id": 930310,
    "province_id": 93,
    "regency_id": 9303,
    "district_id": 930310,
    "value": "Getiyo",
    "postal_code": "99854"
  },
  {
    "id": 930310,
    "province_id": 93,
    "regency_id": 9303,
    "district_id": 930310,
    "value": "Harapan",
    "postal_code": "99854"
  },
  {
    "id": 930310,
    "province_id": 93,
    "regency_id": 9303,
    "district_id": 930310,
    "value": "Memes",
    "postal_code": "99854"
  },
  {
    "id": 930310,
    "province_id": 93,
    "regency_id": 9303,
    "district_id": 930310,
    "value": "Mopio",
    "postal_code": "99854"
  },
  {
    "id": 930310,
    "province_id": 93,
    "regency_id": 9303,
    "district_id": 930310,
    "value": "Pies (Piyes)",
    "postal_code": "99854"
  },
  {
    "id": 930310,
    "province_id": 93,
    "regency_id": 9303,
    "district_id": 930310,
    "value": "Sahapikia (Sahapikya)",
    "postal_code": "99854"
  },
  {
    "id": 930310,
    "province_id": 93,
    "regency_id": 9303,
    "district_id": 930310,
    "value": "Sien",
    "postal_code": "99854"
  },
  {
    "id": 930310,
    "province_id": 93,
    "regency_id": 9303,
    "district_id": 930310,
    "value": "Yibin",
    "postal_code": "99854"
  }
]