[
  {
    "id": 170704,
    "province_id": 17,
    "regency_id": 1707,
    "district_id": 170704,
    "value": "Kutai Donok",
    "postal_code": "39258"
  },
  {
    "id": 170704,
    "province_id": 17,
    "regency_id": 1707,
    "district_id": 170704,
    "value": "Manai Blau",
    "postal_code": "39258"
  },
  {
    "id": 170704,
    "province_id": 17,
    "regency_id": 1707,
    "district_id": 170704,
    "value": "Mangkurajo",
    "postal_code": "39258"
  },
  {
    "id": 170704,
    "province_id": 17,
    "regency_id": 1707,
    "district_id": 170704,
    "value": "Mubai",
    "postal_code": "39258"
  },
  {
    "id": 170704,
    "province_id": 17,
    "regency_id": 1707,
    "district_id": 170704,
    "value": "Suka Sari",
    "postal_code": "39258"
  },
  {
    "id": 170704,
    "province_id": 17,
    "regency_id": 1707,
    "district_id": 170704,
    "value": "Taba Anyar",
    "postal_code": "39258"
  },
  {
    "id": 170704,
    "province_id": 17,
    "regency_id": 1707,
    "district_id": 170704,
    "value": "Tes",
    "postal_code": "39258"
  },
  {
    "id": 170704,
    "province_id": 17,
    "regency_id": 1707,
    "district_id": 170704,
    "value": "Tik Jeniak",
    "postal_code": "39258"
  },
  {
    "id": 170704,
    "province_id": 17,
    "regency_id": 1707,
    "district_id": 170704,
    "value": "Turan Lalang",
    "postal_code": "39258"
  },
  {
    "id": 170704,
    "province_id": 17,
    "regency_id": 1707,
    "district_id": 170704,
    "value": "Turan Tiging",
    "postal_code": "39258"
  }
]