[
  {
    "id": 6311042013,
    "province_id": 63,
    "regency_id": 6311,
    "district_id": 631104,
    "value": "Bakung",
    "postal_code": "71663"
  },
  {
    "id": 6311042012,
    "province_id": 63,
    "regency_id": 6311,
    "district_id": 631104,
    "value": "Banua Hanyar",
    "postal_code": "71663"
  },
  {
    "id": 6311042005,
    "province_id": 63,
    "regency_id": 6311,
    "district_id": 631104,
    "value": "Batumandi (Batu Mandi)",
    "postal_code": "71663"
  },
  {
    "id": 6311042009,
    "province_id": 63,
    "regency_id": 6311,
    "district_id": 631104,
    "value": "Bungur",
    "postal_code": "71663"
  },
  {
    "id": 6311042015,
    "province_id": 63,
    "regency_id": 6311,
    "district_id": 631104,
    "value": "Guha",
    "postal_code": "71663"
  },
  {
    "id": 6311042016,
    "province_id": 63,
    "regency_id": 6311,
    "district_id": 631104,
    "value": "Gunung Manau",
    "postal_code": "71663"
  },
  {
    "id": 6311042017,
    "province_id": 63,
    "regency_id": 6311,
    "district_id": 631104,
    "value": "Hampa Raya (Hamparaya)",
    "postal_code": "71663"
  },
  {
    "id": 6311042014,
    "province_id": 63,
    "regency_id": 6311,
    "district_id": 631104,
    "value": "Karuh",
    "postal_code": "71663"
  },
  {
    "id": 6311042018,
    "province_id": 63,
    "regency_id": 6311,
    "district_id": 631104,
    "value": "Kasai",
    "postal_code": "71663"
  },
  {
    "id": 6311042002,
    "province_id": 63,
    "regency_id": 6311,
    "district_id": 631104,
    "value": "Lok Batu",
    "postal_code": "71663"
  },
  {
    "id": 6311042008,
    "province_id": 63,
    "regency_id": 6311,
    "district_id": 631104,
    "value": "Mampari",
    "postal_code": "71663"
  },
  {
    "id": 6311042007,
    "province_id": 63,
    "regency_id": 6311,
    "district_id": 631104,
    "value": "Mantimin",
    "postal_code": "71663"
  },
  {
    "id": 6311042003,
    "province_id": 63,
    "regency_id": 6311,
    "district_id": 631104,
    "value": "Munjung",
    "postal_code": "71663"
  },
  {
    "id": 6311042004,
    "province_id": 63,
    "regency_id": 6311,
    "district_id": 631104,
    "value": "Pelajau",
    "postal_code": "71663"
  },
  {
    "id": 6311042006,
    "province_id": 63,
    "regency_id": 6311,
    "district_id": 631104,
    "value": "Riwa",
    "postal_code": "71663"
  },
  {
    "id": 6311042001,
    "province_id": 63,
    "regency_id": 6311,
    "district_id": 631104,
    "value": "Tariwin",
    "postal_code": "71663"
  },
  {
    "id": 6311042010,
    "province_id": 63,
    "regency_id": 6311,
    "district_id": 631104,
    "value": "Teluk Mesjid",
    "postal_code": "71663"
  },
  {
    "id": 6311042011,
    "province_id": 63,
    "regency_id": 6311,
    "district_id": 631104,
    "value": "Timbun Tulang",
    "postal_code": "71663"
  }
]