[
  {
    "id": 520203,
    "province_id": 52,
    "regency_id": 5202,
    "district_id": 520203,
    "value": "Aik Darek",
    "postal_code": "83552"
  },
  {
    "id": 520203,
    "province_id": 52,
    "regency_id": 5202,
    "district_id": 520203,
    "value": "Barabali",
    "postal_code": "83552"
  },
  {
    "id": 520203,
    "province_id": 52,
    "regency_id": 5202,
    "district_id": 520203,
    "value": "Beber",
    "postal_code": "83552"
  },
  {
    "id": 520203,
    "province_id": 52,
    "regency_id": 5202,
    "district_id": 520203,
    "value": "Bujak",
    "postal_code": "83552"
  },
  {
    "id": 520203,
    "province_id": 52,
    "regency_id": 5202,
    "district_id": 520203,
    "value": "Lendang Tampel",
    "postal_code": "83552"
  },
  {
    "id": 520203,
    "province_id": 52,
    "regency_id": 5202,
    "district_id": 520203,
    "value": "Mantang",
    "postal_code": "83552"
  },
  {
    "id": 520203,
    "province_id": 52,
    "regency_id": 5202,
    "district_id": 520203,
    "value": "Mekar Bersatu",
    "postal_code": "83552"
  },
  {
    "id": 520203,
    "province_id": 52,
    "regency_id": 5202,
    "district_id": 520203,
    "value": "Pagutan",
    "postal_code": "83552"
  },
  {
    "id": 520203,
    "province_id": 52,
    "regency_id": 5202,
    "district_id": 520203,
    "value": "Peresak",
    "postal_code": "83552"
  },
  {
    "id": 520203,
    "province_id": 52,
    "regency_id": 5202,
    "district_id": 520203,
    "value": "Selebung",
    "postal_code": "83552"
  },
  {
    "id": 520203,
    "province_id": 52,
    "regency_id": 5202,
    "district_id": 520203,
    "value": "Tampak Siring",
    "postal_code": "83552"
  }
]