[
  {
    "id": 610807,
    "province_id": 61,
    "regency_id": 6108,
    "district_id": 610807,
    "value": "Andeng",
    "postal_code": "79356"
  },
  {
    "id": 610807,
    "province_id": 61,
    "regency_id": 6108,
    "district_id": 610807,
    "value": "Aur Sampuk",
    "postal_code": "79356"
  },
  {
    "id": 610807,
    "province_id": 61,
    "regency_id": 6108,
    "district_id": 610807,
    "value": "Banying",
    "postal_code": "79356"
  },
  {
    "id": 610807,
    "province_id": 61,
    "regency_id": 6108,
    "district_id": 610807,
    "value": "Gombang",
    "postal_code": "79356"
  },
  {
    "id": 610807,
    "province_id": 61,
    "regency_id": 6108,
    "district_id": 610807,
    "value": "Keranji Mancal",
    "postal_code": "79356"
  },
  {
    "id": 610807,
    "province_id": 61,
    "regency_id": 6108,
    "district_id": 610807,
    "value": "Keranji Paidang",
    "postal_code": "79356"
  },
  {
    "id": 610807,
    "province_id": 61,
    "regency_id": 6108,
    "district_id": 610807,
    "value": "Pahauman",
    "postal_code": "79356"
  },
  {
    "id": 610807,
    "province_id": 61,
    "regency_id": 6108,
    "district_id": 610807,
    "value": "Paloan",
    "postal_code": "79356"
  },
  {
    "id": 610807,
    "province_id": 61,
    "regency_id": 6108,
    "district_id": 610807,
    "value": "Rabak",
    "postal_code": "79356"
  },
  {
    "id": 610807,
    "province_id": 61,
    "regency_id": 6108,
    "district_id": 610807,
    "value": "Saham",
    "postal_code": "79356"
  },
  {
    "id": 610807,
    "province_id": 61,
    "regency_id": 6108,
    "district_id": 610807,
    "value": "Sebatih",
    "postal_code": "79356"
  },
  {
    "id": 610807,
    "province_id": 61,
    "regency_id": 6108,
    "district_id": 610807,
    "value": "Senakin",
    "postal_code": "79356"
  },
  {
    "id": 610807,
    "province_id": 61,
    "regency_id": 6108,
    "district_id": 610807,
    "value": "Sidas",
    "postal_code": "79356"
  },
  {
    "id": 610807,
    "province_id": 61,
    "regency_id": 6108,
    "district_id": 610807,
    "value": "Tonang",
    "postal_code": "79356"
  }
]