[
  {
    "id": 160615,
    "province_id": 16,
    "regency_id": 1606,
    "district_id": 160615,
    "value": "Bangkit Jaya",
    "postal_code": "30751"
  },
  {
    "id": 160615,
    "province_id": 16,
    "regency_id": 1606,
    "district_id": 160615,
    "value": "Baru Jaya",
    "postal_code": "30751"
  },
  {
    "id": 160615,
    "province_id": 16,
    "regency_id": 1606,
    "district_id": 160615,
    "value": "Jembatan Gantung",
    "postal_code": "30751"
  },
  {
    "id": 160615,
    "province_id": 16,
    "regency_id": 1606,
    "district_id": 160615,
    "value": "Jirak",
    "postal_code": "30751"
  },
  {
    "id": 160615,
    "province_id": 16,
    "regency_id": 1606,
    "district_id": 160615,
    "value": "Layan",
    "postal_code": "30751"
  },
  {
    "id": 160615,
    "province_id": 16,
    "regency_id": 1606,
    "district_id": 160615,
    "value": "Mekar Jaya",
    "postal_code": "30751"
  },
  {
    "id": 160615,
    "province_id": 16,
    "regency_id": 1606,
    "district_id": 160615,
    "value": "Rejosari",
    "postal_code": "30751"
  },
  {
    "id": 160615,
    "province_id": 16,
    "regency_id": 1606,
    "district_id": 160615,
    "value": "Rukun Rahayu",
    "postal_code": "30751"
  },
  {
    "id": 160615,
    "province_id": 16,
    "regency_id": 1606,
    "district_id": 160615,
    "value": "Setia Jaya",
    "postal_code": "30751"
  },
  {
    "id": 160615,
    "province_id": 16,
    "regency_id": 1606,
    "district_id": 160615,
    "value": "Sinar Jaya",
    "postal_code": "30751"
  },
  {
    "id": 160615,
    "province_id": 16,
    "regency_id": 1606,
    "district_id": 160615,
    "value": "Talang Mandung",
    "postal_code": "30751"
  },
  {
    "id": 160615,
    "province_id": 16,
    "regency_id": 1606,
    "district_id": 160615,
    "value": "Talang Simpang",
    "postal_code": "30751"
  }
]