[
  {
    "id": 940708,
    "province_id": 94,
    "regency_id": 9407,
    "district_id": 940708,
    "value": "Bigasiga",
    "postal_code": "98783"
  },
  {
    "id": 940708,
    "province_id": 94,
    "regency_id": 9407,
    "district_id": 940708,
    "value": "Dapiaga",
    "postal_code": "98783"
  },
  {
    "id": 940708,
    "province_id": 94,
    "regency_id": 9407,
    "district_id": 940708,
    "value": "Duginggobo",
    "postal_code": "98783"
  },
  {
    "id": 940708,
    "province_id": 94,
    "regency_id": 9407,
    "district_id": 940708,
    "value": "Gaimigi",
    "postal_code": "98783"
  },
  {
    "id": 940708,
    "province_id": 94,
    "regency_id": 9407,
    "district_id": 940708,
    "value": "Hegenagai",
    "postal_code": "98783"
  },
  {
    "id": 940708,
    "province_id": 94,
    "regency_id": 9407,
    "district_id": 940708,
    "value": "Jawasiga",
    "postal_code": "98783"
  },
  {
    "id": 940708,
    "province_id": 94,
    "regency_id": 9407,
    "district_id": 940708,
    "value": "Pewesiga",
    "postal_code": "98783"
  },
  {
    "id": 940708,
    "province_id": 94,
    "regency_id": 9407,
    "district_id": 940708,
    "value": "Sugulubagala",
    "postal_code": "98783"
  },
  {
    "id": 940708,
    "province_id": 94,
    "regency_id": 9407,
    "district_id": 940708,
    "value": "Tomosiga",
    "postal_code": "98783"
  }
]