[
  {
    "id": 6106042001,
    "province_id": 61,
    "regency_id": 6106,
    "district_id": 610604,
    "value": "Banua Martinus",
    "postal_code": "78755"
  },
  {
    "id": 6106042004,
    "province_id": 61,
    "regency_id": 6106,
    "district_id": 610604,
    "value": "Banua Ujung",
    "postal_code": "78755"
  },
  {
    "id": 6106042008,
    "province_id": 61,
    "regency_id": 6106,
    "district_id": 610604,
    "value": "Batu Lintang",
    "postal_code": "78755"
  },
  {
    "id": 6106042007,
    "province_id": 61,
    "regency_id": 6106,
    "district_id": 610604,
    "value": "Langan Baru",
    "postal_code": "78755"
  },
  {
    "id": 6106042002,
    "province_id": 61,
    "regency_id": 6106,
    "district_id": 610604,
    "value": "Menua Sadap",
    "postal_code": "78755"
  },
  {
    "id": 6106042003,
    "province_id": 61,
    "regency_id": 6106,
    "district_id": 610604,
    "value": "Pulau Manak",
    "postal_code": "78755"
  },
  {
    "id": 6106042009,
    "province_id": 61,
    "regency_id": 6106,
    "district_id": 610604,
    "value": "Rantau Prapat",
    "postal_code": "78755"
  },
  {
    "id": 6106042005,
    "province_id": 61,
    "regency_id": 6106,
    "district_id": 610604,
    "value": "Saujung Giling Manik",
    "postal_code": "78755"
  },
  {
    "id": 6106042010,
    "province_id": 61,
    "regency_id": 6106,
    "district_id": 610604,
    "value": "Tamao",
    "postal_code": "78755"
  },
  {
    "id": 6106042006,
    "province_id": 61,
    "regency_id": 6106,
    "district_id": 610604,
    "value": "Ulak Pauk",
    "postal_code": "78755"
  }
]