[
  {
    "id": 920925,
    "province_id": 92,
    "regency_id": 9209,
    "district_id": 920925,
    "value": "Ajami Waripi",
    "postal_code": "98394"
  },
  {
    "id": 920925,
    "province_id": 92,
    "regency_id": 9209,
    "district_id": 920925,
    "value": "Akmuri",
    "postal_code": "98394"
  },
  {
    "id": 920925,
    "province_id": 92,
    "regency_id": 9209,
    "district_id": 920925,
    "value": "Aneti",
    "postal_code": "98394"
  },
  {
    "id": 920925,
    "province_id": 92,
    "regency_id": 9209,
    "district_id": 920925,
    "value": "Aranari",
    "postal_code": "98394"
  },
  {
    "id": 920925,
    "province_id": 92,
    "regency_id": 9209,
    "district_id": 920925,
    "value": "Atai (Ata)",
    "postal_code": "98394"
  },
  {
    "id": 920925,
    "province_id": 92,
    "regency_id": 9209,
    "district_id": 920925,
    "value": "Atunari",
    "postal_code": "98394"
  },
  {
    "id": 920925,
    "province_id": 92,
    "regency_id": 9209,
    "district_id": 920925,
    "value": "Awori",
    "postal_code": "98394"
  },
  {
    "id": 920925,
    "province_id": 92,
    "regency_id": 9209,
    "district_id": 920925,
    "value": "Itafiti",
    "postal_code": "98394"
  },
  {
    "id": 920925,
    "province_id": 92,
    "regency_id": 9209,
    "district_id": 920925,
    "value": "Narai",
    "postal_code": "98394"
  },
  {
    "id": 920925,
    "province_id": 92,
    "regency_id": 9209,
    "district_id": 920925,
    "value": "Waumi",
    "postal_code": "98394"
  }
]