[
  {
    "id": 710908,
    "province_id": 71,
    "regency_id": 7109,
    "district_id": 710908,
    "value": "Batubulan",
    "postal_code": "95869"
  },
  {
    "id": 710908,
    "province_id": 71,
    "regency_id": 7109,
    "district_id": 710908,
    "value": "Hiung",
    "postal_code": "95869"
  },
  {
    "id": 710908,
    "province_id": 71,
    "regency_id": 7109,
    "district_id": 710908,
    "value": "Kawahang",
    "postal_code": "95869"
  },
  {
    "id": 710908,
    "province_id": 71,
    "regency_id": 7109,
    "district_id": 710908,
    "value": "Kiawang",
    "postal_code": "95869"
  },
  {
    "id": 710908,
    "province_id": 71,
    "regency_id": 7109,
    "district_id": 710908,
    "value": "Kinali",
    "postal_code": "95869"
  },
  {
    "id": 710908,
    "province_id": 71,
    "regency_id": 7109,
    "district_id": 710908,
    "value": "Mini",
    "postal_code": "95869"
  },
  {
    "id": 710908,
    "province_id": 71,
    "regency_id": 7109,
    "district_id": 710908,
    "value": "Nameng",
    "postal_code": "95869"
  },
  {
    "id": 710908,
    "province_id": 71,
    "regency_id": 7109,
    "district_id": 710908,
    "value": "Winangun",
    "postal_code": "95869"
  }
]