[
  {
    "id": 1220022004,
    "province_id": 12,
    "regency_id": 1220,
    "district_id": 122002,
    "value": "Aek Haruaya",
    "postal_code": "22756"
  },
  {
    "id": 1220022025,
    "province_id": 12,
    "regency_id": 1220,
    "district_id": 122002,
    "value": "Aek Ilung",
    "postal_code": "22756"
  },
  {
    "id": 1220022020,
    "province_id": 12,
    "regency_id": 1220,
    "district_id": 122002,
    "value": "Aek Rao TN",
    "postal_code": "22756"
  },
  {
    "id": 1220022010,
    "province_id": 12,
    "regency_id": 1220,
    "district_id": 122002,
    "value": "Aek Suhat Jae",
    "postal_code": "22756"
  },
  {
    "id": 1220022070,
    "province_id": 12,
    "regency_id": 1220,
    "district_id": 122002,
    "value": "Aek Suhat TR",
    "postal_code": "22756"
  },
  {
    "id": 1220022057,
    "province_id": 12,
    "regency_id": 1220,
    "district_id": 122002,
    "value": "Aek Sundur",
    "postal_code": "22756"
  },
  {
    "id": 1220022083,
    "province_id": 12,
    "regency_id": 1220,
    "district_id": 122002,
    "value": "Aek Tangga",
    "postal_code": "22756"
  },
  {
    "id": 1220022047,
    "province_id": 12,
    "regency_id": 1220,
    "district_id": 122002,
    "value": "Arse",
    "postal_code": "22756"
  },
  {
    "id": 1220022024,
    "province_id": 12,
    "regency_id": 1220,
    "district_id": 122002,
    "value": "Bahap",
    "postal_code": "22756"
  },
  {
    "id": 1220022079,
    "province_id": 12,
    "regency_id": 1220,
    "district_id": 122002,
    "value": "Bandar Nauli",
    "postal_code": "22756"
  },
  {
    "id": 1220022058,
    "province_id": 12,
    "regency_id": 1220,
    "district_id": 122002,
    "value": "Baringin Sil",
    "postal_code": "22756"
  },
  {
    "id": 1220022017,
    "province_id": 12,
    "regency_id": 1220,
    "district_id": 122002,
    "value": "Baringin Sip",
    "postal_code": "22756"
  },
  {
    "id": 1220022022,
    "province_id": 12,
    "regency_id": 1220,
    "district_id": 122002,
    "value": "Batu Runding",
    "postal_code": "22756"
  },
  {
    "id": 1220022075,
    "province_id": 12,
    "regency_id": 1220,
    "district_id": 122002,
    "value": "Binanga Gumbot",
    "postal_code": "22756"
  },
  {
    "id": 1220022003,
    "province_id": 12,
    "regency_id": 1220,
    "district_id": 122002,
    "value": "Binanga Panasahan",
    "postal_code": "22756"
  },
  {
    "id": 1220022007,
    "province_id": 12,
    "regency_id": 1220,
    "district_id": 122002,
    "value": "Bintais Julu",
    "postal_code": "22756"
  },
  {
    "id": 1220022077,
    "province_id": 12,
    "regency_id": 1220,
    "district_id": 122002,
    "value": "Bukit Tinggi",
    "postal_code": "22756"
  },
  {
    "id": 1220022008,
    "province_id": 12,
    "regency_id": 1220,
    "district_id": 122002,
    "value": "Bunut",
    "postal_code": "22756"
  },
  {
    "id": 1220022044,
    "province_id": 12,
    "regency_id": 1220,
    "district_id": 122002,
    "value": "Dalihan Natolu",
    "postal_code": "22756"
  },
  {
    "id": 1220022051,
    "province_id": 12,
    "regency_id": 1220,
    "district_id": 122002,
    "value": "Dolok Sanggul",
    "postal_code": "22756"
  },
  {
    "id": 1220022071,
    "province_id": 12,
    "regency_id": 1220,
    "district_id": 122002,
    "value": "Gumaruntar",
    "postal_code": "22756"
  },
  {
    "id": 1220022031,
    "province_id": 12,
    "regency_id": 1220,
    "district_id": 122002,
    "value": "Gumbot",
    "postal_code": "22756"
  },
  {
    "id": 1220022018,
    "province_id": 12,
    "regency_id": 1220,
    "district_id": 122002,
    "value": "Gunung Maria",
    "postal_code": "22756"
  },
  {
    "id": 1220022032,
    "province_id": 12,
    "regency_id": 1220,
    "district_id": 122002,
    "value": "Gunung Selamat",
    "postal_code": "22756"
  },
  {
    "id": 1220022059,
    "province_id": 12,
    "regency_id": 1220,
    "district_id": 122002,
    "value": "Hula Baringin",
    "postal_code": "22756"
  },
  {
    "id": 1220022011,
    "province_id": 12,
    "regency_id": 1220,
    "district_id": 122002,
    "value": "Huta Baru Sil",
    "postal_code": "22756"
  },
  {
    "id": 1220022066,
    "province_id": 12,
    "regency_id": 1220,
    "district_id": 122002,
    "value": "Huta Baru Sip",
    "postal_code": "22756"
  },
  {
    "id": 1220022029,
    "province_id": 12,
    "regency_id": 1220,
    "district_id": 122002,
    "value": "Hutaimbaru Gul",
    "postal_code": "22756"
  },
  {
    "id": 1220022035,
    "province_id": 12,
    "regency_id": 1220,
    "district_id": 122002,
    "value": "Jambur Batu",
    "postal_code": "22756"
  },
  {
    "id": 1220022040,
    "province_id": 12,
    "regency_id": 1220,
    "district_id": 122002,
    "value": "Janji Manahan Gul",
    "postal_code": "22756"
  },
  {
    "id": 1220022016,
    "province_id": 12,
    "regency_id": 1220,
    "district_id": 122002,
    "value": "Janji Manahan Sil",
    "postal_code": "22756"
  },
  {
    "id": 1220022073,
    "province_id": 12,
    "regency_id": 1220,
    "district_id": 122002,
    "value": "Janji Matogu",
    "postal_code": "22756"
  },
  {
    "id": 1220022023,
    "province_id": 12,
    "regency_id": 1220,
    "district_id": 122002,
    "value": "Lubuk Godang",
    "postal_code": "22756"
  },
  {
    "id": 1220022034,
    "province_id": 12,
    "regency_id": 1220,
    "district_id": 122002,
    "value": "Lubuk Kundur",
    "postal_code": "22756"
  },
  {
    "id": 1220022046,
    "province_id": 12,
    "regency_id": 1220,
    "district_id": 122002,
    "value": "Lubuk Lanjang",
    "postal_code": "22756"
  },
  {
    "id": 1220022019,
    "province_id": 12,
    "regency_id": 1220,
    "district_id": 122002,
    "value": "Mompang Dolok",
    "postal_code": "22756"
  },
  {
    "id": 1220022015,
    "province_id": 12,
    "regency_id": 1220,
    "district_id": 122002,
    "value": "Mompang Lombang",
    "postal_code": "22756"
  },
  {
    "id": 1220022060,
    "province_id": 12,
    "regency_id": 1220,
    "district_id": 122002,
    "value": "Nabonggal",
    "postal_code": "22756"
  },
  {
    "id": 1220022038,
    "province_id": 12,
    "regency_id": 1220,
    "district_id": 122002,
    "value": "Naga Saribu",
    "postal_code": "22756"
  },
  {
    "id": 1220022069,
    "province_id": 12,
    "regency_id": 1220,
    "district_id": 122002,
    "value": "Napasundali",
    "postal_code": "22756"
  },
  {
    "id": 1220022054,
    "province_id": 12,
    "regency_id": 1220,
    "district_id": 122002,
    "value": "Pagaran Julu II",
    "postal_code": "22756"
  },
  {
    "id": 1220022067,
    "province_id": 12,
    "regency_id": 1220,
    "district_id": 122002,
    "value": "Pagaran Siregar",
    "postal_code": "22756"
  },
  {
    "id": 1220022043,
    "province_id": 12,
    "regency_id": 1220,
    "district_id": 122002,
    "value": "Panca",
    "postal_code": "22756"
  },
  {
    "id": 1220022014,
    "province_id": 12,
    "regency_id": 1220,
    "district_id": 122002,
    "value": "Pangaran Julu I",
    "postal_code": "22756"
  },
  {
    "id": 1220022068,
    "province_id": 12,
    "regency_id": 1220,
    "district_id": 122002,
    "value": "Parigi",
    "postal_code": "22756"
  },
  {
    "id": 1220022042,
    "province_id": 12,
    "regency_id": 1220,
    "district_id": 122002,
    "value": "Parmeraan",
    "postal_code": "22756"
  },
  {
    "id": 1220022006,
    "province_id": 12,
    "regency_id": 1220,
    "district_id": 122002,
    "value": "Pasar Sipiongot",
    "postal_code": "22756"
  },
  {
    "id": 1220022009,
    "province_id": 12,
    "regency_id": 1220,
    "district_id": 122002,
    "value": "Paya Ombik",
    "postal_code": "22756"
  },
  {
    "id": 1220022053,
    "province_id": 12,
    "regency_id": 1220,
    "district_id": 122002,
    "value": "Pijor Koling",
    "postal_code": "22756"
  },
  {
    "id": 1220022086,
    "province_id": 12,
    "regency_id": 1220,
    "district_id": 122002,
    "value": "Pintu Padang Merdeka",
    "postal_code": "22756"
  },
  {
    "id": 1220022061,
    "province_id": 12,
    "regency_id": 1220,
    "district_id": 122002,
    "value": "Purba Tua",
    "postal_code": "22756"
  },
  {
    "id": 1220022037,
    "province_id": 12,
    "regency_id": 1220,
    "district_id": 122002,
    "value": "Rancaran",
    "postal_code": "22756"
  },
  {
    "id": 1220022084,
    "province_id": 12,
    "regency_id": 1220,
    "district_id": 122002,
    "value": "Rongkare",
    "postal_code": "22756"
  },
  {
    "id": 1220022055,
    "province_id": 12,
    "regency_id": 1220,
    "district_id": 122002,
    "value": "Siala Gundi",
    "postal_code": "22756"
  },
  {
    "id": 1220022074,
    "province_id": 12,
    "regency_id": 1220,
    "district_id": 122002,
    "value": "Sialang Dolok",
    "postal_code": "22756"
  },
  {
    "id": 1220022080,
    "province_id": 12,
    "regency_id": 1220,
    "district_id": 122002,
    "value": "Sibayo",
    "postal_code": "22756"
  },
  {
    "id": 1220022050,
    "province_id": 12,
    "regency_id": 1220,
    "district_id": 122002,
    "value": "Sibayo Jae",
    "postal_code": "22756"
  },
  {
    "id": 1220022063,
    "province_id": 12,
    "regency_id": 1220,
    "district_id": 122002,
    "value": "Sibio Bio",
    "postal_code": "22756"
  },
  {
    "id": 1220022085,
    "province_id": 12,
    "regency_id": 1220,
    "district_id": 122002,
    "value": "Siburbur",
    "postal_code": "22756"
  },
  {
    "id": 1220022049,
    "province_id": 12,
    "regency_id": 1220,
    "district_id": 122002,
    "value": "Sigala Gala",
    "postal_code": "22756"
  },
  {
    "id": 1220022001,
    "province_id": 12,
    "regency_id": 1220,
    "district_id": 122002,
    "value": "Siguga",
    "postal_code": "22756"
  },
  {
    "id": 1220022072,
    "province_id": 12,
    "regency_id": 1220,
    "district_id": 122002,
    "value": "Sijantung Jae",
    "postal_code": "22756"
  },
  {
    "id": 1220022021,
    "province_id": 12,
    "regency_id": 1220,
    "district_id": 122002,
    "value": "Sijantung Julu",
    "postal_code": "22756"
  },
  {
    "id": 1220022065,
    "province_id": 12,
    "regency_id": 1220,
    "district_id": 122002,
    "value": "Sijara Jara",
    "postal_code": "22756"
  },
  {
    "id": 1220022012,
    "province_id": 12,
    "regency_id": 1220,
    "district_id": 122002,
    "value": "Sijorang",
    "postal_code": "22756"
  },
  {
    "id": 1220022052,
    "province_id": 12,
    "regency_id": 1220,
    "district_id": 122002,
    "value": "Silangge",
    "postal_code": "22756"
  },
  {
    "id": 1220022033,
    "province_id": 12,
    "regency_id": 1220,
    "district_id": 122002,
    "value": "Silogo Logo",
    "postal_code": "22756"
  },
  {
    "id": 1220022028,
    "province_id": 12,
    "regency_id": 1220,
    "district_id": 122002,
    "value": "Siloung",
    "postal_code": "22756"
  },
  {
    "id": 1220022078,
    "province_id": 12,
    "regency_id": 1220,
    "district_id": 122002,
    "value": "Simambal",
    "postal_code": "22756"
  },
  {
    "id": 1220022048,
    "province_id": 12,
    "regency_id": 1220,
    "district_id": 122002,
    "value": "Simangambat Tua",
    "postal_code": "22756"
  },
  {
    "id": 1220022013,
    "province_id": 12,
    "regency_id": 1220,
    "district_id": 122002,
    "value": "Simaninggir Sip",
    "postal_code": "22756"
  },
  {
    "id": 1220022076,
    "province_id": 12,
    "regency_id": 1220,
    "district_id": 122002,
    "value": "Simanosor",
    "postal_code": "22756"
  },
  {
    "id": 1220022041,
    "province_id": 12,
    "regency_id": 1220,
    "district_id": 122002,
    "value": "Simataniari",
    "postal_code": "22756"
  },
  {
    "id": 1220022039,
    "province_id": 12,
    "regency_id": 1220,
    "district_id": 122002,
    "value": "Simataniari Jae",
    "postal_code": "22756"
  },
  {
    "id": 1220022036,
    "province_id": 12,
    "regency_id": 1220,
    "district_id": 122002,
    "value": "Simatorkis",
    "postal_code": "22756"
  },
  {
    "id": 1220022081,
    "province_id": 12,
    "regency_id": 1220,
    "district_id": 122002,
    "value": "Sinabongan",
    "postal_code": "22756"
  },
  {
    "id": 1220022002,
    "province_id": 12,
    "regency_id": 1220,
    "district_id": 122002,
    "value": "Singanyal",
    "postal_code": "22756"
  },
  {
    "id": 1220022030,
    "province_id": 12,
    "regency_id": 1220,
    "district_id": 122002,
    "value": "Sipiongot",
    "postal_code": "22756"
  },
  {
    "id": 1220022056,
    "province_id": 12,
    "regency_id": 1220,
    "district_id": 122002,
    "value": "Siraga HP",
    "postal_code": "22756"
  },
  {
    "id": 1220022082,
    "province_id": 12,
    "regency_id": 1220,
    "district_id": 122002,
    "value": "Siranap",
    "postal_code": "22756"
  },
  {
    "id": 1220022064,
    "province_id": 12,
    "regency_id": 1220,
    "district_id": 122002,
    "value": "Situmbaga",
    "postal_code": "22756"
  },
  {
    "id": 1220022045,
    "province_id": 12,
    "regency_id": 1220,
    "district_id": 122002,
    "value": "Sungai Datar",
    "postal_code": "22756"
  },
  {
    "id": 1220022027,
    "province_id": 12,
    "regency_id": 1220,
    "district_id": 122002,
    "value": "Sungai Pining",
    "postal_code": "22756"
  },
  {
    "id": 1220022005,
    "province_id": 12,
    "regency_id": 1220,
    "district_id": 122002,
    "value": "Tanjung Baru B",
    "postal_code": "22756"
  },
  {
    "id": 1220022062,
    "province_id": 12,
    "regency_id": 1220,
    "district_id": 122002,
    "value": "Tanjung Longat",
    "postal_code": "22756"
  },
  {
    "id": 1220022026,
    "province_id": 12,
    "regency_id": 1220,
    "district_id": 122002,
    "value": "Tarutung Bolak",
    "postal_code": "22756"
  }
]