[
  {
    "id": 1401152009,
    "province_id": 14,
    "regency_id": 1401,
    "district_id": 140115,
    "value": "Binuang",
    "postal_code": "28463"
  },
  {
    "id": 1401152006,
    "province_id": 14,
    "regency_id": 1401,
    "district_id": 140115,
    "value": "Bukit Sembilan",
    "postal_code": "28463"
  },
  {
    "id": 1401152004,
    "province_id": 14,
    "regency_id": 1401,
    "district_id": 140115,
    "value": "Bukitpayung (Bukit Payung)",
    "postal_code": "28463"
  },
  {
    "id": 1401152003,
    "province_id": 14,
    "regency_id": 1401,
    "district_id": 140115,
    "value": "Laboy Jaya (Laboi Jaya)",
    "postal_code": "28463"
  },
  {
    "id": 1401152002,
    "province_id": 14,
    "regency_id": 1401,
    "district_id": 140115,
    "value": "Muara Uwai",
    "postal_code": "28463"
  },
  {
    "id": 1401151008,
    "province_id": 14,
    "regency_id": 1401,
    "district_id": 140115,
    "value": "Pasir Sialang",
    "postal_code": "28463"
  },
  {
    "id": 1401151007,
    "province_id": 14,
    "regency_id": 1401,
    "district_id": 140115,
    "value": "Pulau",
    "postal_code": "28463"
  },
  {
    "id": 1401152001,
    "province_id": 14,
    "regency_id": 1401,
    "district_id": 140115,
    "value": "Pulau Lawas",
    "postal_code": "28463"
  },
  {
    "id": 1401152005,
    "province_id": 14,
    "regency_id": 1401,
    "district_id": 140115,
    "value": "Suka Mulya",
    "postal_code": "28463"
  }
]