[
  {
    "id": 3306102034,
    "province_id": 33,
    "regency_id": 3306,
    "district_id": 330610,
    "value": "Andong",
    "postal_code": "54264"
  },
  {
    "id": 3306102038,
    "province_id": 33,
    "regency_id": 3306,
    "district_id": 330610,
    "value": "Binangun",
    "postal_code": "54264"
  },
  {
    "id": 3306102039,
    "province_id": 33,
    "regency_id": 3306,
    "district_id": 330610,
    "value": "Butuh",
    "postal_code": "54264"
  },
  {
    "id": 3306102033,
    "province_id": 33,
    "regency_id": 3306,
    "district_id": 330610,
    "value": "Dlangu",
    "postal_code": "54264"
  },
  {
    "id": 3306102035,
    "province_id": 33,
    "regency_id": 3306,
    "district_id": 330610,
    "value": "Kaliwatubumi",
    "postal_code": "54264"
  },
  {
    "id": 3306102036,
    "province_id": 33,
    "regency_id": 3306,
    "district_id": 330610,
    "value": "Kaliwatukranggan",
    "postal_code": "54264"
  },
  {
    "id": 3306102003,
    "province_id": 33,
    "regency_id": 3306,
    "district_id": 330610,
    "value": "Karanganom",
    "postal_code": "54264"
  },
  {
    "id": 3306102020,
    "province_id": 33,
    "regency_id": 3306,
    "district_id": 330610,
    "value": "Kedungagung",
    "postal_code": "54264"
  },
  {
    "id": 3306102001,
    "province_id": 33,
    "regency_id": 3306,
    "district_id": 330610,
    "value": "Kedungmulyo",
    "postal_code": "54264"
  },
  {
    "id": 3306102012,
    "province_id": 33,
    "regency_id": 3306,
    "district_id": 330610,
    "value": "Kedungsari",
    "postal_code": "54116"
  },
  {
    "id": 3306102019,
    "province_id": 33,
    "regency_id": 3306,
    "district_id": 330610,
    "value": "Kedungsri",
    "postal_code": "54264"
  },
  {
    "id": 3306102010,
    "province_id": 33,
    "regency_id": 3306,
    "district_id": 330610,
    "value": "Ketug",
    "postal_code": "54264"
  },
  {
    "id": 3306102040,
    "province_id": 33,
    "regency_id": 3306,
    "district_id": 330610,
    "value": "Klepu",
    "postal_code": "54264"
  },
  {
    "id": 3306102024,
    "province_id": 33,
    "regency_id": 3306,
    "district_id": 330610,
    "value": "Kunir",
    "postal_code": "54264"
  },
  {
    "id": 3306102017,
    "province_id": 33,
    "regency_id": 3306,
    "district_id": 330610,
    "value": "Kunirejokulon (Kunirejo Kulon)",
    "postal_code": "54264"
  },
  {
    "id": 3306102018,
    "province_id": 33,
    "regency_id": 3306,
    "district_id": 330610,
    "value": "Kunirejowetan (Kunirejo Wetan)",
    "postal_code": "54264"
  },
  {
    "id": 3306102007,
    "province_id": 33,
    "regency_id": 3306,
    "district_id": 330610,
    "value": "Langenrejo",
    "postal_code": "54264"
  },
  {
    "id": 3306102025,
    "province_id": 33,
    "regency_id": 3306,
    "district_id": 330610,
    "value": "Lubangdukuh (Lubang Dukuh)",
    "postal_code": "54264"
  },
  {
    "id": 3306102030,
    "province_id": 33,
    "regency_id": 3306,
    "district_id": 330610,
    "value": "Lubangindangan (Lubang Indangan)",
    "postal_code": "54264"
  },
  {
    "id": 3306102031,
    "province_id": 33,
    "regency_id": 3306,
    "district_id": 330610,
    "value": "Lubangkidul (Lubang Kidul)",
    "postal_code": "54264"
  },
  {
    "id": 3306102029,
    "province_id": 33,
    "regency_id": 3306,
    "district_id": 330610,
    "value": "Lubanglor (Lubang Lor)",
    "postal_code": "54264"
  },
  {
    "id": 3306102032,
    "province_id": 33,
    "regency_id": 3306,
    "district_id": 330610,
    "value": "Lubangsampang (Lubang Sampang)",
    "postal_code": "54264"
  },
  {
    "id": 3306102023,
    "province_id": 33,
    "regency_id": 3306,
    "district_id": 330610,
    "value": "Lugu",
    "postal_code": "54264"
  },
  {
    "id": 3306102022,
    "province_id": 33,
    "regency_id": 3306,
    "district_id": 330610,
    "value": "Lugurejo",
    "postal_code": "54264"
  },
  {
    "id": 3306102002,
    "province_id": 33,
    "regency_id": 3306,
    "district_id": 330610,
    "value": "Mangunjayan",
    "postal_code": "54264"
  },
  {
    "id": 3306102037,
    "province_id": 33,
    "regency_id": 3306,
    "district_id": 330610,
    "value": "Panggeldlangu (Panggeldlanggu)",
    "postal_code": "54264"
  },
  {
    "id": 3306102027,
    "province_id": 33,
    "regency_id": 3306,
    "district_id": 330610,
    "value": "Polomarto",
    "postal_code": "54264"
  },
  {
    "id": 3306102011,
    "province_id": 33,
    "regency_id": 3306,
    "district_id": 330610,
    "value": "Rowodadi",
    "postal_code": "54264"
  },
  {
    "id": 3306102005,
    "province_id": 33,
    "regency_id": 3306,
    "district_id": 330610,
    "value": "Sidomulyo",
    "postal_code": "54264"
  },
  {
    "id": 3306102013,
    "province_id": 33,
    "regency_id": 3306,
    "district_id": 330610,
    "value": "Sruwohdukuh (Sruwoh Dukuh)",
    "postal_code": "54264"
  },
  {
    "id": 3306102021,
    "province_id": 33,
    "regency_id": 3306,
    "district_id": 330610,
    "value": "Sruwohrejo",
    "postal_code": "54264"
  },
  {
    "id": 3306102006,
    "province_id": 33,
    "regency_id": 3306,
    "district_id": 330610,
    "value": "Sumbersari",
    "postal_code": "54264"
  },
  {
    "id": 3306102008,
    "province_id": 33,
    "regency_id": 3306,
    "district_id": 330610,
    "value": "Tamansari",
    "postal_code": "54264"
  },
  {
    "id": 3306102004,
    "province_id": 33,
    "regency_id": 3306,
    "district_id": 330610,
    "value": "Tanjunganom",
    "postal_code": "54264"
  },
  {
    "id": 3306102028,
    "province_id": 33,
    "regency_id": 3306,
    "district_id": 330610,
    "value": "Tegalgondo",
    "postal_code": "54264"
  },
  {
    "id": 3306102026,
    "province_id": 33,
    "regency_id": 3306,
    "district_id": 330610,
    "value": "Tlogorejo",
    "postal_code": "54264"
  },
  {
    "id": 3306102009,
    "province_id": 33,
    "regency_id": 3306,
    "district_id": 330610,
    "value": "Wareng",
    "postal_code": "54264"
  },
  {
    "id": 3306102041,
    "province_id": 33,
    "regency_id": 3306,
    "district_id": 330610,
    "value": "Wironatan",
    "postal_code": "54264"
  },
  {
    "id": 3306102014,
    "province_id": 33,
    "regency_id": 3306,
    "district_id": 330610,
    "value": "Wonodadi",
    "postal_code": "54264"
  },
  {
    "id": 3306102016,
    "province_id": 33,
    "regency_id": 3306,
    "district_id": 330610,
    "value": "Wonorejokulon (Wonorejo Kulon)",
    "postal_code": "54264"
  },
  {
    "id": 3306102015,
    "province_id": 33,
    "regency_id": 3306,
    "district_id": 330610,
    "value": "Wonorejowetan (Wonorejo Wetan)",
    "postal_code": "54264"
  }
]