[
  {
    "id": 5306082010,
    "province_id": 53,
    "regency_id": 5306,
    "district_id": 530608,
    "value": "Bukit Seburi I",
    "postal_code": "86263"
  },
  {
    "id": 5306082024,
    "province_id": 53,
    "regency_id": 5306,
    "district_id": 530608,
    "value": "Bukit Seburi II",
    "postal_code": "86263"
  },
  {
    "id": 5306082019,
    "province_id": 53,
    "regency_id": 5306,
    "district_id": 530608,
    "value": "Bungalima (Bugalima)",
    "postal_code": "86263"
  },
  {
    "id": 5306082012,
    "province_id": 53,
    "regency_id": 5306,
    "district_id": 530608,
    "value": "Danibao",
    "postal_code": "86263"
  },
  {
    "id": 5306082008,
    "province_id": 53,
    "regency_id": 5306,
    "district_id": 530608,
    "value": "Duanur (Duwanur)",
    "postal_code": "86263"
  },
  {
    "id": 5306082021,
    "province_id": 53,
    "regency_id": 5306,
    "district_id": 530608,
    "value": "Homa",
    "postal_code": "86263"
  },
  {
    "id": 5306082017,
    "province_id": 53,
    "regency_id": 5306,
    "district_id": 530608,
    "value": "Hurung",
    "postal_code": "86263"
  },
  {
    "id": 5306082014,
    "province_id": 53,
    "regency_id": 5306,
    "district_id": 530608,
    "value": "Ile Pati (Ilepati)",
    "postal_code": "86263"
  },
  {
    "id": 5306082026,
    "province_id": 53,
    "regency_id": 5306,
    "district_id": 530608,
    "value": "Kimakamak (Kima Kamak)",
    "postal_code": "86263"
  },
  {
    "id": 5306082032,
    "province_id": 53,
    "regency_id": 5306,
    "district_id": 530608,
    "value": "Nimun Danibao (Nimun Dani Bao)",
    "postal_code": "86263"
  },
  {
    "id": 5306082013,
    "province_id": 53,
    "regency_id": 5306,
    "district_id": 530608,
    "value": "Pajinian",
    "postal_code": "86263"
  },
  {
    "id": 5306082036,
    "province_id": 53,
    "regency_id": 5306,
    "district_id": 530608,
    "value": "Riangpadu",
    "postal_code": "86263"
  },
  {
    "id": 5306082016,
    "province_id": 53,
    "regency_id": 5306,
    "district_id": 530608,
    "value": "Tonuwotan",
    "postal_code": "86263"
  },
  {
    "id": 5306082033,
    "province_id": 53,
    "regency_id": 5306,
    "district_id": 530608,
    "value": "Waitukan (Wai Tukan)",
    "postal_code": "86263"
  },
  {
    "id": 5306082011,
    "province_id": 53,
    "regency_id": 5306,
    "district_id": 530608,
    "value": "Waiwadan",
    "postal_code": "86263"
  },
  {
    "id": 5306082030,
    "province_id": 53,
    "regency_id": 5306,
    "district_id": 530608,
    "value": "Watobaya (Wato Baya)",
    "postal_code": "86263"
  },
  {
    "id": 5306082035,
    "province_id": 53,
    "regency_id": 5306,
    "district_id": 530608,
    "value": "Wolokibang",
    "postal_code": "86263"
  },
  {
    "id": 5306082015,
    "province_id": 53,
    "regency_id": 5306,
    "district_id": 530608,
    "value": "Wureh",
    "postal_code": "86263"
  }
]