[
  {
    "id": 9505022007,
    "province_id": 95,
    "regency_id": 9505,
    "district_id": 950502,
    "value": "Binime",
    "postal_code": "99072"
  },
  {
    "id": 9505022002,
    "province_id": 95,
    "regency_id": 9505,
    "district_id": 950502,
    "value": "Dibunggen",
    "postal_code": "99072"
  },
  {
    "id": 9505022005,
    "province_id": 95,
    "regency_id": 9505,
    "district_id": 950502,
    "value": "Dogobak",
    "postal_code": "99072"
  },
  {
    "id": 9505022013,
    "province_id": 95,
    "regency_id": 9505,
    "district_id": 950502,
    "value": "Gelora",
    "postal_code": "99072"
  },
  {
    "id": 9505022010,
    "province_id": 95,
    "regency_id": 9505,
    "district_id": 950502,
    "value": "Kambo",
    "postal_code": "99072"
  },
  {
    "id": 9505022001,
    "province_id": 95,
    "regency_id": 9505,
    "district_id": 950502,
    "value": "Kelila",
    "postal_code": "99072"
  },
  {
    "id": 9505022011,
    "province_id": 95,
    "regency_id": 9505,
    "district_id": 950502,
    "value": "Kindok",
    "postal_code": "99072"
  },
  {
    "id": 9505022017,
    "province_id": 95,
    "regency_id": 9505,
    "district_id": 950502,
    "value": "Kumbu",
    "postal_code": "99072"
  },
  {
    "id": 9505022018,
    "province_id": 95,
    "regency_id": 9505,
    "district_id": 950502,
    "value": "Mabuna",
    "postal_code": "99072"
  },
  {
    "id": 9505022019,
    "province_id": 95,
    "regency_id": 9505,
    "district_id": 950502,
    "value": "Manggaleso",
    "postal_code": "99072"
  },
  {
    "id": 9505022009,
    "province_id": 95,
    "regency_id": 9505,
    "district_id": 950502,
    "value": "Onggobalo",
    "postal_code": "99072"
  },
  {
    "id": 9505022015,
    "province_id": 95,
    "regency_id": 9505,
    "district_id": 950502,
    "value": "Pelanme",
    "postal_code": "99072"
  },
  {
    "id": 9505022012,
    "province_id": 95,
    "regency_id": 9505,
    "district_id": 950502,
    "value": "Tari",
    "postal_code": "99072"
  },
  {
    "id": 9505022008,
    "province_id": 95,
    "regency_id": 9505,
    "district_id": 950502,
    "value": "Tikapura",
    "postal_code": "99072"
  },
  {
    "id": 9505022003,
    "province_id": 95,
    "regency_id": 9505,
    "district_id": 950502,
    "value": "Timeria",
    "postal_code": "99072"
  },
  {
    "id": 9505022016,
    "province_id": 95,
    "regency_id": 9505,
    "district_id": 950502,
    "value": "Tonggrik",
    "postal_code": "99072"
  },
  {
    "id": 9505022004,
    "province_id": 95,
    "regency_id": 9505,
    "district_id": 950502,
    "value": "Uganda",
    "postal_code": "99072"
  },
  {
    "id": 9505022014,
    "province_id": 95,
    "regency_id": 9505,
    "district_id": 950502,
    "value": "Yagabur",
    "postal_code": "99072"
  },
  {
    "id": 9505022006,
    "province_id": 95,
    "regency_id": 9505,
    "district_id": 950502,
    "value": "Yalenggolo",
    "postal_code": "99072"
  }
]