[
  {
    "id": 350407,
    "province_id": 35,
    "regency_id": 3504,
    "district_id": 350407,
    "value": "Dono",
    "postal_code": "66254"
  },
  {
    "id": 350407,
    "province_id": 35,
    "regency_id": 3504,
    "district_id": 350407,
    "value": "Geger",
    "postal_code": "66254"
  },
  {
    "id": 350407,
    "province_id": 35,
    "regency_id": 3504,
    "district_id": 350407,
    "value": "Kedoyo",
    "postal_code": "66254"
  },
  {
    "id": 350407,
    "province_id": 35,
    "regency_id": 3504,
    "district_id": 350407,
    "value": "Krosok",
    "postal_code": "66254"
  },
  {
    "id": 350407,
    "province_id": 35,
    "regency_id": 3504,
    "district_id": 350407,
    "value": "Nglurup",
    "postal_code": "66254"
  },
  {
    "id": 350407,
    "province_id": 35,
    "regency_id": 3504,
    "district_id": 350407,
    "value": "Nglutung",
    "postal_code": "66254"
  },
  {
    "id": 350407,
    "province_id": 35,
    "regency_id": 3504,
    "district_id": 350407,
    "value": "Nyawangan",
    "postal_code": "66254"
  },
  {
    "id": 350407,
    "province_id": 35,
    "regency_id": 3504,
    "district_id": 350407,
    "value": "Picisan",
    "postal_code": "66254"
  },
  {
    "id": 350407,
    "province_id": 35,
    "regency_id": 3504,
    "district_id": 350407,
    "value": "Sendang",
    "postal_code": "66254"
  },
  {
    "id": 350407,
    "province_id": 35,
    "regency_id": 3504,
    "district_id": 350407,
    "value": "Talang",
    "postal_code": "66254"
  },
  {
    "id": 350407,
    "province_id": 35,
    "regency_id": 3504,
    "district_id": 350407,
    "value": "Tugu",
    "postal_code": "66254"
  }
]