[
  {
    "id": 170208,
    "province_id": 17,
    "regency_id": 1702,
    "district_id": 170208,
    "value": "Air Dingin",
    "postal_code": "39155"
  },
  {
    "id": 170208,
    "province_id": 17,
    "regency_id": 1702,
    "district_id": 170208,
    "value": "Belitar Muka",
    "postal_code": "39155"
  },
  {
    "id": 170208,
    "province_id": 17,
    "regency_id": 1702,
    "district_id": 170208,
    "value": "Belitar Seberang",
    "postal_code": "39155"
  },
  {
    "id": 170208,
    "province_id": 17,
    "regency_id": 1702,
    "district_id": 170208,
    "value": "Beringin Tiga",
    "postal_code": "39155"
  },
  {
    "id": 170208,
    "province_id": 17,
    "regency_id": 1702,
    "district_id": 170208,
    "value": "Cahaya Negeri",
    "postal_code": "39155"
  },
  {
    "id": 170208,
    "province_id": 17,
    "regency_id": 1702,
    "district_id": 170208,
    "value": "Kayu Manis",
    "postal_code": "39155"
  },
  {
    "id": 170208,
    "province_id": 17,
    "regency_id": 1702,
    "district_id": 170208,
    "value": "Mojorejo",
    "postal_code": "39155"
  },
  {
    "id": 170208,
    "province_id": 17,
    "regency_id": 1702,
    "district_id": 170208,
    "value": "Pelalo",
    "postal_code": "39155"
  },
  {
    "id": 170208,
    "province_id": 17,
    "regency_id": 1702,
    "district_id": 170208,
    "value": "Sindang Jati",
    "postal_code": "39155"
  },
  {
    "id": 170208,
    "province_id": 17,
    "regency_id": 1702,
    "district_id": 170208,
    "value": "Sindang Jaya",
    "postal_code": "39155"
  },
  {
    "id": 170208,
    "province_id": 17,
    "regency_id": 1702,
    "district_id": 170208,
    "value": "Talang Lahat",
    "postal_code": "39155"
  },
  {
    "id": 170208,
    "province_id": 17,
    "regency_id": 1702,
    "district_id": 170208,
    "value": "Tanjung Aur",
    "postal_code": "39155"
  }
]