[
  {
    "id": 7409032009,
    "province_id": 74,
    "regency_id": 7409,
    "district_id": 740903,
    "value": "Alenggo",
    "postal_code": "93351"
  },
  {
    "id": 7409032002,
    "province_id": 74,
    "regency_id": 7409,
    "district_id": 740903,
    "value": "Lameruru",
    "postal_code": "93351"
  },
  {
    "id": 7409031003,
    "province_id": 74,
    "regency_id": 7409,
    "district_id": 740903,
    "value": "Langgikima",
    "postal_code": "93351"
  },
  {
    "id": 7409032010,
    "province_id": 74,
    "regency_id": 7409,
    "district_id": 740903,
    "value": "Mekar Jaya",
    "postal_code": "93351"
  },
  {
    "id": 7409032001,
    "province_id": 74,
    "regency_id": 7409,
    "district_id": 740903,
    "value": "Molore",
    "postal_code": "93351"
  },
  {
    "id": 7409032011,
    "province_id": 74,
    "regency_id": 7409,
    "district_id": 740903,
    "value": "Molore Pantai",
    "postal_code": "93351"
  },
  {
    "id": 7409032005,
    "province_id": 74,
    "regency_id": 7409,
    "district_id": 740903,
    "value": "Morombo Pantai",
    "postal_code": "93351"
  },
  {
    "id": 7409032012,
    "province_id": 74,
    "regency_id": 7409,
    "district_id": 740903,
    "value": "Ngapa Inia",
    "postal_code": "93351"
  },
  {
    "id": 7409032007,
    "province_id": 74,
    "regency_id": 7409,
    "district_id": 740903,
    "value": "Pariama",
    "postal_code": "93351"
  },
  {
    "id": 7409032006,
    "province_id": 74,
    "regency_id": 7409,
    "district_id": 740903,
    "value": "Polora Indah",
    "postal_code": "93351"
  },
  {
    "id": 7409032004,
    "province_id": 74,
    "regency_id": 7409,
    "district_id": 740903,
    "value": "Sarimukti",
    "postal_code": "93351"
  },
  {
    "id": 7409032008,
    "province_id": 74,
    "regency_id": 7409,
    "district_id": 740903,
    "value": "Tobimeita",
    "postal_code": "93351"
  }
]