[
  {
    "id": 1102152003,
    "province_id": 11,
    "regency_id": 1102,
    "district_id": 110215,
    "value": "Alur Langsat",
    "postal_code": "24674"
  },
  {
    "id": 1102152014,
    "province_id": 11,
    "regency_id": 1102,
    "district_id": 110215,
    "value": "Alur Nangke (Alukh Nangke)",
    "postal_code": "24674"
  },
  {
    "id": 1102152010,
    "province_id": 11,
    "regency_id": 1102,
    "district_id": 110215,
    "value": "Jambukh Pekhmate",
    "postal_code": "24674"
  },
  {
    "id": 1102152002,
    "province_id": 11,
    "regency_id": 1102,
    "district_id": 110215,
    "value": "Jambur Damar",
    "postal_code": "24674"
  },
  {
    "id": 1102152011,
    "province_id": 11,
    "regency_id": 1102,
    "district_id": 110215,
    "value": "Khutung Mbelang",
    "postal_code": "24674"
  },
  {
    "id": 1102152015,
    "province_id": 11,
    "regency_id": 1102,
    "district_id": 110215,
    "value": "Kute Mejile",
    "postal_code": "24674"
  },
  {
    "id": 1102152008,
    "province_id": 11,
    "regency_id": 1102,
    "district_id": 110215,
    "value": "Lawe Tungkal",
    "postal_code": "24674"
  },
  {
    "id": 1102152004,
    "province_id": 11,
    "regency_id": 1102,
    "district_id": 110215,
    "value": "Rambah Sayang",
    "postal_code": "24674"
  },
  {
    "id": 1102152006,
    "province_id": 11,
    "regency_id": 1102,
    "district_id": 110215,
    "value": "Rumah Luar",
    "postal_code": "24674"
  },
  {
    "id": 1102152001,
    "province_id": 11,
    "regency_id": 1102,
    "district_id": 110215,
    "value": "Salim Pinim I / Satu (Salim Pinim)",
    "postal_code": "24674"
  },
  {
    "id": 1102152009,
    "province_id": 11,
    "regency_id": 1102,
    "district_id": 110215,
    "value": "Salim Pinim II",
    "postal_code": "24674"
  },
  {
    "id": 1102152013,
    "province_id": 11,
    "regency_id": 1102,
    "district_id": 110215,
    "value": "Stambul Jaya",
    "postal_code": "24674"
  },
  {
    "id": 1102152007,
    "province_id": 11,
    "regency_id": 1102,
    "district_id": 110215,
    "value": "Tenembak Alas",
    "postal_code": "24674"
  },
  {
    "id": 1102152012,
    "province_id": 11,
    "regency_id": 1102,
    "district_id": 110215,
    "value": "Timang Rasa (Timang Khase)",
    "postal_code": "24674"
  }
]