[
  {
    "id": 321618,
    "province_id": 32,
    "regency_id": 3216,
    "district_id": 321618,
    "value": "Burangkeng",
    "postal_code": "17320"
  },
  {
    "id": 321618,
    "province_id": 32,
    "regency_id": 3216,
    "district_id": 321618,
    "value": "Cibening",
    "postal_code": "17320"
  },
  {
    "id": 321618,
    "province_id": 32,
    "regency_id": 3216,
    "district_id": 321618,
    "value": "Cijengkol",
    "postal_code": "17320"
  },
  {
    "id": 321618,
    "province_id": 32,
    "regency_id": 3216,
    "district_id": 321618,
    "value": "Cikarageman",
    "postal_code": "17320"
  },
  {
    "id": 321618,
    "province_id": 32,
    "regency_id": 3216,
    "district_id": 321618,
    "value": "Ciledug (Cileduk)",
    "postal_code": "17320"
  },
  {
    "id": 321618,
    "province_id": 32,
    "regency_id": 3216,
    "district_id": 321618,
    "value": "Kertarahayu",
    "postal_code": "17320"
  },
  {
    "id": 321618,
    "province_id": 32,
    "regency_id": 3216,
    "district_id": 321618,
    "value": "Lubangbuaya",
    "postal_code": "17320"
  },
  {
    "id": 321618,
    "province_id": 32,
    "regency_id": 3216,
    "district_id": 321618,
    "value": "Muktijaya",
    "postal_code": "17320"
  },
  {
    "id": 321618,
    "province_id": 32,
    "regency_id": 3216,
    "district_id": 321618,
    "value": "Ragamanunggal (Ragemanunggal)",
    "postal_code": "17320"
  },
  {
    "id": 321618,
    "province_id": 32,
    "regency_id": 3216,
    "district_id": 321618,
    "value": "Taman Rahayu",
    "postal_code": "17320"
  },
  {
    "id": 321618,
    "province_id": 32,
    "regency_id": 3216,
    "district_id": 321618,
    "value": "Taman Sari",
    "postal_code": "17320"
  }
]