[
  {
    "id": 950706,
    "province_id": 95,
    "regency_id": 9507,
    "district_id": 950706,
    "value": "Bagi",
    "postal_code": "99589"
  },
  {
    "id": 950706,
    "province_id": 95,
    "regency_id": 9507,
    "district_id": 950706,
    "value": "Binilani",
    "postal_code": "99589"
  },
  {
    "id": 950706,
    "province_id": 95,
    "regency_id": 9507,
    "district_id": 950706,
    "value": "Ganume",
    "postal_code": "99589"
  },
  {
    "id": 950706,
    "province_id": 95,
    "regency_id": 9507,
    "district_id": 950706,
    "value": "Gumban",
    "postal_code": "99589"
  },
  {
    "id": 950706,
    "province_id": 95,
    "regency_id": 9507,
    "district_id": 950706,
    "value": "Lowanom",
    "postal_code": "99589"
  },
  {
    "id": 950706,
    "province_id": 95,
    "regency_id": 9507,
    "district_id": 950706,
    "value": "Malagai",
    "postal_code": "99589"
  },
  {
    "id": 950706,
    "province_id": 95,
    "regency_id": 9507,
    "district_id": 950706,
    "value": "Nambu",
    "postal_code": "99589"
  },
  {
    "id": 950706,
    "province_id": 95,
    "regency_id": 9507,
    "district_id": 950706,
    "value": "Oka",
    "postal_code": "99589"
  }
]