[
  {
    "id": 827201,
    "province_id": 82,
    "regency_id": 8272,
    "district_id": 827201,
    "value": "Folarora",
    "postal_code": "97813"
  },
  {
    "id": 827201,
    "province_id": 82,
    "regency_id": 8272,
    "district_id": 827201,
    "value": "Gamtufkange",
    "postal_code": "97812"
  },
  {
    "id": 827201,
    "province_id": 82,
    "regency_id": 8272,
    "district_id": 827201,
    "value": "Goto",
    "postal_code": "97813"
  },
  {
    "id": 827201,
    "province_id": 82,
    "regency_id": 8272,
    "district_id": 827201,
    "value": "Gurabunga",
    "postal_code": "97813"
  },
  {
    "id": 827201,
    "province_id": 82,
    "regency_id": 8272,
    "district_id": 827201,
    "value": "Indonesiana",
    "postal_code": "97813"
  },
  {
    "id": 827201,
    "province_id": 82,
    "regency_id": 8272,
    "district_id": 827201,
    "value": "Seli",
    "postal_code": "97813"
  },
  {
    "id": 827201,
    "province_id": 82,
    "regency_id": 8272,
    "district_id": 827201,
    "value": "Soadara",
    "postal_code": "97813"
  },
  {
    "id": 827201,
    "province_id": 82,
    "regency_id": 8272,
    "district_id": 827201,
    "value": "Soasio",
    "postal_code": "97811"
  },
  {
    "id": 827201,
    "province_id": 82,
    "regency_id": 8272,
    "district_id": 827201,
    "value": "Tambula",
    "postal_code": "97813"
  },
  {
    "id": 827201,
    "province_id": 82,
    "regency_id": 8272,
    "district_id": 827201,
    "value": "Tomagoba",
    "postal_code": "97813"
  },
  {
    "id": 827201,
    "province_id": 82,
    "regency_id": 8272,
    "district_id": 827201,
    "value": "Topo",
    "postal_code": "97813"
  },
  {
    "id": 827201,
    "province_id": 82,
    "regency_id": 8272,
    "district_id": 827201,
    "value": "Topo Tiga",
    "postal_code": "97813"
  },
  {
    "id": 827201,
    "province_id": 82,
    "regency_id": 8272,
    "district_id": 827201,
    "value": "Tuguwaji",
    "postal_code": "97813"
  }
]