[
  {
    "id": 121609,
    "province_id": 12,
    "regency_id": 1216,
    "district_id": 121609,
    "value": "Ambobi Paranginan",
    "postal_code": "22455"
  },
  {
    "id": 121609,
    "province_id": 12,
    "regency_id": 1216,
    "district_id": 121609,
    "value": "Banuarea",
    "postal_code": "22455"
  },
  {
    "id": 121609,
    "province_id": 12,
    "regency_id": 1216,
    "district_id": 121609,
    "value": "Hauagong",
    "postal_code": "22455"
  },
  {
    "id": 121609,
    "province_id": 12,
    "regency_id": 1216,
    "district_id": 121609,
    "value": "Karya",
    "postal_code": "22455"
  },
  {
    "id": 121609,
    "province_id": 12,
    "regency_id": 1216,
    "district_id": 121609,
    "value": "Lumban Tonga-Tonga",
    "postal_code": "22455"
  },
  {
    "id": 121609,
    "province_id": 12,
    "regency_id": 1216,
    "district_id": 121609,
    "value": "Manalu",
    "postal_code": "22455"
  },
  {
    "id": 121609,
    "province_id": 12,
    "regency_id": 1216,
    "district_id": 121609,
    "value": "Pakkat Hauagong",
    "postal_code": "22455"
  },
  {
    "id": 121609,
    "province_id": 12,
    "regency_id": 1216,
    "district_id": 121609,
    "value": "Panggugunan",
    "postal_code": "22455"
  },
  {
    "id": 121609,
    "province_id": 12,
    "regency_id": 1216,
    "district_id": 121609,
    "value": "Parmonangan",
    "postal_code": "22455"
  },
  {
    "id": 121609,
    "province_id": 12,
    "regency_id": 1216,
    "district_id": 121609,
    "value": "Peadungdung",
    "postal_code": "22455"
  },
  {
    "id": 121609,
    "province_id": 12,
    "regency_id": 1216,
    "district_id": 121609,
    "value": "Pulo Godang",
    "postal_code": "22455"
  },
  {
    "id": 121609,
    "province_id": 12,
    "regency_id": 1216,
    "district_id": 121609,
    "value": "Purba Baringin",
    "postal_code": "22455"
  },
  {
    "id": 121609,
    "province_id": 12,
    "regency_id": 1216,
    "district_id": 121609,
    "value": "Purba Bersatu",
    "postal_code": "22455"
  },
  {
    "id": 121609,
    "province_id": 12,
    "regency_id": 1216,
    "district_id": 121609,
    "value": "Purba Sianjur",
    "postal_code": "22455"
  },
  {
    "id": 121609,
    "province_id": 12,
    "regency_id": 1216,
    "district_id": 121609,
    "value": "Rura Aek Sopang",
    "postal_code": "22455"
  },
  {
    "id": 121609,
    "province_id": 12,
    "regency_id": 1216,
    "district_id": 121609,
    "value": "Rura Tanjung",
    "postal_code": "22455"
  },
  {
    "id": 121609,
    "province_id": 12,
    "regency_id": 1216,
    "district_id": 121609,
    "value": "Siambaton",
    "postal_code": "22455"
  },
  {
    "id": 121609,
    "province_id": 12,
    "regency_id": 1216,
    "district_id": 121609,
    "value": "Siambaton Pahae",
    "postal_code": "22455"
  },
  {
    "id": 121609,
    "province_id": 12,
    "regency_id": 1216,
    "district_id": 121609,
    "value": "Sijarango",
    "postal_code": "22455"
  },
  {
    "id": 121609,
    "province_id": 12,
    "regency_id": 1216,
    "district_id": 121609,
    "value": "Sijarango I",
    "postal_code": "22455"
  },
  {
    "id": 121609,
    "province_id": 12,
    "regency_id": 1216,
    "district_id": 121609,
    "value": "Sipagabu",
    "postal_code": "22455"
  },
  {
    "id": 121609,
    "province_id": 12,
    "regency_id": 1216,
    "district_id": 121609,
    "value": "Tukka Dolok",
    "postal_code": "22455"
  }
]