[
  {
    "id": 717108,
    "province_id": 71,
    "regency_id": 7171,
    "district_id": 717108,
    "value": "Bengkol",
    "postal_code": "95251"
  },
  {
    "id": 717108,
    "province_id": 71,
    "regency_id": 7171,
    "district_id": 717108,
    "value": "Buha",
    "postal_code": "95252"
  },
  {
    "id": 717108,
    "province_id": 71,
    "regency_id": 7171,
    "district_id": 717108,
    "value": "Kairagi Dua",
    "postal_code": "95254"
  },
  {
    "id": 717108,
    "province_id": 71,
    "regency_id": 7171,
    "district_id": 717108,
    "value": "Kairagi Satu",
    "postal_code": "95253"
  },
  {
    "id": 717108,
    "province_id": 71,
    "regency_id": 7171,
    "district_id": 717108,
    "value": "Kima Atas",
    "postal_code": "95259"
  },
  {
    "id": 717108,
    "province_id": 71,
    "regency_id": 7171,
    "district_id": 717108,
    "value": "Lapangan",
    "postal_code": "95258"
  },
  {
    "id": 717108,
    "province_id": 71,
    "regency_id": 7171,
    "district_id": 717108,
    "value": "Mapanget Barat",
    "postal_code": "95258"
  },
  {
    "id": 717108,
    "province_id": 71,
    "regency_id": 7171,
    "district_id": 717108,
    "value": "Paniki Bawah",
    "postal_code": "95256"
  },
  {
    "id": 717108,
    "province_id": 71,
    "regency_id": 7171,
    "district_id": 717108,
    "value": "Paniki Dua",
    "postal_code": "95257"
  },
  {
    "id": 717108,
    "province_id": 71,
    "regency_id": 7171,
    "district_id": 717108,
    "value": "Paniki Satu",
    "postal_code": "95259"
  }
]