[
  {
    "id": 7406032008,
    "province_id": 74,
    "regency_id": 7406,
    "district_id": 740603,
    "value": "Ladumpi",
    "postal_code": "93787"
  },
  {
    "id": 7406032011,
    "province_id": 74,
    "regency_id": 7406,
    "district_id": 740603,
    "value": "Lakomea",
    "postal_code": "93787"
  },
  {
    "id": 7406032013,
    "province_id": 74,
    "regency_id": 7406,
    "district_id": 740603,
    "value": "Lampeantani",
    "postal_code": "93787"
  },
  {
    "id": 7406032012,
    "province_id": 74,
    "regency_id": 7406,
    "district_id": 740603,
    "value": "Pangkuri",
    "postal_code": "93787"
  },
  {
    "id": 7406032009,
    "province_id": 74,
    "regency_id": 7406,
    "district_id": 740603,
    "value": "Rarowatu",
    "postal_code": "93787"
  },
  {
    "id": 7406032001,
    "province_id": 74,
    "regency_id": 7406,
    "district_id": 740603,
    "value": "Rau-Rau",
    "postal_code": "93787"
  },
  {
    "id": 7406032015,
    "province_id": 74,
    "regency_id": 7406,
    "district_id": 740603,
    "value": "Tahi ite",
    "postal_code": "93787"
  },
  {
    "id": 7406031010,
    "province_id": 74,
    "regency_id": 7406,
    "district_id": 740603,
    "value": "Taubonto",
    "postal_code": "93787"
  },
  {
    "id": 7406032014,
    "province_id": 74,
    "regency_id": 7406,
    "district_id": 740603,
    "value": "Watu Kalangkari",
    "postal_code": "93787"
  }
]