[
  {
    "id": 510704,
    "province_id": 51,
    "regency_id": 5107,
    "district_id": 510704,
    "value": "Bugbug",
    "postal_code": "80811"
  },
  {
    "id": 510704,
    "province_id": 51,
    "regency_id": 5107,
    "district_id": 510704,
    "value": "Bukit",
    "postal_code": "80811"
  },
  {
    "id": 510704,
    "province_id": 51,
    "regency_id": 5107,
    "district_id": 510704,
    "value": "Karang asem (Karangasem)",
    "postal_code": "80811"
  },
  {
    "id": 510704,
    "province_id": 51,
    "regency_id": 5107,
    "district_id": 510704,
    "value": "Padang Kerta",
    "postal_code": "80811"
  },
  {
    "id": 510704,
    "province_id": 51,
    "regency_id": 5107,
    "district_id": 510704,
    "value": "Pertima",
    "postal_code": "80811"
  },
  {
    "id": 510704,
    "province_id": 51,
    "regency_id": 5107,
    "district_id": 510704,
    "value": "Seraya (Seraya Tengah)",
    "postal_code": "80811"
  },
  {
    "id": 510704,
    "province_id": 51,
    "regency_id": 5107,
    "district_id": 510704,
    "value": "Seraya Barat",
    "postal_code": "80811"
  },
  {
    "id": 510704,
    "province_id": 51,
    "regency_id": 5107,
    "district_id": 510704,
    "value": "Seraya Timur",
    "postal_code": "80811"
  },
  {
    "id": 510704,
    "province_id": 51,
    "regency_id": 5107,
    "district_id": 510704,
    "value": "Subagan",
    "postal_code": "80813"
  },
  {
    "id": 510704,
    "province_id": 51,
    "regency_id": 5107,
    "district_id": 510704,
    "value": "Tegalinggah (Tegallinggah)",
    "postal_code": "80811"
  },
  {
    "id": 510704,
    "province_id": 51,
    "regency_id": 5107,
    "district_id": 510704,
    "value": "Tumbu",
    "postal_code": "80811"
  }
]