[
  {
    "id": 1214332007,
    "province_id": 12,
    "regency_id": 1214,
    "district_id": 121433,
    "value": "Hilialito Saua",
    "postal_code": "22869"
  },
  {
    "id": 1214332001,
    "province_id": 12,
    "regency_id": 1214,
    "district_id": 121433,
    "value": "Hilifalago",
    "postal_code": "22869"
  },
  {
    "id": 1214332009,
    "province_id": 12,
    "regency_id": 1214,
    "district_id": 121433,
    "value": "Hilifalago Raya",
    "postal_code": "22869"
  },
  {
    "id": 1214332004,
    "province_id": 12,
    "regency_id": 1214,
    "district_id": 121433,
    "value": "Hilifarono",
    "postal_code": "22869"
  },
  {
    "id": 1214332006,
    "province_id": 12,
    "regency_id": 1214,
    "district_id": 121433,
    "value": "Hilikara",
    "postal_code": "22869"
  },
  {
    "id": 1214332002,
    "province_id": 12,
    "regency_id": 1214,
    "district_id": 121433,
    "value": "Hilimondregeraya",
    "postal_code": "22869"
  },
  {
    "id": 1214332003,
    "province_id": 12,
    "regency_id": 1214,
    "district_id": 121433,
    "value": "Hilinamozaua",
    "postal_code": "22869"
  },
  {
    "id": 1214332008,
    "province_id": 12,
    "regency_id": 1214,
    "district_id": 121433,
    "value": "Hilinamozaua Raya",
    "postal_code": "22869"
  },
  {
    "id": 1214332005,
    "province_id": 12,
    "regency_id": 1214,
    "district_id": 121433,
    "value": "Hilionaha",
    "postal_code": "22869"
  },
  {
    "id": 1214332010,
    "province_id": 12,
    "regency_id": 1214,
    "district_id": 121433,
    "value": "Hilisanekhehosi",
    "postal_code": "22869"
  }
]