[
  {
    "id": 741505,
    "province_id": 74,
    "regency_id": 7415,
    "district_id": 741505,
    "value": "Kamoali",
    "postal_code": "93744"
  },
  {
    "id": 741505,
    "province_id": 74,
    "regency_id": 7415,
    "district_id": 741505,
    "value": "Katampe",
    "postal_code": "93744"
  },
  {
    "id": 741505,
    "province_id": 74,
    "regency_id": 7415,
    "district_id": 741505,
    "value": "Lalole",
    "postal_code": "93744"
  },
  {
    "id": 741505,
    "province_id": 74,
    "regency_id": 7415,
    "district_id": 741505,
    "value": "Lamaninggara",
    "postal_code": "93744"
  },
  {
    "id": 741505,
    "province_id": 74,
    "regency_id": 7415,
    "district_id": 741505,
    "value": "Mbanua",
    "postal_code": "93744"
  },
  {
    "id": 741505,
    "province_id": 74,
    "regency_id": 7415,
    "district_id": 741505,
    "value": "Mokobeau",
    "postal_code": "93744"
  },
  {
    "id": 741505,
    "province_id": 74,
    "regency_id": 7415,
    "district_id": 741505,
    "value": "Molona",
    "postal_code": "93744"
  },
  {
    "id": 741505,
    "province_id": 74,
    "regency_id": 7415,
    "district_id": 741505,
    "value": "Watuampara",
    "postal_code": "93744"
  }
]