[
  {
    "id": 910305,
    "province_id": 91,
    "regency_id": 9103,
    "district_id": 910305,
    "value": "Aib",
    "postal_code": "99366"
  },
  {
    "id": 910305,
    "province_id": 91,
    "regency_id": 9103,
    "district_id": 910305,
    "value": "Benggwin Progo (Bengguin Progo)",
    "postal_code": "99366"
  },
  {
    "id": 910305,
    "province_id": 91,
    "regency_id": 9103,
    "district_id": 910305,
    "value": "Kwansu",
    "postal_code": "99366"
  },
  {
    "id": 910305,
    "province_id": 91,
    "regency_id": 9103,
    "district_id": 910305,
    "value": "Mamda",
    "postal_code": "99366"
  },
  {
    "id": 910305,
    "province_id": 91,
    "regency_id": 9103,
    "district_id": 910305,
    "value": "Mamei (Namei)",
    "postal_code": "99366"
  },
  {
    "id": 910305,
    "province_id": 91,
    "regency_id": 9103,
    "district_id": 910305,
    "value": "Manda Yawan (Mandayawan)",
    "postal_code": "99366"
  },
  {
    "id": 910305,
    "province_id": 91,
    "regency_id": 9103,
    "district_id": 910305,
    "value": "Nambom (Nambon)",
    "postal_code": "99366"
  },
  {
    "id": 910305,
    "province_id": 91,
    "regency_id": 9103,
    "district_id": 910305,
    "value": "Sabeab Kecil",
    "postal_code": "99366"
  },
  {
    "id": 910305,
    "province_id": 91,
    "regency_id": 9103,
    "district_id": 910305,
    "value": "Sama",
    "postal_code": "99366"
  },
  {
    "id": 910305,
    "province_id": 91,
    "regency_id": 9103,
    "district_id": 910305,
    "value": "Sekori",
    "postal_code": "99366"
  },
  {
    "id": 910305,
    "province_id": 91,
    "regency_id": 9103,
    "district_id": 910305,
    "value": "Skoaim",
    "postal_code": "99366"
  },
  {
    "id": 910305,
    "province_id": 91,
    "regency_id": 9103,
    "district_id": 910305,
    "value": "Soaib",
    "postal_code": "99366"
  }
]