[
  {
    "id": 1214112003,
    "province_id": 12,
    "regency_id": 1214,
    "district_id": 121411,
    "value": "Bawosalo'o Dao-dao",
    "postal_code": "22864"
  },
  {
    "id": 1214112008,
    "province_id": 12,
    "regency_id": 1214,
    "district_id": 121411,
    "value": "Dao-dao Sowo",
    "postal_code": "22864"
  },
  {
    "id": 1214112009,
    "province_id": 12,
    "regency_id": 1214,
    "district_id": 121411,
    "value": "Hiliadulo",
    "postal_code": "22864"
  },
  {
    "id": 1214112007,
    "province_id": 12,
    "regency_id": 1214,
    "district_id": 121411,
    "value": "Hilitoese",
    "postal_code": "22864"
  },
  {
    "id": 1214112002,
    "province_id": 12,
    "regency_id": 1214,
    "district_id": 121411,
    "value": "Soledua",
    "postal_code": "22864"
  },
  {
    "id": 1214112010,
    "province_id": 12,
    "regency_id": 1214,
    "district_id": 121411,
    "value": "Soledua I (Soledua Satu)",
    "postal_code": "22864"
  },
  {
    "id": 1214112011,
    "province_id": 12,
    "regency_id": 1214,
    "district_id": 121411,
    "value": "Soledua II (Soledua Dua)",
    "postal_code": "22864"
  },
  {
    "id": 1214112001,
    "province_id": 12,
    "regency_id": 1214,
    "district_id": 121411,
    "value": "Togizita",
    "postal_code": "22864"
  },
  {
    "id": 1214112005,
    "province_id": 12,
    "regency_id": 1214,
    "district_id": 121411,
    "value": "Togizita I (Togozita Satu)",
    "postal_code": "22864"
  },
  {
    "id": 1214112004,
    "province_id": 12,
    "regency_id": 1214,
    "district_id": 121411,
    "value": "Tuho'owo (Tuho Owo)",
    "postal_code": "22864"
  }
]