[
  {
    "id": 8105102004,
    "province_id": 81,
    "regency_id": 8105,
    "district_id": 810510,
    "value": "Duryar Rumoy",
    "postal_code": "97597"
  },
  {
    "id": 8105102007,
    "province_id": 81,
    "regency_id": 8105,
    "district_id": 810510,
    "value": "Kampung Baru",
    "postal_code": "97597"
  },
  {
    "id": 8105102006,
    "province_id": 81,
    "regency_id": 8105,
    "district_id": 810510,
    "value": "Kampung Tengah Wermaf",
    "postal_code": "97597"
  },
  {
    "id": 8105102010,
    "province_id": 81,
    "regency_id": 8105,
    "district_id": 810510,
    "value": "Karlokin",
    "postal_code": "97597"
  },
  {
    "id": 8105102002,
    "province_id": 81,
    "regency_id": 8105,
    "district_id": 810510,
    "value": "Kartutin Kartenga",
    "postal_code": "97597"
  },
  {
    "id": 8105102003,
    "province_id": 81,
    "regency_id": 8105,
    "district_id": 810510,
    "value": "Ker Ker",
    "postal_code": "97597"
  },
  {
    "id": 8105102009,
    "province_id": 81,
    "regency_id": 8105,
    "district_id": 810510,
    "value": "Kiliwouw",
    "postal_code": "97597"
  },
  {
    "id": 8105102005,
    "province_id": 81,
    "regency_id": 8105,
    "district_id": 810510,
    "value": "Lapang Kampung Jawa",
    "postal_code": "97597"
  },
  {
    "id": 8105102008,
    "province_id": 81,
    "regency_id": 8105,
    "district_id": 810510,
    "value": "Mamur",
    "postal_code": "97597"
  },
  {
    "id": 8105102001,
    "province_id": 81,
    "regency_id": 8105,
    "district_id": 810510,
    "value": "Teor",
    "postal_code": "97597"
  }
]