[
  {
    "id": 3209082008,
    "province_id": 32,
    "regency_id": 3209,
    "district_id": 320908,
    "value": "Ciawiasih",
    "postal_code": "45185"
  },
  {
    "id": 3209082009,
    "province_id": 32,
    "regency_id": 3209,
    "district_id": 320908,
    "value": "Ciawijapura",
    "postal_code": "45185"
  },
  {
    "id": 3209082010,
    "province_id": 32,
    "regency_id": 3209,
    "district_id": 320908,
    "value": "Curug",
    "postal_code": "45185"
  },
  {
    "id": 3209082011,
    "province_id": 32,
    "regency_id": 3209,
    "district_id": 320908,
    "value": "Curug Wetan",
    "postal_code": "45185"
  },
  {
    "id": 3209082013,
    "province_id": 32,
    "regency_id": 3209,
    "district_id": 320908,
    "value": "Kaligawe",
    "postal_code": "45185"
  },
  {
    "id": 3209082012,
    "province_id": 32,
    "regency_id": 3209,
    "district_id": 320908,
    "value": "Kaligawe Wetan",
    "postal_code": "45185"
  },
  {
    "id": 3209082001,
    "province_id": 32,
    "regency_id": 3209,
    "district_id": 320908,
    "value": "Karangamangu (Karangmanggu)",
    "postal_code": "45185"
  },
  {
    "id": 3209082007,
    "province_id": 32,
    "regency_id": 3209,
    "district_id": 320908,
    "value": "Pasawahan",
    "postal_code": "45185"
  },
  {
    "id": 3209082006,
    "province_id": 32,
    "regency_id": 3209,
    "district_id": 320908,
    "value": "Sampih",
    "postal_code": "45185"
  },
  {
    "id": 3209082003,
    "province_id": 32,
    "regency_id": 3209,
    "district_id": 320908,
    "value": "Susukan Agung",
    "postal_code": "45185"
  },
  {
    "id": 3209082002,
    "province_id": 32,
    "regency_id": 3209,
    "district_id": 320908,
    "value": "Susukan Lebak",
    "postal_code": "45185"
  },
  {
    "id": 3209082004,
    "province_id": 32,
    "regency_id": 3209,
    "district_id": 320908,
    "value": "Susukan Tonggoh",
    "postal_code": "45185"
  },
  {
    "id": 3209082005,
    "province_id": 32,
    "regency_id": 3209,
    "district_id": 320908,
    "value": "Wilulang",
    "postal_code": "45185"
  }
]