[
  {
    "id": 1409122009,
    "province_id": 14,
    "regency_id": 1409,
    "district_id": 140912,
    "value": "Inuman",
    "postal_code": "29568"
  },
  {
    "id": 1409122006,
    "province_id": 14,
    "regency_id": 1409,
    "district_id": 140912,
    "value": "Koto Kombu",
    "postal_code": "29568"
  },
  {
    "id": 1409122001,
    "province_id": 14,
    "regency_id": 1409,
    "district_id": 140912,
    "value": "Lubuk Ambacang",
    "postal_code": "29568"
  },
  {
    "id": 1409122008,
    "province_id": 14,
    "regency_id": 1409,
    "district_id": 140912,
    "value": "Mudik Ulo",
    "postal_code": "29568"
  },
  {
    "id": 1409122012,
    "province_id": 14,
    "regency_id": 1409,
    "district_id": 140912,
    "value": "Sampurago",
    "postal_code": "29568"
  },
  {
    "id": 1409122011,
    "province_id": 14,
    "regency_id": 1409,
    "district_id": 140912,
    "value": "Serosa (Serosah / Serusa)",
    "postal_code": "29568"
  },
  {
    "id": 1409122007,
    "province_id": 14,
    "regency_id": 1409,
    "district_id": 140912,
    "value": "Sumpu",
    "postal_code": "29568"
  },
  {
    "id": 1409122005,
    "province_id": 14,
    "regency_id": 1409,
    "district_id": 140912,
    "value": "Sungaialah (Sungai Alah)",
    "postal_code": "29568"
  },
  {
    "id": 1409122002,
    "province_id": 14,
    "regency_id": 1409,
    "district_id": 140912,
    "value": "Sungaikelelawar (Sungai Kalilawar / Kelelawar)",
    "postal_code": "29568"
  },
  {
    "id": 1409122004,
    "province_id": 14,
    "regency_id": 1409,
    "district_id": 140912,
    "value": "Sungaipinang (Sungai Pinang)",
    "postal_code": "29568"
  },
  {
    "id": 1409122003,
    "province_id": 14,
    "regency_id": 1409,
    "district_id": 140912,
    "value": "Tanjung",
    "postal_code": "29568"
  },
  {
    "id": 1409122010,
    "province_id": 14,
    "regency_id": 1409,
    "district_id": 140912,
    "value": "Tanjungmedang (Tanjung Medang)",
    "postal_code": "29568"
  }
]