[
  {
    "id": 510105,
    "province_id": 51,
    "regency_id": 5101,
    "district_id": 510105,
    "value": "Air Kuning",
    "postal_code": "82218"
  },
  {
    "id": 510105,
    "province_id": 51,
    "regency_id": 5101,
    "district_id": 510105,
    "value": "Batu Agung (Batuagung)",
    "postal_code": "82218"
  },
  {
    "id": 510105,
    "province_id": 51,
    "regency_id": 5101,
    "district_id": 510105,
    "value": "Budeng",
    "postal_code": "82218"
  },
  {
    "id": 510105,
    "province_id": 51,
    "regency_id": 5101,
    "district_id": 510105,
    "value": "Dangin Tukadaya",
    "postal_code": "82218"
  },
  {
    "id": 510105,
    "province_id": 51,
    "regency_id": 5101,
    "district_id": 510105,
    "value": "Dauhwaru",
    "postal_code": "82218"
  },
  {
    "id": 510105,
    "province_id": 51,
    "regency_id": 5101,
    "district_id": 510105,
    "value": "Loloan Timur",
    "postal_code": "82216"
  },
  {
    "id": 510105,
    "province_id": 51,
    "regency_id": 5101,
    "district_id": 510105,
    "value": "Pendem",
    "postal_code": "82211"
  },
  {
    "id": 510105,
    "province_id": 51,
    "regency_id": 5101,
    "district_id": 510105,
    "value": "Perancak",
    "postal_code": "82218"
  },
  {
    "id": 510105,
    "province_id": 51,
    "regency_id": 5101,
    "district_id": 510105,
    "value": "Sangkaragung",
    "postal_code": "82218"
  },
  {
    "id": 510105,
    "province_id": 51,
    "regency_id": 5101,
    "district_id": 510105,
    "value": "Yehkuning (Yeh Kuning)",
    "postal_code": "82218"
  }
]