[
  {
    "id": 3202302009,
    "province_id": 32,
    "regency_id": 3202,
    "district_id": 320230,
    "value": "Cikahuripan",
    "postal_code": "43153"
  },
  {
    "id": 3202302007,
    "province_id": 32,
    "regency_id": 3202,
    "district_id": 320230,
    "value": "Cipetir",
    "postal_code": "43153"
  },
  {
    "id": 3202302002,
    "province_id": 32,
    "regency_id": 3202,
    "district_id": 320230,
    "value": "Citamiang",
    "postal_code": "43153"
  },
  {
    "id": 3202302004,
    "province_id": 32,
    "regency_id": 3202,
    "district_id": 320230,
    "value": "Gedepangrango (Gede Pangrango)",
    "postal_code": "43153"
  },
  {
    "id": 3202302001,
    "province_id": 32,
    "regency_id": 3202,
    "district_id": 320230,
    "value": "Kadudampit",
    "postal_code": "43153"
  },
  {
    "id": 3202302003,
    "province_id": 32,
    "regency_id": 3202,
    "district_id": 320230,
    "value": "Muaradua",
    "postal_code": "43153"
  },
  {
    "id": 3202302008,
    "province_id": 32,
    "regency_id": 3202,
    "district_id": 320230,
    "value": "Sukamaju",
    "postal_code": "43153"
  },
  {
    "id": 3202302005,
    "province_id": 32,
    "regency_id": 3202,
    "district_id": 320230,
    "value": "Sukamanis",
    "postal_code": "43153"
  },
  {
    "id": 3202302006,
    "province_id": 32,
    "regency_id": 3202,
    "district_id": 320230,
    "value": "Undrusbinangun (Undrus Binangun)",
    "postal_code": "43153"
  }
]