[
  {
    "id": 530814,
    "province_id": 53,
    "regency_id": 5308,
    "district_id": 530814,
    "value": "Detuena",
    "postal_code": "86318"
  },
  {
    "id": 530814,
    "province_id": 53,
    "regency_id": 5308,
    "district_id": 530814,
    "value": "Koanara",
    "postal_code": "86318"
  },
  {
    "id": 530814,
    "province_id": 53,
    "regency_id": 5308,
    "district_id": 530814,
    "value": "Nduaria",
    "postal_code": "86318"
  },
  {
    "id": 530814,
    "province_id": 53,
    "regency_id": 5308,
    "district_id": 530814,
    "value": "Nuamuri",
    "postal_code": "86318"
  },
  {
    "id": 530814,
    "province_id": 53,
    "regency_id": 5308,
    "district_id": 530814,
    "value": "Nuamuri Barat",
    "postal_code": "86318"
  },
  {
    "id": 530814,
    "province_id": 53,
    "regency_id": 5308,
    "district_id": 530814,
    "value": "Pemo",
    "postal_code": "86318"
  },
  {
    "id": 530814,
    "province_id": 53,
    "regency_id": 5308,
    "district_id": 530814,
    "value": "Waturaka",
    "postal_code": "86318"
  },
  {
    "id": 530814,
    "province_id": 53,
    "regency_id": 5308,
    "district_id": 530814,
    "value": "Woloara",
    "postal_code": "86318"
  },
  {
    "id": 530814,
    "province_id": 53,
    "regency_id": 5308,
    "district_id": 530814,
    "value": "Wolokelo",
    "postal_code": "86318"
  }
]