[
  {
    "id": 110825,
    "province_id": 11,
    "regency_id": 1108,
    "district_id": 110825,
    "value": "Alue Awe",
    "postal_code": "24373"
  },
  {
    "id": 110825,
    "province_id": 11,
    "regency_id": 1108,
    "district_id": 110825,
    "value": "Darul Aman",
    "postal_code": "24373"
  },
  {
    "id": 110825,
    "province_id": 11,
    "regency_id": 1108,
    "district_id": 110825,
    "value": "Darussalam",
    "postal_code": "24373"
  },
  {
    "id": 110825,
    "province_id": 11,
    "regency_id": 1108,
    "district_id": 110825,
    "value": "Dayah Seupeng",
    "postal_code": "24373"
  },
  {
    "id": 110825,
    "province_id": 11,
    "regency_id": 1108,
    "district_id": 110825,
    "value": "Krueng Mbang",
    "postal_code": "24373"
  },
  {
    "id": 110825,
    "province_id": 11,
    "regency_id": 1108,
    "district_id": 110825,
    "value": "Lhok Asan",
    "postal_code": "24373"
  },
  {
    "id": 110825,
    "province_id": 11,
    "regency_id": 1108,
    "district_id": 110825,
    "value": "Peudari",
    "postal_code": "24373"
  },
  {
    "id": 110825,
    "province_id": 11,
    "regency_id": 1108,
    "district_id": 110825,
    "value": "Pulo Meuria",
    "postal_code": "24373"
  },
  {
    "id": 110825,
    "province_id": 11,
    "regency_id": 1108,
    "district_id": 110825,
    "value": "Rayeuk Jawa",
    "postal_code": "24373"
  },
  {
    "id": 110825,
    "province_id": 11,
    "regency_id": 1108,
    "district_id": 110825,
    "value": "Suka Damai (Sukadamai)",
    "postal_code": "24373"
  },
  {
    "id": 110825,
    "province_id": 11,
    "regency_id": 1108,
    "district_id": 110825,
    "value": "Uram Jalan",
    "postal_code": "24373"
  }
]