[
  {
    "id": 1506112002,
    "province_id": 15,
    "regency_id": 1506,
    "district_id": 150611,
    "value": "Bram Itam Kanan (Bram Itan Kanan / Beram Itam)",
    "postal_code": "36514"
  },
  {
    "id": 1506111001,
    "province_id": 15,
    "regency_id": 1506,
    "district_id": 150611,
    "value": "Bram Itam Kiri (Bram Itan Kiri / Beram Itam)",
    "postal_code": "36514"
  },
  {
    "id": 1506112005,
    "province_id": 15,
    "regency_id": 1506,
    "district_id": 150611,
    "value": "Bram Itam Raya",
    "postal_code": "36514"
  },
  {
    "id": 1506112007,
    "province_id": 15,
    "regency_id": 1506,
    "district_id": 150611,
    "value": "Jati Emas",
    "postal_code": "36514"
  },
  {
    "id": 1506112008,
    "province_id": 15,
    "regency_id": 1506,
    "district_id": 150611,
    "value": "Kemuning",
    "postal_code": "36514"
  },
  {
    "id": 1506112009,
    "province_id": 15,
    "regency_id": 1506,
    "district_id": 150611,
    "value": "Mekar Tanjung",
    "postal_code": "36514"
  },
  {
    "id": 1506112006,
    "province_id": 15,
    "regency_id": 1506,
    "district_id": 150611,
    "value": "Pantaigading (Pantai Gading)",
    "postal_code": "36514"
  },
  {
    "id": 1506112004,
    "province_id": 15,
    "regency_id": 1506,
    "district_id": 150611,
    "value": "Pembengis",
    "postal_code": "36514"
  },
  {
    "id": 1506112010,
    "province_id": 15,
    "regency_id": 1506,
    "district_id": 150611,
    "value": "Semau",
    "postal_code": "36514"
  },
  {
    "id": 1506112003,
    "province_id": 15,
    "regency_id": 1506,
    "district_id": 150611,
    "value": "Tanjungsenjulang (Tanjung Senjulang)",
    "postal_code": "36514"
  }
]