[
  {
    "id": 3508162011,
    "province_id": 35,
    "regency_id": 3508,
    "district_id": 350816,
    "value": "Bandaran",
    "postal_code": "67358"
  },
  {
    "id": 3508162008,
    "province_id": 35,
    "regency_id": 3508,
    "district_id": 350816,
    "value": "Bence",
    "postal_code": "67358"
  },
  {
    "id": 3508162006,
    "province_id": 35,
    "regency_id": 3508,
    "district_id": 350816,
    "value": "Curahpetung",
    "postal_code": "67358"
  },
  {
    "id": 3508162007,
    "province_id": 35,
    "regency_id": 3508,
    "district_id": 350816,
    "value": "Grobogan",
    "postal_code": "67358"
  },
  {
    "id": 3508162009,
    "province_id": 35,
    "regency_id": 3508,
    "district_id": 350816,
    "value": "Jatisari",
    "postal_code": "67358"
  },
  {
    "id": 3508162003,
    "province_id": 35,
    "regency_id": 3508,
    "district_id": 350816,
    "value": "Kedungjajang",
    "postal_code": "67358"
  },
  {
    "id": 3508162002,
    "province_id": 35,
    "regency_id": 3508,
    "district_id": 350816,
    "value": "Krasak",
    "postal_code": "67358"
  },
  {
    "id": 3508162001,
    "province_id": 35,
    "regency_id": 3508,
    "district_id": 350816,
    "value": "Pandansari",
    "postal_code": "67358"
  },
  {
    "id": 3508162012,
    "province_id": 35,
    "regency_id": 3508,
    "district_id": 350816,
    "value": "Sawaran Kulon",
    "postal_code": "67358"
  },
  {
    "id": 3508162010,
    "province_id": 35,
    "regency_id": 3508,
    "district_id": 350816,
    "value": "Tempursari",
    "postal_code": "67358"
  },
  {
    "id": 3508162005,
    "province_id": 35,
    "regency_id": 3508,
    "district_id": 350816,
    "value": "Umbul",
    "postal_code": "67358"
  },
  {
    "id": 3508162004,
    "province_id": 35,
    "regency_id": 3508,
    "district_id": 350816,
    "value": "Wonorejo",
    "postal_code": "67358"
  }
]