[
  {
    "id": 120109,
    "province_id": 12,
    "regency_id": 1201,
    "district_id": 120109,
    "value": "Barambang",
    "postal_code": "22568"
  },
  {
    "id": 120109,
    "province_id": 12,
    "regency_id": 1201,
    "district_id": 120109,
    "value": "Baringin",
    "postal_code": "22568"
  },
  {
    "id": 120109,
    "province_id": 12,
    "regency_id": 1201,
    "district_id": 120109,
    "value": "Huta Tombak",
    "postal_code": "22568"
  },
  {
    "id": 120109,
    "province_id": 12,
    "regency_id": 1201,
    "district_id": 120109,
    "value": "Muara Bolak",
    "postal_code": "22568"
  },
  {
    "id": 120109,
    "province_id": 12,
    "regency_id": 1201,
    "district_id": 120109,
    "value": "Siantar Ca",
    "postal_code": "22568"
  },
  {
    "id": 120109,
    "province_id": 12,
    "regency_id": 1201,
    "district_id": 120109,
    "value": "Siantar Dolok",
    "postal_code": "22568"
  },
  {
    "id": 120109,
    "province_id": 12,
    "regency_id": 1201,
    "district_id": 120109,
    "value": "Sibintang",
    "postal_code": "22568"
  },
  {
    "id": 120109,
    "province_id": 12,
    "regency_id": 1201,
    "district_id": 120109,
    "value": "Sosor Gadong",
    "postal_code": "22568"
  },
  {
    "id": 120109,
    "province_id": 12,
    "regency_id": 1201,
    "district_id": 120109,
    "value": "Unte Boang",
    "postal_code": "22568"
  }
]