[
  {
    "id": 3529272006,
    "province_id": 35,
    "regency_id": 3529,
    "district_id": 352927,
    "value": "Batuputih",
    "postal_code": "69490"
  },
  {
    "id": 3529272004,
    "province_id": 35,
    "regency_id": 3529,
    "district_id": 352927,
    "value": "Cangkramaan (Cangkreman)",
    "postal_code": "69490"
  },
  {
    "id": 3529272007,
    "province_id": 35,
    "regency_id": 3529,
    "district_id": 352927,
    "value": "Daandung",
    "postal_code": "69490"
  },
  {
    "id": 3529272009,
    "province_id": 35,
    "regency_id": 3529,
    "district_id": 352927,
    "value": "Jukong Jukong",
    "postal_code": "69490"
  },
  {
    "id": 3529272002,
    "province_id": 35,
    "regency_id": 3529,
    "district_id": 352927,
    "value": "Kangayan",
    "postal_code": "69490"
  },
  {
    "id": 3529272001,
    "province_id": 35,
    "regency_id": 3529,
    "district_id": 352927,
    "value": "Saobi",
    "postal_code": "69490"
  },
  {
    "id": 3529272005,
    "province_id": 35,
    "regency_id": 3529,
    "district_id": 352927,
    "value": "Tembayangan",
    "postal_code": "69490"
  },
  {
    "id": 3529272008,
    "province_id": 35,
    "regency_id": 3529,
    "district_id": 352927,
    "value": "Timur Jang-Jang (Timur Janjang)",
    "postal_code": "69490"
  },
  {
    "id": 3529272003,
    "province_id": 35,
    "regency_id": 3529,
    "district_id": 352927,
    "value": "Toerjek (Torjek)",
    "postal_code": "69490"
  }
]