[
  {
    "id": 5308182005,
    "province_id": 53,
    "regency_id": 5308,
    "district_id": 530818,
    "value": "Borokanda",
    "postal_code": "86310"
  },
  {
    "id": 5308182009,
    "province_id": 53,
    "regency_id": 5308,
    "district_id": 530818,
    "value": "Embundoa",
    "postal_code": "86310"
  },
  {
    "id": 5308182004,
    "province_id": 53,
    "regency_id": 5308,
    "district_id": 530818,
    "value": "Gheoghoma",
    "postal_code": "86310"
  },
  {
    "id": 5308181001,
    "province_id": 53,
    "regency_id": 5308,
    "district_id": 530818,
    "value": "Kota Raja",
    "postal_code": "86310"
  },
  {
    "id": 5308181002,
    "province_id": 53,
    "regency_id": 5308,
    "district_id": 530818,
    "value": "Kota Ratu",
    "postal_code": "86310"
  },
  {
    "id": 5308182008,
    "province_id": 53,
    "regency_id": 5308,
    "district_id": 530818,
    "value": "Mbomba",
    "postal_code": "86310"
  },
  {
    "id": 5308182010,
    "province_id": 53,
    "regency_id": 5308,
    "district_id": 530818,
    "value": "Raterua (Rateru)",
    "postal_code": "86310"
  },
  {
    "id": 5308181003,
    "province_id": 53,
    "regency_id": 5308,
    "district_id": 530818,
    "value": "Roworena",
    "postal_code": "86310"
  },
  {
    "id": 5308181007,
    "province_id": 53,
    "regency_id": 5308,
    "district_id": 530818,
    "value": "Roworena Barat",
    "postal_code": "86310"
  },
  {
    "id": 5308182006,
    "province_id": 53,
    "regency_id": 5308,
    "district_id": 530818,
    "value": "Watusipi",
    "postal_code": "86310"
  }
]