[
  {
    "id": 731008,
    "province_id": 73,
    "regency_id": 7310,
    "district_id": 731008,
    "value": "Alesipitto",
    "postal_code": "90654"
  },
  {
    "id": 731008,
    "province_id": 73,
    "regency_id": 7310,
    "district_id": 731008,
    "value": "Attang Salo",
    "postal_code": "90654"
  },
  {
    "id": 731008,
    "province_id": 73,
    "regency_id": 7310,
    "district_id": 731008,
    "value": "Bonto-Bonto",
    "postal_code": "90654"
  },
  {
    "id": 731008,
    "province_id": 73,
    "regency_id": 7310,
    "district_id": 731008,
    "value": "Marang (Ma Rang)",
    "postal_code": "90654"
  },
  {
    "id": 731008,
    "province_id": 73,
    "regency_id": 7310,
    "district_id": 731008,
    "value": "Padang Lampe",
    "postal_code": "90654"
  },
  {
    "id": 731008,
    "province_id": 73,
    "regency_id": 7310,
    "district_id": 731008,
    "value": "Pitue",
    "postal_code": "90654"
  },
  {
    "id": 731008,
    "province_id": 73,
    "regency_id": 7310,
    "district_id": 731008,
    "value": "Pitusunggu (Pitu Sunggu)",
    "postal_code": "90654"
  },
  {
    "id": 731008,
    "province_id": 73,
    "regency_id": 7310,
    "district_id": 731008,
    "value": "Punranga",
    "postal_code": "90654"
  },
  {
    "id": 731008,
    "province_id": 73,
    "regency_id": 7310,
    "district_id": 731008,
    "value": "Talaka",
    "postal_code": "90654"
  },
  {
    "id": 731008,
    "province_id": 73,
    "regency_id": 7310,
    "district_id": 731008,
    "value": "Tamangapa",
    "postal_code": "90654"
  }
]