[
  {
    "id": 730817,
    "province_id": 73,
    "regency_id": 7308,
    "district_id": 730817,
    "value": "Ajjalireng",
    "postal_code": "92752"
  },
  {
    "id": 730817,
    "province_id": 73,
    "regency_id": 7308,
    "district_id": 730817,
    "value": "Itterung",
    "postal_code": "92752"
  },
  {
    "id": 730817,
    "province_id": 73,
    "regency_id": 7308,
    "district_id": 730817,
    "value": "Lamuru",
    "postal_code": "92752"
  },
  {
    "id": 730817,
    "province_id": 73,
    "regency_id": 7308,
    "district_id": 730817,
    "value": "Lanca",
    "postal_code": "92752"
  },
  {
    "id": 730817,
    "province_id": 73,
    "regency_id": 7308,
    "district_id": 730817,
    "value": "Lappae",
    "postal_code": "92752"
  },
  {
    "id": 730817,
    "province_id": 73,
    "regency_id": 7308,
    "district_id": 730817,
    "value": "Lea",
    "postal_code": "92752"
  },
  {
    "id": 730817,
    "province_id": 73,
    "regency_id": 7308,
    "district_id": 730817,
    "value": "Mattoanging",
    "postal_code": "92752"
  },
  {
    "id": 730817,
    "province_id": 73,
    "regency_id": 7308,
    "district_id": 730817,
    "value": "Otting",
    "postal_code": "92752"
  },
  {
    "id": 730817,
    "province_id": 73,
    "regency_id": 7308,
    "district_id": 730817,
    "value": "Padaidi",
    "postal_code": "92752"
  },
  {
    "id": 730817,
    "province_id": 73,
    "regency_id": 7308,
    "district_id": 730817,
    "value": "Palongki",
    "postal_code": "92752"
  },
  {
    "id": 730817,
    "province_id": 73,
    "regency_id": 7308,
    "district_id": 730817,
    "value": "Patangnga",
    "postal_code": "92752"
  },
  {
    "id": 730817,
    "province_id": 73,
    "regency_id": 7308,
    "district_id": 730817,
    "value": "Pongka",
    "postal_code": "92752"
  },
  {
    "id": 730817,
    "province_id": 73,
    "regency_id": 7308,
    "district_id": 730817,
    "value": "Sijelling",
    "postal_code": "92752"
  },
  {
    "id": 730817,
    "province_id": 73,
    "regency_id": 7308,
    "district_id": 730817,
    "value": "Tajong",
    "postal_code": "92752"
  },
  {
    "id": 730817,
    "province_id": 73,
    "regency_id": 7308,
    "district_id": 730817,
    "value": "Tokaseng",
    "postal_code": "92752"
  },
  {
    "id": 730817,
    "province_id": 73,
    "regency_id": 7308,
    "district_id": 730817,
    "value": "Ulo",
    "postal_code": "92752"
  },
  {
    "id": 730817,
    "province_id": 73,
    "regency_id": 7308,
    "district_id": 730817,
    "value": "Waji",
    "postal_code": "92752"
  }
]