[
  {
    "id": 3522142014,
    "province_id": 35,
    "regency_id": 3522,
    "district_id": 352214,
    "value": "Bakalan",
    "postal_code": "62181"
  },
  {
    "id": 3522142005,
    "province_id": 35,
    "regency_id": 3522,
    "district_id": 352214,
    "value": "Bangilan",
    "postal_code": "62181"
  },
  {
    "id": 3522142002,
    "province_id": 35,
    "regency_id": 3522,
    "district_id": 352214,
    "value": "Bendo",
    "postal_code": "62181"
  },
  {
    "id": 3522142013,
    "province_id": 35,
    "regency_id": 3522,
    "district_id": 352214,
    "value": "Bogo",
    "postal_code": "62181"
  },
  {
    "id": 3522142017,
    "province_id": 35,
    "regency_id": 3522,
    "district_id": 352214,
    "value": "Kalianyar",
    "postal_code": "62181"
  },
  {
    "id": 3522142011,
    "province_id": 35,
    "regency_id": 3522,
    "district_id": 352214,
    "value": "Kapas",
    "postal_code": "62181"
  },
  {
    "id": 3522142010,
    "province_id": 35,
    "regency_id": 3522,
    "district_id": 352214,
    "value": "Kedaton",
    "postal_code": "62181"
  },
  {
    "id": 3522142021,
    "province_id": 35,
    "regency_id": 3522,
    "district_id": 352214,
    "value": "Klampok",
    "postal_code": "62181"
  },
  {
    "id": 3522142001,
    "province_id": 35,
    "regency_id": 3522,
    "district_id": 352214,
    "value": "Kumpulrejo (Kumpul Rejo)",
    "postal_code": "62181"
  },
  {
    "id": 3522142015,
    "province_id": 35,
    "regency_id": 3522,
    "district_id": 352214,
    "value": "Mojodeso",
    "postal_code": "62181"
  },
  {
    "id": 3522142019,
    "province_id": 35,
    "regency_id": 3522,
    "district_id": 352214,
    "value": "Ngampel",
    "postal_code": "62181"
  },
  {
    "id": 3522142003,
    "province_id": 35,
    "regency_id": 3522,
    "district_id": 352214,
    "value": "Padangmentoyo (Padang Mentoyo)",
    "postal_code": "62181"
  },
  {
    "id": 3522142009,
    "province_id": 35,
    "regency_id": 3522,
    "district_id": 352214,
    "value": "Plesungan",
    "postal_code": "62181"
  },
  {
    "id": 3522142020,
    "province_id": 35,
    "regency_id": 3522,
    "district_id": 352214,
    "value": "Sambiroto",
    "postal_code": "62181"
  },
  {
    "id": 3522142006,
    "province_id": 35,
    "regency_id": 3522,
    "district_id": 352214,
    "value": "Sembung",
    "postal_code": "62181"
  },
  {
    "id": 3522142012,
    "province_id": 35,
    "regency_id": 3522,
    "district_id": 352214,
    "value": "Semenpinggir (Semen Pinggir)",
    "postal_code": "62181"
  },
  {
    "id": 3522142016,
    "province_id": 35,
    "regency_id": 3522,
    "district_id": 352214,
    "value": "Sukowati",
    "postal_code": "62181"
  },
  {
    "id": 3522142007,
    "province_id": 35,
    "regency_id": 3522,
    "district_id": 352214,
    "value": "Tanjungharjo (Tanjung Harjo)",
    "postal_code": "62181"
  },
  {
    "id": 3522142004,
    "province_id": 35,
    "regency_id": 3522,
    "district_id": 352214,
    "value": "Tapelan",
    "postal_code": "62181"
  },
  {
    "id": 3522142018,
    "province_id": 35,
    "regency_id": 3522,
    "district_id": 352214,
    "value": "Tikusan",
    "postal_code": "62181"
  },
  {
    "id": 3522142008,
    "province_id": 35,
    "regency_id": 3522,
    "district_id": 352214,
    "value": "Wedi",
    "postal_code": "62181"
  }
]