[
  {
    "id": 820203,
    "province_id": 82,
    "regency_id": 8202,
    "district_id": 820203,
    "value": "Elfanun",
    "postal_code": "97859"
  },
  {
    "id": 820203,
    "province_id": 82,
    "regency_id": 8202,
    "district_id": 820203,
    "value": "Kacepi",
    "postal_code": "97859"
  },
  {
    "id": 820203,
    "province_id": 82,
    "regency_id": 8202,
    "district_id": 820203,
    "value": "Kapaleo",
    "postal_code": "97859"
  },
  {
    "id": 820203,
    "province_id": 82,
    "regency_id": 8202,
    "district_id": 820203,
    "value": "Sanafi",
    "postal_code": "97859"
  },
  {
    "id": 820203,
    "province_id": 82,
    "regency_id": 8202,
    "district_id": 820203,
    "value": "Sonof Kacepo",
    "postal_code": "97859"
  },
  {
    "id": 820203,
    "province_id": 82,
    "regency_id": 8202,
    "district_id": 820203,
    "value": "Umera",
    "postal_code": "97859"
  },
  {
    "id": 820203,
    "province_id": 82,
    "regency_id": 8202,
    "district_id": 820203,
    "value": "Umiyal",
    "postal_code": "97859"
  },
  {
    "id": 820203,
    "province_id": 82,
    "regency_id": 8202,
    "district_id": 820203,
    "value": "Yang",
    "postal_code": "97859"
  }
]