[
  {
    "id": 320206,
    "province_id": 32,
    "regency_id": 3202,
    "district_id": 320206,
    "value": "Bumi Sari",
    "postal_code": "43367"
  },
  {
    "id": 320206,
    "province_id": 32,
    "regency_id": 3202,
    "district_id": 320206,
    "value": "Cicareuh",
    "postal_code": "43367"
  },
  {
    "id": 320206,
    "province_id": 32,
    "regency_id": 3202,
    "district_id": 320206,
    "value": "Cijambe",
    "postal_code": "43367"
  },
  {
    "id": 320206,
    "province_id": 32,
    "regency_id": 3202,
    "district_id": 320206,
    "value": "Cikarae Thoyyibah",
    "postal_code": "43367"
  },
  {
    "id": 320206,
    "province_id": 32,
    "regency_id": 3202,
    "district_id": 320206,
    "value": "Cikidang",
    "postal_code": "43367"
  },
  {
    "id": 320206,
    "province_id": 32,
    "regency_id": 3202,
    "district_id": 320206,
    "value": "Cikiray",
    "postal_code": "43367"
  },
  {
    "id": 320206,
    "province_id": 32,
    "regency_id": 3202,
    "district_id": 320206,
    "value": "Gunungmalang",
    "postal_code": "43367"
  },
  {
    "id": 320206,
    "province_id": 32,
    "regency_id": 3202,
    "district_id": 320206,
    "value": "Mekarnangka",
    "postal_code": "43367"
  },
  {
    "id": 320206,
    "province_id": 32,
    "regency_id": 3202,
    "district_id": 320206,
    "value": "Nangkakoneng",
    "postal_code": "43367"
  },
  {
    "id": 320206,
    "province_id": 32,
    "regency_id": 3202,
    "district_id": 320206,
    "value": "Pangkalan",
    "postal_code": "43367"
  },
  {
    "id": 320206,
    "province_id": 32,
    "regency_id": 3202,
    "district_id": 320206,
    "value": "Sampora",
    "postal_code": "43367"
  },
  {
    "id": 320206,
    "province_id": 32,
    "regency_id": 3202,
    "district_id": 320206,
    "value": "Taman Sari",
    "postal_code": "43367"
  }
]