[
  {
    "id": 641101,
    "province_id": 64,
    "regency_id": 6411,
    "district_id": 641101,
    "value": "Batoq Kelo",
    "postal_code": "75767"
  },
  {
    "id": 641101,
    "province_id": 64,
    "regency_id": 6411,
    "district_id": 641101,
    "value": "Batu Majang",
    "postal_code": "75767"
  },
  {
    "id": 641101,
    "province_id": 64,
    "regency_id": 6411,
    "district_id": 641101,
    "value": "Long Bagun Ilir",
    "postal_code": "75767"
  },
  {
    "id": 641101,
    "province_id": 64,
    "regency_id": 6411,
    "district_id": 641101,
    "value": "Long Bagun Ulu",
    "postal_code": "75767"
  },
  {
    "id": 641101,
    "province_id": 64,
    "regency_id": 6411,
    "district_id": 641101,
    "value": "Long Hurai",
    "postal_code": "75767"
  },
  {
    "id": 641101,
    "province_id": 64,
    "regency_id": 6411,
    "district_id": 641101,
    "value": "Long Melaham",
    "postal_code": "75767"
  },
  {
    "id": 641101,
    "province_id": 64,
    "regency_id": 6411,
    "district_id": 641101,
    "value": "Long Merah",
    "postal_code": "75767"
  },
  {
    "id": 641101,
    "province_id": 64,
    "regency_id": 6411,
    "district_id": 641101,
    "value": "Memahak Besar (Mamahak Ilir)",
    "postal_code": "75767"
  },
  {
    "id": 641101,
    "province_id": 64,
    "regency_id": 6411,
    "district_id": 641101,
    "value": "Memahak Ulu (Mamahak Ulu)",
    "postal_code": "75767"
  },
  {
    "id": 641101,
    "province_id": 64,
    "regency_id": 6411,
    "district_id": 641101,
    "value": "Rukun Damai",
    "postal_code": "75767"
  },
  {
    "id": 641101,
    "province_id": 64,
    "regency_id": 6411,
    "district_id": 641101,
    "value": "Ujoh Bilang",
    "postal_code": "75767"
  }
]