[
  {
    "id": 531307,
    "province_id": 53,
    "regency_id": 5313,
    "district_id": 531307,
    "value": "Atu Wa'lupang",
    "postal_code": "86692"
  },
  {
    "id": 531307,
    "province_id": 53,
    "regency_id": 5313,
    "district_id": 531307,
    "value": "Atulaleng",
    "postal_code": "86692"
  },
  {
    "id": 531307,
    "province_id": 53,
    "regency_id": 5313,
    "district_id": 531307,
    "value": "Bareng",
    "postal_code": "86692"
  },
  {
    "id": 531307,
    "province_id": 53,
    "regency_id": 5313,
    "district_id": 531307,
    "value": "Bean",
    "postal_code": "86692"
  },
  {
    "id": 531307,
    "province_id": 53,
    "regency_id": 5313,
    "district_id": 531307,
    "value": "Benihading I",
    "postal_code": "86692"
  },
  {
    "id": 531307,
    "province_id": 53,
    "regency_id": 5313,
    "district_id": 531307,
    "value": "Benihading II",
    "postal_code": "86692"
  },
  {
    "id": 531307,
    "province_id": 53,
    "regency_id": 5313,
    "district_id": 531307,
    "value": "Buriwutung",
    "postal_code": "86692"
  },
  {
    "id": 531307,
    "province_id": 53,
    "regency_id": 5313,
    "district_id": 531307,
    "value": "Kalikur",
    "postal_code": "86692"
  },
  {
    "id": 531307,
    "province_id": 53,
    "regency_id": 5313,
    "district_id": 531307,
    "value": "Kalikur WL",
    "postal_code": "86692"
  },
  {
    "id": 531307,
    "province_id": 53,
    "regency_id": 5313,
    "district_id": 531307,
    "value": "Kaohua",
    "postal_code": "86692"
  },
  {
    "id": 531307,
    "province_id": 53,
    "regency_id": 5313,
    "district_id": 531307,
    "value": "Leuburi",
    "postal_code": "86692"
  },
  {
    "id": 531307,
    "province_id": 53,
    "regency_id": 5313,
    "district_id": 531307,
    "value": "Leuwohung",
    "postal_code": "86692"
  },
  {
    "id": 531307,
    "province_id": 53,
    "regency_id": 5313,
    "district_id": 531307,
    "value": "Loyobohor",
    "postal_code": "86692"
  },
  {
    "id": 531307,
    "province_id": 53,
    "regency_id": 5313,
    "district_id": 531307,
    "value": "Mampir",
    "postal_code": "86692"
  },
  {
    "id": 531307,
    "province_id": 53,
    "regency_id": 5313,
    "district_id": 531307,
    "value": "Panama",
    "postal_code": "86692"
  },
  {
    "id": 531307,
    "province_id": 53,
    "regency_id": 5313,
    "district_id": 531307,
    "value": "Roho",
    "postal_code": "86692"
  },
  {
    "id": 531307,
    "province_id": 53,
    "regency_id": 5313,
    "district_id": 531307,
    "value": "Rumang",
    "postal_code": "86692"
  },
  {
    "id": 531307,
    "province_id": 53,
    "regency_id": 5313,
    "district_id": 531307,
    "value": "Tobotani",
    "postal_code": "86692"
  },
  {
    "id": 531307,
    "province_id": 53,
    "regency_id": 5313,
    "district_id": 531307,
    "value": "Tubung Walang",
    "postal_code": "86692"
  },
  {
    "id": 531307,
    "province_id": 53,
    "regency_id": 5313,
    "district_id": 531307,
    "value": "Umaleu",
    "postal_code": "86692"
  }
]