[
  {
    "id": 740506,
    "province_id": 74,
    "regency_id": 7405,
    "district_id": 740506,
    "value": "Aoroo (Aoreo)",
    "postal_code": "93881"
  },
  {
    "id": 740506,
    "province_id": 74,
    "regency_id": 7405,
    "district_id": 740506,
    "value": "Bangun Jaya",
    "postal_code": "93881"
  },
  {
    "id": 740506,
    "province_id": 74,
    "regency_id": 7405,
    "district_id": 740506,
    "value": "Kaindi",
    "postal_code": "93881"
  },
  {
    "id": 740506,
    "province_id": 74,
    "regency_id": 7405,
    "district_id": 740506,
    "value": "Kalo-kalo",
    "postal_code": "93881"
  },
  {
    "id": 740506,
    "province_id": 74,
    "regency_id": 7405,
    "district_id": 740506,
    "value": "Lainea",
    "postal_code": "93881"
  },
  {
    "id": 740506,
    "province_id": 74,
    "regency_id": 7405,
    "district_id": 740506,
    "value": "Lalonggombu",
    "postal_code": "93881"
  },
  {
    "id": 740506,
    "province_id": 74,
    "regency_id": 7405,
    "district_id": 740506,
    "value": "Matabubu Jaya",
    "postal_code": "93881"
  },
  {
    "id": 740506,
    "province_id": 74,
    "regency_id": 7405,
    "district_id": 740506,
    "value": "Molinese",
    "postal_code": "93881"
  },
  {
    "id": 740506,
    "province_id": 74,
    "regency_id": 7405,
    "district_id": 740506,
    "value": "Pamandati",
    "postal_code": "93881"
  },
  {
    "id": 740506,
    "province_id": 74,
    "regency_id": 7405,
    "district_id": 740506,
    "value": "Pangan Jaya",
    "postal_code": "93881"
  },
  {
    "id": 740506,
    "province_id": 74,
    "regency_id": 7405,
    "district_id": 740506,
    "value": "Polewali",
    "postal_code": "93881"
  },
  {
    "id": 740506,
    "province_id": 74,
    "regency_id": 7405,
    "district_id": 740506,
    "value": "Watumeeto",
    "postal_code": "93881"
  }
]