[
  {
    "id": 741111,
    "province_id": 74,
    "regency_id": 7411,
    "district_id": 741111,
    "value": "Ahilulu (Ahilolu)",
    "postal_code": "93575"
  },
  {
    "id": 741111,
    "province_id": 74,
    "regency_id": 7411,
    "district_id": 741111,
    "value": "Alaaha",
    "postal_code": "93575"
  },
  {
    "id": 741111,
    "province_id": 74,
    "regency_id": 7411,
    "district_id": 741111,
    "value": "Konawendepiha",
    "postal_code": "93575"
  },
  {
    "id": 741111,
    "province_id": 74,
    "regency_id": 7411,
    "district_id": 741111,
    "value": "Likuwalanapo",
    "postal_code": "93575"
  },
  {
    "id": 741111,
    "province_id": 74,
    "regency_id": 7411,
    "district_id": 741111,
    "value": "Porabua",
    "postal_code": "93575"
  },
  {
    "id": 741111,
    "province_id": 74,
    "regency_id": 7411,
    "district_id": 741111,
    "value": "Puurau",
    "postal_code": "93575"
  },
  {
    "id": 741111,
    "province_id": 74,
    "regency_id": 7411,
    "district_id": 741111,
    "value": "Silui",
    "postal_code": "93575"
  },
  {
    "id": 741111,
    "province_id": 74,
    "regency_id": 7411,
    "district_id": 741111,
    "value": "Tongauna",
    "postal_code": "93575"
  },
  {
    "id": 741111,
    "province_id": 74,
    "regency_id": 7411,
    "district_id": 741111,
    "value": "Ueesi",
    "postal_code": "93575"
  },
  {
    "id": 741111,
    "province_id": 74,
    "regency_id": 7411,
    "district_id": 741111,
    "value": "Watumendonga",
    "postal_code": "93575"
  },
  {
    "id": 741111,
    "province_id": 74,
    "regency_id": 7411,
    "district_id": 741111,
    "value": "Wesinggote",
    "postal_code": "93575"
  }
]