[
  {
    "id": 630203,
    "province_id": 63,
    "regency_id": 6302,
    "district_id": 630203,
    "value": "Alle-Alle",
    "postal_code": "72157"
  },
  {
    "id": 630203,
    "province_id": 63,
    "regency_id": 6302,
    "district_id": 630203,
    "value": "Labuan Mas",
    "postal_code": "72157"
  },
  {
    "id": 630203,
    "province_id": 63,
    "regency_id": 6302,
    "district_id": 630203,
    "value": "Sungai Bahim",
    "postal_code": "72157"
  },
  {
    "id": 630203,
    "province_id": 63,
    "regency_id": 6302,
    "district_id": 630203,
    "value": "Sungai Bulan",
    "postal_code": "72157"
  },
  {
    "id": 630203,
    "province_id": 63,
    "regency_id": 6302,
    "district_id": 630203,
    "value": "Tanjung Seloka",
    "postal_code": "72157"
  },
  {
    "id": 630203,
    "province_id": 63,
    "regency_id": 6302,
    "district_id": 630203,
    "value": "Tanjung Seloka Utara",
    "postal_code": "72157"
  },
  {
    "id": 630203,
    "province_id": 63,
    "regency_id": 6302,
    "district_id": 630203,
    "value": "Tanjung Serudung",
    "postal_code": "72157"
  },
  {
    "id": 630203,
    "province_id": 63,
    "regency_id": 6302,
    "district_id": 630203,
    "value": "Teluk Sirih",
    "postal_code": "72157"
  }
]