[
  {
    "id": 950322,
    "province_id": 95,
    "regency_id": 9503,
    "district_id": 950322,
    "value": "Biu",
    "postal_code": "99758"
  },
  {
    "id": 950322,
    "province_id": 95,
    "regency_id": 9503,
    "district_id": 950322,
    "value": "Ikmu",
    "postal_code": "99758"
  },
  {
    "id": 950322,
    "province_id": 95,
    "regency_id": 9503,
    "district_id": 950322,
    "value": "Ilukdamon",
    "postal_code": "99758"
  },
  {
    "id": 950322,
    "province_id": 95,
    "regency_id": 9503,
    "district_id": 950322,
    "value": "Nipsan",
    "postal_code": "99758"
  },
  {
    "id": 950322,
    "province_id": 95,
    "regency_id": 9503,
    "district_id": 950322,
    "value": "Serengan",
    "postal_code": "99758"
  },
  {
    "id": 950322,
    "province_id": 95,
    "regency_id": 9503,
    "district_id": 950322,
    "value": "Tapla",
    "postal_code": "99758"
  },
  {
    "id": 950322,
    "province_id": 95,
    "regency_id": 9503,
    "district_id": 950322,
    "value": "Walmak",
    "postal_code": "99758"
  },
  {
    "id": 950322,
    "province_id": 95,
    "regency_id": 9503,
    "district_id": 950322,
    "value": "Yalmun",
    "postal_code": "99758"
  }
]