[
  {
    "id": 3603032014,
    "province_id": 36,
    "regency_id": 3603,
    "district_id": 360303,
    "value": "Bantar Panjang",
    "postal_code": "15721"
  },
  {
    "id": 3603032011,
    "province_id": 36,
    "regency_id": 3603,
    "district_id": 360303,
    "value": "Cileles",
    "postal_code": "15721"
  },
  {
    "id": 3603032009,
    "province_id": 36,
    "regency_id": 3603,
    "district_id": 360303,
    "value": "Cisereh",
    "postal_code": "15721"
  },
  {
    "id": 3603031007,
    "province_id": 36,
    "regency_id": 3603,
    "district_id": 360303,
    "value": "Kadu Agung",
    "postal_code": "15721"
  },
  {
    "id": 3603032010,
    "province_id": 36,
    "regency_id": 3603,
    "district_id": 360303,
    "value": "Margasari (Marga Sari)",
    "postal_code": "15721"
  },
  {
    "id": 3603032003,
    "province_id": 36,
    "regency_id": 3603,
    "district_id": 360303,
    "value": "Matagara (Mata Gara)",
    "postal_code": "15721"
  },
  {
    "id": 3603032002,
    "province_id": 36,
    "regency_id": 3603,
    "district_id": 360303,
    "value": "Pasir Bolang",
    "postal_code": "15721"
  },
  {
    "id": 3603032004,
    "province_id": 36,
    "regency_id": 3603,
    "district_id": 360303,
    "value": "Pasir Nangka",
    "postal_code": "15721"
  },
  {
    "id": 3603032008,
    "province_id": 36,
    "regency_id": 3603,
    "district_id": 360303,
    "value": "Pematang",
    "postal_code": "15721"
  },
  {
    "id": 3603032005,
    "province_id": 36,
    "regency_id": 3603,
    "district_id": 360303,
    "value": "Pete",
    "postal_code": "15721"
  },
  {
    "id": 3603032012,
    "province_id": 36,
    "regency_id": 3603,
    "district_id": 360303,
    "value": "Sodong",
    "postal_code": "15721"
  },
  {
    "id": 3603032013,
    "province_id": 36,
    "regency_id": 3603,
    "district_id": 360303,
    "value": "Tapos",
    "postal_code": "15721"
  },
  {
    "id": 3603032006,
    "province_id": 36,
    "regency_id": 3603,
    "district_id": 360303,
    "value": "Tegalsari",
    "postal_code": "15721"
  },
  {
    "id": 3603031001,
    "province_id": 36,
    "regency_id": 3603,
    "district_id": 360303,
    "value": "Tigaraksa",
    "postal_code": "15721"
  }
]