[
  {
    "id": 740215,
    "province_id": 74,
    "regency_id": 7402,
    "district_id": 740215,
    "value": "Ambepulu",
    "postal_code": "93460"
  },
  {
    "id": 740215,
    "province_id": 74,
    "regency_id": 7402,
    "district_id": 740215,
    "value": "Andeposandu (Andeposunde)",
    "postal_code": "93460"
  },
  {
    "id": 740215,
    "province_id": 74,
    "regency_id": 7402,
    "district_id": 740215,
    "value": "Asao",
    "postal_code": "93460"
  },
  {
    "id": 740215,
    "province_id": 74,
    "regency_id": 7402,
    "district_id": 740215,
    "value": "Lalonggowuna",
    "postal_code": "93460"
  },
  {
    "id": 740215,
    "province_id": 74,
    "regency_id": 7402,
    "district_id": 740215,
    "value": "Mata Iwoi",
    "postal_code": "93460"
  },
  {
    "id": 740215,
    "province_id": 74,
    "regency_id": 7402,
    "district_id": 740215,
    "value": "Mekar Sari",
    "postal_code": "93460"
  },
  {
    "id": 740215,
    "province_id": 74,
    "regency_id": 7402,
    "district_id": 740215,
    "value": "Momea",
    "postal_code": "93460"
  },
  {
    "id": 740215,
    "province_id": 74,
    "regency_id": 7402,
    "district_id": 740215,
    "value": "Puosu",
    "postal_code": "93460"
  },
  {
    "id": 740215,
    "province_id": 74,
    "regency_id": 7402,
    "district_id": 740215,
    "value": "Sendang Mulya Sari",
    "postal_code": "93460"
  },
  {
    "id": 740215,
    "province_id": 74,
    "regency_id": 7402,
    "district_id": 740215,
    "value": "Tongauna",
    "postal_code": "93460"
  }
]