[
  {
    "id": 1610012016,
    "province_id": 16,
    "regency_id": 1610,
    "district_id": 161001,
    "value": "Kalampadu (Kelampadu)",
    "postal_code": "30865"
  },
  {
    "id": 1610012009,
    "province_id": 16,
    "regency_id": 1610,
    "district_id": 161001,
    "value": "Kasah",
    "postal_code": "30865"
  },
  {
    "id": 1610012008,
    "province_id": 16,
    "regency_id": 1610,
    "district_id": 161001,
    "value": "Kuang Anyar",
    "postal_code": "30865"
  },
  {
    "id": 1610011011,
    "province_id": 16,
    "regency_id": 1610,
    "district_id": 161001,
    "value": "Muara Kuang",
    "postal_code": "30865"
  },
  {
    "id": 1610012005,
    "province_id": 16,
    "regency_id": 1610,
    "district_id": 161001,
    "value": "Munggu",
    "postal_code": "30865"
  },
  {
    "id": 1610012014,
    "province_id": 16,
    "regency_id": 1610,
    "district_id": 161001,
    "value": "Nagasari",
    "postal_code": "30865"
  },
  {
    "id": 1610012030,
    "province_id": 16,
    "regency_id": 1610,
    "district_id": 161001,
    "value": "Ramakasih",
    "postal_code": "30865"
  },
  {
    "id": 1610012007,
    "province_id": 16,
    "regency_id": 1610,
    "district_id": 161001,
    "value": "Rantau Sialang",
    "postal_code": "30865"
  },
  {
    "id": 1610012013,
    "province_id": 16,
    "regency_id": 1610,
    "district_id": 161001,
    "value": "Seri Kembang",
    "postal_code": "30865"
  },
  {
    "id": 1610012006,
    "province_id": 16,
    "regency_id": 1610,
    "district_id": 161001,
    "value": "Seri Menanti",
    "postal_code": "30865"
  },
  {
    "id": 1610012015,
    "province_id": 16,
    "regency_id": 1610,
    "district_id": 161001,
    "value": "Suka Cinta",
    "postal_code": "30865"
  },
  {
    "id": 1610012029,
    "province_id": 16,
    "regency_id": 1610,
    "district_id": 161001,
    "value": "Sukajadi",
    "postal_code": "30865"
  },
  {
    "id": 1610012031,
    "province_id": 16,
    "regency_id": 1610,
    "district_id": 161001,
    "value": "Tanabang Ilir",
    "postal_code": "30865"
  },
  {
    "id": 1610012012,
    "province_id": 16,
    "regency_id": 1610,
    "district_id": 161001,
    "value": "Tanabang Ulu",
    "postal_code": "30865"
  }
]