[
  {
    "id": 940212,
    "province_id": 94,
    "regency_id": 9402,
    "district_id": 940212,
    "value": "Doligobak",
    "postal_code": "98914"
  },
  {
    "id": 940212,
    "province_id": 94,
    "regency_id": 9402,
    "district_id": 940212,
    "value": "Dologobak",
    "postal_code": "98914"
  },
  {
    "id": 940212,
    "province_id": 94,
    "regency_id": 9402,
    "district_id": 940212,
    "value": "Karubate",
    "postal_code": "98914"
  },
  {
    "id": 940212,
    "province_id": 94,
    "regency_id": 9402,
    "district_id": 940212,
    "value": "Kulirik",
    "postal_code": "98914"
  },
  {
    "id": 940212,
    "province_id": 94,
    "regency_id": 9402,
    "district_id": 940212,
    "value": "Muara",
    "postal_code": "98914"
  },
  {
    "id": 940212,
    "province_id": 94,
    "regency_id": 9402,
    "district_id": 940212,
    "value": "Talilome",
    "postal_code": "98914"
  },
  {
    "id": 940212,
    "province_id": 94,
    "regency_id": 9402,
    "district_id": 940212,
    "value": "Yalinggua",
    "postal_code": "98914"
  },
  {
    "id": 940212,
    "province_id": 94,
    "regency_id": 9402,
    "district_id": 940212,
    "value": "Yambidugun",
    "postal_code": "98914"
  }
]