[
  {
    "id": 940224,
    "province_id": 94,
    "regency_id": 9402,
    "district_id": 940224,
    "value": "Abili",
    "postal_code": "98934"
  },
  {
    "id": 940224,
    "province_id": 94,
    "regency_id": 9402,
    "district_id": 940224,
    "value": "Andugir",
    "postal_code": "98934"
  },
  {
    "id": 940224,
    "province_id": 94,
    "regency_id": 9402,
    "district_id": 940224,
    "value": "Ginimanggen",
    "postal_code": "98934"
  },
  {
    "id": 940224,
    "province_id": 94,
    "regency_id": 9402,
    "district_id": 940224,
    "value": "Guna",
    "postal_code": "98934"
  },
  {
    "id": 940224,
    "province_id": 94,
    "regency_id": 9402,
    "district_id": 940224,
    "value": "Laworege",
    "postal_code": "98934"
  },
  {
    "id": 940224,
    "province_id": 94,
    "regency_id": 9402,
    "district_id": 940224,
    "value": "Lugubago",
    "postal_code": "98934"
  },
  {
    "id": 940224,
    "province_id": 94,
    "regency_id": 9402,
    "district_id": 940224,
    "value": "Mandura",
    "postal_code": "98934"
  },
  {
    "id": 940224,
    "province_id": 94,
    "regency_id": 9402,
    "district_id": 940224,
    "value": "Muara Miguni",
    "postal_code": "98934"
  },
  {
    "id": 940224,
    "province_id": 94,
    "regency_id": 9402,
    "district_id": 940224,
    "value": "Pereya",
    "postal_code": "98934"
  },
  {
    "id": 940224,
    "province_id": 94,
    "regency_id": 9402,
    "district_id": 940224,
    "value": "Wumbiri",
    "postal_code": "98934"
  }
]