[
  {
    "id": 321125,
    "province_id": 32,
    "regency_id": 3211,
    "district_id": 321125,
    "value": "Cibuluh",
    "postal_code": "45383"
  },
  {
    "id": 321125,
    "province_id": 32,
    "regency_id": 3211,
    "district_id": 321125,
    "value": "Cipelang",
    "postal_code": "45383"
  },
  {
    "id": 321125,
    "province_id": 32,
    "regency_id": 3211,
    "district_id": 321125,
    "value": "Keboncau (Kebon Cau)",
    "postal_code": "45383"
  },
  {
    "id": 321125,
    "province_id": 32,
    "regency_id": 3211,
    "district_id": 321125,
    "value": "Kudangwangi",
    "postal_code": "45383"
  },
  {
    "id": 321125,
    "province_id": 32,
    "regency_id": 3211,
    "district_id": 321125,
    "value": "Palabuan",
    "postal_code": "45383"
  },
  {
    "id": 321125,
    "province_id": 32,
    "regency_id": 3211,
    "district_id": 321125,
    "value": "Palasari",
    "postal_code": "45383"
  },
  {
    "id": 321125,
    "province_id": 32,
    "regency_id": 3211,
    "district_id": 321125,
    "value": "Sakurjaya",
    "postal_code": "45383"
  },
  {
    "id": 321125,
    "province_id": 32,
    "regency_id": 3211,
    "district_id": 321125,
    "value": "Sukamulya",
    "postal_code": "45383"
  },
  {
    "id": 321125,
    "province_id": 32,
    "regency_id": 3211,
    "district_id": 321125,
    "value": "Ujungjaya",
    "postal_code": "45383"
  }
]