[
  {
    "id": 710605,
    "province_id": 71,
    "regency_id": 7106,
    "district_id": 710605,
    "value": "Dimembe",
    "postal_code": "95373"
  },
  {
    "id": 710605,
    "province_id": 71,
    "regency_id": 7106,
    "district_id": 710605,
    "value": "Klabat",
    "postal_code": "95373"
  },
  {
    "id": 710605,
    "province_id": 71,
    "regency_id": 7106,
    "district_id": 710605,
    "value": "Laikit",
    "postal_code": "95373"
  },
  {
    "id": 710605,
    "province_id": 71,
    "regency_id": 7106,
    "district_id": 710605,
    "value": "Lumpias",
    "postal_code": "95373"
  },
  {
    "id": 710605,
    "province_id": 71,
    "regency_id": 7106,
    "district_id": 710605,
    "value": "Matungkas",
    "postal_code": "95373"
  },
  {
    "id": 710605,
    "province_id": 71,
    "regency_id": 7106,
    "district_id": 710605,
    "value": "Pinilih",
    "postal_code": "95373"
  },
  {
    "id": 710605,
    "province_id": 71,
    "regency_id": 7106,
    "district_id": 710605,
    "value": "Tatelu",
    "postal_code": "95373"
  },
  {
    "id": 710605,
    "province_id": 71,
    "regency_id": 7106,
    "district_id": 710605,
    "value": "Tatelu Rondor",
    "postal_code": "95373"
  },
  {
    "id": 710605,
    "province_id": 71,
    "regency_id": 7106,
    "district_id": 710605,
    "value": "Tetey",
    "postal_code": "95373"
  },
  {
    "id": 710605,
    "province_id": 71,
    "regency_id": 7106,
    "district_id": 710605,
    "value": "Warukapas",
    "postal_code": "95373"
  },
  {
    "id": 710605,
    "province_id": 71,
    "regency_id": 7106,
    "district_id": 710605,
    "value": "Wasian",
    "postal_code": "95373"
  }
]