[
  {
    "id": 321214,
    "province_id": 32,
    "regency_id": 3212,
    "district_id": 321214,
    "value": "Balongan",
    "postal_code": "45217"
  },
  {
    "id": 321214,
    "province_id": 32,
    "regency_id": 3212,
    "district_id": 321214,
    "value": "Gelarmendala",
    "postal_code": "45285"
  },
  {
    "id": 321214,
    "province_id": 32,
    "regency_id": 3212,
    "district_id": 321214,
    "value": "Majakerta",
    "postal_code": "45285"
  },
  {
    "id": 321214,
    "province_id": 32,
    "regency_id": 3212,
    "district_id": 321214,
    "value": "Rawadalem",
    "postal_code": "45217"
  },
  {
    "id": 321214,
    "province_id": 32,
    "regency_id": 3212,
    "district_id": 321214,
    "value": "Sudimampir",
    "postal_code": "45285"
  },
  {
    "id": 321214,
    "province_id": 32,
    "regency_id": 3212,
    "district_id": 321214,
    "value": "Sudimampir Lor (Sudimampirlor)",
    "postal_code": "45285"
  },
  {
    "id": 321214,
    "province_id": 32,
    "regency_id": 3212,
    "district_id": 321214,
    "value": "Sukareja",
    "postal_code": "45217"
  },
  {
    "id": 321214,
    "province_id": 32,
    "regency_id": 3212,
    "district_id": 321214,
    "value": "Sukaurip",
    "postal_code": "45217"
  },
  {
    "id": 321214,
    "province_id": 32,
    "regency_id": 3212,
    "district_id": 321214,
    "value": "Tegal Sembadra (Tegalsembadra)",
    "postal_code": "45285"
  },
  {
    "id": 321214,
    "province_id": 32,
    "regency_id": 3212,
    "district_id": 321214,
    "value": "Tegalurung",
    "postal_code": "45217"
  }
]