[
  {
    "id": 820606,
    "province_id": 82,
    "regency_id": 8206,
    "district_id": 820606,
    "value": "Bololo",
    "postal_code": "97869"
  },
  {
    "id": 820606,
    "province_id": 82,
    "regency_id": 8206,
    "district_id": 820606,
    "value": "Dowongi Jaya",
    "postal_code": "97869"
  },
  {
    "id": 820606,
    "province_id": 82,
    "regency_id": 8206,
    "district_id": 820606,
    "value": "Helaitetor",
    "postal_code": "97869"
  },
  {
    "id": 820606,
    "province_id": 82,
    "regency_id": 8206,
    "district_id": 820606,
    "value": "Iga",
    "postal_code": "97869"
  },
  {
    "id": 820606,
    "province_id": 82,
    "regency_id": 8206,
    "district_id": 820606,
    "value": "Labi Labi",
    "postal_code": "97869"
  },
  {
    "id": 820606,
    "province_id": 82,
    "regency_id": 8206,
    "district_id": 820606,
    "value": "Majiko Tongone",
    "postal_code": "97869"
  },
  {
    "id": 820606,
    "province_id": 82,
    "regency_id": 8206,
    "district_id": 820606,
    "value": "Marimoi",
    "postal_code": "97869"
  },
  {
    "id": 820606,
    "province_id": 82,
    "regency_id": 8206,
    "district_id": 820606,
    "value": "Tatam",
    "postal_code": "97869"
  }
]