[
  {
    "id": 940706,
    "province_id": 94,
    "regency_id": 9407,
    "district_id": 940706,
    "value": "Balamai",
    "postal_code": "98792"
  },
  {
    "id": 940706,
    "province_id": 94,
    "regency_id": 9407,
    "district_id": 940706,
    "value": "Danggomba",
    "postal_code": "98792"
  },
  {
    "id": 940706,
    "province_id": 94,
    "regency_id": 9407,
    "district_id": 940706,
    "value": "Hitadipa",
    "postal_code": "98792"
  },
  {
    "id": 940706,
    "province_id": 94,
    "regency_id": 9407,
    "district_id": 940706,
    "value": "Janamba",
    "postal_code": "98792"
  },
  {
    "id": 940706,
    "province_id": 94,
    "regency_id": 9407,
    "district_id": 940706,
    "value": "Kulapa",
    "postal_code": "98792"
  },
  {
    "id": 940706,
    "province_id": 94,
    "regency_id": 9407,
    "district_id": 940706,
    "value": "Pugisiga",
    "postal_code": "98792"
  },
  {
    "id": 940706,
    "province_id": 94,
    "regency_id": 9407,
    "district_id": 940706,
    "value": "Sakumba",
    "postal_code": "98792"
  },
  {
    "id": 940706,
    "province_id": 94,
    "regency_id": 9407,
    "district_id": 940706,
    "value": "Soagama",
    "postal_code": "98792"
  },
  {
    "id": 940706,
    "province_id": 94,
    "regency_id": 9407,
    "district_id": 940706,
    "value": "Wabui",
    "postal_code": "98792"
  }
]