[
  {
    "id": 3502142006,
    "province_id": 35,
    "regency_id": 3502,
    "district_id": 350214,
    "value": "Carangrejo (Carang Rejo)",
    "postal_code": "63454"
  },
  {
    "id": 3502142010,
    "province_id": 35,
    "regency_id": 3502,
    "district_id": 350214,
    "value": "Gelangkulon",
    "postal_code": "63454"
  },
  {
    "id": 3502142009,
    "province_id": 35,
    "regency_id": 3502,
    "district_id": 350214,
    "value": "Glinggang",
    "postal_code": "63454"
  },
  {
    "id": 3502142003,
    "province_id": 35,
    "regency_id": 3502,
    "district_id": 350214,
    "value": "Jenangan",
    "postal_code": "63454"
  },
  {
    "id": 3502142011,
    "province_id": 35,
    "regency_id": 3502,
    "district_id": 350214,
    "value": "Karangwaluh (Karang Waluh)",
    "postal_code": "63454"
  },
  {
    "id": 3502142008,
    "province_id": 35,
    "regency_id": 3502,
    "district_id": 350214,
    "value": "Kunti",
    "postal_code": "63454"
  },
  {
    "id": 3502142004,
    "province_id": 35,
    "regency_id": 3502,
    "district_id": 350214,
    "value": "Nglurup",
    "postal_code": "63454"
  },
  {
    "id": 3502142007,
    "province_id": 35,
    "regency_id": 3502,
    "district_id": 350214,
    "value": "Pagerukir",
    "postal_code": "63454"
  },
  {
    "id": 3502142002,
    "province_id": 35,
    "regency_id": 3502,
    "district_id": 350214,
    "value": "Pohijo",
    "postal_code": "63454"
  },
  {
    "id": 3502142012,
    "province_id": 35,
    "regency_id": 3502,
    "district_id": 350214,
    "value": "Ringinputih",
    "postal_code": "63454"
  },
  {
    "id": 3502142001,
    "province_id": 35,
    "regency_id": 3502,
    "district_id": 350214,
    "value": "Sampung",
    "postal_code": "63454"
  },
  {
    "id": 3502142005,
    "province_id": 35,
    "regency_id": 3502,
    "district_id": 350214,
    "value": "Tulung",
    "postal_code": "63454"
  }
]