[
  {
    "id": 3521162010,
    "province_id": 35,
    "regency_id": 3521,
    "district_id": 352116,
    "value": "Bangunrejo Lor",
    "postal_code": "63252"
  },
  {
    "id": 3521162009,
    "province_id": 35,
    "regency_id": 3521,
    "district_id": 352116,
    "value": "Banjarbanggi",
    "postal_code": "63252"
  },
  {
    "id": 3521162007,
    "province_id": 35,
    "regency_id": 3521,
    "district_id": 352116,
    "value": "Cantel",
    "postal_code": "63252"
  },
  {
    "id": 3521162003,
    "province_id": 35,
    "regency_id": 3521,
    "district_id": 352116,
    "value": "Dumplengan",
    "postal_code": "63252"
  },
  {
    "id": 3521162001,
    "province_id": 35,
    "regency_id": 3521,
    "district_id": 352116,
    "value": "Kalang",
    "postal_code": "63252"
  },
  {
    "id": 3521162005,
    "province_id": 35,
    "regency_id": 3521,
    "district_id": 352116,
    "value": "Karanggeneng",
    "postal_code": "63252"
  },
  {
    "id": 3521162006,
    "province_id": 35,
    "regency_id": 3521,
    "district_id": 352116,
    "value": "Ngancar",
    "postal_code": "63252"
  },
  {
    "id": 3521162008,
    "province_id": 35,
    "regency_id": 3521,
    "district_id": 352116,
    "value": "Papungan",
    "postal_code": "63252"
  },
  {
    "id": 3521162002,
    "province_id": 35,
    "regency_id": 3521,
    "district_id": 352116,
    "value": "Pitu",
    "postal_code": "63252"
  },
  {
    "id": 3521162004,
    "province_id": 35,
    "regency_id": 3521,
    "district_id": 352116,
    "value": "Selopuro",
    "postal_code": "63252"
  }
]