[
  {
    "id": 351515,
    "province_id": 35,
    "regency_id": 3515,
    "district_id": 351515,
    "value": "Banjarkemantren",
    "postal_code": "61252"
  },
  {
    "id": 351515,
    "province_id": 35,
    "regency_id": 3515,
    "district_id": 351515,
    "value": "Banjarsari",
    "postal_code": "61252"
  },
  {
    "id": 351515,
    "province_id": 35,
    "regency_id": 3515,
    "district_id": 351515,
    "value": "Buduran",
    "postal_code": "61252"
  },
  {
    "id": 351515,
    "province_id": 35,
    "regency_id": 3515,
    "district_id": 351515,
    "value": "Damarsi",
    "postal_code": "61252"
  },
  {
    "id": 351515,
    "province_id": 35,
    "regency_id": 3515,
    "district_id": 351515,
    "value": "Dukuhtengah",
    "postal_code": "61252"
  },
  {
    "id": 351515,
    "province_id": 35,
    "regency_id": 3515,
    "district_id": 351515,
    "value": "Entalsewu",
    "postal_code": "61252"
  },
  {
    "id": 351515,
    "province_id": 35,
    "regency_id": 3515,
    "district_id": 351515,
    "value": "Pagerwojo",
    "postal_code": "61252"
  },
  {
    "id": 351515,
    "province_id": 35,
    "regency_id": 3515,
    "district_id": 351515,
    "value": "Prasung",
    "postal_code": "61252"
  },
  {
    "id": 351515,
    "province_id": 35,
    "regency_id": 3515,
    "district_id": 351515,
    "value": "Sawohan",
    "postal_code": "61252"
  },
  {
    "id": 351515,
    "province_id": 35,
    "regency_id": 3515,
    "district_id": 351515,
    "value": "Sidokepung",
    "postal_code": "61252"
  },
  {
    "id": 351515,
    "province_id": 35,
    "regency_id": 3515,
    "district_id": 351515,
    "value": "Sidokerto",
    "postal_code": "61252"
  },
  {
    "id": 351515,
    "province_id": 35,
    "regency_id": 3515,
    "district_id": 351515,
    "value": "Sidomulyo",
    "postal_code": "61252"
  },
  {
    "id": 351515,
    "province_id": 35,
    "regency_id": 3515,
    "district_id": 351515,
    "value": "Siwalanpanji (Siwalan Panji)",
    "postal_code": "61252"
  },
  {
    "id": 351515,
    "province_id": 35,
    "regency_id": 3515,
    "district_id": 351515,
    "value": "Sukorejo",
    "postal_code": "61252"
  },
  {
    "id": 351515,
    "province_id": 35,
    "regency_id": 3515,
    "district_id": 351515,
    "value": "Wadungasih",
    "postal_code": "61252"
  }
]