[
  {
    "id": 217108,
    "province_id": 21,
    "regency_id": 2171,
    "district_id": 217108,
    "value": "Air Raja",
    "postal_code": "29483"
  },
  {
    "id": 217108,
    "province_id": 21,
    "regency_id": 2171,
    "district_id": 217108,
    "value": "Galang Baru (Pulau)",
    "postal_code": "29484"
  },
  {
    "id": 217108,
    "province_id": 21,
    "regency_id": 2171,
    "district_id": 217108,
    "value": "Karas (Pulau Karas)",
    "postal_code": "29486"
  },
  {
    "id": 217108,
    "province_id": 21,
    "regency_id": 2171,
    "district_id": 217108,
    "value": "Pulau Abang",
    "postal_code": "29487"
  },
  {
    "id": 217108,
    "province_id": 21,
    "regency_id": 2171,
    "district_id": 217108,
    "value": "Rempang Cate",
    "postal_code": "29482"
  },
  {
    "id": 217108,
    "province_id": 21,
    "regency_id": 2171,
    "district_id": 217108,
    "value": "Sembulang (Pulau Rempang)",
    "postal_code": "29481"
  },
  {
    "id": 217108,
    "province_id": 21,
    "regency_id": 2171,
    "district_id": 217108,
    "value": "Sijantung",
    "postal_code": "29485"
  },
  {
    "id": 217108,
    "province_id": 21,
    "regency_id": 2171,
    "district_id": 217108,
    "value": "Subang Mas",
    "postal_code": "29483"
  }
]