[
  {
    "id": 731314,
    "province_id": 73,
    "regency_id": 7313,
    "district_id": 731314,
    "value": "Awo",
    "postal_code": "90993"
  },
  {
    "id": 731314,
    "province_id": 73,
    "regency_id": 7313,
    "district_id": 731314,
    "value": "Awota",
    "postal_code": "90993"
  },
  {
    "id": 731314,
    "province_id": 73,
    "regency_id": 7313,
    "district_id": 731314,
    "value": "Ballaere (Ballere)",
    "postal_code": "90993"
  },
  {
    "id": 731314,
    "province_id": 73,
    "regency_id": 7313,
    "district_id": 731314,
    "value": "Ciromanie",
    "postal_code": "90993"
  },
  {
    "id": 731314,
    "province_id": 73,
    "regency_id": 7313,
    "district_id": 731314,
    "value": "Inrello",
    "postal_code": "90993"
  },
  {
    "id": 731314,
    "province_id": 73,
    "regency_id": 7313,
    "district_id": 731314,
    "value": "Keera",
    "postal_code": "90993"
  },
  {
    "id": 731314,
    "province_id": 73,
    "regency_id": 7313,
    "district_id": 731314,
    "value": "Labawang",
    "postal_code": "90993"
  },
  {
    "id": 731314,
    "province_id": 73,
    "regency_id": 7313,
    "district_id": 731314,
    "value": "Lalliseng",
    "postal_code": "90993"
  },
  {
    "id": 731314,
    "province_id": 73,
    "regency_id": 7313,
    "district_id": 731314,
    "value": "Paojepe",
    "postal_code": "90993"
  },
  {
    "id": 731314,
    "province_id": 73,
    "regency_id": 7313,
    "district_id": 731314,
    "value": "Pattirolokka",
    "postal_code": "90993"
  }
]