[
  {
    "id": 320920,
    "province_id": 32,
    "regency_id": 3209,
    "district_id": 320920,
    "value": "Kalikoa",
    "postal_code": "45153"
  },
  {
    "id": 320920,
    "province_id": 32,
    "regency_id": 3209,
    "district_id": 320920,
    "value": "Kedawung",
    "postal_code": "45153"
  },
  {
    "id": 320920,
    "province_id": 32,
    "regency_id": 3209,
    "district_id": 320920,
    "value": "Kedungdawa",
    "postal_code": "45153"
  },
  {
    "id": 320920,
    "province_id": 32,
    "regency_id": 3209,
    "district_id": 320920,
    "value": "Kedungjaya",
    "postal_code": "45153"
  },
  {
    "id": 320920,
    "province_id": 32,
    "regency_id": 3209,
    "district_id": 320920,
    "value": "Kertawinangun",
    "postal_code": "45153"
  },
  {
    "id": 320920,
    "province_id": 32,
    "regency_id": 3209,
    "district_id": 320920,
    "value": "Pilangsari",
    "postal_code": "45153"
  },
  {
    "id": 320920,
    "province_id": 32,
    "regency_id": 3209,
    "district_id": 320920,
    "value": "Sutawinangun",
    "postal_code": "45153"
  },
  {
    "id": 320920,
    "province_id": 32,
    "regency_id": 3209,
    "district_id": 320920,
    "value": "Tuk",
    "postal_code": "45153"
  }
]