[
  {
    "id": 721201,
    "province_id": 72,
    "regency_id": 7212,
    "district_id": 721201,
    "value": "Bahontula",
    "postal_code": "94971"
  },
  {
    "id": 721201,
    "province_id": 72,
    "regency_id": 7212,
    "district_id": 721201,
    "value": "Bahoue",
    "postal_code": "94971"
  },
  {
    "id": 721201,
    "province_id": 72,
    "regency_id": 7212,
    "district_id": 721201,
    "value": "Ganda Ganda",
    "postal_code": "94971"
  },
  {
    "id": 721201,
    "province_id": 72,
    "regency_id": 7212,
    "district_id": 721201,
    "value": "Gililana",
    "postal_code": "94971"
  },
  {
    "id": 721201,
    "province_id": 72,
    "regency_id": 7212,
    "district_id": 721201,
    "value": "Kolonodale",
    "postal_code": "94971"
  },
  {
    "id": 721201,
    "province_id": 72,
    "regency_id": 7212,
    "district_id": 721201,
    "value": "Korololaki",
    "postal_code": "94971"
  },
  {
    "id": 721201,
    "province_id": 72,
    "regency_id": 7212,
    "district_id": 721201,
    "value": "Korololama",
    "postal_code": "94971"
  },
  {
    "id": 721201,
    "province_id": 72,
    "regency_id": 7212,
    "district_id": 721201,
    "value": "Koromatantu",
    "postal_code": "94971"
  },
  {
    "id": 721201,
    "province_id": 72,
    "regency_id": 7212,
    "district_id": 721201,
    "value": "Koya",
    "postal_code": "94971"
  },
  {
    "id": 721201,
    "province_id": 72,
    "regency_id": 7212,
    "district_id": 721201,
    "value": "Tanauge",
    "postal_code": "94971"
  }
]