[
  {
    "id": 950708,
    "province_id": 95,
    "regency_id": 9507,
    "district_id": 950708,
    "value": "Arigineri",
    "postal_code": "99595"
  },
  {
    "id": 950708,
    "province_id": 95,
    "regency_id": 9507,
    "district_id": 950708,
    "value": "Arungwi",
    "postal_code": "99595"
  },
  {
    "id": 950708,
    "province_id": 95,
    "regency_id": 9507,
    "district_id": 950708,
    "value": "Gubulela",
    "postal_code": "99595"
  },
  {
    "id": 950708,
    "province_id": 95,
    "regency_id": 9507,
    "district_id": 950708,
    "value": "Gumbo",
    "postal_code": "99595"
  },
  {
    "id": 950708,
    "province_id": 95,
    "regency_id": 9507,
    "district_id": 950708,
    "value": "Kolari",
    "postal_code": "99595"
  },
  {
    "id": 950708,
    "province_id": 95,
    "regency_id": 9507,
    "district_id": 950708,
    "value": "Kuwobaga",
    "postal_code": "99595"
  },
  {
    "id": 950708,
    "province_id": 95,
    "regency_id": 9507,
    "district_id": 950708,
    "value": "Milinggame",
    "postal_code": "99595"
  },
  {
    "id": 950708,
    "province_id": 95,
    "regency_id": 9507,
    "district_id": 950708,
    "value": "Muleme",
    "postal_code": "99595"
  },
  {
    "id": 950708,
    "province_id": 95,
    "regency_id": 9507,
    "district_id": 950708,
    "value": "Ponuma",
    "postal_code": "99595"
  }
]