[
  {
    "id": 350518,
    "province_id": 35,
    "regency_id": 3505,
    "district_id": 350518,
    "value": "Doko",
    "postal_code": "66186"
  },
  {
    "id": 350518,
    "province_id": 35,
    "regency_id": 3505,
    "district_id": 350518,
    "value": "Genengan",
    "postal_code": "66186"
  },
  {
    "id": 350518,
    "province_id": 35,
    "regency_id": 3505,
    "district_id": 350518,
    "value": "Jambepawon",
    "postal_code": "66186"
  },
  {
    "id": 350518,
    "province_id": 35,
    "regency_id": 3505,
    "district_id": 350518,
    "value": "Kalimanis",
    "postal_code": "66186"
  },
  {
    "id": 350518,
    "province_id": 35,
    "regency_id": 3505,
    "district_id": 350518,
    "value": "Plumbangan",
    "postal_code": "66186"
  },
  {
    "id": 350518,
    "province_id": 35,
    "regency_id": 3505,
    "district_id": 350518,
    "value": "Resapombo",
    "postal_code": "66186"
  },
  {
    "id": 350518,
    "province_id": 35,
    "regency_id": 3505,
    "district_id": 350518,
    "value": "Sidorejo",
    "postal_code": "66186"
  },
  {
    "id": 350518,
    "province_id": 35,
    "regency_id": 3505,
    "district_id": 350518,
    "value": "Slorok",
    "postal_code": "66186"
  },
  {
    "id": 350518,
    "province_id": 35,
    "regency_id": 3505,
    "district_id": 350518,
    "value": "Sumberurip (Sumber Urip)",
    "postal_code": "66186"
  },
  {
    "id": 350518,
    "province_id": 35,
    "regency_id": 3505,
    "district_id": 350518,
    "value": "Suru",
    "postal_code": "66186"
  }
]