[
  {
    "id": 9507172009,
    "province_id": 95,
    "regency_id": 9507,
    "district_id": 950717,
    "value": "Beyongwi",
    "postal_code": "99597"
  },
  {
    "id": 9507172006,
    "province_id": 95,
    "regency_id": 9507,
    "district_id": 950717,
    "value": "Dingun",
    "postal_code": "99597"
  },
  {
    "id": 9507172007,
    "province_id": 95,
    "regency_id": 9507,
    "district_id": 950717,
    "value": "Lura Marah",
    "postal_code": "99597"
  },
  {
    "id": 9507172008,
    "province_id": 95,
    "regency_id": 9507,
    "district_id": 950717,
    "value": "Pelek",
    "postal_code": "99597"
  },
  {
    "id": 9507172002,
    "province_id": 95,
    "regency_id": 9507,
    "district_id": 950717,
    "value": "Ponalo",
    "postal_code": "99597"
  },
  {
    "id": 9507172001,
    "province_id": 95,
    "regency_id": 9507,
    "district_id": 950717,
    "value": "Tabukeker",
    "postal_code": "99597"
  },
  {
    "id": 9507172003,
    "province_id": 95,
    "regency_id": 9507,
    "district_id": 950717,
    "value": "Timi",
    "postal_code": "99597"
  },
  {
    "id": 9507172005,
    "province_id": 95,
    "regency_id": 9507,
    "district_id": 950717,
    "value": "Tiwa",
    "postal_code": "99597"
  },
  {
    "id": 9507172004,
    "province_id": 95,
    "regency_id": 9507,
    "district_id": 950717,
    "value": "Wuragi",
    "postal_code": "99597"
  }
]