[
  {
    "id": 332909,
    "province_id": 33,
    "regency_id": 3329,
    "district_id": 332909,
    "value": "Banjaranyar",
    "postal_code": "52216"
  },
  {
    "id": 332909,
    "province_id": 33,
    "regency_id": 3329,
    "district_id": 332909,
    "value": "Brebes",
    "postal_code": "52212"
  },
  {
    "id": 332909,
    "province_id": 33,
    "regency_id": 3329,
    "district_id": 332909,
    "value": "Gandasuli",
    "postal_code": "52215"
  },
  {
    "id": 332909,
    "province_id": 33,
    "regency_id": 3329,
    "district_id": 332909,
    "value": "Kaligangsa Kulon",
    "postal_code": "52217"
  },
  {
    "id": 332909,
    "province_id": 33,
    "regency_id": 3329,
    "district_id": 332909,
    "value": "Kaligangsa Wetan",
    "postal_code": "52217"
  },
  {
    "id": 332909,
    "province_id": 33,
    "regency_id": 3329,
    "district_id": 332909,
    "value": "Kalimati",
    "postal_code": "52219"
  },
  {
    "id": 332909,
    "province_id": 33,
    "regency_id": 3329,
    "district_id": 332909,
    "value": "Kaliwlingi",
    "postal_code": "52219"
  },
  {
    "id": 332909,
    "province_id": 33,
    "regency_id": 3329,
    "district_id": 332909,
    "value": "Kedunguter",
    "postal_code": "52219"
  },
  {
    "id": 332909,
    "province_id": 33,
    "regency_id": 3329,
    "district_id": 332909,
    "value": "Krasak",
    "postal_code": "52219"
  },
  {
    "id": 332909,
    "province_id": 33,
    "regency_id": 3329,
    "district_id": 332909,
    "value": "Lembarawa",
    "postal_code": "52219"
  },
  {
    "id": 332909,
    "province_id": 33,
    "regency_id": 3329,
    "district_id": 332909,
    "value": "Limbangan Kulon",
    "postal_code": "52219"
  },
  {
    "id": 332909,
    "province_id": 33,
    "regency_id": 3329,
    "district_id": 332909,
    "value": "Limbangan Wetan",
    "postal_code": "52218"
  },
  {
    "id": 332909,
    "province_id": 33,
    "regency_id": 3329,
    "district_id": 332909,
    "value": "Padasugih",
    "postal_code": "52214"
  },
  {
    "id": 332909,
    "province_id": 33,
    "regency_id": 3329,
    "district_id": 332909,
    "value": "Pagejugan",
    "postal_code": "52219"
  },
  {
    "id": 332909,
    "province_id": 33,
    "regency_id": 3329,
    "district_id": 332909,
    "value": "Pasarbatang (Pasar Batang)",
    "postal_code": "52211"
  },
  {
    "id": 332909,
    "province_id": 33,
    "regency_id": 3329,
    "district_id": 332909,
    "value": "Pemaron",
    "postal_code": "52219"
  },
  {
    "id": 332909,
    "province_id": 33,
    "regency_id": 3329,
    "district_id": 332909,
    "value": "Pulosari",
    "postal_code": "52213"
  },
  {
    "id": 332909,
    "province_id": 33,
    "regency_id": 3329,
    "district_id": 332909,
    "value": "Randusanga Kulon",
    "postal_code": "52219"
  },
  {
    "id": 332909,
    "province_id": 33,
    "regency_id": 3329,
    "district_id": 332909,
    "value": "Randusanga Wetan",
    "postal_code": "52219"
  },
  {
    "id": 332909,
    "province_id": 33,
    "regency_id": 3329,
    "district_id": 332909,
    "value": "Sigambir",
    "postal_code": "52219"
  },
  {
    "id": 332909,
    "province_id": 33,
    "regency_id": 3329,
    "district_id": 332909,
    "value": "Tengki",
    "postal_code": "52219"
  },
  {
    "id": 332909,
    "province_id": 33,
    "regency_id": 3329,
    "district_id": 332909,
    "value": "Terlangu",
    "postal_code": "52219"
  },
  {
    "id": 332909,
    "province_id": 33,
    "regency_id": 3329,
    "district_id": 332909,
    "value": "Wangandalem",
    "postal_code": "52214"
  }
]