[
  {
    "id": 920913,
    "province_id": 92,
    "regency_id": 9209,
    "district_id": 920913,
    "value": "Bikar",
    "postal_code": "98365"
  },
  {
    "id": 920913,
    "province_id": 92,
    "regency_id": 9209,
    "district_id": 920913,
    "value": "Bukit",
    "postal_code": "98365"
  },
  {
    "id": 920913,
    "province_id": 92,
    "regency_id": 9209,
    "district_id": 920913,
    "value": "Nombrak",
    "postal_code": "98365"
  },
  {
    "id": 920913,
    "province_id": 92,
    "regency_id": 9209,
    "district_id": 920913,
    "value": "Suyam",
    "postal_code": "98365"
  },
  {
    "id": 920913,
    "province_id": 92,
    "regency_id": 9209,
    "district_id": 920913,
    "value": "Syunai",
    "postal_code": "98365"
  },
  {
    "id": 920913,
    "province_id": 92,
    "regency_id": 9209,
    "district_id": 920913,
    "value": "Werbes",
    "postal_code": "98365"
  },
  {
    "id": 920913,
    "province_id": 92,
    "regency_id": 9209,
    "district_id": 920913,
    "value": "Wertam",
    "postal_code": "98365"
  },
  {
    "id": 920913,
    "province_id": 92,
    "regency_id": 9209,
    "district_id": 920913,
    "value": "Wertim",
    "postal_code": "98365"
  },
  {
    "id": 920913,
    "province_id": 92,
    "regency_id": 9209,
    "district_id": 920913,
    "value": "Werur",
    "postal_code": "98365"
  },
  {
    "id": 920913,
    "province_id": 92,
    "regency_id": 9209,
    "district_id": 920913,
    "value": "Werwaf",
    "postal_code": "98365"
  }
]