[
  {
    "id": 3212242001,
    "province_id": 32,
    "regency_id": 3212,
    "district_id": 321224,
    "value": "Bogor",
    "postal_code": "45259"
  },
  {
    "id": 3212242017,
    "province_id": 32,
    "regency_id": 3212,
    "district_id": 321224,
    "value": "Karang Layung",
    "postal_code": "45259"
  },
  {
    "id": 3212242002,
    "province_id": 32,
    "regency_id": 3212,
    "district_id": 321224,
    "value": "Sukra",
    "postal_code": "45259"
  },
  {
    "id": 3212242005,
    "province_id": 32,
    "regency_id": 3212,
    "district_id": 321224,
    "value": "Sukrawetan",
    "postal_code": "45259"
  },
  {
    "id": 3212242006,
    "province_id": 32,
    "regency_id": 3212,
    "district_id": 321224,
    "value": "Sumuradem",
    "postal_code": "45259"
  },
  {
    "id": 3212242007,
    "province_id": 32,
    "regency_id": 3212,
    "district_id": 321224,
    "value": "Sumuradem Timur",
    "postal_code": "45259"
  },
  {
    "id": 3212242004,
    "province_id": 32,
    "regency_id": 3212,
    "district_id": 321224,
    "value": "Tagal Taman (Tegaltaman)",
    "postal_code": "45259"
  },
  {
    "id": 3212242003,
    "province_id": 32,
    "regency_id": 3212,
    "district_id": 321224,
    "value": "Ujunggebang",
    "postal_code": "45259"
  }
]