[
  {
    "id": 950727,
    "province_id": 95,
    "regency_id": 9507,
    "district_id": 950727,
    "value": "Andeyok",
    "postal_code": "99562"
  },
  {
    "id": 950727,
    "province_id": 95,
    "regency_id": 9507,
    "district_id": 950727,
    "value": "Jilam",
    "postal_code": "99562"
  },
  {
    "id": 950727,
    "province_id": 95,
    "regency_id": 9507,
    "district_id": 950727,
    "value": "Kibingga",
    "postal_code": "99562"
  },
  {
    "id": 950727,
    "province_id": 95,
    "regency_id": 9507,
    "district_id": 950727,
    "value": "Kimbo",
    "postal_code": "99562"
  },
  {
    "id": 950727,
    "province_id": 95,
    "regency_id": 9507,
    "district_id": 950727,
    "value": "Lelam",
    "postal_code": "99562"
  },
  {
    "id": 950727,
    "province_id": 95,
    "regency_id": 9507,
    "district_id": 950727,
    "value": "Magelo",
    "postal_code": "99562"
  },
  {
    "id": 950727,
    "province_id": 95,
    "regency_id": 9507,
    "district_id": 950727,
    "value": "Ogobakni",
    "postal_code": "99562"
  },
  {
    "id": 950727,
    "province_id": 95,
    "regency_id": 9507,
    "district_id": 950727,
    "value": "Onesia",
    "postal_code": "99562"
  },
  {
    "id": 950727,
    "province_id": 95,
    "regency_id": 9507,
    "district_id": 950727,
    "value": "Penggima",
    "postal_code": "99562"
  },
  {
    "id": 950727,
    "province_id": 95,
    "regency_id": 9507,
    "district_id": 950727,
    "value": "Teiko",
    "postal_code": "99562"
  },
  {
    "id": 950727,
    "province_id": 95,
    "regency_id": 9507,
    "district_id": 950727,
    "value": "Wapur",
    "postal_code": "99562"
  },
  {
    "id": 950727,
    "province_id": 95,
    "regency_id": 9507,
    "district_id": 950727,
    "value": "Yaneko",
    "postal_code": "99562"
  }
]