[
  {
    "id": 9111072005,
    "province_id": 91,
    "regency_id": 9111,
    "district_id": 911107,
    "value": "Bias",
    "postal_code": "99466"
  },
  {
    "id": 9111072009,
    "province_id": 91,
    "regency_id": 9111,
    "district_id": 911107,
    "value": "Jember",
    "postal_code": "99466"
  },
  {
    "id": 9111072007,
    "province_id": 91,
    "regency_id": 9111,
    "district_id": 911107,
    "value": "Lules",
    "postal_code": "99466"
  },
  {
    "id": 9111072006,
    "province_id": 91,
    "regency_id": 9111,
    "district_id": 911107,
    "value": "Milki",
    "postal_code": "99466"
  },
  {
    "id": 9111072010,
    "province_id": 91,
    "regency_id": 9111,
    "district_id": 911107,
    "value": "Niliti",
    "postal_code": "99466"
  },
  {
    "id": 9111072011,
    "province_id": 91,
    "regency_id": 9111,
    "district_id": 911107,
    "value": "Pris",
    "postal_code": "99466"
  },
  {
    "id": 9111072004,
    "province_id": 91,
    "regency_id": 9111,
    "district_id": 911107,
    "value": "Tefalma (Tefanma)",
    "postal_code": "99466"
  },
  {
    "id": 9111072003,
    "province_id": 91,
    "regency_id": 9111,
    "district_id": 911107,
    "value": "Terfones",
    "postal_code": "99466"
  },
  {
    "id": 9111072002,
    "province_id": 91,
    "regency_id": 9111,
    "district_id": 911107,
    "value": "Towe Atas",
    "postal_code": "99466"
  },
  {
    "id": 9111072001,
    "province_id": 91,
    "regency_id": 9111,
    "district_id": 911107,
    "value": "Towe Hitam",
    "postal_code": "99466"
  }
]