[
  {
    "id": 810304,
    "province_id": 81,
    "regency_id": 8103,
    "district_id": 810304,
    "value": "Batu Putih",
    "postal_code": "97472"
  },
  {
    "id": 810304,
    "province_id": 81,
    "regency_id": 8103,
    "district_id": 810304,
    "value": "Kamatubun",
    "postal_code": "97472"
  },
  {
    "id": 810304,
    "province_id": 81,
    "regency_id": 8103,
    "district_id": 810304,
    "value": "Makatian (Makatiang)",
    "postal_code": "97472"
  },
  {
    "id": 810304,
    "province_id": 81,
    "regency_id": 8103,
    "district_id": 810304,
    "value": "Marantutul",
    "postal_code": "97472"
  },
  {
    "id": 810304,
    "province_id": 81,
    "regency_id": 8103,
    "district_id": 810304,
    "value": "Rumahsalut (Rumasalut)",
    "postal_code": "97472"
  },
  {
    "id": 810304,
    "province_id": 81,
    "regency_id": 8103,
    "district_id": 810304,
    "value": "Themin",
    "postal_code": "97472"
  },
  {
    "id": 810304,
    "province_id": 81,
    "regency_id": 8103,
    "district_id": 810304,
    "value": "Welutu",
    "postal_code": "97472"
  },
  {
    "id": 810304,
    "province_id": 81,
    "regency_id": 8103,
    "district_id": 810304,
    "value": "Weratan",
    "postal_code": "97472"
  },
  {
    "id": 810304,
    "province_id": 81,
    "regency_id": 8103,
    "district_id": 810304,
    "value": "Wermatang",
    "postal_code": "97472"
  }
]