[
  {
    "id": 167404,
    "province_id": 16,
    "regency_id": 1674,
    "district_id": 167404,
    "value": "Jungai",
    "postal_code": "31131"
  },
  {
    "id": 167404,
    "province_id": 16,
    "regency_id": 1674,
    "district_id": 167404,
    "value": "Karang Bindu",
    "postal_code": "31133"
  },
  {
    "id": 167404,
    "province_id": 16,
    "regency_id": 1674,
    "district_id": 167404,
    "value": "Karangan",
    "postal_code": "31131"
  },
  {
    "id": 167404,
    "province_id": 16,
    "regency_id": 1674,
    "district_id": 167404,
    "value": "Karya Mulya",
    "postal_code": "31135"
  },
  {
    "id": 167404,
    "province_id": 16,
    "regency_id": 1674,
    "district_id": 167404,
    "value": "Kemang Tanduk (Kembang Tanduk)",
    "postal_code": "31131"
  },
  {
    "id": 167404,
    "province_id": 16,
    "regency_id": 1674,
    "district_id": 167404,
    "value": "Rambang Senuling",
    "postal_code": "31132"
  },
  {
    "id": 167404,
    "province_id": 16,
    "regency_id": 1674,
    "district_id": 167404,
    "value": "Sinar Rambang",
    "postal_code": "31131"
  },
  {
    "id": 167404,
    "province_id": 16,
    "regency_id": 1674,
    "district_id": 167404,
    "value": "Talang Batu",
    "postal_code": "31131"
  },
  {
    "id": 167404,
    "province_id": 16,
    "regency_id": 1674,
    "district_id": 167404,
    "value": "Tanjung Rambang",
    "postal_code": "31131"
  }
]