[
  {
    "id": 167305,
    "province_id": 16,
    "regency_id": 1673,
    "district_id": 167305,
    "value": "Cereme Taba",
    "postal_code": "31623"
  },
  {
    "id": 167305,
    "province_id": 16,
    "regency_id": 1673,
    "district_id": 167305,
    "value": "Dempo",
    "postal_code": "31623"
  },
  {
    "id": 167305,
    "province_id": 16,
    "regency_id": 1673,
    "district_id": 167305,
    "value": "Jawa Kanan",
    "postal_code": "31621"
  },
  {
    "id": 167305,
    "province_id": 16,
    "regency_id": 1673,
    "district_id": 167305,
    "value": "Jawa Kanan Ss",
    "postal_code": "31621"
  },
  {
    "id": 167305,
    "province_id": 16,
    "regency_id": 1673,
    "district_id": 167305,
    "value": "Jawa Kiri",
    "postal_code": "31622"
  },
  {
    "id": 167305,
    "province_id": 16,
    "regency_id": 1673,
    "district_id": 167305,
    "value": "Karya Bakti",
    "postal_code": "31623"
  },
  {
    "id": 167305,
    "province_id": 16,
    "regency_id": 1673,
    "district_id": 167305,
    "value": "Mesat Jaya",
    "postal_code": "31624"
  },
  {
    "id": 167305,
    "province_id": 16,
    "regency_id": 1673,
    "district_id": 167305,
    "value": "Mesat Seni",
    "postal_code": "31623"
  },
  {
    "id": 167305,
    "province_id": 16,
    "regency_id": 1673,
    "district_id": 167305,
    "value": "Wira Karya",
    "postal_code": "31623"
  }
]