[
  {
    "id": 760605,
    "province_id": 76,
    "regency_id": 7606,
    "district_id": 760605,
    "value": "Benggaulu",
    "postal_code": "91460"
  },
  {
    "id": 760605,
    "province_id": 76,
    "regency_id": 7606,
    "district_id": 760605,
    "value": "Kadaila",
    "postal_code": "91460"
  },
  {
    "id": 760605,
    "province_id": 76,
    "regency_id": 7606,
    "district_id": 760605,
    "value": "Kambunong",
    "postal_code": "91460"
  },
  {
    "id": 760605,
    "province_id": 76,
    "regency_id": 7606,
    "district_id": 760605,
    "value": "Karossa",
    "postal_code": "91460"
  },
  {
    "id": 760605,
    "province_id": 76,
    "regency_id": 7606,
    "district_id": 760605,
    "value": "Kayu Calla",
    "postal_code": "91460"
  },
  {
    "id": 760605,
    "province_id": 76,
    "regency_id": 7606,
    "district_id": 760605,
    "value": "Lara",
    "postal_code": "91460"
  },
  {
    "id": 760605,
    "province_id": 76,
    "regency_id": 7606,
    "district_id": 760605,
    "value": "Lembah Hopo",
    "postal_code": "91460"
  },
  {
    "id": 760605,
    "province_id": 76,
    "regency_id": 7606,
    "district_id": 760605,
    "value": "Salubiro",
    "postal_code": "91460"
  },
  {
    "id": 760605,
    "province_id": 76,
    "regency_id": 7606,
    "district_id": 760605,
    "value": "Sanjango",
    "postal_code": "91460"
  },
  {
    "id": 760605,
    "province_id": 76,
    "regency_id": 7606,
    "district_id": 760605,
    "value": "Suka Maju",
    "postal_code": "91460"
  },
  {
    "id": 760605,
    "province_id": 76,
    "regency_id": 7606,
    "district_id": 760605,
    "value": "Tasokko",
    "postal_code": "91460"
  }
]