[
  {
    "id": 6302172003,
    "province_id": 63,
    "regency_id": 6302,
    "district_id": 630217,
    "value": "Langadai",
    "postal_code": "72161"
  },
  {
    "id": 6302172007,
    "province_id": 63,
    "regency_id": 6302,
    "district_id": 630217,
    "value": "Mandala",
    "postal_code": "72161"
  },
  {
    "id": 6302172005,
    "province_id": 63,
    "regency_id": 6302,
    "district_id": 630217,
    "value": "Pelajau Baru",
    "postal_code": "72161"
  },
  {
    "id": 6302172004,
    "province_id": 63,
    "regency_id": 6302,
    "district_id": 630217,
    "value": "Pulau Panci",
    "postal_code": "72161"
  },
  {
    "id": 6302172009,
    "province_id": 63,
    "regency_id": 6302,
    "district_id": 630217,
    "value": "Sahapi",
    "postal_code": "72161"
  },
  {
    "id": 6302172001,
    "province_id": 63,
    "regency_id": 6302,
    "district_id": 630217,
    "value": "Serongga",
    "postal_code": "72161"
  },
  {
    "id": 6302172002,
    "province_id": 63,
    "regency_id": 6302,
    "district_id": 630217,
    "value": "Tarjun",
    "postal_code": "72161"
  },
  {
    "id": 6302172006,
    "province_id": 63,
    "regency_id": 6302,
    "district_id": 630217,
    "value": "Tegal Rejo",
    "postal_code": "72161"
  },
  {
    "id": 6302172008,
    "province_id": 63,
    "regency_id": 6302,
    "district_id": 630217,
    "value": "Telagasari (Telaga Sari)",
    "postal_code": "72161"
  }
]