[
  {
    "id": 9115072013,
    "province_id": 91,
    "regency_id": 9115,
    "district_id": 911507,
    "value": "Aimasi",
    "postal_code": "98674"
  },
  {
    "id": 9115072002,
    "province_id": 91,
    "regency_id": 9115,
    "district_id": 911507,
    "value": "Fafado",
    "postal_code": "98674"
  },
  {
    "id": 9115072016,
    "province_id": 91,
    "regency_id": 9115,
    "district_id": 911507,
    "value": "Ghaiwando",
    "postal_code": "98674"
  },
  {
    "id": 9115072020,
    "province_id": 91,
    "regency_id": 9115,
    "district_id": 911507,
    "value": "Ghaiwaru",
    "postal_code": "98674"
  },
  {
    "id": 9115072014,
    "province_id": 91,
    "regency_id": 9115,
    "district_id": 911507,
    "value": "Mui",
    "postal_code": "98674"
  },
  {
    "id": 9115072018,
    "province_id": 91,
    "regency_id": 9115,
    "district_id": 911507,
    "value": "Orambin",
    "postal_code": "98674"
  },
  {
    "id": 9115072019,
    "province_id": 91,
    "regency_id": 9115,
    "district_id": 911507,
    "value": "Unareu",
    "postal_code": "98674"
  },
  {
    "id": 9115072015,
    "province_id": 91,
    "regency_id": 9115,
    "district_id": 911507,
    "value": "Waghare",
    "postal_code": "98674"
  },
  {
    "id": 9115072003,
    "province_id": 91,
    "regency_id": 9115,
    "district_id": 911507,
    "value": "Wobari",
    "postal_code": "98674"
  },
  {
    "id": 9115072017,
    "province_id": 91,
    "regency_id": 9115,
    "district_id": 911507,
    "value": "Womorisi",
    "postal_code": "98674"
  }
]