[
  {
    "id": 137503,
    "province_id": 13,
    "regency_id": 1375,
    "district_id": 137503,
    "value": "Aur Kuning",
    "postal_code": "26131"
  },
  {
    "id": 137503,
    "province_id": 13,
    "regency_id": 1375,
    "district_id": 137503,
    "value": "Belakang Balok",
    "postal_code": "26136"
  },
  {
    "id": 137503,
    "province_id": 13,
    "regency_id": 1375,
    "district_id": 137503,
    "value": "Birugo",
    "postal_code": "26138"
  },
  {
    "id": 137503,
    "province_id": 13,
    "regency_id": 1375,
    "district_id": 137503,
    "value": "Kubu Tanjung",
    "postal_code": "26133"
  },
  {
    "id": 137503,
    "province_id": 13,
    "regency_id": 1375,
    "district_id": 137503,
    "value": "Ladang Cakiah",
    "postal_code": "26135"
  },
  {
    "id": 137503,
    "province_id": 13,
    "regency_id": 1375,
    "district_id": 137503,
    "value": "Pakan Labuh/Labuah",
    "postal_code": "26134"
  },
  {
    "id": 137503,
    "province_id": 13,
    "regency_id": 1375,
    "district_id": 137503,
    "value": "Parit Rantang (Parit Antang)",
    "postal_code": "26132"
  },
  {
    "id": 137503,
    "province_id": 13,
    "regency_id": 1375,
    "district_id": 137503,
    "value": "Sapiran",
    "postal_code": "26137"
  }
]