[
  {
    "id": 3204372019,
    "province_id": 32,
    "regency_id": 3204,
    "district_id": 320437,
    "value": "Cingcin",
    "postal_code": "40914"
  },
  {
    "id": 3204372017,
    "province_id": 32,
    "regency_id": 3204,
    "district_id": 320437,
    "value": "Karamatmulya",
    "postal_code": "40914"
  },
  {
    "id": 3204372011,
    "province_id": 32,
    "regency_id": 3204,
    "district_id": 320437,
    "value": "Pamekaran",
    "postal_code": "40912"
  },
  {
    "id": 3204372004,
    "province_id": 32,
    "regency_id": 3204,
    "district_id": 320437,
    "value": "Panyirapan",
    "postal_code": "40915"
  },
  {
    "id": 3204372020,
    "province_id": 32,
    "regency_id": 3204,
    "district_id": 320437,
    "value": "Parungserab",
    "postal_code": "40914"
  },
  {
    "id": 3204372002,
    "province_id": 32,
    "regency_id": 3204,
    "district_id": 320437,
    "value": "Sadu",
    "postal_code": "40913"
  },
  {
    "id": 3204372021,
    "province_id": 32,
    "regency_id": 3204,
    "district_id": 320437,
    "value": "Sekarwangi",
    "postal_code": "40914"
  },
  {
    "id": 3204372001,
    "province_id": 32,
    "regency_id": 3204,
    "district_id": 320437,
    "value": "Soreang",
    "postal_code": "40911"
  },
  {
    "id": 3204372010,
    "province_id": 32,
    "regency_id": 3204,
    "district_id": 320437,
    "value": "Sukajadi",
    "postal_code": "40911"
  },
  {
    "id": 3204372018,
    "province_id": 32,
    "regency_id": 3204,
    "district_id": 320437,
    "value": "Sukanagara",
    "postal_code": "40911"
  }
]