[
  {
    "id": 7102161003,
    "province_id": 71,
    "regency_id": 7102,
    "district_id": 710216,
    "value": "Kampung Jawa",
    "postal_code": "95614"
  },
  {
    "id": 7102162007,
    "province_id": 71,
    "regency_id": 7102,
    "district_id": 710216,
    "value": "Kembuan",
    "postal_code": "95615"
  },
  {
    "id": 7102162008,
    "province_id": 71,
    "regency_id": 7102,
    "district_id": 710216,
    "value": "Kembuan Satu",
    "postal_code": "95615"
  },
  {
    "id": 7102161005,
    "province_id": 71,
    "regency_id": 7102,
    "district_id": 710216,
    "value": "Marawas",
    "postal_code": "95614"
  },
  {
    "id": 7102161002,
    "province_id": 71,
    "regency_id": 7102,
    "district_id": 710216,
    "value": "Sasaran",
    "postal_code": "95615"
  },
  {
    "id": 7102161001,
    "province_id": 71,
    "regency_id": 7102,
    "district_id": 710216,
    "value": "Sumalangka",
    "postal_code": "95615"
  },
  {
    "id": 7102162006,
    "province_id": 71,
    "regency_id": 7102,
    "district_id": 710216,
    "value": "Tonsea Lama",
    "postal_code": "95610"
  },
  {
    "id": 7102161004,
    "province_id": 71,
    "regency_id": 7102,
    "district_id": 710216,
    "value": "Wulauan (Wulaoan)",
    "postal_code": "95614"
  }
]