[
  {
    "id": 350722,
    "province_id": 35,
    "regency_id": 3507,
    "district_id": 350722,
    "value": "Gadingkulon",
    "postal_code": "65151"
  },
  {
    "id": 350722,
    "province_id": 35,
    "regency_id": 3507,
    "district_id": 350722,
    "value": "Kalisongo",
    "postal_code": "65151"
  },
  {
    "id": 350722,
    "province_id": 35,
    "regency_id": 3507,
    "district_id": 350722,
    "value": "Karangwidoro",
    "postal_code": "65151"
  },
  {
    "id": 350722,
    "province_id": 35,
    "regency_id": 3507,
    "district_id": 350722,
    "value": "Kucur",
    "postal_code": "65151"
  },
  {
    "id": 350722,
    "province_id": 35,
    "regency_id": 3507,
    "district_id": 350722,
    "value": "Landungsari",
    "postal_code": "65151"
  },
  {
    "id": 350722,
    "province_id": 35,
    "regency_id": 3507,
    "district_id": 350722,
    "value": "Mulyoagung",
    "postal_code": "65151"
  },
  {
    "id": 350722,
    "province_id": 35,
    "regency_id": 3507,
    "district_id": 350722,
    "value": "Petungsewu (Petung Sewu)",
    "postal_code": "65151"
  },
  {
    "id": 350722,
    "province_id": 35,
    "regency_id": 3507,
    "district_id": 350722,
    "value": "Selorejo",
    "postal_code": "65151"
  },
  {
    "id": 350722,
    "province_id": 35,
    "regency_id": 3507,
    "district_id": 350722,
    "value": "Sumbersekar",
    "postal_code": "65151"
  },
  {
    "id": 350722,
    "province_id": 35,
    "regency_id": 3507,
    "district_id": 350722,
    "value": "Tegalweru",
    "postal_code": "65151"
  }
]