[
  {
    "id": 1203222046,
    "province_id": 12,
    "regency_id": 1203,
    "district_id": 120322,
    "value": "Aek Latong",
    "postal_code": "22758"
  },
  {
    "id": 1203222047,
    "province_id": 12,
    "regency_id": 1203,
    "district_id": 120322,
    "value": "Aek Urat",
    "postal_code": "22758"
  },
  {
    "id": 1203222005,
    "province_id": 12,
    "regency_id": 1203,
    "district_id": 120322,
    "value": "Biru",
    "postal_code": "22758"
  },
  {
    "id": 1203222048,
    "province_id": 12,
    "regency_id": 1203,
    "district_id": 120322,
    "value": "Gorahut",
    "postal_code": "22758"
  },
  {
    "id": 1203222045,
    "province_id": 12,
    "regency_id": 1203,
    "district_id": 120322,
    "value": "Huta Baru",
    "postal_code": "22758"
  },
  {
    "id": 1203222017,
    "province_id": 12,
    "regency_id": 1203,
    "district_id": 120322,
    "value": "Lobu Tayas",
    "postal_code": "22758"
  },
  {
    "id": 1203222003,
    "province_id": 12,
    "regency_id": 1203,
    "district_id": 120322,
    "value": "Sigolang",
    "postal_code": "22758"
  },
  {
    "id": 1203222033,
    "province_id": 12,
    "regency_id": 1203,
    "district_id": 120322,
    "value": "Sihulambu",
    "postal_code": "22758"
  },
  {
    "id": 1203222020,
    "province_id": 12,
    "regency_id": 1203,
    "district_id": 120322,
    "value": "Silangkitang",
    "postal_code": "22758"
  },
  {
    "id": 1203222008,
    "province_id": 12,
    "regency_id": 1203,
    "district_id": 120322,
    "value": "Tapus Godang",
    "postal_code": "22758"
  },
  {
    "id": 1203222044,
    "province_id": 12,
    "regency_id": 1203,
    "district_id": 120322,
    "value": "Tapus Sipagabu",
    "postal_code": "22758"
  },
  {
    "id": 1203222043,
    "province_id": 12,
    "regency_id": 1203,
    "district_id": 120322,
    "value": "Tolang",
    "postal_code": "22758"
  }
]