[
  {
    "id": 741306,
    "province_id": 74,
    "regency_id": 7413,
    "district_id": 741306,
    "value": "Abadi Jaya",
    "postal_code": "93643"
  },
  {
    "id": 741306,
    "province_id": 74,
    "regency_id": 7413,
    "district_id": 741306,
    "value": "Bangko",
    "postal_code": "93643"
  },
  {
    "id": 741306,
    "province_id": 74,
    "regency_id": 7413,
    "district_id": 741306,
    "value": "Gala",
    "postal_code": "93643"
  },
  {
    "id": 741306,
    "province_id": 74,
    "regency_id": 7413,
    "district_id": 741306,
    "value": "Kangkunawe",
    "postal_code": "93643"
  },
  {
    "id": 741306,
    "province_id": 74,
    "regency_id": 7413,
    "district_id": 741306,
    "value": "Kembar Maminasa",
    "postal_code": "93643"
  },
  {
    "id": 741306,
    "province_id": 74,
    "regency_id": 7413,
    "district_id": 741306,
    "value": "Maginti",
    "postal_code": "93643"
  },
  {
    "id": 741306,
    "province_id": 74,
    "regency_id": 7413,
    "district_id": 741306,
    "value": "Pajala",
    "postal_code": "93643"
  },
  {
    "id": 741306,
    "province_id": 74,
    "regency_id": 7413,
    "district_id": 741306,
    "value": "Pasipadanga",
    "postal_code": "93643"
  }
]