[
  {
    "id": 710706,
    "province_id": 71,
    "regency_id": 7107,
    "district_id": 710706,
    "value": "Lobu",
    "postal_code": "95981"
  },
  {
    "id": 710706,
    "province_id": 71,
    "regency_id": 7107,
    "district_id": 710706,
    "value": "Lobu Atas",
    "postal_code": "95981"
  },
  {
    "id": 710706,
    "province_id": 71,
    "regency_id": 7107,
    "district_id": 710706,
    "value": "Lobu Dua",
    "postal_code": "95981"
  },
  {
    "id": 710706,
    "province_id": 71,
    "regency_id": 7107,
    "district_id": 710706,
    "value": "Lobu Kota",
    "postal_code": "95981"
  },
  {
    "id": 710706,
    "province_id": 71,
    "regency_id": 7107,
    "district_id": 710706,
    "value": "Lobu Satu",
    "postal_code": "95981"
  },
  {
    "id": 710706,
    "province_id": 71,
    "regency_id": 7107,
    "district_id": 710706,
    "value": "Ranoketang Atas",
    "postal_code": "95981"
  },
  {
    "id": 710706,
    "province_id": 71,
    "regency_id": 7107,
    "district_id": 710706,
    "value": "Ranoketang Atas Satu",
    "postal_code": "95981"
  },
  {
    "id": 710706,
    "province_id": 71,
    "regency_id": 7107,
    "district_id": 710706,
    "value": "Tondanauw (Toundanouw / Toundanou)",
    "postal_code": "95981"
  },
  {
    "id": 710706,
    "province_id": 71,
    "regency_id": 7107,
    "district_id": 710706,
    "value": "Tondanouw Satu (Toundanouw Satu)",
    "postal_code": "95981"
  },
  {
    "id": 710706,
    "province_id": 71,
    "regency_id": 7107,
    "district_id": 710706,
    "value": "Toundanouw Atas",
    "postal_code": "95981"
  }
]