[
  {
    "id": 160208,
    "province_id": 16,
    "regency_id": 1602,
    "district_id": 160208,
    "value": "Awal Terusan",
    "postal_code": "30651"
  },
  {
    "id": 160208,
    "province_id": 16,
    "regency_id": 1602,
    "district_id": 160208,
    "value": "Batu Ampar",
    "postal_code": "30651"
  },
  {
    "id": 160208,
    "province_id": 16,
    "regency_id": 1602,
    "district_id": 160208,
    "value": "Batu Ampar Baru",
    "postal_code": "30651"
  },
  {
    "id": 160208,
    "province_id": 16,
    "regency_id": 1602,
    "district_id": 160208,
    "value": "Belanti",
    "postal_code": "30651"
  },
  {
    "id": 160208,
    "province_id": 16,
    "regency_id": 1602,
    "district_id": 160208,
    "value": "Berkat",
    "postal_code": "30651"
  },
  {
    "id": 160208,
    "province_id": 16,
    "regency_id": 1602,
    "district_id": 160208,
    "value": "Bungin Tinggi",
    "postal_code": "30651"
  },
  {
    "id": 160208,
    "province_id": 16,
    "regency_id": 1602,
    "district_id": 160208,
    "value": "Mangun Jaya",
    "postal_code": "30651"
  },
  {
    "id": 160208,
    "province_id": 16,
    "regency_id": 1602,
    "district_id": 160208,
    "value": "Pantai",
    "postal_code": "30651"
  },
  {
    "id": 160208,
    "province_id": 16,
    "regency_id": 1602,
    "district_id": 160208,
    "value": "Pematang Buluran",
    "postal_code": "30651"
  },
  {
    "id": 160208,
    "province_id": 16,
    "regency_id": 1602,
    "district_id": 160208,
    "value": "Penyandingan",
    "postal_code": "30651"
  },
  {
    "id": 160208,
    "province_id": 16,
    "regency_id": 1602,
    "district_id": 160208,
    "value": "Rawang Besar",
    "postal_code": "30651"
  },
  {
    "id": 160208,
    "province_id": 16,
    "regency_id": 1602,
    "district_id": 160208,
    "value": "Rengas Pitu",
    "postal_code": "30651"
  },
  {
    "id": 160208,
    "province_id": 16,
    "regency_id": 1602,
    "district_id": 160208,
    "value": "Serdang Menang",
    "postal_code": "30651"
  },
  {
    "id": 160208,
    "province_id": 16,
    "regency_id": 1602,
    "district_id": 160208,
    "value": "Sirah Pulau Padang",
    "postal_code": "30651"
  },
  {
    "id": 160208,
    "province_id": 16,
    "regency_id": 1602,
    "district_id": 160208,
    "value": "Sukaraja",
    "postal_code": "30651"
  },
  {
    "id": 160208,
    "province_id": 16,
    "regency_id": 1602,
    "district_id": 160208,
    "value": "Tanjung Alai",
    "postal_code": "30651"
  },
  {
    "id": 160208,
    "province_id": 16,
    "regency_id": 1602,
    "district_id": 160208,
    "value": "Terate",
    "postal_code": "30651"
  },
  {
    "id": 160208,
    "province_id": 16,
    "regency_id": 1602,
    "district_id": 160208,
    "value": "Terusan Laut",
    "postal_code": "30651"
  },
  {
    "id": 160208,
    "province_id": 16,
    "regency_id": 1602,
    "district_id": 160208,
    "value": "Terusan Menang",
    "postal_code": "30651"
  },
  {
    "id": 160208,
    "province_id": 16,
    "regency_id": 1602,
    "district_id": 160208,
    "value": "Ulak Jermun",
    "postal_code": "30651"
  }
]