[
  {
    "id": 330916,
    "province_id": 33,
    "regency_id": 3309,
    "district_id": 330916,
    "value": "Andong",
    "postal_code": "57384"
  },
  {
    "id": 330916,
    "province_id": 33,
    "regency_id": 3309,
    "district_id": 330916,
    "value": "Beji",
    "postal_code": "57384"
  },
  {
    "id": 330916,
    "province_id": 33,
    "regency_id": 3309,
    "district_id": 330916,
    "value": "Gondangrawe (Gondang Rawe)",
    "postal_code": "57384"
  },
  {
    "id": 330916,
    "province_id": 33,
    "regency_id": 3309,
    "district_id": 330916,
    "value": "Kacangan",
    "postal_code": "57384"
  },
  {
    "id": 330916,
    "province_id": 33,
    "regency_id": 3309,
    "district_id": 330916,
    "value": "Kadipaten",
    "postal_code": "57384"
  },
  {
    "id": 330916,
    "province_id": 33,
    "regency_id": 3309,
    "district_id": 330916,
    "value": "Kedungdowo",
    "postal_code": "57384"
  },
  {
    "id": 330916,
    "province_id": 33,
    "regency_id": 3309,
    "district_id": 330916,
    "value": "Kunti",
    "postal_code": "57384"
  },
  {
    "id": 330916,
    "province_id": 33,
    "regency_id": 3309,
    "district_id": 330916,
    "value": "Mojo",
    "postal_code": "57384"
  },
  {
    "id": 330916,
    "province_id": 33,
    "regency_id": 3309,
    "district_id": 330916,
    "value": "Munggur",
    "postal_code": "57384"
  },
  {
    "id": 330916,
    "province_id": 33,
    "regency_id": 3309,
    "district_id": 330916,
    "value": "Pakang",
    "postal_code": "57384"
  },
  {
    "id": 330916,
    "province_id": 33,
    "regency_id": 3309,
    "district_id": 330916,
    "value": "Pakel",
    "postal_code": "57384"
  },
  {
    "id": 330916,
    "province_id": 33,
    "regency_id": 3309,
    "district_id": 330916,
    "value": "Pelemrejo",
    "postal_code": "57384"
  },
  {
    "id": 330916,
    "province_id": 33,
    "regency_id": 3309,
    "district_id": 330916,
    "value": "Pranggong",
    "postal_code": "57384"
  },
  {
    "id": 330916,
    "province_id": 33,
    "regency_id": 3309,
    "district_id": 330916,
    "value": "Semawung",
    "postal_code": "57384"
  },
  {
    "id": 330916,
    "province_id": 33,
    "regency_id": 3309,
    "district_id": 330916,
    "value": "Sempu",
    "postal_code": "57384"
  },
  {
    "id": 330916,
    "province_id": 33,
    "regency_id": 3309,
    "district_id": 330916,
    "value": "Senggrong",
    "postal_code": "57384"
  }
]