[
  {
    "id": 910605,
    "province_id": 91,
    "regency_id": 9106,
    "district_id": 910605,
    "value": "Asaibori",
    "postal_code": "98562"
  },
  {
    "id": 910605,
    "province_id": 91,
    "regency_id": 9106,
    "district_id": 910605,
    "value": "Asaryendi",
    "postal_code": "98562"
  },
  {
    "id": 910605,
    "province_id": 91,
    "regency_id": 9106,
    "district_id": 910605,
    "value": "Barkori",
    "postal_code": "98562"
  },
  {
    "id": 910605,
    "province_id": 91,
    "regency_id": 9106,
    "district_id": 910605,
    "value": "Indaibori",
    "postal_code": "98562"
  },
  {
    "id": 910605,
    "province_id": 91,
    "regency_id": 9106,
    "district_id": 910605,
    "value": "Kornasoren",
    "postal_code": "98562"
  },
  {
    "id": 910605,
    "province_id": 91,
    "regency_id": 9106,
    "district_id": 910605,
    "value": "Pyefuri",
    "postal_code": "98562"
  },
  {
    "id": 910605,
    "province_id": 91,
    "regency_id": 9106,
    "district_id": 910605,
    "value": "Rarsibo",
    "postal_code": "98562"
  },
  {
    "id": 910605,
    "province_id": 91,
    "regency_id": 9106,
    "district_id": 910605,
    "value": "Yenburwo",
    "postal_code": "98562"
  },
  {
    "id": 910605,
    "province_id": 91,
    "regency_id": 9106,
    "district_id": 910605,
    "value": "Yenmaru",
    "postal_code": "98562"
  }
]