[
  {
    "id": 170509,
    "province_id": 17,
    "regency_id": 1705,
    "district_id": 170509,
    "value": "Bunga Mas",
    "postal_code": "38885"
  },
  {
    "id": 170509,
    "province_id": 17,
    "regency_id": 1705,
    "district_id": 170509,
    "value": "Kota Agung",
    "postal_code": "38885"
  },
  {
    "id": 170509,
    "province_id": 17,
    "regency_id": 1705,
    "district_id": 170509,
    "value": "Kunduran",
    "postal_code": "38885"
  },
  {
    "id": 170509,
    "province_id": 17,
    "regency_id": 1705,
    "district_id": 170509,
    "value": "Rawa Sari (Rawasari)",
    "postal_code": "38885"
  },
  {
    "id": 170509,
    "province_id": 17,
    "regency_id": 1705,
    "district_id": 170509,
    "value": "Selebar",
    "postal_code": "38885"
  },
  {
    "id": 170509,
    "province_id": 17,
    "regency_id": 1705,
    "district_id": 170509,
    "value": "Sembayat",
    "postal_code": "38885"
  },
  {
    "id": 170509,
    "province_id": 17,
    "regency_id": 1705,
    "district_id": 170509,
    "value": "Talang Sali",
    "postal_code": "38885"
  },
  {
    "id": 170509,
    "province_id": 17,
    "regency_id": 1705,
    "district_id": 170509,
    "value": "Tenangan",
    "postal_code": "38885"
  }
]