[
  {
    "id": 7322042009,
    "province_id": 73,
    "regency_id": 7322,
    "district_id": 732204,
    "value": "Bakka",
    "postal_code": "92955"
  },
  {
    "id": 7322042014,
    "province_id": 73,
    "regency_id": 7322,
    "district_id": 732204,
    "value": "Buntu Torpedo (Buntu Terpedo)",
    "postal_code": "92955"
  },
  {
    "id": 7322042007,
    "province_id": 73,
    "regency_id": 7322,
    "district_id": 732204,
    "value": "Malimbu",
    "postal_code": "92955"
  },
  {
    "id": 7322041012,
    "province_id": 73,
    "regency_id": 7322,
    "district_id": 732204,
    "value": "Marobo",
    "postal_code": "92955"
  },
  {
    "id": 7322042003,
    "province_id": 73,
    "regency_id": 7322,
    "district_id": 732204,
    "value": "Pararra",
    "postal_code": "92955"
  },
  {
    "id": 7322042018,
    "province_id": 73,
    "regency_id": 7322,
    "district_id": 732204,
    "value": "Pengkendekan",
    "postal_code": "92955"
  },
  {
    "id": 7322042002,
    "province_id": 73,
    "regency_id": 7322,
    "district_id": 732204,
    "value": "Sabbang",
    "postal_code": "92955"
  },
  {
    "id": 7322042020,
    "province_id": 73,
    "regency_id": 7322,
    "district_id": 732204,
    "value": "Salama",
    "postal_code": "92955"
  },
  {
    "id": 7322042004,
    "province_id": 73,
    "regency_id": 7322,
    "district_id": 732204,
    "value": "Tandung",
    "postal_code": "92955"
  },
  {
    "id": 7322042008,
    "province_id": 73,
    "regency_id": 7322,
    "district_id": 732204,
    "value": "Tullak Tallu (Tulak Tallu)",
    "postal_code": "92955"
  }
]