[
  {
    "id": 7306152002,
    "province_id": 73,
    "regency_id": 7306,
    "district_id": 730615,
    "value": "Bontolempangang (Bontolempangan)",
    "postal_code": "92176"
  },
  {
    "id": 7306152004,
    "province_id": 73,
    "regency_id": 7306,
    "district_id": 730615,
    "value": "Bontoloe",
    "postal_code": "92176"
  },
  {
    "id": 7306152007,
    "province_id": 73,
    "regency_id": 7306,
    "district_id": 730615,
    "value": "Bontotangnga",
    "postal_code": "92176"
  },
  {
    "id": 7306152001,
    "province_id": 73,
    "regency_id": 7306,
    "district_id": 730615,
    "value": "Julumate'ne",
    "postal_code": "92176"
  },
  {
    "id": 7306152003,
    "province_id": 73,
    "regency_id": 7306,
    "district_id": 730615,
    "value": "Lassa Lassa",
    "postal_code": "92176"
  },
  {
    "id": 7306152005,
    "province_id": 73,
    "regency_id": 7306,
    "district_id": 730615,
    "value": "Pa'ladingang",
    "postal_code": "92176"
  },
  {
    "id": 7306152006,
    "province_id": 73,
    "regency_id": 7306,
    "district_id": 730615,
    "value": "Paranglompoa (Parang Lampoa)",
    "postal_code": "92176"
  },
  {
    "id": 7306152008,
    "province_id": 73,
    "regency_id": 7306,
    "district_id": 730615,
    "value": "Ulujangang (Ulujangan)",
    "postal_code": "92176"
  }
]