[
  {
    "id": 5303081015,
    "province_id": 53,
    "regency_id": 5303,
    "district_id": 530308,
    "value": "Ainiut",
    "postal_code": "85671"
  },
  {
    "id": 5303081029,
    "province_id": 53,
    "regency_id": 5303,
    "district_id": 530308,
    "value": "Bitauni",
    "postal_code": "85671"
  },
  {
    "id": 5303082027,
    "province_id": 53,
    "regency_id": 5303,
    "district_id": 530308,
    "value": "Botof",
    "postal_code": "85671"
  },
  {
    "id": 5303081024,
    "province_id": 53,
    "regency_id": 5303,
    "district_id": 530308,
    "value": "Fatoin",
    "postal_code": "85671"
  },
  {
    "id": 5303082026,
    "province_id": 53,
    "regency_id": 5303,
    "district_id": 530308,
    "value": "Fatu'ana",
    "postal_code": "85671"
  },
  {
    "id": 5303082025,
    "province_id": 53,
    "regency_id": 5303,
    "district_id": 530308,
    "value": "Keun",
    "postal_code": "85671"
  },
  {
    "id": 5303082007,
    "province_id": 53,
    "regency_id": 5303,
    "district_id": 530308,
    "value": "Loeram",
    "postal_code": "85671"
  },
  {
    "id": 5303081018,
    "province_id": 53,
    "regency_id": 5303,
    "district_id": 530308,
    "value": "Manunain A",
    "postal_code": "85671"
  },
  {
    "id": 5303082008,
    "province_id": 53,
    "regency_id": 5303,
    "district_id": 530308,
    "value": "Manunain B",
    "postal_code": "85671"
  },
  {
    "id": 5303082005,
    "province_id": 53,
    "regency_id": 5303,
    "district_id": 530308,
    "value": "Nansean",
    "postal_code": "85671"
  },
  {
    "id": 5303082028,
    "province_id": 53,
    "regency_id": 5303,
    "district_id": 530308,
    "value": "Nansean Timur",
    "postal_code": "85671"
  },
  {
    "id": 5303081016,
    "province_id": 53,
    "regency_id": 5303,
    "district_id": 530308,
    "value": "Nunmafo",
    "postal_code": "85671"
  },
  {
    "id": 5303082017,
    "province_id": 53,
    "regency_id": 5303,
    "district_id": 530308,
    "value": "Oenbit",
    "postal_code": "85671"
  },
  {
    "id": 5303082011,
    "province_id": 53,
    "regency_id": 5303,
    "district_id": 530308,
    "value": "Sekon",
    "postal_code": "85671"
  },
  {
    "id": 5303082006,
    "province_id": 53,
    "regency_id": 5303,
    "district_id": 530308,
    "value": "Susulaku",
    "postal_code": "85671"
  },
  {
    "id": 5303082022,
    "province_id": 53,
    "regency_id": 5303,
    "district_id": 530308,
    "value": "Susulaku B",
    "postal_code": "85671"
  },
  {
    "id": 5303082010,
    "province_id": 53,
    "regency_id": 5303,
    "district_id": 530308,
    "value": "Tapenpah",
    "postal_code": "85671"
  }
]