[
  {
    "id": 731105,
    "province_id": 73,
    "regency_id": 7311,
    "district_id": 731105,
    "value": "Bojo",
    "postal_code": "90753"
  },
  {
    "id": 731105,
    "province_id": 73,
    "regency_id": 7311,
    "district_id": 731105,
    "value": "Bojo Baru",
    "postal_code": "90753"
  },
  {
    "id": 731105,
    "province_id": 73,
    "regency_id": 7311,
    "district_id": 731105,
    "value": "Cilellang",
    "postal_code": "90753"
  },
  {
    "id": 731105,
    "province_id": 73,
    "regency_id": 7311,
    "district_id": 731105,
    "value": "Kupa",
    "postal_code": "90753"
  },
  {
    "id": 731105,
    "province_id": 73,
    "regency_id": 7311,
    "district_id": 731105,
    "value": "Mallawa",
    "postal_code": "90711"
  },
  {
    "id": 731105,
    "province_id": 73,
    "regency_id": 7311,
    "district_id": 731105,
    "value": "Manuba",
    "postal_code": "90753"
  },
  {
    "id": 731105,
    "province_id": 73,
    "regency_id": 7311,
    "district_id": 731105,
    "value": "Nepo",
    "postal_code": "90753"
  },
  {
    "id": 731105,
    "province_id": 73,
    "regency_id": 7311,
    "district_id": 731105,
    "value": "Palanro",
    "postal_code": "90753"
  }
]