[
  {
    "id": 331607,
    "province_id": 33,
    "regency_id": 3316,
    "district_id": 331607,
    "value": "Bangowan",
    "postal_code": "58372"
  },
  {
    "id": 331607,
    "province_id": 33,
    "regency_id": 3316,
    "district_id": 331607,
    "value": "Bleboh",
    "postal_code": "58372"
  },
  {
    "id": 331607,
    "province_id": 33,
    "regency_id": 3316,
    "district_id": 331607,
    "value": "Cabak",
    "postal_code": "58372"
  },
  {
    "id": 331607,
    "province_id": 33,
    "regency_id": 3316,
    "district_id": 331607,
    "value": "Genjahan",
    "postal_code": "58372"
  },
  {
    "id": 331607,
    "province_id": 33,
    "regency_id": 3316,
    "district_id": 331607,
    "value": "Janjang",
    "postal_code": "58372"
  },
  {
    "id": 331607,
    "province_id": 33,
    "regency_id": 3316,
    "district_id": 331607,
    "value": "Jiken",
    "postal_code": "58372"
  },
  {
    "id": 331607,
    "province_id": 33,
    "regency_id": 3316,
    "district_id": 331607,
    "value": "Jiworejo",
    "postal_code": "58372"
  },
  {
    "id": 331607,
    "province_id": 33,
    "regency_id": 3316,
    "district_id": 331607,
    "value": "Ketringan",
    "postal_code": "58372"
  },
  {
    "id": 331607,
    "province_id": 33,
    "regency_id": 3316,
    "district_id": 331607,
    "value": "Nglebur",
    "postal_code": "58372"
  },
  {
    "id": 331607,
    "province_id": 33,
    "regency_id": 3316,
    "district_id": 331607,
    "value": "Nglobo",
    "postal_code": "58372"
  },
  {
    "id": 331607,
    "province_id": 33,
    "regency_id": 3316,
    "district_id": 331607,
    "value": "Singonegoro",
    "postal_code": "58372"
  }
]