[
  {
    "id": 5201122002,
    "province_id": 52,
    "regency_id": 5201,
    "district_id": 520112,
    "value": "Batu Kumbang (Batu Kumbung)",
    "postal_code": "83371"
  },
  {
    "id": 5201122010,
    "province_id": 52,
    "regency_id": 5201,
    "district_id": 520112,
    "value": "Batu Mekar",
    "postal_code": "83371"
  },
  {
    "id": 5201122012,
    "province_id": 52,
    "regency_id": 5201,
    "district_id": 520112,
    "value": "Bug-Bug",
    "postal_code": "83371"
  },
  {
    "id": 5201122007,
    "province_id": 52,
    "regency_id": 5201,
    "district_id": 520112,
    "value": "Dasan Geria",
    "postal_code": "83371"
  },
  {
    "id": 5201122004,
    "province_id": 52,
    "regency_id": 5201,
    "district_id": 520112,
    "value": "Duman",
    "postal_code": "83371"
  },
  {
    "id": 5201122013,
    "province_id": 52,
    "regency_id": 5201,
    "district_id": 520112,
    "value": "Gegelang",
    "postal_code": "83371"
  },
  {
    "id": 5201122009,
    "province_id": 52,
    "regency_id": 5201,
    "district_id": 520112,
    "value": "Gegerung",
    "postal_code": "83371"
  },
  {
    "id": 5201122011,
    "province_id": 52,
    "regency_id": 5201,
    "district_id": 520112,
    "value": "Giri Madia",
    "postal_code": "83371"
  },
  {
    "id": 5201122015,
    "province_id": 52,
    "regency_id": 5201,
    "district_id": 520112,
    "value": "Gontoran",
    "postal_code": "83371"
  },
  {
    "id": 5201122005,
    "province_id": 52,
    "regency_id": 5201,
    "district_id": 520112,
    "value": "Karang Bayan",
    "postal_code": "83371"
  },
  {
    "id": 5201122006,
    "province_id": 52,
    "regency_id": 5201,
    "district_id": 520112,
    "value": "Langko",
    "postal_code": "83371"
  },
  {
    "id": 5201122001,
    "province_id": 52,
    "regency_id": 5201,
    "district_id": 520112,
    "value": "Lingsar",
    "postal_code": "83371"
  },
  {
    "id": 5201122008,
    "province_id": 52,
    "regency_id": 5201,
    "district_id": 520112,
    "value": "Peteluan Indah",
    "postal_code": "83371"
  },
  {
    "id": 5201122014,
    "province_id": 52,
    "regency_id": 5201,
    "district_id": 520112,
    "value": "Saribaye",
    "postal_code": "83371"
  },
  {
    "id": 5201122003,
    "province_id": 52,
    "regency_id": 5201,
    "district_id": 520112,
    "value": "Sigerongan",
    "postal_code": "83371"
  }
]