[
  {
    "id": 181101,
    "province_id": 18,
    "regency_id": 1811,
    "district_id": 181101,
    "value": "Mulya Sari",
    "postal_code": "34697"
  },
  {
    "id": 181101,
    "province_id": 18,
    "regency_id": 1811,
    "district_id": 181101,
    "value": "Nipah Kuning",
    "postal_code": "34697"
  },
  {
    "id": 181101,
    "province_id": 18,
    "regency_id": 1811,
    "district_id": 181101,
    "value": "Sido Mulyo",
    "postal_code": "34697"
  },
  {
    "id": 181101,
    "province_id": 18,
    "regency_id": 1811,
    "district_id": 181101,
    "value": "Suka Maju",
    "postal_code": "34697"
  },
  {
    "id": 181101,
    "province_id": 18,
    "regency_id": 1811,
    "district_id": 181101,
    "value": "Sumber Makmur",
    "postal_code": "34697"
  },
  {
    "id": 181101,
    "province_id": 18,
    "regency_id": 1811,
    "district_id": 181101,
    "value": "Sungai Badak",
    "postal_code": "34697"
  },
  {
    "id": 181101,
    "province_id": 18,
    "regency_id": 1811,
    "district_id": 181101,
    "value": "Tanjung Serayan (Tanjung Seraya)",
    "postal_code": "34697"
  },
  {
    "id": 181101,
    "province_id": 18,
    "regency_id": 1811,
    "district_id": 181101,
    "value": "Tirta Laga (Tirtalaga)",
    "postal_code": "34697"
  },
  {
    "id": 181101,
    "province_id": 18,
    "regency_id": 1811,
    "district_id": 181101,
    "value": "Wiralaga I",
    "postal_code": "34697"
  },
  {
    "id": 181101,
    "province_id": 18,
    "regency_id": 1811,
    "district_id": 181101,
    "value": "Wiralaga II",
    "postal_code": "34697"
  },
  {
    "id": 181101,
    "province_id": 18,
    "regency_id": 1811,
    "district_id": 181101,
    "value": "Wiralaga Mulya",
    "postal_code": "34697"
  }
]