[
  {
    "id": 3510062005,
    "province_id": 35,
    "regency_id": 3510,
    "district_id": 351006,
    "value": "Benculuk",
    "postal_code": "68482"
  },
  {
    "id": 3510062004,
    "province_id": 35,
    "regency_id": 3510,
    "district_id": 351006,
    "value": "Cluring",
    "postal_code": "68482"
  },
  {
    "id": 3510062009,
    "province_id": 35,
    "regency_id": 3510,
    "district_id": 351006,
    "value": "Kaliploso",
    "postal_code": "68482"
  },
  {
    "id": 3510062001,
    "province_id": 35,
    "regency_id": 3510,
    "district_id": 351006,
    "value": "Plampangrejo",
    "postal_code": "68482"
  },
  {
    "id": 3510062008,
    "province_id": 35,
    "regency_id": 3510,
    "district_id": 351006,
    "value": "Sarimulyo",
    "postal_code": "68482"
  },
  {
    "id": 3510062003,
    "province_id": 35,
    "regency_id": 3510,
    "district_id": 351006,
    "value": "Sembulung",
    "postal_code": "68482"
  },
  {
    "id": 3510062006,
    "province_id": 35,
    "regency_id": 3510,
    "district_id": 351006,
    "value": "Sraten",
    "postal_code": "68482"
  },
  {
    "id": 3510062007,
    "province_id": 35,
    "regency_id": 3510,
    "district_id": 351006,
    "value": "Tamanagung",
    "postal_code": "68482"
  },
  {
    "id": 3510062002,
    "province_id": 35,
    "regency_id": 3510,
    "district_id": 351006,
    "value": "Tampo",
    "postal_code": "68482"
  }
]