[
  {
    "id": 730804,
    "province_id": 73,
    "regency_id": 7308,
    "district_id": 730804,
    "value": "Bellu",
    "postal_code": "92775"
  },
  {
    "id": 730804,
    "province_id": 73,
    "regency_id": 7308,
    "district_id": 730804,
    "value": "Gattareng",
    "postal_code": "92775"
  },
  {
    "id": 730804,
    "province_id": 73,
    "regency_id": 7308,
    "district_id": 730804,
    "value": "Malimongeng",
    "postal_code": "92775"
  },
  {
    "id": 730804,
    "province_id": 73,
    "regency_id": 7308,
    "district_id": 730804,
    "value": "Manera",
    "postal_code": "92775"
  },
  {
    "id": 730804,
    "province_id": 73,
    "regency_id": 7308,
    "district_id": 730804,
    "value": "Mappatoba",
    "postal_code": "92775"
  },
  {
    "id": 730804,
    "province_id": 73,
    "regency_id": 7308,
    "district_id": 730804,
    "value": "Pancaitana",
    "postal_code": "92775"
  },
  {
    "id": 730804,
    "province_id": 73,
    "regency_id": 7308,
    "district_id": 730804,
    "value": "Tebba",
    "postal_code": "92775"
  },
  {
    "id": 730804,
    "province_id": 73,
    "regency_id": 7308,
    "district_id": 730804,
    "value": "Ulubalang (Ulu Balang)",
    "postal_code": "92775"
  }
]