[
  {
    "id": 350815,
    "province_id": 35,
    "regency_id": 3508,
    "district_id": 350815,
    "value": "Bondoyudo",
    "postal_code": "67351"
  },
  {
    "id": 350815,
    "province_id": 35,
    "regency_id": 3508,
    "district_id": 350815,
    "value": "Dawuhan Lor",
    "postal_code": "67351"
  },
  {
    "id": 350815,
    "province_id": 35,
    "regency_id": 3508,
    "district_id": 350815,
    "value": "Karangsari",
    "postal_code": "67351"
  },
  {
    "id": 350815,
    "province_id": 35,
    "regency_id": 3508,
    "district_id": 350815,
    "value": "Kebonagung",
    "postal_code": "67351"
  },
  {
    "id": 350815,
    "province_id": 35,
    "regency_id": 3508,
    "district_id": 350815,
    "value": "Klanting",
    "postal_code": "67351"
  },
  {
    "id": 350815,
    "province_id": 35,
    "regency_id": 3508,
    "district_id": 350815,
    "value": "Kutorenon",
    "postal_code": "67351"
  },
  {
    "id": 350815,
    "province_id": 35,
    "regency_id": 3508,
    "district_id": 350815,
    "value": "Selokbesuki",
    "postal_code": "67351"
  },
  {
    "id": 350815,
    "province_id": 35,
    "regency_id": 3508,
    "district_id": 350815,
    "value": "Selokgondang",
    "postal_code": "67351"
  },
  {
    "id": 350815,
    "province_id": 35,
    "regency_id": 3508,
    "district_id": 350815,
    "value": "Sumberejo",
    "postal_code": "67351"
  },
  {
    "id": 350815,
    "province_id": 35,
    "regency_id": 3508,
    "district_id": 350815,
    "value": "Uranggantung",
    "postal_code": "67351"
  }
]