[
  {
    "id": 740427,
    "province_id": 74,
    "regency_id": 7404,
    "district_id": 740427,
    "value": "Bahari Makmur",
    "postal_code": "93758"
  },
  {
    "id": 740427,
    "province_id": 74,
    "regency_id": 7404,
    "district_id": 740427,
    "value": "Gunungjaya (Gunung Jaya)",
    "postal_code": "93758"
  },
  {
    "id": 740427,
    "province_id": 74,
    "regency_id": 7404,
    "district_id": 740427,
    "value": "Karya Jaya",
    "postal_code": "93758"
  },
  {
    "id": 740427,
    "province_id": 74,
    "regency_id": 7404,
    "district_id": 740427,
    "value": "Kumbewaha",
    "postal_code": "93758"
  },
  {
    "id": 740427,
    "province_id": 74,
    "regency_id": 7404,
    "district_id": 740427,
    "value": "Kuraa",
    "postal_code": "93758"
  },
  {
    "id": 740427,
    "province_id": 74,
    "regency_id": 7404,
    "district_id": 740427,
    "value": "Labuandiri",
    "postal_code": "93758"
  },
  {
    "id": 740427,
    "province_id": 74,
    "regency_id": 7404,
    "district_id": 740427,
    "value": "Manuru",
    "postal_code": "93758"
  },
  {
    "id": 740427,
    "province_id": 74,
    "regency_id": 7404,
    "district_id": 740427,
    "value": "Matanauwe",
    "postal_code": "93758"
  },
  {
    "id": 740427,
    "province_id": 74,
    "regency_id": 7404,
    "district_id": 740427,
    "value": "Sampuabalo",
    "postal_code": "93758"
  },
  {
    "id": 740427,
    "province_id": 74,
    "regency_id": 7404,
    "district_id": 740427,
    "value": "Sumber Sari",
    "postal_code": "93758"
  },
  {
    "id": 740427,
    "province_id": 74,
    "regency_id": 7404,
    "district_id": 740427,
    "value": "Walompo",
    "postal_code": "93758"
  }
]