[
  {
    "id": 360228,
    "province_id": 36,
    "regency_id": 3602,
    "district_id": 360228,
    "value": "Cibungur",
    "postal_code": "42395"
  },
  {
    "id": 360228,
    "province_id": 36,
    "regency_id": 3602,
    "district_id": 360228,
    "value": "Cigemblong",
    "postal_code": "42395"
  },
  {
    "id": 360228,
    "province_id": 36,
    "regency_id": 3602,
    "district_id": 360228,
    "value": "Cikadongdong",
    "postal_code": "42395"
  },
  {
    "id": 360228,
    "province_id": 36,
    "regency_id": 3602,
    "district_id": 360228,
    "value": "Cikaret",
    "postal_code": "42395"
  },
  {
    "id": 360228,
    "province_id": 36,
    "regency_id": 3602,
    "district_id": 360228,
    "value": "Cikate",
    "postal_code": "42395"
  },
  {
    "id": 360228,
    "province_id": 36,
    "regency_id": 3602,
    "district_id": 360228,
    "value": "Mugijaya",
    "postal_code": "42395"
  },
  {
    "id": 360228,
    "province_id": 36,
    "regency_id": 3602,
    "district_id": 360228,
    "value": "Peucangpari",
    "postal_code": "42395"
  },
  {
    "id": 360228,
    "province_id": 36,
    "regency_id": 3602,
    "district_id": 360228,
    "value": "Wangunjaya",
    "postal_code": "42395"
  }
]