[
  {
    "id": 5306072019,
    "province_id": 53,
    "regency_id": 5306,
    "district_id": 530607,
    "value": "Kwuta (Kawuta)",
    "postal_code": "86271"
  },
  {
    "id": 5306072007,
    "province_id": 53,
    "regency_id": 5306,
    "district_id": 530607,
    "value": "Labelen",
    "postal_code": "86271"
  },
  {
    "id": 5306072018,
    "province_id": 53,
    "regency_id": 5306,
    "district_id": 530607,
    "value": "Lamawai",
    "postal_code": "86271"
  },
  {
    "id": 5306072003,
    "province_id": 53,
    "regency_id": 5306,
    "district_id": 530607,
    "value": "Lebao",
    "postal_code": "86271"
  },
  {
    "id": 5306072017,
    "province_id": 53,
    "regency_id": 5306,
    "district_id": 530607,
    "value": "Lewogeka",
    "postal_code": "86271"
  },
  {
    "id": 5306072013,
    "province_id": 53,
    "regency_id": 5306,
    "district_id": 530607,
    "value": "Lewohedo",
    "postal_code": "86271"
  },
  {
    "id": 5306072011,
    "province_id": 53,
    "regency_id": 5306,
    "district_id": 530607,
    "value": "Liwo",
    "postal_code": "86271"
  },
  {
    "id": 5306072009,
    "province_id": 53,
    "regency_id": 5306,
    "district_id": 530607,
    "value": "Lohayong I",
    "postal_code": "86271"
  },
  {
    "id": 5306072014,
    "province_id": 53,
    "regency_id": 5306,
    "district_id": 530607,
    "value": "Lohayong II",
    "postal_code": "86271"
  },
  {
    "id": 5306072008,
    "province_id": 53,
    "regency_id": 5306,
    "district_id": 530607,
    "value": "Menanga",
    "postal_code": "86271"
  },
  {
    "id": 5306072005,
    "province_id": 53,
    "regency_id": 5306,
    "district_id": 530607,
    "value": "Motonwutun",
    "postal_code": "86271"
  },
  {
    "id": 5306072012,
    "province_id": 53,
    "regency_id": 5306,
    "district_id": 530607,
    "value": "Tanah Werang",
    "postal_code": "86271"
  },
  {
    "id": 5306072002,
    "province_id": 53,
    "regency_id": 5306,
    "district_id": 530607,
    "value": "Watanhura",
    "postal_code": "86271"
  },
  {
    "id": 5306072016,
    "province_id": 53,
    "regency_id": 5306,
    "district_id": 530607,
    "value": "Watanhura II",
    "postal_code": "86271"
  },
  {
    "id": 5306072006,
    "province_id": 53,
    "regency_id": 5306,
    "district_id": 530607,
    "value": "Watobuku",
    "postal_code": "86271"
  },
  {
    "id": 5306072004,
    "province_id": 53,
    "regency_id": 5306,
    "district_id": 530607,
    "value": "Watohari",
    "postal_code": "86271"
  },
  {
    "id": 5306072010,
    "province_id": 53,
    "regency_id": 5306,
    "district_id": 530607,
    "value": "Wulublolong",
    "postal_code": "86271"
  }
]