[
  {
    "id": 760404,
    "province_id": 76,
    "regency_id": 7604,
    "district_id": 760404,
    "value": "Darma",
    "postal_code": "91314"
  },
  {
    "id": 760404,
    "province_id": 76,
    "regency_id": 7604,
    "district_id": 760404,
    "value": "Lantora",
    "postal_code": "91313"
  },
  {
    "id": 760404,
    "province_id": 76,
    "regency_id": 7604,
    "district_id": 760404,
    "value": "Madate (Madatte)",
    "postal_code": "91315"
  },
  {
    "id": 760404,
    "province_id": 76,
    "regency_id": 7604,
    "district_id": 760404,
    "value": "Manding",
    "postal_code": "91311"
  },
  {
    "id": 760404,
    "province_id": 76,
    "regency_id": 7604,
    "district_id": 760404,
    "value": "Pekkabata",
    "postal_code": "91311"
  },
  {
    "id": 760404,
    "province_id": 76,
    "regency_id": 7604,
    "district_id": 760404,
    "value": "Polewali",
    "postal_code": "91311"
  },
  {
    "id": 760404,
    "province_id": 76,
    "regency_id": 7604,
    "district_id": 760404,
    "value": "Sulewatang",
    "postal_code": "91315"
  },
  {
    "id": 760404,
    "province_id": 76,
    "regency_id": 7604,
    "district_id": 760404,
    "value": "Takatidung",
    "postal_code": "91311"
  },
  {
    "id": 760404,
    "province_id": 76,
    "regency_id": 7604,
    "district_id": 760404,
    "value": "Wattang",
    "postal_code": "91315"
  }
]