[
  {
    "id": 121402,
    "province_id": 12,
    "regency_id": 1214,
    "district_id": 121402,
    "value": "Doli-doli Idanotae (Doli Doli Idano Tae)",
    "postal_code": "22873"
  },
  {
    "id": 121402,
    "province_id": 12,
    "regency_id": 1214,
    "district_id": 121402,
    "value": "Gunung Gabungan",
    "postal_code": "22873"
  },
  {
    "id": 121402,
    "province_id": 12,
    "regency_id": 1214,
    "district_id": 121402,
    "value": "Hiliana'a Gomo",
    "postal_code": "22873"
  },
  {
    "id": 121402,
    "province_id": 12,
    "regency_id": 1214,
    "district_id": 121402,
    "value": "Lawa Lawa Luo Gomo",
    "postal_code": "22873"
  },
  {
    "id": 121402,
    "province_id": 12,
    "regency_id": 1214,
    "district_id": 121402,
    "value": "Lolosoni",
    "postal_code": "22873"
  },
  {
    "id": 121402,
    "province_id": 12,
    "regency_id": 1214,
    "district_id": 121402,
    "value": "Orahili Gomo",
    "postal_code": "22873"
  },
  {
    "id": 121402,
    "province_id": 12,
    "regency_id": 1214,
    "district_id": 121402,
    "value": "Orahili Sibohou",
    "postal_code": "22873"
  },
  {
    "id": 121402,
    "province_id": 12,
    "regency_id": 1214,
    "district_id": 121402,
    "value": "Sifaoro'asi Gomo",
    "postal_code": "22873"
  },
  {
    "id": 121402,
    "province_id": 12,
    "regency_id": 1214,
    "district_id": 121402,
    "value": "Suka Maju Mohili",
    "postal_code": "22873"
  },
  {
    "id": 121402,
    "province_id": 12,
    "regency_id": 1214,
    "district_id": 121402,
    "value": "Tanoniko'o",
    "postal_code": "22873"
  },
  {
    "id": 121402,
    "province_id": 12,
    "regency_id": 1214,
    "district_id": 121402,
    "value": "Umbu Orahua",
    "postal_code": "22873"
  }
]