[
  {
    "id": 630205,
    "province_id": 63,
    "regency_id": 6302,
    "district_id": 630205,
    "value": "Balambus",
    "postal_code": "72155"
  },
  {
    "id": 630205,
    "province_id": 63,
    "regency_id": 6302,
    "district_id": 630205,
    "value": "Kanibungan",
    "postal_code": "72155"
  },
  {
    "id": 630205,
    "province_id": 63,
    "regency_id": 6302,
    "district_id": 630205,
    "value": "Mandin",
    "postal_code": "72155"
  },
  {
    "id": 630205,
    "province_id": 63,
    "regency_id": 6302,
    "district_id": 630205,
    "value": "Rampa",
    "postal_code": "72155"
  },
  {
    "id": 630205,
    "province_id": 63,
    "regency_id": 6302,
    "district_id": 630205,
    "value": "Sekapung",
    "postal_code": "72155"
  },
  {
    "id": 630205,
    "province_id": 63,
    "regency_id": 6302,
    "district_id": 630205,
    "value": "Serakaman (Sarakaman)",
    "postal_code": "72155"
  },
  {
    "id": 630205,
    "province_id": 63,
    "regency_id": 6302,
    "district_id": 630205,
    "value": "Sungai Bali",
    "postal_code": "72155"
  },
  {
    "id": 630205,
    "province_id": 63,
    "regency_id": 6302,
    "district_id": 630205,
    "value": "Ujung",
    "postal_code": "72155"
  }
]