[
  {
    "id": 9403132006,
    "province_id": 94,
    "regency_id": 9403,
    "district_id": 940313,
    "value": "Boba",
    "postal_code": "98719"
  },
  {
    "id": 9403132007,
    "province_id": 94,
    "regency_id": 9403,
    "district_id": 940313,
    "value": "Iyaidagi",
    "postal_code": "98719"
  },
  {
    "id": 9403132008,
    "province_id": 94,
    "regency_id": 9403,
    "district_id": 940313,
    "value": "Iyaitadi",
    "postal_code": "98719"
  },
  {
    "id": 9403132003,
    "province_id": 94,
    "regency_id": 9403,
    "district_id": 940313,
    "value": "Kopaidagi",
    "postal_code": "98719"
  },
  {
    "id": 9403132001,
    "province_id": 94,
    "regency_id": 9403,
    "district_id": 940313,
    "value": "Pugo",
    "postal_code": "98719"
  },
  {
    "id": 9403132005,
    "province_id": 94,
    "regency_id": 9403,
    "district_id": 940313,
    "value": "Tipago",
    "postal_code": "98719"
  },
  {
    "id": 9403132004,
    "province_id": 94,
    "regency_id": 9403,
    "district_id": 940313,
    "value": "Uwibutu",
    "postal_code": "98719"
  },
  {
    "id": 9403132002,
    "province_id": 94,
    "regency_id": 9403,
    "district_id": 940313,
    "value": "Waidide",
    "postal_code": "98719"
  },
  {
    "id": 9403132009,
    "province_id": 94,
    "regency_id": 9403,
    "district_id": 940313,
    "value": "Waiepo",
    "postal_code": "98719"
  }
]