[
  {
    "id": 321113,
    "province_id": 32,
    "regency_id": 3211,
    "district_id": 321113,
    "value": "Cigendel",
    "postal_code": "45365"
  },
  {
    "id": 321113,
    "province_id": 32,
    "regency_id": 3211,
    "district_id": 321113,
    "value": "Cijeruk",
    "postal_code": "45365"
  },
  {
    "id": 321113,
    "province_id": 32,
    "regency_id": 3211,
    "district_id": 321113,
    "value": "Cilembu",
    "postal_code": "45365"
  },
  {
    "id": 321113,
    "province_id": 32,
    "regency_id": 3211,
    "district_id": 321113,
    "value": "Cimarias",
    "postal_code": "45365"
  },
  {
    "id": 321113,
    "province_id": 32,
    "regency_id": 3211,
    "district_id": 321113,
    "value": "Cinanggerang",
    "postal_code": "45365"
  },
  {
    "id": 321113,
    "province_id": 32,
    "regency_id": 3211,
    "district_id": 321113,
    "value": "Ciptasari",
    "postal_code": "45365"
  },
  {
    "id": 321113,
    "province_id": 32,
    "regency_id": 3211,
    "district_id": 321113,
    "value": "Citali",
    "postal_code": "45365"
  },
  {
    "id": 321113,
    "province_id": 32,
    "regency_id": 3211,
    "district_id": 321113,
    "value": "Haurgombong (Haurngombong)",
    "postal_code": "45365"
  },
  {
    "id": 321113,
    "province_id": 32,
    "regency_id": 3211,
    "district_id": 321113,
    "value": "Mekarbakti",
    "postal_code": "45365"
  },
  {
    "id": 321113,
    "province_id": 32,
    "regency_id": 3211,
    "district_id": 321113,
    "value": "Pamulihan",
    "postal_code": "45365"
  },
  {
    "id": 321113,
    "province_id": 32,
    "regency_id": 3211,
    "district_id": 321113,
    "value": "Sukawangi",
    "postal_code": "45365"
  }
]