[
  {
    "id": 732210,
    "province_id": 73,
    "regency_id": 7322,
    "district_id": 732210,
    "value": "Benteng",
    "postal_code": "92917"
  },
  {
    "id": 732210,
    "province_id": 73,
    "regency_id": 7322,
    "district_id": 732210,
    "value": "Cendana Putih",
    "postal_code": "92917"
  },
  {
    "id": 732210,
    "province_id": 73,
    "regency_id": 7322,
    "district_id": 732210,
    "value": "Cendana Putih I (Cendana Putih Satu)",
    "postal_code": "92917"
  },
  {
    "id": 732210,
    "province_id": 73,
    "regency_id": 7322,
    "district_id": 732210,
    "value": "Cendana Putih II (Cendana Putih Dua)",
    "postal_code": "92917"
  },
  {
    "id": 732210,
    "province_id": 73,
    "regency_id": 7322,
    "district_id": 732210,
    "value": "Harapan/Kampung Baru",
    "postal_code": "92917"
  },
  {
    "id": 732210,
    "province_id": 73,
    "regency_id": 7322,
    "district_id": 732210,
    "value": "Hasana (Hasanah)",
    "postal_code": "92917"
  },
  {
    "id": 732210,
    "province_id": 73,
    "regency_id": 7322,
    "district_id": 732210,
    "value": "Kapidi",
    "postal_code": "92917"
  },
  {
    "id": 732210,
    "province_id": 73,
    "regency_id": 7322,
    "district_id": 732210,
    "value": "Mangalle (Mangale)",
    "postal_code": "92917"
  },
  {
    "id": 732210,
    "province_id": 73,
    "regency_id": 7322,
    "district_id": 732210,
    "value": "Mappedeceng",
    "postal_code": "92917"
  },
  {
    "id": 732210,
    "province_id": 73,
    "regency_id": 7322,
    "district_id": 732210,
    "value": "Mekar Jaya Tondok",
    "postal_code": "92917"
  },
  {
    "id": 732210,
    "province_id": 73,
    "regency_id": 7322,
    "district_id": 732210,
    "value": "Sumber Harum",
    "postal_code": "92917"
  },
  {
    "id": 732210,
    "province_id": 73,
    "regency_id": 7322,
    "district_id": 732210,
    "value": "Sumber Wangi",
    "postal_code": "92917"
  },
  {
    "id": 732210,
    "province_id": 73,
    "regency_id": 7322,
    "district_id": 732210,
    "value": "Tarak Tallu (Tarra Tallu)",
    "postal_code": "92917"
  },
  {
    "id": 732210,
    "province_id": 73,
    "regency_id": 7322,
    "district_id": 732210,
    "value": "Ujung Mattajang",
    "postal_code": "92917"
  },
  {
    "id": 732210,
    "province_id": 73,
    "regency_id": 7322,
    "district_id": 732210,
    "value": "Uraso",
    "postal_code": "92917"
  }
]