[
  {
    "id": 7308102008,
    "province_id": 73,
    "regency_id": 7308,
    "district_id": 730810,
    "value": "Abbumpungeng",
    "postal_code": "92772"
  },
  {
    "id": 7308102006,
    "province_id": 73,
    "regency_id": 7308,
    "district_id": 730810,
    "value": "Ajangpulu",
    "postal_code": "92772"
  },
  {
    "id": 7308102002,
    "province_id": 73,
    "regency_id": 7308,
    "district_id": 730810,
    "value": "Arasoe",
    "postal_code": "92772"
  },
  {
    "id": 7308102010,
    "province_id": 73,
    "regency_id": 7308,
    "district_id": 730810,
    "value": "Awo",
    "postal_code": "92772"
  },
  {
    "id": 7308102012,
    "province_id": 73,
    "regency_id": 7308,
    "district_id": 730810,
    "value": "Cinennung",
    "postal_code": "92772"
  },
  {
    "id": 7308102011,
    "province_id": 73,
    "regency_id": 7308,
    "district_id": 730810,
    "value": "Kanco",
    "postal_code": "92772"
  },
  {
    "id": 7308102009,
    "province_id": 73,
    "regency_id": 7308,
    "district_id": 730810,
    "value": "Kawerang",
    "postal_code": "92772"
  },
  {
    "id": 7308102004,
    "province_id": 73,
    "regency_id": 7308,
    "district_id": 730810,
    "value": "Lompu",
    "postal_code": "92772"
  },
  {
    "id": 7308102007,
    "province_id": 73,
    "regency_id": 7308,
    "district_id": 730810,
    "value": "Padang Loang",
    "postal_code": "92772"
  },
  {
    "id": 7308101001,
    "province_id": 73,
    "regency_id": 7308,
    "district_id": 730810,
    "value": "Tanete",
    "postal_code": "92772"
  },
  {
    "id": 7308102003,
    "province_id": 73,
    "regency_id": 7308,
    "district_id": 730810,
    "value": "Tanete Harapan",
    "postal_code": "92772"
  },
  {
    "id": 7308102005,
    "province_id": 73,
    "regency_id": 7308,
    "district_id": 730810,
    "value": "Walenreng (Welenreng)",
    "postal_code": "92772"
  }
]