[
  {
    "id": 940312,
    "province_id": 94,
    "regency_id": 9403,
    "district_id": 940312,
    "value": "Boutai",
    "postal_code": "98716"
  },
  {
    "id": 940312,
    "province_id": 94,
    "regency_id": 9403,
    "district_id": 940312,
    "value": "Bubugiwo",
    "postal_code": "98716"
  },
  {
    "id": 940312,
    "province_id": 94,
    "regency_id": 9403,
    "district_id": 940312,
    "value": "Buka Duwata",
    "postal_code": "98716"
  },
  {
    "id": 940312,
    "province_id": 94,
    "regency_id": 9403,
    "district_id": 940312,
    "value": "Dagouto",
    "postal_code": "98716"
  },
  {
    "id": 940312,
    "province_id": 94,
    "regency_id": 9403,
    "district_id": 940312,
    "value": "Dei",
    "postal_code": "98716"
  },
  {
    "id": 940312,
    "province_id": 94,
    "regency_id": 9403,
    "district_id": 940312,
    "value": "Kopabutu",
    "postal_code": "98716"
  },
  {
    "id": 940312,
    "province_id": 94,
    "regency_id": 9403,
    "district_id": 940312,
    "value": "Obaiyoweta",
    "postal_code": "98716"
  },
  {
    "id": 940312,
    "province_id": 94,
    "regency_id": 9403,
    "district_id": 940312,
    "value": "Tamugauwo",
    "postal_code": "98716"
  },
  {
    "id": 940312,
    "province_id": 94,
    "regency_id": 9403,
    "district_id": 940312,
    "value": "Yimouto",
    "postal_code": "98716"
  }
]