[
  {
    "id": 3303051005,
    "province_id": 33,
    "regency_id": 3303,
    "district_id": 330305,
    "value": "Bancar",
    "postal_code": "53316"
  },
  {
    "id": 3303051001,
    "province_id": 33,
    "regency_id": 3303,
    "district_id": 330305,
    "value": "Bojong",
    "postal_code": "53319"
  },
  {
    "id": 3303052004,
    "province_id": 33,
    "regency_id": 3303,
    "district_id": 330305,
    "value": "Jatisaba",
    "postal_code": "53316"
  },
  {
    "id": 3303051009,
    "province_id": 33,
    "regency_id": 3303,
    "district_id": 330305,
    "value": "Kandanggampang (Kandang Gampang)",
    "postal_code": "53319"
  },
  {
    "id": 3303051003,
    "province_id": 33,
    "regency_id": 3303,
    "district_id": 330305,
    "value": "Kedungmenjangan (Kedung Menjangan)",
    "postal_code": "53315"
  },
  {
    "id": 3303051012,
    "province_id": 33,
    "regency_id": 3303,
    "district_id": 330305,
    "value": "Kembaran Kulon",
    "postal_code": "53319"
  },
  {
    "id": 3303051007,
    "province_id": 33,
    "regency_id": 3303,
    "district_id": 330305,
    "value": "Penambongan",
    "postal_code": "53314"
  },
  {
    "id": 3303051008,
    "province_id": 33,
    "regency_id": 3303,
    "district_id": 330305,
    "value": "Purbalingga Kidul",
    "postal_code": "53313"
  },
  {
    "id": 3303051010,
    "province_id": 33,
    "regency_id": 3303,
    "district_id": 330305,
    "value": "Purbalingga Kulon",
    "postal_code": "53312"
  },
  {
    "id": 3303051011,
    "province_id": 33,
    "regency_id": 3303,
    "district_id": 330305,
    "value": "Purbalingga Lor",
    "postal_code": "53311"
  },
  {
    "id": 3303051006,
    "province_id": 33,
    "regency_id": 3303,
    "district_id": 330305,
    "value": "Purbalingga Wetan",
    "postal_code": "53317"
  },
  {
    "id": 3303052002,
    "province_id": 33,
    "regency_id": 3303,
    "district_id": 330305,
    "value": "Toyareja",
    "postal_code": "53315"
  },
  {
    "id": 3303051013,
    "province_id": 33,
    "regency_id": 3303,
    "district_id": 330305,
    "value": "Wirasana",
    "postal_code": "53318"
  }
]