[
  {
    "id": 6110092010,
    "province_id": 61,
    "regency_id": 6110,
    "district_id": 611009,
    "value": "Bayur Raya",
    "postal_code": "79677"
  },
  {
    "id": 6110092005,
    "province_id": 61,
    "regency_id": 6110,
    "district_id": 611009,
    "value": "Bina Jaya",
    "postal_code": "79677"
  },
  {
    "id": 6110092004,
    "province_id": 61,
    "regency_id": 6110,
    "district_id": 611009,
    "value": "Landau Garong",
    "postal_code": "79677"
  },
  {
    "id": 6110092011,
    "province_id": 61,
    "regency_id": 6110,
    "district_id": 611009,
    "value": "Landau Tubun",
    "postal_code": "79677"
  },
  {
    "id": 6110092006,
    "province_id": 61,
    "regency_id": 6110,
    "district_id": 611009,
    "value": "Mandau Baru",
    "postal_code": "79677"
  },
  {
    "id": 6110092001,
    "province_id": 61,
    "regency_id": 6110,
    "district_id": 611009,
    "value": "Manggala",
    "postal_code": "79677"
  },
  {
    "id": 6110092012,
    "province_id": 61,
    "regency_id": 6110,
    "district_id": 611009,
    "value": "Nanga Kelawai",
    "postal_code": "79677"
  },
  {
    "id": 6110092003,
    "province_id": 61,
    "regency_id": 6110,
    "district_id": 611009,
    "value": "Nanga Pintas",
    "postal_code": "79677"
  },
  {
    "id": 6110092008,
    "province_id": 61,
    "regency_id": 6110,
    "district_id": 611009,
    "value": "Nyanggai",
    "postal_code": "79677"
  },
  {
    "id": 6110092007,
    "province_id": 61,
    "regency_id": 6110,
    "district_id": 611009,
    "value": "Pelinggang",
    "postal_code": "79677"
  },
  {
    "id": 6110092009,
    "province_id": 61,
    "regency_id": 6110,
    "district_id": 611009,
    "value": "Sei/Sungai Bakah",
    "postal_code": "79677"
  },
  {
    "id": 6110092002,
    "province_id": 61,
    "regency_id": 6110,
    "district_id": 611009,
    "value": "Senempak",
    "postal_code": "79677"
  }
]