[
  {
    "id": 3213052008,
    "province_id": 32,
    "regency_id": 3213,
    "district_id": 321305,
    "value": "Balebandung Jaya",
    "postal_code": "41262"
  },
  {
    "id": 3213052001,
    "province_id": 32,
    "regency_id": 3213,
    "district_id": 321305,
    "value": "Cihambulu",
    "postal_code": "41262"
  },
  {
    "id": 3213052007,
    "province_id": 32,
    "regency_id": 3213,
    "district_id": 321305,
    "value": "Kadawung",
    "postal_code": "41262"
  },
  {
    "id": 3213052005,
    "province_id": 32,
    "regency_id": 3213,
    "district_id": 321305,
    "value": "Karanghegar",
    "postal_code": "41262"
  },
  {
    "id": 3213052004,
    "province_id": 32,
    "regency_id": 3213,
    "district_id": 321305,
    "value": "Pabuaran",
    "postal_code": "41262"
  },
  {
    "id": 3213052003,
    "province_id": 32,
    "regency_id": 3213,
    "district_id": 321305,
    "value": "Pringkasap",
    "postal_code": "41262"
  },
  {
    "id": 3213052006,
    "province_id": 32,
    "regency_id": 3213,
    "district_id": 321305,
    "value": "Salamjaya",
    "postal_code": "41262"
  },
  {
    "id": 3213052002,
    "province_id": 32,
    "regency_id": 3213,
    "district_id": 321305,
    "value": "Siluman",
    "postal_code": "41262"
  }
]