[
  {
    "id": 717403,
    "province_id": 71,
    "regency_id": 7174,
    "district_id": 717403,
    "value": "Bungko",
    "postal_code": "95717"
  },
  {
    "id": 717403,
    "province_id": 71,
    "regency_id": 7174,
    "district_id": 717403,
    "value": "Kopandakan Satu (Kopandakan I)",
    "postal_code": "95717"
  },
  {
    "id": 717403,
    "province_id": 71,
    "regency_id": 7174,
    "district_id": 717403,
    "value": "Mongondow",
    "postal_code": "95717"
  },
  {
    "id": 717403,
    "province_id": 71,
    "regency_id": 7174,
    "district_id": 717403,
    "value": "Motoboi Kecil",
    "postal_code": "95717"
  },
  {
    "id": 717403,
    "province_id": 71,
    "regency_id": 7174,
    "district_id": 717403,
    "value": "Pombundayan (Pobundayan)",
    "postal_code": "95717"
  },
  {
    "id": 717403,
    "province_id": 71,
    "regency_id": 7174,
    "district_id": 717403,
    "value": "Poyowa Besar Dua (Poyowa Besar II)",
    "postal_code": "95717"
  },
  {
    "id": 717403,
    "province_id": 71,
    "regency_id": 7174,
    "district_id": 717403,
    "value": "Poyowa Besar Satu (Poyowa Besar I)",
    "postal_code": "95717"
  },
  {
    "id": 717403,
    "province_id": 71,
    "regency_id": 7174,
    "district_id": 717403,
    "value": "Poyowa Kecil",
    "postal_code": "95717"
  },
  {
    "id": 717403,
    "province_id": 71,
    "regency_id": 7174,
    "district_id": 717403,
    "value": "Tabang",
    "postal_code": "95717"
  }
]