[
  {
    "id": 910511,
    "province_id": 91,
    "regency_id": 9105,
    "district_id": 910511,
    "value": "Aibondeni",
    "postal_code": "98647"
  },
  {
    "id": 910511,
    "province_id": 91,
    "regency_id": 9105,
    "district_id": 910511,
    "value": "Awado",
    "postal_code": "98647"
  },
  {
    "id": 910511,
    "province_id": 91,
    "regency_id": 9105,
    "district_id": 910511,
    "value": "Dumani",
    "postal_code": "98647"
  },
  {
    "id": 910511,
    "province_id": 91,
    "regency_id": 9105,
    "district_id": 910511,
    "value": "Haihorei",
    "postal_code": "98647"
  },
  {
    "id": 910511,
    "province_id": 91,
    "regency_id": 9105,
    "district_id": 910511,
    "value": "Jaimaria",
    "postal_code": "98647"
  },
  {
    "id": 910511,
    "province_id": 91,
    "regency_id": 9105,
    "district_id": 910511,
    "value": "Kanaki",
    "postal_code": "98647"
  },
  {
    "id": 910511,
    "province_id": 91,
    "regency_id": 9105,
    "district_id": 910511,
    "value": "Karemoni",
    "postal_code": "98647"
  },
  {
    "id": 910511,
    "province_id": 91,
    "regency_id": 9105,
    "district_id": 910511,
    "value": "Rembai",
    "postal_code": "98647"
  },
  {
    "id": 910511,
    "province_id": 91,
    "regency_id": 9105,
    "district_id": 910511,
    "value": "Woinap",
    "postal_code": "98647"
  },
  {
    "id": 910511,
    "province_id": 91,
    "regency_id": 9105,
    "district_id": 910511,
    "value": "Wooi",
    "postal_code": "98647"
  }
]