[
  {
    "id": 331209,
    "province_id": 33,
    "regency_id": 3312,
    "district_id": 331209,
    "value": "Genukharjo",
    "postal_code": "57661"
  },
  {
    "id": 331209,
    "province_id": 33,
    "regency_id": 3312,
    "district_id": 331209,
    "value": "Gumiwang Lor (Gumiwanglor)",
    "postal_code": "57661"
  },
  {
    "id": 331209,
    "province_id": 33,
    "regency_id": 3312,
    "district_id": 331209,
    "value": "Mlopoharjo",
    "postal_code": "57661"
  },
  {
    "id": 331209,
    "province_id": 33,
    "regency_id": 3312,
    "district_id": 331209,
    "value": "Mojopuro (Mojopura)",
    "postal_code": "57661"
  },
  {
    "id": 331209,
    "province_id": 33,
    "regency_id": 3312,
    "district_id": 331209,
    "value": "Pulutan Kulon (Pulutankulon)",
    "postal_code": "57661"
  },
  {
    "id": 331209,
    "province_id": 33,
    "regency_id": 3312,
    "district_id": 331209,
    "value": "Pulutan Wetan (Pulutanwetan)",
    "postal_code": "57661"
  },
  {
    "id": 331209,
    "province_id": 33,
    "regency_id": 3312,
    "district_id": 331209,
    "value": "Sumberejo",
    "postal_code": "57661"
  },
  {
    "id": 331209,
    "province_id": 33,
    "regency_id": 3312,
    "district_id": 331209,
    "value": "Wuryantoro",
    "postal_code": "57661"
  }
]