[
  {
    "id": 110410,
    "province_id": 11,
    "regency_id": 1104,
    "district_id": 110410,
    "value": "Bah",
    "postal_code": "24566"
  },
  {
    "id": 110410,
    "province_id": 11,
    "regency_id": 1104,
    "district_id": 110410,
    "value": "Bergang",
    "postal_code": "24566"
  },
  {
    "id": 110410,
    "province_id": 11,
    "regency_id": 1104,
    "district_id": 110410,
    "value": "Bintang Pepara",
    "postal_code": "24566"
  },
  {
    "id": 110410,
    "province_id": 11,
    "regency_id": 1104,
    "district_id": 110410,
    "value": "Blang Mancung",
    "postal_code": "24566"
  },
  {
    "id": 110410,
    "province_id": 11,
    "regency_id": 1104,
    "district_id": 110410,
    "value": "Blang Mancung Bawah",
    "postal_code": "24566"
  },
  {
    "id": 110410,
    "province_id": 11,
    "regency_id": 1104,
    "district_id": 110410,
    "value": "Buge Ara",
    "postal_code": "24566"
  },
  {
    "id": 110410,
    "province_id": 11,
    "regency_id": 1104,
    "district_id": 110410,
    "value": "Burlah",
    "postal_code": "24566"
  },
  {
    "id": 110410,
    "province_id": 11,
    "regency_id": 1104,
    "district_id": 110410,
    "value": "Buter",
    "postal_code": "24566"
  },
  {
    "id": 110410,
    "province_id": 11,
    "regency_id": 1104,
    "district_id": 110410,
    "value": "Cang Duri",
    "postal_code": "24566"
  },
  {
    "id": 110410,
    "province_id": 11,
    "regency_id": 1104,
    "district_id": 110410,
    "value": "Genting Bulen",
    "postal_code": "24566"
  },
  {
    "id": 110410,
    "province_id": 11,
    "regency_id": 1104,
    "district_id": 110410,
    "value": "Geulumpang Payung (Gelumpang / Glumpang Payung)",
    "postal_code": "24566"
  },
  {
    "id": 110410,
    "province_id": 11,
    "regency_id": 1104,
    "district_id": 110410,
    "value": "Jalan Tengah",
    "postal_code": "24566"
  },
  {
    "id": 110410,
    "province_id": 11,
    "regency_id": 1104,
    "district_id": 110410,
    "value": "Jaluk",
    "postal_code": "24566"
  },
  {
    "id": 110410,
    "province_id": 11,
    "regency_id": 1104,
    "district_id": 110410,
    "value": "Jerata",
    "postal_code": "24566"
  },
  {
    "id": 110410,
    "province_id": 11,
    "regency_id": 1104,
    "district_id": 110410,
    "value": "Kala Ketol",
    "postal_code": "24566"
  },
  {
    "id": 110410,
    "province_id": 11,
    "regency_id": 1104,
    "district_id": 110410,
    "value": "Karang Ampar",
    "postal_code": "24566"
  },
  {
    "id": 110410,
    "province_id": 11,
    "regency_id": 1104,
    "district_id": 110410,
    "value": "Kekuyang",
    "postal_code": "24566"
  },
  {
    "id": 110410,
    "province_id": 11,
    "regency_id": 1104,
    "district_id": 110410,
    "value": "Kute Gelime",
    "postal_code": "24566"
  },
  {
    "id": 110410,
    "province_id": 11,
    "regency_id": 1104,
    "district_id": 110410,
    "value": "Pantan Penyo",
    "postal_code": "24566"
  },
  {
    "id": 110410,
    "province_id": 11,
    "regency_id": 1104,
    "district_id": 110410,
    "value": "Pantan Reduk",
    "postal_code": "24566"
  },
  {
    "id": 110410,
    "province_id": 11,
    "regency_id": 1104,
    "district_id": 110410,
    "value": "Pondok Balik",
    "postal_code": "24566"
  },
  {
    "id": 110410,
    "province_id": 11,
    "regency_id": 1104,
    "district_id": 110410,
    "value": "Rejewali",
    "postal_code": "24566"
  },
  {
    "id": 110410,
    "province_id": 11,
    "regency_id": 1104,
    "district_id": 110410,
    "value": "Selon",
    "postal_code": "24566"
  },
  {
    "id": 110410,
    "province_id": 11,
    "regency_id": 1104,
    "district_id": 110410,
    "value": "Serempah",
    "postal_code": "24566"
  },
  {
    "id": 110410,
    "province_id": 11,
    "regency_id": 1104,
    "district_id": 110410,
    "value": "Simpang Juli",
    "postal_code": "24566"
  }
]