[
  {
    "id": 360110,
    "province_id": 36,
    "regency_id": 3601,
    "district_id": 360110,
    "value": "Banyumas",
    "postal_code": "42274"
  },
  {
    "id": 360110,
    "province_id": 36,
    "regency_id": 3601,
    "district_id": 360110,
    "value": "Bojong",
    "postal_code": "42274"
  },
  {
    "id": 360110,
    "province_id": 36,
    "regency_id": 3601,
    "district_id": 360110,
    "value": "Cahayamekar",
    "postal_code": "42274"
  },
  {
    "id": 360110,
    "province_id": 36,
    "regency_id": 3601,
    "district_id": 360110,
    "value": "Cijakan",
    "postal_code": "42274"
  },
  {
    "id": 360110,
    "province_id": 36,
    "regency_id": 3601,
    "district_id": 360110,
    "value": "Citumenggung",
    "postal_code": "42274"
  },
  {
    "id": 360110,
    "province_id": 36,
    "regency_id": 3601,
    "district_id": 360110,
    "value": "Geredug",
    "postal_code": "42274"
  },
  {
    "id": 360110,
    "province_id": 36,
    "regency_id": 3601,
    "district_id": 360110,
    "value": "Manggungjaya",
    "postal_code": "42274"
  },
  {
    "id": 360110,
    "province_id": 36,
    "regency_id": 3601,
    "district_id": 360110,
    "value": "Mekarsari",
    "postal_code": "42274"
  }
]