[
  {
    "id": 720104,
    "province_id": 72,
    "regency_id": 7201,
    "district_id": 720104,
    "value": "Baru",
    "postal_code": "94711"
  },
  {
    "id": 720104,
    "province_id": 72,
    "regency_id": 7201,
    "district_id": 720104,
    "value": "Bungin",
    "postal_code": "94712"
  },
  {
    "id": 720104,
    "province_id": 72,
    "regency_id": 7201,
    "district_id": 720104,
    "value": "Bungin Timur",
    "postal_code": "94712"
  },
  {
    "id": 720104,
    "province_id": 72,
    "regency_id": 7201,
    "district_id": 720104,
    "value": "Kaleke (Keleke)",
    "postal_code": "94713"
  },
  {
    "id": 720104,
    "province_id": 72,
    "regency_id": 7201,
    "district_id": 720104,
    "value": "Karaton (Keraton)",
    "postal_code": "94711"
  },
  {
    "id": 720104,
    "province_id": 72,
    "regency_id": 7201,
    "district_id": 720104,
    "value": "Lumpoknyo",
    "postal_code": "94711"
  },
  {
    "id": 720104,
    "province_id": 72,
    "regency_id": 7201,
    "district_id": 720104,
    "value": "Luwuk",
    "postal_code": "94711"
  },
  {
    "id": 720104,
    "province_id": 72,
    "regency_id": 7201,
    "district_id": 720104,
    "value": "Mangkio Baru-Hanga Permai (Mangkio Baru)",
    "postal_code": "94711"
  },
  {
    "id": 720104,
    "province_id": 72,
    "regency_id": 7201,
    "district_id": 720104,
    "value": "Soho",
    "postal_code": "94713"
  },
  {
    "id": 720104,
    "province_id": 72,
    "regency_id": 7201,
    "district_id": 720104,
    "value": "Tontouan",
    "postal_code": "94711"
  }
]