[
  {
    "id": 321111,
    "province_id": 32,
    "regency_id": 3211,
    "district_id": 321111,
    "value": "Cijambu",
    "postal_code": "45362"
  },
  {
    "id": 321111,
    "province_id": 32,
    "regency_id": 3211,
    "district_id": 321111,
    "value": "Cinanjung",
    "postal_code": "45362"
  },
  {
    "id": 321111,
    "province_id": 32,
    "regency_id": 3211,
    "district_id": 321111,
    "value": "Gudang",
    "postal_code": "45362"
  },
  {
    "id": 321111,
    "province_id": 32,
    "regency_id": 3211,
    "district_id": 321111,
    "value": "Gunungmanik",
    "postal_code": "45362"
  },
  {
    "id": 321111,
    "province_id": 32,
    "regency_id": 3211,
    "district_id": 321111,
    "value": "Jatisari",
    "postal_code": "45362"
  },
  {
    "id": 321111,
    "province_id": 32,
    "regency_id": 3211,
    "district_id": 321111,
    "value": "Kadakajaya",
    "postal_code": "45362"
  },
  {
    "id": 321111,
    "province_id": 32,
    "regency_id": 3211,
    "district_id": 321111,
    "value": "Kutamandiri",
    "postal_code": "45362"
  },
  {
    "id": 321111,
    "province_id": 32,
    "regency_id": 3211,
    "district_id": 321111,
    "value": "Margajaya (Marga Jaya)",
    "postal_code": "45362"
  },
  {
    "id": 321111,
    "province_id": 32,
    "regency_id": 3211,
    "district_id": 321111,
    "value": "Margaluyu",
    "postal_code": "45362"
  },
  {
    "id": 321111,
    "province_id": 32,
    "regency_id": 3211,
    "district_id": 321111,
    "value": "Pasigaran",
    "postal_code": "45362"
  },
  {
    "id": 321111,
    "province_id": 32,
    "regency_id": 3211,
    "district_id": 321111,
    "value": "Raharja",
    "postal_code": "45362"
  },
  {
    "id": 321111,
    "province_id": 32,
    "regency_id": 3211,
    "district_id": 321111,
    "value": "Tanjungsari",
    "postal_code": "45362"
  }
]