[
  {
    "id": 620907,
    "province_id": 62,
    "regency_id": 6209,
    "district_id": 620907,
    "value": "Bayat",
    "postal_code": "74663"
  },
  {
    "id": 620907,
    "province_id": 62,
    "regency_id": 6209,
    "district_id": 620907,
    "value": "Belibi (Balibi)",
    "postal_code": "74663"
  },
  {
    "id": 620907,
    "province_id": 62,
    "regency_id": 6209,
    "district_id": 620907,
    "value": "Benuatan",
    "postal_code": "74663"
  },
  {
    "id": 620907,
    "province_id": 62,
    "regency_id": 6209,
    "district_id": 620907,
    "value": "Bintang Mangalih (Bintang Mengalih)",
    "postal_code": "74663"
  },
  {
    "id": 620907,
    "province_id": 62,
    "regency_id": 6209,
    "district_id": 620907,
    "value": "Kahingai",
    "postal_code": "74663"
  },
  {
    "id": 620907,
    "province_id": 62,
    "regency_id": 6209,
    "district_id": 620907,
    "value": "Karang Besi",
    "postal_code": "74663"
  },
  {
    "id": 620907,
    "province_id": 62,
    "regency_id": 6209,
    "district_id": 620907,
    "value": "Nanga Belantikan",
    "postal_code": "74663"
  },
  {
    "id": 620907,
    "province_id": 62,
    "regency_id": 6209,
    "district_id": 620907,
    "value": "Nanga Matu",
    "postal_code": "74663"
  },
  {
    "id": 620907,
    "province_id": 62,
    "regency_id": 6209,
    "district_id": 620907,
    "value": "Petarikan",
    "postal_code": "74663"
  },
  {
    "id": 620907,
    "province_id": 62,
    "regency_id": 6209,
    "district_id": 620907,
    "value": "Sei/Sungai Buluh",
    "postal_code": "74663"
  },
  {
    "id": 620907,
    "province_id": 62,
    "regency_id": 6209,
    "district_id": 620907,
    "value": "Sumber Cahaya",
    "postal_code": "74663"
  },
  {
    "id": 620907,
    "province_id": 62,
    "regency_id": 6209,
    "district_id": 620907,
    "value": "Tangga Batu",
    "postal_code": "74663"
  }
]