[
  {
    "id": 711003,
    "province_id": 71,
    "regency_id": 7110,
    "district_id": 711003,
    "value": "Bai",
    "postal_code": "95786"
  },
  {
    "id": 711003,
    "province_id": 71,
    "regency_id": 7110,
    "district_id": 711003,
    "value": "Idumun",
    "postal_code": "95786"
  },
  {
    "id": 711003,
    "province_id": 71,
    "regency_id": 7110,
    "district_id": 711003,
    "value": "Iyok",
    "postal_code": "95786"
  },
  {
    "id": 711003,
    "province_id": 71,
    "regency_id": 7110,
    "district_id": 711003,
    "value": "Jiko Belanga",
    "postal_code": "95786"
  },
  {
    "id": 711003,
    "province_id": 71,
    "regency_id": 7110,
    "district_id": 711003,
    "value": "Loyow",
    "postal_code": "95786"
  },
  {
    "id": 711003,
    "province_id": 71,
    "regency_id": 7110,
    "district_id": 711003,
    "value": "Matabulu",
    "postal_code": "95786"
  },
  {
    "id": 711003,
    "province_id": 71,
    "regency_id": 7110,
    "district_id": 711003,
    "value": "Matabulu Timur",
    "postal_code": "95786"
  },
  {
    "id": 711003,
    "province_id": 71,
    "regency_id": 7110,
    "district_id": 711003,
    "value": "Nuangan",
    "postal_code": "95786"
  },
  {
    "id": 711003,
    "province_id": 71,
    "regency_id": 7110,
    "district_id": 711003,
    "value": "Nuangan Barat",
    "postal_code": "95786"
  },
  {
    "id": 711003,
    "province_id": 71,
    "regency_id": 7110,
    "district_id": 711003,
    "value": "Nuangan I",
    "postal_code": "95786"
  },
  {
    "id": 711003,
    "province_id": 71,
    "regency_id": 7110,
    "district_id": 711003,
    "value": "Nuangan Selatan",
    "postal_code": "95786"
  }
]