[
  {
    "id": 140408,
    "province_id": 14,
    "regency_id": 1404,
    "district_id": 140408,
    "value": "Air Tawar",
    "postal_code": "29255"
  },
  {
    "id": 140408,
    "province_id": 14,
    "regency_id": 1404,
    "district_id": 140408,
    "value": "Amal Bakti",
    "postal_code": "29255"
  },
  {
    "id": 140408,
    "province_id": 14,
    "regency_id": 1404,
    "district_id": 140408,
    "value": "Bandar Sri Gemilang",
    "postal_code": "29255"
  },
  {
    "id": 140408,
    "province_id": 14,
    "regency_id": 1404,
    "district_id": 140408,
    "value": "Kuala Selat",
    "postal_code": "29255"
  },
  {
    "id": 140408,
    "province_id": 14,
    "regency_id": 1404,
    "district_id": 140408,
    "value": "Makmur Jaya",
    "postal_code": "29255"
  },
  {
    "id": 140408,
    "province_id": 14,
    "regency_id": 1404,
    "district_id": 140408,
    "value": "Penjuru",
    "postal_code": "29255"
  },
  {
    "id": 140408,
    "province_id": 14,
    "regency_id": 1404,
    "district_id": 140408,
    "value": "Sari Mulia/Mulya",
    "postal_code": "29255"
  },
  {
    "id": 140408,
    "province_id": 14,
    "regency_id": 1404,
    "district_id": 140408,
    "value": "Sungaisimbar (Sungai Simbar)",
    "postal_code": "29255"
  },
  {
    "id": 140408,
    "province_id": 14,
    "regency_id": 1404,
    "district_id": 140408,
    "value": "Sungaiteritip (Sungai Teritip)",
    "postal_code": "29255"
  },
  {
    "id": 140408,
    "province_id": 14,
    "regency_id": 1404,
    "district_id": 140408,
    "value": "Tagaraja (Tegaraja)",
    "postal_code": "29255"
  },
  {
    "id": 140408,
    "province_id": 14,
    "regency_id": 1404,
    "district_id": 140408,
    "value": "Tanjungraja (Tanjung Raja)",
    "postal_code": "29255"
  }
]