[
  {
    "id": 180529,
    "province_id": 18,
    "regency_id": 1805,
    "district_id": 180529,
    "value": "Balai Murni Jaya",
    "postal_code": "34685"
  },
  {
    "id": 180529,
    "province_id": 18,
    "regency_id": 1805,
    "district_id": 180529,
    "value": "Bawang Sakti Jaya",
    "postal_code": "34685"
  },
  {
    "id": 180529,
    "province_id": 18,
    "regency_id": 1805,
    "district_id": 180529,
    "value": "Bawang Tirto Mulyo",
    "postal_code": "34685"
  },
  {
    "id": 180529,
    "province_id": 18,
    "regency_id": 1805,
    "district_id": 180529,
    "value": "Jaya Makmur",
    "postal_code": "34685"
  },
  {
    "id": 180529,
    "province_id": 18,
    "regency_id": 1805,
    "district_id": 180529,
    "value": "Kahuripan Jaya",
    "postal_code": "34685"
  },
  {
    "id": 180529,
    "province_id": 18,
    "regency_id": 1805,
    "district_id": 180529,
    "value": "Karya Murni Jaya",
    "postal_code": "34685"
  },
  {
    "id": 180529,
    "province_id": 18,
    "regency_id": 1805,
    "district_id": 180529,
    "value": "Mekar Indah Jaya",
    "postal_code": "34685"
  },
  {
    "id": 180529,
    "province_id": 18,
    "regency_id": 1805,
    "district_id": 180529,
    "value": "Mekar Jaya",
    "postal_code": "34685"
  },
  {
    "id": 180529,
    "province_id": 18,
    "regency_id": 1805,
    "district_id": 180529,
    "value": "Panca Karsa Purna Jaya",
    "postal_code": "34685"
  },
  {
    "id": 180529,
    "province_id": 18,
    "regency_id": 1805,
    "district_id": 180529,
    "value": "Panca Mulia (Panca Mulya)",
    "postal_code": "34685"
  }
]