[
  {
    "id": 320109,
    "province_id": 32,
    "regency_id": 3201,
    "district_id": 320109,
    "value": "Cibadak",
    "postal_code": "16831"
  },
  {
    "id": 320109,
    "province_id": 32,
    "regency_id": 3201,
    "district_id": 320109,
    "value": "Pabuaran",
    "postal_code": "16831"
  },
  {
    "id": 320109,
    "province_id": 32,
    "regency_id": 3201,
    "district_id": 320109,
    "value": "Sirnajaya",
    "postal_code": "16831"
  },
  {
    "id": 320109,
    "province_id": 32,
    "regency_id": 3201,
    "district_id": 320109,
    "value": "Sukadamai",
    "postal_code": "16831"
  },
  {
    "id": 320109,
    "province_id": 32,
    "regency_id": 3201,
    "district_id": 320109,
    "value": "Sukaharja",
    "postal_code": "16831"
  },
  {
    "id": 320109,
    "province_id": 32,
    "regency_id": 3201,
    "district_id": 320109,
    "value": "Sukamakmur",
    "postal_code": "16831"
  },
  {
    "id": 320109,
    "province_id": 32,
    "regency_id": 3201,
    "district_id": 320109,
    "value": "Sukamulya",
    "postal_code": "16831"
  },
  {
    "id": 320109,
    "province_id": 32,
    "regency_id": 3201,
    "district_id": 320109,
    "value": "Sukaresmi",
    "postal_code": "16831"
  },
  {
    "id": 320109,
    "province_id": 32,
    "regency_id": 3201,
    "district_id": 320109,
    "value": "Sukawangi",
    "postal_code": "16831"
  },
  {
    "id": 320109,
    "province_id": 32,
    "regency_id": 3201,
    "district_id": 320109,
    "value": "Wargajaya",
    "postal_code": "16831"
  }
]