[
  {
    "id": 5202052002,
    "province_id": 52,
    "regency_id": 5202,
    "district_id": 520205,
    "value": "Banyu Urip",
    "postal_code": "83572"
  },
  {
    "id": 5202052009,
    "province_id": 52,
    "regency_id": 5202,
    "district_id": 520205,
    "value": "Batujai",
    "postal_code": "83572"
  },
  {
    "id": 5202052001,
    "province_id": 52,
    "regency_id": 5202,
    "district_id": 520205,
    "value": "Bonder",
    "postal_code": "83572"
  },
  {
    "id": 5202052004,
    "province_id": 52,
    "regency_id": 5202,
    "district_id": 520205,
    "value": "Kateng",
    "postal_code": "83572"
  },
  {
    "id": 5202052003,
    "province_id": 52,
    "regency_id": 5202,
    "district_id": 520205,
    "value": "Mangkung",
    "postal_code": "83572"
  },
  {
    "id": 5202052008,
    "province_id": 52,
    "regency_id": 5202,
    "district_id": 520205,
    "value": "Mekar Sari",
    "postal_code": "83572"
  },
  {
    "id": 5202052006,
    "province_id": 52,
    "regency_id": 5202,
    "district_id": 520205,
    "value": "Penujak",
    "postal_code": "83572"
  },
  {
    "id": 5202052007,
    "province_id": 52,
    "regency_id": 5202,
    "district_id": 520205,
    "value": "Selong Belanak (Selong Blanak)",
    "postal_code": "83572"
  },
  {
    "id": 5202052005,
    "province_id": 52,
    "regency_id": 5202,
    "district_id": 520205,
    "value": "Setanggor",
    "postal_code": "83572"
  },
  {
    "id": 5202052010,
    "province_id": 52,
    "regency_id": 5202,
    "district_id": 520205,
    "value": "Tanak Rarang",
    "postal_code": "83572"
  }
]