[
  {
    "id": 320535,
    "province_id": 32,
    "regency_id": 3205,
    "district_id": 320535,
    "value": "Cikarang",
    "postal_code": "44169"
  },
  {
    "id": 320535,
    "province_id": 32,
    "regency_id": 3205,
    "district_id": 320535,
    "value": "Cisewu",
    "postal_code": "44169"
  },
  {
    "id": 320535,
    "province_id": 32,
    "regency_id": 3205,
    "district_id": 320535,
    "value": "Girimukti",
    "postal_code": "44169"
  },
  {
    "id": 320535,
    "province_id": 32,
    "regency_id": 3205,
    "district_id": 320535,
    "value": "Karangsewu",
    "postal_code": "44169"
  },
  {
    "id": 320535,
    "province_id": 32,
    "regency_id": 3205,
    "district_id": 320535,
    "value": "Mekarsewu",
    "postal_code": "44169"
  },
  {
    "id": 320535,
    "province_id": 32,
    "regency_id": 3205,
    "district_id": 320535,
    "value": "Nyalindung",
    "postal_code": "44169"
  },
  {
    "id": 320535,
    "province_id": 32,
    "regency_id": 3205,
    "district_id": 320535,
    "value": "Pamalayan",
    "postal_code": "44169"
  },
  {
    "id": 320535,
    "province_id": 32,
    "regency_id": 3205,
    "district_id": 320535,
    "value": "Panggalih",
    "postal_code": "44169"
  },
  {
    "id": 320535,
    "province_id": 32,
    "regency_id": 3205,
    "district_id": 320535,
    "value": "Sukajaya",
    "postal_code": "44169"
  }
]