[
  {
    "id": 350510,
    "province_id": 35,
    "regency_id": 3505,
    "district_id": 350510,
    "value": "Banggle",
    "postal_code": "66171"
  },
  {
    "id": 350510,
    "province_id": 35,
    "regency_id": 3505,
    "district_id": 350510,
    "value": "Gaprang",
    "postal_code": "66171"
  },
  {
    "id": 350510,
    "province_id": 35,
    "regency_id": 3505,
    "district_id": 350510,
    "value": "Gogodeso",
    "postal_code": "66171"
  },
  {
    "id": 350510,
    "province_id": 35,
    "regency_id": 3505,
    "district_id": 350510,
    "value": "Jatinom",
    "postal_code": "66171"
  },
  {
    "id": 350510,
    "province_id": 35,
    "regency_id": 3505,
    "district_id": 350510,
    "value": "Kanigoro",
    "postal_code": "66171"
  },
  {
    "id": 350510,
    "province_id": 35,
    "regency_id": 3505,
    "district_id": 350510,
    "value": "Karangsono",
    "postal_code": "66171"
  },
  {
    "id": 350510,
    "province_id": 35,
    "regency_id": 3505,
    "district_id": 350510,
    "value": "Kuningan",
    "postal_code": "66171"
  },
  {
    "id": 350510,
    "province_id": 35,
    "regency_id": 3505,
    "district_id": 350510,
    "value": "Minggirsari",
    "postal_code": "66171"
  },
  {
    "id": 350510,
    "province_id": 35,
    "regency_id": 3505,
    "district_id": 350510,
    "value": "Papungan",
    "postal_code": "66171"
  },
  {
    "id": 350510,
    "province_id": 35,
    "regency_id": 3505,
    "district_id": 350510,
    "value": "Satreyan",
    "postal_code": "66171"
  },
  {
    "id": 350510,
    "province_id": 35,
    "regency_id": 3505,
    "district_id": 350510,
    "value": "Sawentar",
    "postal_code": "66171"
  },
  {
    "id": 350510,
    "province_id": 35,
    "regency_id": 3505,
    "district_id": 350510,
    "value": "Tlogo",
    "postal_code": "66171"
  }
]