[
  {
    "id": 6303092007,
    "province_id": 63,
    "regency_id": 6303,
    "district_id": 630309,
    "value": "Alimukim",
    "postal_code": "70674"
  },
  {
    "id": 6303092009,
    "province_id": 63,
    "regency_id": 6303,
    "district_id": 630309,
    "value": "Antaraku",
    "postal_code": "70674"
  },
  {
    "id": 6303092006,
    "province_id": 63,
    "regency_id": 6303,
    "district_id": 630309,
    "value": "Ati'im (Ati Im)",
    "postal_code": "70674"
  },
  {
    "id": 6303092005,
    "province_id": 63,
    "regency_id": 6303,
    "district_id": 630309,
    "value": "Benteng",
    "postal_code": "70674"
  },
  {
    "id": 6303092015,
    "province_id": 63,
    "regency_id": 6303,
    "district_id": 630309,
    "value": "Kertak Empat",
    "postal_code": "70674"
  },
  {
    "id": 6303092003,
    "province_id": 63,
    "regency_id": 6303,
    "district_id": 630309,
    "value": "Lobang Baru",
    "postal_code": "70674"
  },
  {
    "id": 6303092002,
    "province_id": 63,
    "regency_id": 6303,
    "district_id": 630309,
    "value": "Lok Tunggul (Loktunggul)",
    "postal_code": "70674"
  },
  {
    "id": 6303092018,
    "province_id": 63,
    "regency_id": 6303,
    "district_id": 630309,
    "value": "Lumpangi",
    "postal_code": "70674"
  },
  {
    "id": 6303092010,
    "province_id": 63,
    "regency_id": 6303,
    "district_id": 630309,
    "value": "Mangkauk",
    "postal_code": "70674"
  },
  {
    "id": 6303092001,
    "province_id": 63,
    "regency_id": 6303,
    "district_id": 630309,
    "value": "Maniapun",
    "postal_code": "70674"
  },
  {
    "id": 6303092004,
    "province_id": 63,
    "regency_id": 6303,
    "district_id": 630309,
    "value": "Pengaron",
    "postal_code": "70674"
  },
  {
    "id": 6303092008,
    "province_id": 63,
    "regency_id": 6303,
    "district_id": 630309,
    "value": "Penyiuran (Panyiuran)",
    "postal_code": "70674"
  }
]