[
  {
    "id": 720509,
    "province_id": 72,
    "regency_id": 7205,
    "district_id": 720509,
    "value": "Bulagidun",
    "postal_code": "94568"
  },
  {
    "id": 720509,
    "province_id": 72,
    "regency_id": 7205,
    "district_id": 720509,
    "value": "Bulogidon Tanjung (Bulagidun Tanjung)",
    "postal_code": "94568"
  },
  {
    "id": 720509,
    "province_id": 72,
    "regency_id": 7205,
    "district_id": 720509,
    "value": "Diapati (Diapatih)",
    "postal_code": "94568"
  },
  {
    "id": 720509,
    "province_id": 72,
    "regency_id": 7205,
    "district_id": 720509,
    "value": "Labuton",
    "postal_code": "94568"
  },
  {
    "id": 720509,
    "province_id": 72,
    "regency_id": 7205,
    "district_id": 720509,
    "value": "Lipubogu",
    "postal_code": "94568"
  },
  {
    "id": 720509,
    "province_id": 72,
    "regency_id": 7205,
    "district_id": 720509,
    "value": "Lokodidi",
    "postal_code": "94568"
  },
  {
    "id": 720509,
    "province_id": 72,
    "regency_id": 7205,
    "district_id": 720509,
    "value": "Lokodoka",
    "postal_code": "94568"
  },
  {
    "id": 720509,
    "province_id": 72,
    "regency_id": 7205,
    "district_id": 720509,
    "value": "Matinan",
    "postal_code": "94568"
  },
  {
    "id": 720509,
    "province_id": 72,
    "regency_id": 7205,
    "district_id": 720509,
    "value": "Nandu",
    "postal_code": "94568"
  },
  {
    "id": 720509,
    "province_id": 72,
    "regency_id": 7205,
    "district_id": 720509,
    "value": "Pandangan",
    "postal_code": "94568"
  },
  {
    "id": 720509,
    "province_id": 72,
    "regency_id": 7205,
    "district_id": 720509,
    "value": "Taat",
    "postal_code": "94568"
  }
]